<?xml version="1.0" encoding="UTF-8"?><osm version="0.6" generator="github.com/aaronlidman/osm-and-geojson"><node id="-1" lat="30.437166" lon="-97.793346" changeset="false"><tag k="addr:street" v="Spring Lake Drive"/><tag k="addr:housenumber" v="8913"/><tag k="addr:postcode" v="78750"/></node><node id="-2" lat="30.439926" lon="-97.793147" changeset="false"><tag k="addr:street" v="Mountain Lake Circle"/><tag k="addr:housenumber" v="9016"/><tag k="addr:postcode" v="78750"/></node><node id="-3" lat="30.44054" lon="-97.798563" changeset="false"><tag k="addr:street" v="Balcones Way"/><tag k="addr:housenumber" v="11801"/><tag k="addr:postcode" v="78750"/></node><node id="-4" lat="30.437485" lon="-97.795125" changeset="false"><tag k="addr:street" v="Spring Hollow Drive"/><tag k="addr:housenumber" v="9441"/><tag k="addr:postcode" v="78750"/></node><node id="-5" lat="30.439335" lon="-97.797998" changeset="false"><tag k="addr:street" v="Spring Hollow Drive"/><tag k="addr:housenumber" v="9418"/><tag k="addr:postcode" v="78750"/></node><node id="-6" lat="30.441233" lon="-97.794687" changeset="false"><tag k="addr:street" v="Spring Hollow Drive"/><tag k="addr:housenumber" v="9203"/><tag k="addr:postcode" v="78750"/></node><node id="-7" lat="30.437792" lon="-97.790791" changeset="false"><tag k="addr:street" v="Fairway Hill Drive"/><tag k="addr:housenumber" v="9001"/><tag k="addr:postcode" v="78750"/></node><node id="-8" lat="30.435735" lon="-97.789557" changeset="false"><tag k="addr:street" v="Champion Drive"/><tag k="addr:housenumber" v="11504"/><tag k="addr:postcode" v="78750"/></node><node id="-9" lat="30.440647" lon="-97.792753" changeset="false"><tag k="addr:street" v="Balcones Club Drive"/><tag k="addr:housenumber" v="9015"/><tag k="addr:postcode" v="78750"/></node><node id="-10" lat="30.437813" lon="-97.787546" changeset="false"><tag k="addr:street" v="Balcones Club Drive"/><tag k="addr:housenumber" v="8811"/><tag k="addr:postcode" v="78750"/></node><node id="-11" lat="30.438877" lon="-97.792402" changeset="false"><tag k="addr:street" v="Mountain Lake Circle"/><tag k="addr:housenumber" v="9006"/><tag k="addr:postcode" v="78750"/></node><node id="-12" lat="30.437194" lon="-97.781843" changeset="false"><tag k="addr:street" v="Balcones Club Drive"/><tag k="addr:housenumber" v="8600"/><tag k="addr:postcode" v="78750"/></node><node id="-13" lat="30.439712" lon="-97.79021" changeset="false"><tag k="addr:street" v="Brookwood Road"/><tag k="addr:housenumber" v="11707"/><tag k="addr:postcode" v="78750"/></node><node id="-14" lat="30.437052" lon="-97.792341" changeset="false"><tag k="addr:street" v="Jolly Hollow Drive"/><tag k="addr:housenumber" v="8904"/><tag k="addr:postcode" v="78750"/></node><node id="-15" lat="30.442737" lon="-97.792844" changeset="false"><tag k="addr:street" v="Balcones Club Drive"/><tag k="addr:housenumber" v="9030"/><tag k="addr:postcode" v="78750"/></node><node id="-16" lat="30.437327" lon="-97.793666" changeset="false"><tag k="addr:street" v="Spring Lake Drive"/><tag k="addr:housenumber" v="9001"/><tag k="addr:postcode" v="78750"/></node><node id="-17" lat="30.435169" lon="-97.788618" changeset="false"><tag k="addr:street" v="Champion Drive"/><tag k="addr:housenumber" v="11510"/><tag k="addr:postcode" v="78750"/></node><node id="-18" lat="30.440509" lon="-97.796729" changeset="false"><tag k="addr:street" v="Cedar Forest Drive"/><tag k="addr:housenumber" v="9300"/><tag k="addr:postcode" v="78750"/></node><node id="-19" lat="30.436997" lon="-97.786588" changeset="false"><tag k="addr:street" v="Crest Ridge Circle"/><tag k="addr:housenumber" v="8812"/><tag k="addr:postcode" v="78750"/></node><node id="-20" lat="30.439198" lon="-97.798442" changeset="false"><tag k="addr:street" v="Spicewood Parkway"/><tag k="addr:housenumber" v="11305"/><tag k="addr:postcode" v="78750"/></node><node id="-21" lat="30.437765" lon="-97.795948" changeset="false"><tag k="addr:street" v="Spring Hollow Drive"/><tag k="addr:housenumber" v="9433"/><tag k="addr:postcode" v="78750"/></node><node id="-22" lat="30.443302" lon="-97.788776" changeset="false"><tag k="addr:street" v="Balcones Club Drive"/><tag k="addr:housenumber" v="9200 1/2"/><tag k="addr:postcode" v="78750"/></node><node id="-23" lat="30.441203" lon="-97.798323" changeset="false"><tag k="addr:street" v="Balcones Way"/><tag k="addr:housenumber" v="11805"/><tag k="addr:postcode" v="78750"/></node></osm>