<?xml version="1.0" encoding="UTF-8"?><osm version="0.6" generator="github.com/aaronlidman/osm-and-geojson"><node id="-1" lat="30.233536" lon="-97.758293" changeset="false"><tag k="addr:street" v="South Congress Avenue"/><tag k="addr:housenumber" v="2900"/><tag k="coa:place_id" v="839451"/></node><node id="-2" lat="30.234303" lon="-97.75879" changeset="false"><tag k="addr:street" v="Hardeman Street"/><tag k="addr:housenumber" v="2811"/><tag k="coa:place_id" v="155267"/></node><node id="-3" lat="30.232063" lon="-97.758882" changeset="false"><tag k="addr:street" v="South Congress Avenue"/><tag k="addr:housenumber" v="3012"/><tag k="coa:place_id" v="254902"/></node><node id="-4" lat="30.236314" lon="-97.762527" changeset="false"><tag k="addr:street" v="El Paso Street"/><tag k="addr:housenumber" v="515"/><tag k="coa:place_id" v="300482"/></node><node id="-5" lat="30.236861" lon="-97.75922" changeset="false"><tag k="addr:street" v="Wilson Street"/><tag k="addr:housenumber" v="2701"/><tag k="coa:place_id" v="252706"/></node><node id="-6" lat="30.236189" lon="-97.762445" changeset="false"><tag k="addr:street" v="El Paso Street"/><tag k="addr:housenumber" v="513"/><tag k="coa:place_id" v="3260370"/></node><node id="-7" lat="30.236248" lon="-97.758397" changeset="false"><tag k="addr:street" v="Cumberland Road"/><tag k="addr:housenumber" v="205"/><tag k="coa:place_id" v="369914"/></node><node id="-8" lat="30.235608" lon="-97.761183" changeset="false"><tag k="addr:street" v="El Paso Street"/><tag k="addr:housenumber" v="407"/><tag k="coa:place_id" v="300536"/></node><node id="-9" lat="30.236131" lon="-97.76229" changeset="false"><tag k="addr:street" v="El Paso Street"/><tag k="addr:housenumber" v="511"/><tag k="coa:place_id" v="300488"/></node><node id="-10" lat="30.235162" lon="-97.763842" changeset="false"><tag k="addr:street" v="South 1st Street"/><tag k="addr:housenumber" v="3001"/><tag k="coa:place_id" v="543196"/></node><node id="-11" lat="30.234048" lon="-97.759945" changeset="false"><tag k="addr:street" v="Brinwood Avenue"/><tag k="addr:housenumber" v="2903"/><tag k="coa:place_id" v="302552"/></node><node id="-12" lat="30.233791" lon="-97.758091" changeset="false"><tag k="addr:street" v="South Congress Avenue"/><tag k="addr:housenumber" v="2824"/><tag k="coa:place_id" v="225727"/></node><node id="-13" lat="30.235867" lon="-97.758626" changeset="false"><tag k="addr:street" v="Ben Howell Drive"/><tag k="addr:housenumber" v="204"/><tag k="coa:place_id" v="369830"/></node><node id="-14" lat="30.234658" lon="-97.758927" changeset="false"><tag k="addr:street" v="El Paso Street"/><tag k="addr:housenumber" v="201"/><tag k="coa:place_id" v="180847"/></node><node id="-15" lat="30.237018" lon="-97.760445" changeset="false"><tag k="addr:street" v="La Mesa Drive"/><tag k="addr:housenumber" v="2701"/><tag k="coa:place_id" v="300608"/></node><node id="-16" lat="30.238064" lon="-97.762009" changeset="false"><tag k="addr:street" v="South 1st Street"/><tag k="addr:housenumber" v="2701"/><tag k="coa:place_id" v="146809"/></node><node id="-17" lat="30.235589" lon="-97.756656" changeset="false"><tag k="addr:street" v="South Congress Avenue"/><tag k="addr:housenumber" v="2700"/><tag k="coa:place_id" v="753152"/></node><node id="-18" lat="30.235774" lon="-97.763419" changeset="false"><tag k="addr:street" v="South 1st Street"/><tag k="addr:housenumber" v="2911"/><tag k="coa:place_id" v="753056"/></node><node id="-19" lat="30.236648" lon="-97.760648" changeset="false"><tag k="addr:street" v="La Mesa Drive"/><tag k="addr:housenumber" v="2707"/><tag k="coa:place_id" v="300596"/></node><node id="-20" lat="30.236387" lon="-97.758655" changeset="false"><tag k="addr:street" v="Cumberland Road"/><tag k="addr:housenumber" v="211"/><tag k="coa:place_id" v="3429540"/></node><node id="-21" lat="30.236442" lon="-97.758778" changeset="false"><tag k="addr:street" v="Cumberland Road"/><tag k="addr:housenumber" v="301"/><tag k="coa:place_id" v="369908"/></node><node id="-22" lat="30.235953" lon="-97.758781" changeset="false"><tag k="addr:street" v="Ben Howell Drive"/><tag k="addr:housenumber" v="206"/><tag k="coa:place_id" v="369836"/></node><node id="-23" lat="30.23599" lon="-97.758861" changeset="false"><tag k="addr:street" v="Ben Howell Drive"/><tag k="addr:housenumber" v="208"/><tag k="coa:place_id" v="3037847"/></node><node id="-24" lat="30.236665" lon="-97.76248" changeset="false"><tag k="addr:street" v="El Paso Street"/><tag k="addr:housenumber" v="514"/><tag k="coa:place_id" v="300842"/></node><node id="-25" lat="30.236726" lon="-97.762628" changeset="false"><tag k="addr:street" v="El Paso Street"/><tag k="addr:housenumber" v="516"/><tag k="coa:place_id" v="300848"/></node><node id="-26" lat="30.235042" lon="-97.757113" changeset="false"><tag k="addr:street" v="South Congress Avenue"/><tag k="addr:housenumber" v="2718"/><tag k="coa:place_id" v="244224"/></node><node id="-27" lat="30.235088" lon="-97.757086" changeset="false"><tag k="addr:street" v="South Congress Avenue"/><tag k="addr:housenumber" v="2716"/><tag k="coa:place_id" v="302228"/></node><node id="-28" lat="30.232515" lon="-97.758938" changeset="false"><tag k="addr:street" v="South Congress Avenue"/><tag k="addr:housenumber" v="3000"/><tag k="coa:place_id" v="302882"/></node><node id="-29" lat="30.23248" lon="-97.758973" changeset="false"><tag k="addr:street" v="South Congress Avenue"/><tag k="addr:housenumber" v="3002"/><tag k="coa:place_id" v="3257688"/></node><node id="-30" lat="30.232442" lon="-97.759003" changeset="false"><tag k="addr:street" v="South Congress Avenue"/><tag k="addr:housenumber" v="3004"/><tag k="coa:place_id" v="302888"/></node><node id="-31" lat="30.235145" lon="-97.760994" changeset="false"><tag k="addr:street" v="Wilson Street"/><tag k="addr:housenumber" v="2804"/><tag k="coa:place_id" v="3280411"/></node><node id="-32" lat="30.235045" lon="-97.761241" changeset="false"><tag k="addr:street" v="Sacramento Drive"/><tag k="addr:housenumber" v="500"/><tag k="coa:place_id" v="300398"/></node></osm>