<?xml version="1.0" encoding="UTF-8"?><osm version="0.6" generator="github.com/aaronlidman/osm-and-geojson"><node id="-1" lat="30.253727" lon="-97.925039" changeset="false"><tag k="addr:street" v="Superview Drive"/><tag k="addr:housenumber" v="10500"/><tag k="addr:postcode" v="78736"/></node><node id="-2" lat="30.253504" lon="-97.925016" changeset="false"><tag k="addr:street" v="Superview Drive"/><tag k="addr:housenumber" v="10501"/><tag k="addr:postcode" v="78736"/></node><node id="-3" lat="30.254578" lon="-97.924806" changeset="false"><tag k="addr:street" v="Thomaswood Lane"/><tag k="addr:housenumber" v="10509"/><tag k="addr:postcode" v="78736"/></node><node id="-4" lat="30.255565" lon="-97.928126" changeset="false"><tag k="addr:street" v="Indian Scout Trail"/><tag k="addr:housenumber" v="10712"/><tag k="addr:postcode" v="78736"/></node><node id="-5" lat="30.248943" lon="-97.931814" changeset="false"><tag k="addr:street" v="Rawhide Trail"/><tag k="addr:housenumber" v="10225"/><tag k="addr:postcode" v="78736"/></node><node id="-6" lat="30.248099" lon="-97.927756" changeset="false"><tag k="addr:street" v="Lenape Trail"/><tag k="addr:housenumber" v="7805"/><tag k="addr:postcode" v="78736"/></node><node id="-7" lat="30.24707" lon="-97.92877" changeset="false"><tag k="addr:street" v="Lenape Trail"/><tag k="addr:housenumber" v="8004"/><tag k="addr:postcode" v="78736"/></node><node id="-8" lat="30.227351" lon="-97.946653" changeset="false"><tag k="addr:street" v="Baxter Lane"/><tag k="addr:housenumber" v="10110"/><tag k="addr:postcode" v="78736"/></node><node id="-9" lat="30.22724" lon="-97.962314" changeset="false"><tag k="addr:street" v="Fitzhugh Road"/><tag k="addr:housenumber" v="11104"/><tag k="addr:postcode" v="78736"/></node><node id="-10" lat="30.26087" lon="-97.911916" changeset="false"><tag k="addr:street" v="Blue Hill Drive"/><tag k="addr:housenumber" v="9610"/><tag k="addr:postcode" v="78736"/></node><node id="-11" lat="30.220212" lon="-97.981844" changeset="false"><tag k="addr:street" v="Oak Branch Drive"/><tag k="addr:housenumber" v="11900"/><tag k="addr:postcode" v="78737"/></node><node id="-12" lat="30.237746" lon="-97.925051" changeset="false"><tag k="addr:street" v="Rimstone Trail"/><tag k="addr:housenumber" v="9909"/><tag k="addr:postcode" v="78736"/></node><node id="-13" lat="30.232713" lon="-97.930047" changeset="false"><tag k="addr:street" v="Vikki Terrace"/><tag k="addr:housenumber" v="9908"/><tag k="addr:postcode" v="78736"/></node><node id="-14" lat="30.254003" lon="-97.923775" changeset="false"><tag k="addr:street" v="Thomaswood Lane"/><tag k="addr:housenumber" v="10415"/><tag k="addr:postcode" v="78736"/></node><node id="-15" lat="30.25327" lon="-97.926178" changeset="false"><tag k="addr:street" v="Superview Drive"/><tag k="addr:housenumber" v="10511"/><tag k="addr:postcode" v="78736"/></node><node id="-16" lat="30.248719" lon="-97.922722" changeset="false"><tag k="addr:street" v="Thomas Springs Road"/><tag k="addr:housenumber" v="7708"/><tag k="addr:postcode" v="78736"/></node><node id="-17" lat="30.251983" lon="-97.92723" changeset="false"><tag k="addr:street" v="Lenape Trail"/><tag k="addr:housenumber" v="7601"/><tag k="addr:postcode" v="78736"/></node><node id="-18" lat="30.228086" lon="-97.95469" changeset="false"><tag k="addr:street" v="Tangleridge Circle"/><tag k="addr:housenumber" v="11045"/><tag k="addr:postcode" v="78736"/></node><node id="-19" lat="30.229079" lon="-97.952501" changeset="false"><tag k="addr:street" v="Tangleridge Circle"/><tag k="addr:housenumber" v="11002"/><tag k="addr:postcode" v="78736"/></node><node id="-20" lat="30.255652" lon="-97.929559" changeset="false"><tag k="addr:street" v="Superview Drive"/><tag k="addr:housenumber" v="10807"/><tag k="addr:postcode" v="78736"/></node><node id="-21" lat="30.22067" lon="-97.982363" changeset="false"><tag k="addr:street" v="Oak Branch Drive"/><tag k="addr:housenumber" v="11904"/><tag k="addr:postcode" v="78737"/></node><node id="-22" lat="30.263259" lon="-97.919865" changeset="false"><tag k="addr:street" v="Distant View Drive"/><tag k="addr:housenumber" v="6500"/><tag k="addr:postcode" v="78736"/></node><node id="-23" lat="30.242734" lon="-97.939243" changeset="false"><tag k="addr:street" v="Circle Drive"/><tag k="addr:housenumber" v="10604"/><tag k="addr:postcode" v="78736"/></node><node id="-24" lat="30.238163" lon="-97.929522" changeset="false"><tag k="addr:street" v="Rimstone Trail"/><tag k="addr:housenumber" v="10120"/><tag k="addr:postcode" v="78736"/></node><node id="-25" lat="30.228104" lon="-97.974647" changeset="false"><tag k="addr:street" v="Fitzhugh Road"/><tag k="addr:housenumber" v="11901"/><tag k="addr:postcode" v="78737"/></node><node id="-26" lat="30.258989" lon="-97.913107" changeset="false"><tag k="addr:street" v="Thomas Springs Road"/><tag k="addr:housenumber" v="6602"/><tag k="addr:postcode" v="78736"/></node><node id="-27" lat="30.234205" lon="-97.936701" changeset="false"><tag k="addr:street" v="Elm Grove Circle"/><tag k="addr:housenumber" v="9305"/><tag k="addr:postcode" v="78736"/></node><node id="-28" lat="30.227946" lon="-97.971256" changeset="false"><tag k="addr:street" v="Fitzhugh Road"/><tag k="addr:housenumber" v="11701"/><tag k="addr:postcode" v="78737"/></node><node id="-29" lat="30.235123" lon="-97.93477" changeset="false"><tag k="addr:street" v="Rock Way Drive"/><tag k="addr:housenumber" v="9219"/><tag k="addr:postcode" v="78736"/></node><node id="-30" lat="30.22716" lon="-97.960001" changeset="false"><tag k="addr:street" v="Fitzhugh Road"/><tag k="addr:housenumber" v="11094"/><tag k="addr:postcode" v="78736"/></node><node id="-31" lat="30.232626" lon="-97.930476" changeset="false"><tag k="addr:street" v="Vikki Terrace"/><tag k="addr:housenumber" v="9910"/><tag k="addr:postcode" v="78736"/></node><node id="-32" lat="30.229605" lon="-97.976713" changeset="false"><tag k="addr:street" v="Fitzhugh Road"/><tag k="addr:housenumber" v="11903"/><tag k="addr:postcode" v="78737"/></node><node id="-33" lat="30.237278" lon="-97.939757" changeset="false"><tag k="addr:street" v="Oak Valley Court"/><tag k="addr:housenumber" v="10603"/><tag k="addr:postcode" v="78736"/></node><node id="-34" lat="30.238054" lon="-97.928209" changeset="false"><tag k="addr:street" v="Rimstone Trail"/><tag k="addr:housenumber" v="10018"/><tag k="addr:postcode" v="78736"/></node><node id="-35" lat="30.229522" lon="-97.947628" changeset="false"><tag k="addr:street" v="Baxter Circle"/><tag k="addr:housenumber" v="10804"/><tag k="addr:postcode" v="78736"/></node><node id="-36" lat="30.229581" lon="-97.938834" changeset="false"><tag k="addr:street" v="Shallowford Drive"/><tag k="addr:housenumber" v="9710"/><tag k="addr:postcode" v="78736"/></node><node id="-37" lat="30.253777" lon="-97.925669" changeset="false"><tag k="addr:street" v="Superview Drive"/><tag k="addr:housenumber" v="10506"/><tag k="addr:postcode" v="78736"/></node><node id="-38" lat="30.279894" lon="-97.92919" changeset="false"><tag k="addr:street" v="Overlook Pass"/><tag k="addr:housenumber" v="11953"/><tag k="addr:postcode" v="78736"/></node><node id="-39" lat="30.253328" lon="-97.925595" changeset="false"><tag k="addr:street" v="Superview Drive"/><tag k="addr:housenumber" v="10507"/><tag k="addr:postcode" v="78736"/></node><node id="-40" lat="30.252114" lon="-97.932577" changeset="false"><tag k="addr:street" v="Rawhide Trail"/><tag k="addr:housenumber" v="10411"/><tag k="addr:postcode" v="78736"/></node><node id="-41" lat="30.254828" lon="-97.9255" changeset="false"><tag k="addr:street" v="Thomaswood Lane"/><tag k="addr:housenumber" v="10603"/><tag k="addr:postcode" v="78736"/></node><node id="-42" lat="30.248257" lon="-97.927557" changeset="false"><tag k="addr:street" v="Lenape Trail"/><tag k="addr:housenumber" v="7803"/><tag k="addr:postcode" v="78736"/></node><node id="-43" lat="30.238009" lon="-97.93807" changeset="false"><tag k="addr:street" v="Rock Way Drive"/><tag k="addr:housenumber" v="9101"/><tag k="addr:postcode" v="78736"/></node><node id="-44" lat="30.235002" lon="-97.913269" changeset="false"><tag k="addr:street" v="South Bend Avenue"/><tag k="addr:housenumber" v="8507"/><tag k="addr:postcode" v="78736"/></node><node id="-45" lat="30.236672" lon="-97.93718" changeset="false"><tag k="addr:street" v="Meadow Green Court"/><tag k="addr:housenumber" v="9104"/><tag k="addr:postcode" v="78736"/></node><node id="-46" lat="30.220316" lon="-97.96926" changeset="false"><tag k="addr:street" v="Antler Bend Road"/><tag k="addr:housenumber" v="11411"/><tag k="addr:postcode" v="78737"/></node><node id="-47" lat="30.250596" lon="-97.92716" changeset="false"><tag k="addr:street" v="Lenape Trail"/><tag k="addr:housenumber" v="7615"/><tag k="addr:postcode" v="78736"/></node><node id="-48" lat="30.254282" lon="-97.923809" changeset="false"><tag k="addr:street" v="Thomaswood Lane"/><tag k="addr:housenumber" v="10416"/><tag k="addr:postcode" v="78736"/></node><node id="-49" lat="30.254177" lon="-97.926434" changeset="false"><tag k="addr:street" v="Lenape Trail"/><tag k="addr:housenumber" v="7405"/><tag k="addr:postcode" v="78736"/></node><node id="-50" lat="30.254054" lon="-97.923426" changeset="false"><tag k="addr:street" v="Thomaswood Lane"/><tag k="addr:housenumber" v="10412"/><tag k="addr:postcode" v="78736"/></node><node id="-51" lat="30.250116" lon="-97.926959" changeset="false"><tag k="addr:street" v="Lenape Trail"/><tag k="addr:housenumber" v="7701"/><tag k="addr:postcode" v="78736"/></node><node id="-52" lat="30.253123" lon="-97.927307" changeset="false"><tag k="addr:street" v="Lenape Trail"/><tag k="addr:housenumber" v="7500"/><tag k="addr:postcode" v="78736"/></node><node id="-53" lat="30.251372" lon="-97.927345" changeset="false"><tag k="addr:street" v="Lenape Trail"/><tag k="addr:housenumber" v="7609"/><tag k="addr:postcode" v="78736"/></node><node id="-54" lat="30.259411" lon="-97.944518" changeset="false"><tag k="addr:street" v="D Morgan Road"/><tag k="addr:housenumber" v="11211"/><tag k="addr:postcode" v="78736"/></node><node id="-55" lat="30.254559" lon="-97.934483" changeset="false"><tag k="addr:street" v="Rawhide Trail"/><tag k="addr:housenumber" v="10609"/><tag k="addr:postcode" v="78736"/></node><node id="-56" lat="30.255732" lon="-97.928974" changeset="false"><tag k="addr:street" v="Superview Drive"/><tag k="addr:housenumber" v="10800"/><tag k="addr:postcode" v="78736"/></node><node id="-57" lat="30.274803" lon="-97.934771" changeset="false"><tag k="addr:street" v="Rawhide Trail"/><tag k="addr:housenumber" v="11026 1/2"/><tag k="addr:postcode" v="78736"/></node><node id="-58" lat="30.230025" lon="-97.951198" changeset="false"><tag k="addr:street" v="Hillside Drive"/><tag k="addr:housenumber" v="10905"/><tag k="addr:postcode" v="78736"/></node><node id="-59" lat="30.218548" lon="-97.979561" changeset="false"><tag k="addr:street" v="Oak Branch Drive"/><tag k="addr:housenumber" v="11700"/><tag k="addr:postcode" v="78737"/></node><node id="-60" lat="30.23493" lon="-97.925781" changeset="false"><tag k="addr:street" v="Rae Way"/><tag k="addr:housenumber" v="9802"/><tag k="addr:postcode" v="78736"/></node><node id="-61" lat="30.238582" lon="-97.93623" changeset="false"><tag k="addr:street" v="Blue Hill Court"/><tag k="addr:housenumber" v="9002"/><tag k="addr:postcode" v="78736"/></node><node id="-62" lat="30.240601" lon="-97.923847" changeset="false"><tag k="addr:street" v="Circle Drive"/><tag k="addr:housenumber" v="9501"/><tag k="addr:postcode" v="78736"/></node><node id="-63" lat="30.22989" lon="-97.946238" changeset="false"><tag k="addr:street" v="Baxter Lane"/><tag k="addr:housenumber" v="10013"/><tag k="addr:postcode" v="78736"/></node><node id="-64" lat="30.247215" lon="-97.928318" changeset="false"><tag k="addr:street" v="Lenape Trail"/><tag k="addr:housenumber" v="8001"/><tag k="addr:postcode" v="78736"/></node><node id="-65" lat="30.282513" lon="-97.934146" changeset="false"><tag k="addr:street" v="Overlook Pass"/><tag k="addr:housenumber" v="11925"/><tag k="addr:postcode" v="78736"/></node><node id="-66" lat="30.246979" lon="-97.928717" changeset="false"><tag k="addr:street" v="Lenape Trail"/><tag k="addr:housenumber" v="8008 1/2"/><tag k="addr:postcode" v="78736"/></node><node id="-67" lat="30.263508" lon="-97.918396" changeset="false"><tag k="addr:street" v="Blue Hill Drive"/><tag k="addr:housenumber" v="10104"/><tag k="addr:postcode" v="78736"/></node><node id="-68" lat="30.254386" lon="-97.924411" changeset="false"><tag k="addr:street" v="Thomaswood Lane"/><tag k="addr:housenumber" v="10505"/><tag k="addr:postcode" v="78736"/></node><node id="-69" lat="30.254729" lon="-97.927884" changeset="false"><tag k="addr:street" v="Superview Drive"/><tag k="addr:housenumber" v="10700"/><tag k="addr:postcode" v="78736"/></node><node id="-70" lat="30.253725" lon="-97.922731" changeset="false"><tag k="addr:street" v="Thomaswood Lane"/><tag k="addr:housenumber" v="10404"/><tag k="addr:postcode" v="78736"/></node><node id="-71" lat="30.261333" lon="-97.912719" changeset="false"><tag k="addr:street" v="Blue Hill Drive"/><tag k="addr:housenumber" v="9712"/><tag k="addr:postcode" v="78736"/></node><node id="-72" lat="30.220924" lon="-97.97135" changeset="false"><tag k="addr:street" v="Antler Bend Road"/><tag k="addr:housenumber" v="11401"/><tag k="addr:postcode" v="78737"/></node><node id="-73" lat="30.217762" lon="-97.969597" changeset="false"><tag k="addr:street" v="Antler Bend Road"/><tag k="addr:housenumber" v="11504"/><tag k="addr:postcode" v="78737"/></node><node id="-74" lat="30.229503" lon="-97.95153" changeset="false"><tag k="addr:street" v="Circle Drive"/><tag k="addr:housenumber" v="11106"/><tag k="addr:postcode" v="78736"/></node><node id="-75" lat="30.229073" lon="-97.948486" changeset="false"><tag k="addr:street" v="Baxter Circle"/><tag k="addr:housenumber" v="10806"/><tag k="addr:postcode" v="78736"/></node><node id="-76" lat="30.228769" lon="-97.953869" changeset="false"><tag k="addr:street" v="Tangleridge Circle"/><tag k="addr:housenumber" v="11013"/><tag k="addr:postcode" v="78736"/></node><node id="-77" lat="30.241266" lon="-97.922002" changeset="false"><tag k="addr:street" v="Circle Drive"/><tag k="addr:housenumber" v="9433"/><tag k="addr:postcode" v="78736"/></node><node id="-78" lat="30.227262" lon="-97.955813" changeset="false"><tag k="addr:street" v="Tangleridge Circle"/><tag k="addr:housenumber" v="11028"/><tag k="addr:postcode" v="78736"/></node><node id="-79" lat="30.227154" lon="-97.962053" changeset="false"><tag k="addr:street" v="Fitzhugh Road"/><tag k="addr:housenumber" v="11100"/><tag k="addr:postcode" v="78736"/></node><node id="-80" lat="30.249609" lon="-97.926287" changeset="false"><tag k="addr:street" v="Lenape Cove"/><tag k="addr:housenumber" v="9900"/><tag k="addr:postcode" v="78736"/></node><node id="-81" lat="30.235074" lon="-97.914042" changeset="false"><tag k="addr:street" v="South Bend Avenue"/><tag k="addr:housenumber" v="8510"/><tag k="addr:postcode" v="78736"/></node><node id="-82" lat="30.248006" lon="-97.932174" changeset="false"><tag k="addr:street" v="Rawhide Trail"/><tag k="addr:housenumber" v="10217"/><tag k="addr:postcode" v="78736"/></node><node id="-83" lat="30.243277" lon="-97.936463" changeset="false"><tag k="addr:street" v="Jim Davis Place"/><tag k="addr:housenumber" v="8701"/><tag k="addr:postcode" v="78736"/></node><node id="-84" lat="30.2353" lon="-97.912693" changeset="false"><tag k="addr:street" v="Circle Drive"/><tag k="addr:housenumber" v="8901"/><tag k="addr:postcode" v="78736"/></node><node id="-85" lat="30.253107" lon="-97.921149" changeset="false"><tag k="addr:street" v="Thomaswood Lane"/><tag k="addr:housenumber" v="10300"/><tag k="addr:postcode" v="78736"/></node><node id="-86" lat="30.254703" lon="-97.925145" changeset="false"><tag k="addr:street" v="Thomaswood Lane"/><tag k="addr:housenumber" v="10513"/><tag k="addr:postcode" v="78736"/></node><node id="-87" lat="30.253957" lon="-97.926562" changeset="false"><tag k="addr:street" v="Lenape Trail"/><tag k="addr:housenumber" v="7407"/><tag k="addr:postcode" v="78736"/></node><node id="-88" lat="30.254922" lon="-97.926445" changeset="false"><tag k="addr:street" v="Lenape Trail"/><tag k="addr:housenumber" v="7310"/><tag k="addr:postcode" v="78736"/></node><node id="-89" lat="30.249294" lon="-97.927229" changeset="false"><tag k="addr:street" v="Lenape Trail"/><tag k="addr:housenumber" v="7708"/><tag k="addr:postcode" v="78736"/></node><node id="-90" lat="30.24851" lon="-97.927372" changeset="false"><tag k="addr:street" v="Lenape Trail"/><tag k="addr:housenumber" v="7801"/><tag k="addr:postcode" v="78736"/></node><node id="-91" lat="30.263387" lon="-97.918886" changeset="false"><tag k="addr:street" v="Blue Hill Drive"/><tag k="addr:housenumber" v="10107"/><tag k="addr:postcode" v="78736"/></node><node id="-92" lat="30.247592" lon="-97.92857" changeset="false"><tag k="addr:street" v="Lenape Trail"/><tag k="addr:housenumber" v="7908"/><tag k="addr:postcode" v="78736"/></node><node id="-93" lat="30.232937" lon="-97.926181" changeset="false"><tag k="addr:street" v="Vikki Terrace"/><tag k="addr:housenumber" v="9809"/><tag k="addr:postcode" v="78736"/></node><node id="-94" lat="30.228233" lon="-97.954194" changeset="false"><tag k="addr:street" v="Tangleridge Circle"/><tag k="addr:housenumber" v="11017"/><tag k="addr:postcode" v="78736"/></node><node id="-95" lat="30.232219" lon="-97.931674" changeset="false"><tag k="addr:street" v="Vikki Terrace"/><tag k="addr:housenumber" v="9930"/><tag k="addr:postcode" v="78736"/></node><node id="-96" lat="30.260071" lon="-97.910847" changeset="false"><tag k="addr:street" v="Thomas Springs Road"/><tag k="addr:housenumber" v="6410"/><tag k="addr:postcode" v="78736"/></node><node id="-97" lat="30.241233" lon="-97.939566" changeset="false"><tag k="addr:street" v="Circle Drive"/><tag k="addr:housenumber" v="10705"/><tag k="addr:postcode" v="78736"/></node><node id="-98" lat="30.24793" lon="-97.931368" changeset="false"><tag k="addr:street" v="Rawhide Trail"/><tag k="addr:housenumber" v="10214"/><tag k="addr:postcode" v="78736"/></node><node id="-99" lat="30.246241" lon="-97.927871" changeset="false"><tag k="addr:street" v="Circle Drive"/><tag k="addr:housenumber" v="9937"/><tag k="addr:postcode" v="78736"/></node><node id="-100" lat="30.233451" lon="-97.929136" changeset="false"><tag k="addr:street" v="Kay Lane"/><tag k="addr:housenumber" v="9108"/><tag k="addr:postcode" v="78736"/></node><node id="-101" lat="30.262228" lon="-97.915838" changeset="false"><tag k="addr:street" v="Blue Hill Drive"/><tag k="addr:housenumber" v="9900"/><tag k="addr:postcode" v="78736"/></node><node id="-102" lat="30.283147" lon="-97.920259" changeset="false"><tag k="addr:street" v="Arroyo Canyon Drive"/><tag k="addr:housenumber" v="11019"/><tag k="addr:postcode" v="78736"/></node><node id="-103" lat="30.261747" lon="-97.913529" changeset="false"><tag k="addr:street" v="Blue Hill Drive"/><tag k="addr:housenumber" v="9800"/><tag k="addr:postcode" v="78736"/></node><node id="-104" lat="30.26019" lon="-97.913808" changeset="false"><tag k="addr:street" v="Blue Hill Drive"/><tag k="addr:housenumber" v="9703"/><tag k="addr:postcode" v="78736"/></node><node id="-105" lat="30.252528" lon="-97.922135" changeset="false"><tag k="addr:street" v="Rising Smoke Loop"/><tag k="addr:housenumber" v="10305"/><tag k="addr:postcode" v="78736"/></node><node id="-106" lat="30.250403" lon="-97.926867" changeset="false"><tag k="addr:street" v="Lenape Trail"/><tag k="addr:housenumber" v="7619"/><tag k="addr:postcode" v="78736"/></node><node id="-107" lat="30.21874" lon="-97.980127" changeset="false"><tag k="addr:street" v="Oak Branch Drive"/><tag k="addr:housenumber" v="11704"/><tag k="addr:postcode" v="78737"/></node><node id="-108" lat="30.235586" lon="-97.936829" changeset="false"><tag k="addr:street" v="Rock Way Drive"/><tag k="addr:housenumber" v="9207"/><tag k="addr:postcode" v="78736"/></node><node id="-109" lat="30.25479" lon="-97.928493" changeset="false"><tag k="addr:street" v="Superview Drive"/><tag k="addr:housenumber" v="10705"/><tag k="addr:postcode" v="78736"/></node><node id="-110" lat="30.240324" lon="-97.935895" changeset="false"><tag k="addr:street" v="Jim Davis Place"/><tag k="addr:housenumber" v="8814"/><tag k="addr:postcode" v="78736"/></node><node id="-111" lat="30.230209" lon="-97.952219" changeset="false"><tag k="addr:street" v="Hillside Drive"/><tag k="addr:housenumber" v="11005"/><tag k="addr:postcode" v="78736"/></node><node id="-112" lat="30.250162" lon="-97.927358" changeset="false"><tag k="addr:street" v="Lenape Trail"/><tag k="addr:housenumber" v="7616"/><tag k="addr:postcode" v="78736"/></node><node id="-113" lat="30.249944" lon="-97.926857" changeset="false"><tag k="addr:street" v="Lenape Trail"/><tag k="addr:housenumber" v="7703"/><tag k="addr:postcode" v="78736"/></node><node id="-114" lat="30.247123" lon="-97.924742" changeset="false"><tag k="addr:street" v="Thomas Springs Road"/><tag k="addr:housenumber" v="8000"/><tag k="addr:postcode" v="78736"/></node><node id="-115" lat="30.235944" lon="-97.914529" changeset="false"><tag k="addr:street" v="Circle Drive"/><tag k="addr:housenumber" v="8919"/><tag k="addr:postcode" v="78736"/></node><node id="-116" lat="30.229638" lon="-97.953026" changeset="false"><tag k="addr:street" v="Tangleridge Circle"/><tag k="addr:housenumber" v="11004"/><tag k="addr:postcode" v="78736"/></node><node id="-117" lat="30.228479" lon="-97.948055" changeset="false"><tag k="addr:street" v="Baxter Circle"/><tag k="addr:housenumber" v="10807"/><tag k="addr:postcode" v="78736"/></node><node id="-118" lat="30.220232" lon="-97.971694" changeset="false"><tag k="addr:street" v="Antler Bend Road"/><tag k="addr:housenumber" v="11400"/><tag k="addr:postcode" v="78737"/></node><node id="-119" lat="30.219629" lon="-97.971379" changeset="false"><tag k="addr:street" v="Antler Bend Road"/><tag k="addr:housenumber" v="11402"/><tag k="addr:postcode" v="78737"/></node><node id="-120" lat="30.219226" lon="-97.970257" changeset="false"><tag k="addr:street" v="Antler Bend Road"/><tag k="addr:housenumber" v="11410"/><tag k="addr:postcode" v="78737"/></node><node id="-121" lat="30.252376" lon="-97.927074" changeset="false"><tag k="addr:street" v="Lenape Trail"/><tag k="addr:housenumber" v="7509"/><tag k="addr:postcode" v="78736"/></node><node id="-122" lat="30.251875" lon="-97.921331" changeset="false"><tag k="addr:street" v="Rising Smoke Loop"/><tag k="addr:housenumber" v="10206"/><tag k="addr:postcode" v="78736"/></node><node id="-123" lat="30.252644" lon="-97.920387" changeset="false"><tag k="addr:street" v="Thomaswood Lane"/><tag k="addr:housenumber" v="10210"/><tag k="addr:postcode" v="78736"/></node><node id="-124" lat="30.246388" lon="-97.928342" changeset="false"><tag k="addr:street" v="Circle Drive"/><tag k="addr:housenumber" v="10009"/><tag k="addr:postcode" v="78736"/></node><node id="-125" lat="30.250421" lon="-97.927516" changeset="false"><tag k="addr:street" v="Lenape Trail"/><tag k="addr:housenumber" v="7614"/><tag k="addr:postcode" v="78736"/></node><node id="-126" lat="30.226483" lon="-97.953585" changeset="false"><tag k="addr:street" v="Tangleridge Circle"/><tag k="addr:housenumber" v="11046"/><tag k="addr:postcode" v="78736"/></node><node id="-127" lat="30.227921" lon="-97.967817" changeset="false"><tag k="addr:street" v="Fitzhugh Road"/><tag k="addr:housenumber" v="11315"/><tag k="addr:postcode" v="78737"/></node><node id="-128" lat="30.227467" lon="-97.962959" changeset="false"><tag k="addr:street" v="Fitzhugh Road"/><tag k="addr:housenumber" v="11110"/><tag k="addr:postcode" v="78736"/></node><node id="-129" lat="30.219979" lon="-97.968703" changeset="false"><tag k="addr:street" v="Antler Bend Road"/><tag k="addr:housenumber" v="11415"/><tag k="addr:postcode" v="78737"/></node><node id="-130" lat="30.253682" lon="-97.922331" changeset="false"><tag k="addr:street" v="Thomaswood Lane"/><tag k="addr:housenumber" v="10402"/><tag k="addr:postcode" v="78736"/></node><node id="-131" lat="30.23772" lon="-97.9333" changeset="false"><tag k="addr:street" v="Oak Valley Trail"/><tag k="addr:housenumber" v="10301"/><tag k="addr:postcode" v="78736"/></node><node id="-132" lat="30.259035" lon="-97.938006" changeset="false"><tag k="addr:street" v="Rawhide Trail"/><tag k="addr:housenumber" v="10808"/><tag k="addr:postcode" v="78736"/></node><node id="-133" lat="30.256393" lon="-97.927446" changeset="false"><tag k="addr:street" v="Indian Scout Trail"/><tag k="addr:housenumber" v="10706"/><tag k="addr:postcode" v="78736"/></node><node id="-134" lat="30.259947" lon="-97.911872" changeset="false"><tag k="addr:street" v="Blue Hill Drive"/><tag k="addr:housenumber" v="9606"/><tag k="addr:postcode" v="78736"/></node><node id="-135" lat="30.23739" lon="-97.940408" changeset="false"><tag k="addr:street" v="Oak Valley Court"/><tag k="addr:housenumber" v="10701"/><tag k="addr:postcode" v="78736"/></node><node id="-136" lat="30.23432" lon="-97.933424" changeset="false"><tag k="addr:street" v="Rock Way Drive"/><tag k="addr:housenumber" v="9225"/><tag k="addr:postcode" v="78736"/></node><node id="-137" lat="30.231014" lon="-97.935232" changeset="false"><tag k="addr:street" v="Oak Grove Circle"/><tag k="addr:housenumber" v="10203"/><tag k="addr:postcode" v="78736"/></node><node id="-138" lat="30.252883" lon="-97.926957" changeset="false"><tag k="addr:street" v="Lenape Trail"/><tag k="addr:housenumber" v="7505"/><tag k="addr:postcode" v="78736"/></node><node id="-139" lat="30.2522" lon="-97.921913" changeset="false"><tag k="addr:street" v="Rising Smoke Loop"/><tag k="addr:housenumber" v="10210"/><tag k="addr:postcode" v="78736"/></node><node id="-140" lat="30.251719" lon="-97.921813" changeset="false"><tag k="addr:street" v="Rising Smoke Loop"/><tag k="addr:housenumber" v="10211"/><tag k="addr:postcode" v="78736"/></node><node id="-141" lat="30.251641" lon="-97.919725" changeset="false"><tag k="addr:street" v="Thomas Springs Road"/><tag k="addr:housenumber" v="7316"/><tag k="addr:postcode" v="78736"/></node><node id="-142" lat="30.25445" lon="-97.928358" changeset="false"><tag k="addr:street" v="Superview Drive"/><tag k="addr:housenumber" v="10701"/><tag k="addr:postcode" v="78736"/></node><node id="-143" lat="30.254106" lon="-97.928202" changeset="false"><tag k="addr:street" v="Superview Drive"/><tag k="addr:housenumber" v="10613"/><tag k="addr:postcode" v="78736"/></node><node id="-144" lat="30.247843" lon="-97.928457" changeset="false"><tag k="addr:street" v="Lenape Trail"/><tag k="addr:housenumber" v="7904"/><tag k="addr:postcode" v="78736"/></node><node id="-145" lat="30.23248" lon="-97.946241" changeset="false"><tag k="addr:street" v="Oliver Cemetery Road"/><tag k="addr:housenumber" v="11803"/><tag k="addr:postcode" v="78736"/></node><node id="-146" lat="30.24575" lon="-97.926452" changeset="false"><tag k="addr:street" v="Circle Drive"/><tag k="addr:housenumber" v="9913"/><tag k="addr:postcode" v="78736"/></node><node id="-147" lat="30.22762" lon="-97.951439" changeset="false"><tag k="addr:street" v="Circle Drive"/><tag k="addr:housenumber" v="11127"/><tag k="addr:postcode" v="78736"/></node><node id="-148" lat="30.249873" lon="-97.931885" changeset="false"><tag k="addr:street" v="Rawhide Trail"/><tag k="addr:housenumber" v="10305"/><tag k="addr:postcode" v="78736"/></node><node id="-149" lat="30.249612" lon="-97.927168" changeset="false"><tag k="addr:street" v="Lenape Trail"/><tag k="addr:housenumber" v="7704"/><tag k="addr:postcode" v="78736"/></node><node id="-150" lat="30.248179" lon="-97.928234" changeset="false"><tag k="addr:street" v="Lenape Trail"/><tag k="addr:housenumber" v="7900"/><tag k="addr:postcode" v="78736"/></node><node id="-151" lat="30.255351" lon="-97.928939" changeset="false"><tag k="addr:street" v="Superview Drive"/><tag k="addr:housenumber" v="10713"/><tag k="addr:postcode" v="78736"/></node><node id="-152" lat="30.25517" lon="-97.925737" changeset="false"><tag k="addr:street" v="Thomaswood Lane"/><tag k="addr:housenumber" v="10604"/><tag k="addr:postcode" v="78736"/></node><node id="-153" lat="30.251322" lon="-97.920124" changeset="false"><tag k="addr:street" v="Thomaswood Lane"/><tag k="addr:housenumber" v="10201"/><tag k="addr:postcode" v="78736"/></node><node id="-154" lat="30.229415" lon="-97.942363" changeset="false"><tag k="addr:street" v="Oliver Drive"/><tag k="addr:housenumber" v="9919"/><tag k="addr:postcode" v="78736"/></node><node id="-155" lat="30.228845" lon="-97.943184" changeset="false"><tag k="addr:street" v="Oliver Drive"/><tag k="addr:housenumber" v="9916"/><tag k="addr:postcode" v="78736"/></node><node id="-156" lat="30.224038" lon="-97.958444" changeset="false"><tag k="addr:street" v="Fitzhugh Road"/><tag k="addr:housenumber" v="11021"/><tag k="addr:postcode" v="78737"/></node><node id="-157" lat="30.2354" lon="-97.912992" changeset="false"><tag k="addr:street" v="Circle Drive"/><tag k="addr:housenumber" v="8905"/><tag k="addr:postcode" v="78736"/></node><node id="-158" lat="30.223958" lon="-97.967679" changeset="false"><tag k="addr:street" v="Fitzhugh Road"/><tag k="addr:housenumber" v="11217"/><tag k="addr:postcode" v="78737"/></node><node id="-159" lat="30.219445" lon="-97.968256" changeset="false"><tag k="addr:street" v="Antler Bend Road"/><tag k="addr:housenumber" v="11501"/><tag k="addr:postcode" v="78737"/></node><node id="-160" lat="30.248707" lon="-97.927208" changeset="false"><tag k="addr:street" v="Lenape Trail"/><tag k="addr:housenumber" v="7715"/><tag k="addr:postcode" v="78736"/></node><node id="-161" lat="30.248625" lon="-97.927796" changeset="false"><tag k="addr:street" v="Lenape Trail"/><tag k="addr:housenumber" v="7800"/><tag k="addr:postcode" v="78736"/></node><node id="-162" lat="30.252198" lon="-97.927508" changeset="false"><tag k="addr:street" v="Lenape Trail"/><tag k="addr:housenumber" v="7600"/><tag k="addr:postcode" v="78736"/></node><node id="-163" lat="30.251614" lon="-97.921037" changeset="false"><tag k="addr:street" v="Rising Smoke Loop"/><tag k="addr:housenumber" v="10203"/><tag k="addr:postcode" v="78736"/></node><node id="-164" lat="30.254183" lon="-97.92412" changeset="false"><tag k="addr:street" v="Thomaswood Lane"/><tag k="addr:housenumber" v="10501"/><tag k="addr:postcode" v="78736"/></node><node id="-165" lat="30.248124" lon="-97.923221" changeset="false"><tag k="addr:street" v="Thomas Springs Road"/><tag k="addr:housenumber" v="7804"/><tag k="addr:postcode" v="78736"/></node><node id="-166" lat="30.260369" lon="-97.909886" changeset="false"><tag k="addr:street" v="Thomas Springs Road"/><tag k="addr:housenumber" v="6316"/><tag k="addr:postcode" v="78736"/></node><node id="-167" lat="30.253284" lon="-97.925883" changeset="false"><tag k="addr:street" v="Superview Drive"/><tag k="addr:housenumber" v="10509"/><tag k="addr:postcode" v="78736"/></node><node id="-168" lat="30.23958" lon="-97.937523" changeset="false"><tag k="addr:street" v="Rock Way Drive"/><tag k="addr:housenumber" v="9000"/><tag k="addr:postcode" v="78736"/></node><node id="-169" lat="30.255254" lon="-97.926216" changeset="false"><tag k="addr:street" v="Lenape Trail"/><tag k="addr:housenumber" v="7306"/><tag k="addr:postcode" v="78736"/></node><node id="-170" lat="30.25501" lon="-97.92538" changeset="false"><tag k="addr:street" v="Thomaswood Lane"/><tag k="addr:housenumber" v="10600"/><tag k="addr:postcode" v="78736"/></node><node id="-171" lat="30.228506" lon="-97.953035" changeset="false"><tag k="addr:street" v="Tangleridge Circle"/><tag k="addr:housenumber" v="11001"/><tag k="addr:postcode" v="78736"/></node><node id="-172" lat="30.226399" lon="-97.961926" changeset="false"><tag k="addr:street" v="Fitzhugh Road"/><tag k="addr:housenumber" v="11098"/><tag k="addr:postcode" v="78736"/></node><node id="-173" lat="30.256514" lon="-97.926847" changeset="false"><tag k="addr:street" v="Indian Scout Trail"/><tag k="addr:housenumber" v="10700"/><tag k="addr:postcode" v="78736"/></node><node id="-174" lat="30.255667" lon="-97.927294" changeset="false"><tag k="addr:street" v="Indian Scout Trail"/><tag k="addr:housenumber" v="10707"/><tag k="addr:postcode" v="78736"/></node><node id="-175" lat="30.228897" lon="-97.947194" changeset="false"><tag k="addr:street" v="Baxter Circle"/><tag k="addr:housenumber" v="10801"/><tag k="addr:postcode" v="78736"/></node><node id="-176" lat="30.229676" lon="-97.954177" changeset="false"><tag k="addr:street" v="Tangleridge Circle"/><tag k="addr:housenumber" v="11010"/><tag k="addr:postcode" v="78736"/></node><node id="-177" lat="30.238885" lon="-97.919656" changeset="false"><tag k="addr:street" v="Circle Drive"/><tag k="addr:housenumber" v="9211 1/2"/><tag k="addr:postcode" v="78736"/></node><node id="-178" lat="30.253816" lon="-97.927154" changeset="false"><tag k="addr:street" v="Lenape Trail"/><tag k="addr:housenumber" v="7412"/><tag k="addr:postcode" v="78736"/></node><node id="-179" lat="30.23344" lon="-97.939777" changeset="false"><tag k="addr:street" v="Bronzewood Drive"/><tag k="addr:housenumber" v="9504"/><tag k="addr:postcode" v="78736"/></node><node id="-180" lat="30.232796" lon="-97.929592" changeset="false"><tag k="addr:street" v="Vikki Terrace"/><tag k="addr:housenumber" v="9906"/><tag k="addr:postcode" v="78736"/></node><node id="-181" lat="30.262212" lon="-97.916982" changeset="false"><tag k="addr:street" v="Blue Hill Drive"/><tag k="addr:housenumber" v="9913"/><tag k="addr:postcode" v="78736"/></node><node id="-182" lat="30.241079" lon="-97.923564" changeset="false"><tag k="addr:street" v="Circle Drive"/><tag k="addr:housenumber" v="9437"/><tag k="addr:postcode" v="78736"/></node><node id="-183" lat="30.246979" lon="-97.925524" changeset="false"><tag k="addr:street" v="Thomas Springs Road"/><tag k="addr:housenumber" v="8100"/><tag k="addr:postcode" v="78736"/></node><node id="-184" lat="30.234819" lon="-97.937313" changeset="false"><tag k="addr:street" v="Elm Grove Circle"/><tag k="addr:housenumber" v="9300"/><tag k="addr:postcode" v="78736"/></node><node id="-185" lat="30.234773" lon="-97.936346" changeset="false"><tag k="addr:street" v="Rock Way Drive"/><tag k="addr:housenumber" v="9224"/><tag k="addr:postcode" v="78736"/></node><node id="-186" lat="30.22761" lon="-97.952047" changeset="false"><tag k="addr:street" v="Tangleridge Circle"/><tag k="addr:housenumber" v="10903"/><tag k="addr:postcode" v="78736"/></node><node id="-187" lat="30.255392" lon="-97.929362" changeset="false"><tag k="addr:street" v="Superview Drive"/><tag k="addr:housenumber" v="10801"/><tag k="addr:postcode" v="78736"/></node><node id="-188" lat="30.248559" lon="-97.923571" changeset="false"><tag k="addr:street" v="Thomas Springs Road"/><tag k="addr:housenumber" v="7800"/><tag k="addr:postcode" v="78736"/></node><node id="-189" lat="30.230572" lon="-97.938913" changeset="false"><tag k="addr:street" v="Shallowford Drive"/><tag k="addr:housenumber" v="9701"/><tag k="addr:postcode" v="78736"/></node><node id="-190" lat="30.263584" lon="-97.948227" changeset="false"><tag k="addr:street" v="D Morgan Road"/><tag k="addr:housenumber" v="11500"/><tag k="addr:postcode" v="78736"/></node><node id="-191" lat="30.237982" lon="-97.940586" changeset="false"><tag k="addr:street" v="Oak Valley Court"/><tag k="addr:housenumber" v="10700"/><tag k="addr:postcode" v="78736"/></node><node id="-192" lat="30.230849" lon="-97.936531" changeset="false"><tag k="addr:street" v="Bronzewood Drive"/><tag k="addr:housenumber" v="9614"/><tag k="addr:postcode" v="78736"/></node><node id="-193" lat="30.232489" lon="-97.926501" changeset="false"><tag k="addr:street" v="Vikki Terrace"/><tag k="addr:housenumber" v="9811"/><tag k="addr:postcode" v="78736"/></node><node id="-194" lat="30.226833" lon="-97.956027" changeset="false"><tag k="addr:street" v="Tangleridge Circle"/><tag k="addr:housenumber" v="11032"/><tag k="addr:postcode" v="78736"/></node><node id="-195" lat="30.240025" lon="-97.934672" changeset="false"><tag k="addr:street" v="Jim Davis Place"/><tag k="addr:housenumber" v="8819"/><tag k="addr:postcode" v="78736"/></node><node id="-196" lat="30.237391" lon="-97.928456" changeset="false"><tag k="addr:street" v="Rimstone Trail"/><tag k="addr:housenumber" v="10017"/><tag k="addr:postcode" v="78736"/></node><node id="-197" lat="30.240793" lon="-97.920933" changeset="false"><tag k="addr:street" v="Circle Drive"/><tag k="addr:housenumber" v="9417"/><tag k="addr:postcode" v="78736"/></node><node id="-198" lat="30.233096" lon="-97.980066" changeset="false"><tag k="addr:street" v="Fitzhugh Road"/><tag k="addr:housenumber" v="12121"/><tag k="addr:postcode" v="78737"/></node><node id="-199" lat="30.232809" lon="-97.980768" changeset="false"><tag k="addr:street" v="Fitzhugh Road"/><tag k="addr:housenumber" v="12141"/><tag k="addr:postcode" v="78737"/></node><node id="-200" lat="30.246757" lon="-97.927397" changeset="false"><tag k="addr:street" v="Circle Drive"/><tag k="addr:housenumber" v="9936"/><tag k="addr:postcode" v="78736"/></node><node id="-201" lat="30.250696" lon="-97.92766" changeset="false"><tag k="addr:street" v="Lenape Trail"/><tag k="addr:housenumber" v="7612"/><tag k="addr:postcode" v="78736"/></node><node id="-202" lat="30.237053" lon="-97.926963" changeset="false"><tag k="addr:street" v="Rimstone Trail"/><tag k="addr:housenumber" v="10003"/><tag k="addr:postcode" v="78736"/></node><node id="-203" lat="30.233714" lon="-97.983811" changeset="false"><tag k="addr:street" v="Fitzhugh Road"/><tag k="addr:housenumber" v="12410"/><tag k="addr:postcode" v="78736"/></node><node id="-204" lat="30.260248" lon="-97.939367" changeset="false"><tag k="addr:street" v="Rawhide Trail"/><tag k="addr:housenumber" v="11009"/><tag k="addr:postcode" v="78736"/></node><node id="-205" lat="30.232208" lon="-97.947175" changeset="false"><tag k="addr:street" v="Circle Drive"/><tag k="addr:housenumber" v="11039"/><tag k="addr:postcode" v="78736"/></node><node id="-206" lat="30.234489" lon="-97.931732" changeset="false"><tag k="addr:street" v="Rod Road"/><tag k="addr:housenumber" v="9100"/><tag k="addr:postcode" v="78736"/></node><node id="-207" lat="30.254551" lon="-97.926324" changeset="false"><tag k="addr:street" v="Lenape Trail"/><tag k="addr:housenumber" v="7401 1/2"/><tag k="addr:postcode" v="78736"/></node><node id="-208" lat="30.241" lon="-97.940266" changeset="false"><tag k="addr:street" v="Circle Drive"/><tag k="addr:housenumber" v="10755"/><tag k="addr:postcode" v="78736"/></node><node id="-209" lat="30.23264" lon="-97.939222" changeset="false"><tag k="addr:street" v="Bronzewood Drive"/><tag k="addr:housenumber" v="9510"/><tag k="addr:postcode" v="78736"/></node><node id="-210" lat="30.231688" lon="-97.938608" changeset="false"><tag k="addr:street" v="Bronzewood Drive"/><tag k="addr:housenumber" v="9606"/><tag k="addr:postcode" v="78736"/></node><node id="-211" lat="30.229041" lon="-97.95182" changeset="false"><tag k="addr:street" v="Circle Drive"/><tag k="addr:housenumber" v="11116"/><tag k="addr:postcode" v="78736"/></node><node id="-212" lat="30.225094" lon="-97.953229" changeset="false"><tag k="addr:street" v="Circle Drive"/><tag k="addr:housenumber" v="11160"/><tag k="addr:postcode" v="78736"/></node><node id="-213" lat="30.226492" lon="-97.955389" changeset="false"><tag k="addr:street" v="Tangleridge Circle"/><tag k="addr:housenumber" v="11036"/><tag k="addr:postcode" v="78736"/></node><node id="-214" lat="30.230001" lon="-97.949363" changeset="false"><tag k="addr:street" v="Circle Drive"/><tag k="addr:housenumber" v="11060"/><tag k="addr:postcode" v="78736"/></node><node id="-215" lat="30.233934" lon="-97.929335" changeset="false"><tag k="addr:street" v="Kay Lane"/><tag k="addr:housenumber" v="9104"/><tag k="addr:postcode" v="78736"/></node><node id="-216" lat="30.2555" lon="-97.929554" changeset="false"><tag k="addr:street" v="Superview Drive"/><tag k="addr:housenumber" v="10805"/><tag k="addr:postcode" v="78736"/></node><node id="-217" lat="30.230734" lon="-97.937301" changeset="false"><tag k="addr:street" v="Bronzewood Drive"/><tag k="addr:housenumber" v="9612"/><tag k="addr:postcode" v="78736"/></node><node id="-218" lat="30.225641" lon="-97.951626" changeset="false"><tag k="addr:street" v="Circle Drive"/><tag k="addr:housenumber" v="11145"/><tag k="addr:postcode" v="78736"/></node><node id="-219" lat="30.231439" lon="-97.954192" changeset="false"><tag k="addr:street" v="Hillside Drive"/><tag k="addr:housenumber" v="11017"/><tag k="addr:postcode" v="78736"/></node><node id="-220" lat="30.231181" lon="-97.943247" changeset="false"><tag k="addr:street" v="Oliver Drive"/><tag k="addr:housenumber" v="9905"/><tag k="addr:postcode" v="78736"/></node><node id="-221" lat="30.230708" lon="-97.953134" changeset="false"><tag k="addr:street" v="Hillside Drive"/><tag k="addr:housenumber" v="11011"/><tag k="addr:postcode" v="78736"/></node><node id="-222" lat="30.228122" lon="-97.953545" changeset="false"><tag k="addr:street" v="Tangleridge Circle"/><tag k="addr:housenumber" v="11055"/><tag k="addr:postcode" v="78736"/></node><node id="-223" lat="30.254226" lon="-97.927022" changeset="false"><tag k="addr:street" v="Lenape Trail"/><tag k="addr:housenumber" v="7408"/><tag k="addr:postcode" v="78736"/></node><node id="-224" lat="30.249686" lon="-97.926721" changeset="false"><tag k="addr:street" v="Lenape Cove"/><tag k="addr:housenumber" v="9902"/><tag k="addr:postcode" v="78736"/></node><node id="-225" lat="30.248914" lon="-97.92706" changeset="false"><tag k="addr:street" v="Lenape Trail"/><tag k="addr:housenumber" v="7713"/><tag k="addr:postcode" v="78736"/></node><node id="-226" lat="30.236565" lon="-97.916266" changeset="false"><tag k="addr:street" v="Circle Drive"/><tag k="addr:housenumber" v="9101"/><tag k="addr:postcode" v="78736"/></node><node id="-227" lat="30.248066" lon="-97.928362" changeset="false"><tag k="addr:street" v="Lenape Trail"/><tag k="addr:housenumber" v="7902"/><tag k="addr:postcode" v="78736"/></node><node id="-228" lat="30.234146" lon="-97.926348" changeset="false"><tag k="addr:street" v="Vikki Terrace"/><tag k="addr:housenumber" v="9806"/><tag k="addr:postcode" v="78736"/></node><node id="-229" lat="30.232553" lon="-97.948027" changeset="false"><tag k="addr:street" v="Circle Drive"/><tag k="addr:housenumber" v="11044"/><tag k="addr:postcode" v="78736"/></node><node id="-230" lat="30.234684" lon="-97.912838" changeset="false"><tag k="addr:street" v="Circle Drive"/><tag k="addr:housenumber" v="8903"/><tag k="addr:postcode" v="78736"/></node><node id="-231" lat="30.25448" lon="-97.924136" changeset="false"><tag k="addr:street" v="Thomaswood Lane"/><tag k="addr:housenumber" v="10500"/><tag k="addr:postcode" v="78736"/></node><node id="-232" lat="30.262411" lon="-97.917347" changeset="false"><tag k="addr:street" v="Blue Hill Drive"/><tag k="addr:housenumber" v="9915"/><tag k="addr:postcode" v="78736"/></node><node id="-233" lat="30.253899" lon="-97.933908" changeset="false"><tag k="addr:street" v="Rawhide Trail"/><tag k="addr:housenumber" v="10601"/><tag k="addr:postcode" v="78736"/></node><node id="-234" lat="30.240826" lon="-97.935026" changeset="false"><tag k="addr:street" v="Jim Davis Place"/><tag k="addr:housenumber" v="8815"/><tag k="addr:postcode" v="78736"/></node><node id="-235" lat="30.238795" lon="-97.919621" changeset="false"><tag k="addr:street" v="Circle Drive"/><tag k="addr:housenumber" v="9211"/><tag k="addr:postcode" v="78736"/></node><node id="-236" lat="30.220648" lon="-97.969806" changeset="false"><tag k="addr:street" v="Antler Bend Road"/><tag k="addr:housenumber" v="11407"/><tag k="addr:postcode" v="78737"/></node><node id="-237" lat="30.233397" lon="-97.926912" changeset="false"><tag k="addr:street" v="Vikki Terrace"/><tag k="addr:housenumber" v="9810"/><tag k="addr:postcode" v="78736"/></node><node id="-238" lat="30.227707" lon="-97.9555" changeset="false"><tag k="addr:street" v="Tangleridge Circle"/><tag k="addr:housenumber" v="11024"/><tag k="addr:postcode" v="78736"/></node><node id="-239" lat="30.253297" lon="-97.933324" changeset="false"><tag k="addr:street" v="Rawhide Trail"/><tag k="addr:housenumber" v="10509"/><tag k="addr:postcode" v="78736"/></node><node id="-240" lat="30.251796" lon="-97.920484" changeset="false"><tag k="addr:street" v="Thomaswood Lane"/><tag k="addr:housenumber" v="10205"/><tag k="addr:postcode" v="78736"/></node><node id="-241" lat="30.284152" lon="-97.920442" changeset="false"><tag k="addr:street" v="Arroyo Canyon Drive"/><tag k="addr:housenumber" v="11023"/><tag k="addr:postcode" v="78736"/></node><node id="-242" lat="30.230925" lon="-97.94043" changeset="false"><tag k="addr:street" v="Shallowford Drive"/><tag k="addr:housenumber" v="9706"/><tag k="addr:postcode" v="78736"/></node><node id="-243" lat="30.250095" lon="-97.921148" changeset="false"><tag k="addr:street" v="Thomas Springs Road"/><tag k="addr:housenumber" v="7512"/><tag k="addr:postcode" v="78736"/></node><node id="-244" lat="30.248931" lon="-97.927522" changeset="false"><tag k="addr:street" v="Lenape Trail"/><tag k="addr:housenumber" v="7714"/><tag k="addr:postcode" v="78736"/></node><node id="-245" lat="30.256253" lon="-97.926688" changeset="false"><tag k="addr:street" v="Indian Scout Trail"/><tag k="addr:housenumber" v="10701"/><tag k="addr:postcode" v="78736"/></node><node id="-246" lat="30.260391" lon="-97.914797" changeset="false"><tag k="addr:street" v="Blue Hill Drive"/><tag k="addr:housenumber" v="9801"/><tag k="addr:postcode" v="78736"/></node><node id="-247" lat="30.245559" lon="-97.93392" changeset="false"><tag k="addr:street" v="Circle Drive"/><tag k="addr:housenumber" v="10304"/><tag k="addr:postcode" v="78736"/></node><node id="-248" lat="30.246847" lon="-97.926366" changeset="false"><tag k="addr:street" v="Thomas Springs Road"/><tag k="addr:housenumber" v="8116"/><tag k="addr:postcode" v="78736"/></node><node id="-249" lat="30.255909" lon="-97.915738" changeset="false"><tag k="addr:street" v="Thomas Springs Road"/><tag k="addr:housenumber" v="6900"/><tag k="addr:postcode" v="78736"/></node><node id="-250" lat="30.25594" lon="-97.927018" changeset="false"><tag k="addr:street" v="Indian Scout Trail"/><tag k="addr:housenumber" v="10703"/><tag k="addr:postcode" v="78736"/></node><node id="-251" lat="30.255842" lon="-97.92942" changeset="false"><tag k="addr:street" v="Superview Drive"/><tag k="addr:housenumber" v="10804"/><tag k="addr:postcode" v="78736"/></node><node id="-252" lat="30.284631" lon="-97.919314" changeset="false"><tag k="addr:street" v="Arroyo Canyon Drive"/><tag k="addr:housenumber" v="11015"/><tag k="addr:postcode" v="78736"/></node><node id="-253" lat="30.254469" lon="-97.926334" changeset="false"><tag k="addr:street" v="Lenape Trail"/><tag k="addr:housenumber" v="7401"/><tag k="addr:postcode" v="78736"/></node><node id="-254" lat="30.254691" lon="-97.924528" changeset="false"><tag k="addr:street" v="Thomaswood Lane"/><tag k="addr:housenumber" v="10504"/><tag k="addr:postcode" v="78736"/></node><node id="-255" lat="30.223842" lon="-97.95811" changeset="false"><tag k="addr:street" v="Fitzhugh Road"/><tag k="addr:housenumber" v="11001"/><tag k="addr:postcode" v="78737"/></node><node id="-256" lat="30.239046" lon="-97.937358" changeset="false"><tag k="addr:street" v="Rock Way Drive"/><tag k="addr:housenumber" v="9009"/><tag k="addr:postcode" v="78736"/></node><node id="-257" lat="30.252789" lon="-97.927352" changeset="false"><tag k="addr:street" v="Lenape Trail"/><tag k="addr:housenumber" v="7510"/><tag k="addr:postcode" v="78736"/></node><node id="-258" lat="30.252845" lon="-97.92067" changeset="false"><tag k="addr:street" v="Thomaswood Lane"/><tag k="addr:housenumber" v="10212"/><tag k="addr:postcode" v="78736"/></node><node id="-259" lat="30.255339" lon="-97.934413" changeset="false"><tag k="addr:street" v="Rawhide Trail"/><tag k="addr:housenumber" v="10702"/><tag k="addr:postcode" v="78736"/></node><node id="-260" lat="30.243135" lon="-97.926878" changeset="false"><tag k="addr:street" v="Circle Drive"/><tag k="addr:housenumber" v="9817"/><tag k="addr:postcode" v="78736"/></node><node id="-261" lat="30.249368" lon="-97.926186" changeset="false"><tag k="addr:street" v="Lenape Cove"/><tag k="addr:housenumber" v="9901"/><tag k="addr:postcode" v="78736"/></node><node id="-262" lat="30.247338" lon="-97.9287" changeset="false"><tag k="addr:street" v="Lenape Trail"/><tag k="addr:housenumber" v="8000"/><tag k="addr:postcode" v="78736"/></node><node id="-263" lat="30.2465" lon="-97.928717" changeset="false"><tag k="addr:street" v="Circle Drive"/><tag k="addr:housenumber" v="10021"/><tag k="addr:postcode" v="78736"/></node><node id="-264" lat="30.227017" lon="-97.952244" changeset="false"><tag k="addr:street" v="Circle Drive"/><tag k="addr:housenumber" v="11140"/><tag k="addr:postcode" v="78736"/></node><node id="-265" lat="30.252379" lon="-97.920206" changeset="false"><tag k="addr:street" v="Thomaswood Lane"/><tag k="addr:housenumber" v="10208"/><tag k="addr:postcode" v="78736"/></node><node id="-266" lat="30.254651" lon="-97.926767" changeset="false"><tag k="addr:street" v="Lenape Trail"/><tag k="addr:housenumber" v="7400"/><tag k="addr:postcode" v="78736"/></node><node id="-267" lat="30.282693" lon="-97.918065" changeset="false"><tag k="addr:street" v="Arroyo Canyon Drive"/><tag k="addr:housenumber" v="11005"/><tag k="addr:postcode" v="78736"/></node><node id="-268" lat="30.282491" lon="-97.930549" changeset="false"><tag k="addr:street" v="Overlook Pass"/><tag k="addr:housenumber" v="11945"/><tag k="addr:postcode" v="78736"/></node><node id="-269" lat="30.253312" lon="-97.925186" changeset="false"><tag k="addr:street" v="Superview Drive"/><tag k="addr:housenumber" v="10503"/><tag k="addr:postcode" v="78736"/></node><node id="-270" lat="30.251125" lon="-97.927786" changeset="false"><tag k="addr:street" v="Lenape Trail"/><tag k="addr:housenumber" v="7608"/><tag k="addr:postcode" v="78736"/></node><node id="-271" lat="30.25089" lon="-97.92731" changeset="false"><tag k="addr:street" v="Lenape Trail"/><tag k="addr:housenumber" v="7613"/><tag k="addr:postcode" v="78736"/></node><node id="-272" lat="30.250354" lon="-97.931858" changeset="false"><tag k="addr:street" v="Rawhide Trail"/><tag k="addr:housenumber" v="10309"/><tag k="addr:postcode" v="78736"/></node><node id="-273" lat="30.259789" lon="-97.91338" changeset="false"><tag k="addr:street" v="Blue Hill Drive"/><tag k="addr:housenumber" v="9701"/><tag k="addr:postcode" v="78736"/></node><node id="-274" lat="30.227453" lon="-97.951816" changeset="false"><tag k="addr:street" v="Circle Drive"/><tag k="addr:housenumber" v="11130"/><tag k="addr:postcode" v="78736"/></node><node id="-275" lat="30.253814" lon="-97.927929" changeset="false"><tag k="addr:street" v="Superview Drive"/><tag k="addr:housenumber" v="10609"/><tag k="addr:postcode" v="78736"/></node><node id="-276" lat="30.249929" lon="-97.92724" changeset="false"><tag k="addr:street" v="Lenape Trail"/><tag k="addr:housenumber" v="7700"/><tag k="addr:postcode" v="78736"/></node><node id="-277" lat="30.249125" lon="-97.926441" changeset="false"><tag k="addr:street" v="Lenape Cove"/><tag k="addr:housenumber" v="9903"/><tag k="addr:postcode" v="78736"/></node><node id="-278" lat="30.262417" lon="-97.916249" changeset="false"><tag k="addr:street" v="Blue Hill Drive"/><tag k="addr:housenumber" v="9904"/><tag k="addr:postcode" v="78736"/></node><node id="-279" lat="30.252501" lon="-97.918903" changeset="false"><tag k="addr:street" v="Thomas Springs Road"/><tag k="addr:housenumber" v="7300"/><tag k="addr:postcode" v="78736"/></node><node id="-280" lat="30.252032" lon="-97.920627" changeset="false"><tag k="addr:street" v="Rising Smoke Loop"/><tag k="addr:housenumber" v="10200"/><tag k="addr:postcode" v="78736"/></node><node id="-281" lat="30.227146" lon="-97.954938" changeset="false"><tag k="addr:street" v="Tangleridge Circle"/><tag k="addr:housenumber" v="11035"/><tag k="addr:postcode" v="78736"/></node><node id="-282" lat="30.255104" lon="-97.928622" changeset="false"><tag k="addr:street" v="Superview Drive"/><tag k="addr:housenumber" v="10709"/><tag k="addr:postcode" v="78736"/></node><node id="-283" lat="30.231523" lon="-97.951869" changeset="false"><tag k="addr:street" v="Hillside Drive"/><tag k="addr:housenumber" v="11008"/><tag k="addr:postcode" v="78736"/></node><node id="-284" lat="30.229769" lon="-97.942802" changeset="false"><tag k="addr:street" v="Oliver Drive"/><tag k="addr:housenumber" v="9915"/><tag k="addr:postcode" v="78736"/></node><node id="-285" lat="30.233152" lon="-97.978558" changeset="false"><tag k="addr:street" v="Fitzhugh Road"/><tag k="addr:housenumber" v="12120"/><tag k="addr:postcode" v="78736"/></node><node id="-286" lat="30.251656" lon="-97.927662" changeset="false"><tag k="addr:street" v="Lenape Trail"/><tag k="addr:housenumber" v="7604"/><tag k="addr:postcode" v="78736"/></node><node id="-287" lat="30.253798" lon="-97.923411" changeset="false"><tag k="addr:street" v="Thomaswood Lane"/><tag k="addr:housenumber" v="10411"/><tag k="addr:postcode" v="78736"/></node><node id="-288" lat="30.249169" lon="-97.922187" changeset="false"><tag k="addr:street" v="Thomas Springs Road"/><tag k="addr:housenumber" v="7614"/><tag k="addr:postcode" v="78736"/></node><node id="-289" lat="30.24756" lon="-97.928179" changeset="false"><tag k="addr:street" v="Lenape Trail"/><tag k="addr:housenumber" v="7903"/><tag k="addr:postcode" v="78736"/></node><node id="-290" lat="30.254542" lon="-97.920064" changeset="false"><tag k="addr:street" v="Thomas Springs Road"/><tag k="addr:housenumber" v="7200"/><tag k="addr:postcode" v="78736"/></node><node id="-291" lat="30.254938" lon="-97.926106" changeset="false"><tag k="addr:street" v="Lenape Trail"/><tag k="addr:housenumber" v="7309"/><tag k="addr:postcode" v="78736"/></node><node id="-292" lat="30.228695" lon="-97.944578" changeset="false"><tag k="addr:street" v="Oliver Circle"/><tag k="addr:housenumber" v="10604"/><tag k="addr:postcode" v="78736"/></node><node id="-293" lat="30.241449" lon="-97.93483" changeset="false"><tag k="addr:street" v="Jim Davis Place"/><tag k="addr:housenumber" v="8805"/><tag k="addr:postcode" v="78736"/></node><node id="-294" lat="30.25487" lon="-97.924993" changeset="false"><tag k="addr:street" v="Thomaswood Lane"/><tag k="addr:housenumber" v="10508"/><tag k="addr:postcode" v="78736"/></node><node id="-295" lat="30.253634" lon="-97.926685" changeset="false"><tag k="addr:street" v="Lenape Trail"/><tag k="addr:housenumber" v="7409"/><tag k="addr:postcode" v="78736"/></node><node id="-296" lat="30.25335" lon="-97.922547" changeset="false"><tag k="addr:street" v="Thomaswood Lane"/><tag k="addr:housenumber" v="10401"/><tag k="addr:postcode" v="78736"/></node><node id="-297" lat="30.253224" lon="-97.926789" changeset="false"><tag k="addr:street" v="Lenape Trail"/><tag k="addr:housenumber" v="7501"/><tag k="addr:postcode" v="78736"/></node><node id="-298" lat="30.247834" lon="-97.927976" changeset="false"><tag k="addr:street" v="Lenape Trail"/><tag k="addr:housenumber" v="7901"/><tag k="addr:postcode" v="78736"/></node><node id="-299" lat="30.235803" lon="-97.914185" changeset="false"><tag k="addr:street" v="Circle Drive"/><tag k="addr:housenumber" v="8917"/><tag k="addr:postcode" v="78736"/></node><node id="-300" lat="30.220432" lon="-97.980475" changeset="false"><tag k="addr:street" v="Oak Branch Drive"/><tag k="addr:housenumber" v="11800"/><tag k="addr:postcode" v="78737"/></node><node id="-301" lat="30.23802" lon="-97.934395" changeset="false"><tag k="addr:street" v="Oak Valley Trail"/><tag k="addr:housenumber" v="10400"/><tag k="addr:postcode" v="78736"/></node><node id="-302" lat="30.245757" lon="-97.932407" changeset="false"><tag k="addr:street" v="Circle Drive"/><tag k="addr:housenumber" v="10213"/><tag k="addr:postcode" v="78736"/></node><node id="-303" lat="30.248314" lon="-97.928089" changeset="false"><tag k="addr:street" v="Lenape Trail"/><tag k="addr:housenumber" v="7808"/><tag k="addr:postcode" v="78736"/></node><node id="-304" lat="30.232224" lon="-97.952152" changeset="false"><tag k="addr:street" v="Hillside Drive"/><tag k="addr:housenumber" v="11012"/><tag k="addr:postcode" v="78736"/></node><node id="-305" lat="30.230952" lon="-97.951172" changeset="false"><tag k="addr:street" v="Hillside Drive"/><tag k="addr:housenumber" v="11002"/><tag k="addr:postcode" v="78736"/></node><node id="-306" lat="30.229032" lon="-97.94198" changeset="false"><tag k="addr:street" v="Oliver Drive"/><tag k="addr:housenumber" v="9923"/><tag k="addr:postcode" v="78736"/></node><node id="-307" lat="30.231941" lon="-97.977777" changeset="false"><tag k="addr:street" v="Fitzhugh Road"/><tag k="addr:housenumber" v="12013"/><tag k="addr:postcode" v="78737"/></node><node id="-308" lat="30.254181" lon="-97.927683" changeset="false"><tag k="addr:street" v="Superview Drive"/><tag k="addr:housenumber" v="10608"/><tag k="addr:postcode" v="78736"/></node><node id="-309" lat="30.25385" lon="-97.925259" changeset="false"><tag k="addr:street" v="Superview Drive"/><tag k="addr:housenumber" v="10502"/><tag k="addr:postcode" v="78736"/></node><node id="-310" lat="30.256118" lon="-97.928032" changeset="false"><tag k="addr:street" v="Indian Scout Trail"/><tag k="addr:housenumber" v="10708"/><tag k="addr:postcode" v="78736"/></node><node id="-311" lat="30.22485" lon="-97.958702" changeset="false"><tag k="addr:street" v="Fitzhugh Road"/><tag k="addr:housenumber" v="10944"/><tag k="addr:postcode" v="78736"/></node><node id="-312" lat="30.249165" lon="-97.926832" changeset="false"><tag k="addr:street" v="Lenape Cove"/><tag k="addr:housenumber" v="9905"/><tag k="addr:postcode" v="78736"/></node><node id="-313" lat="30.252493" lon="-97.920985" changeset="false"><tag k="addr:street" v="Thomaswood Lane"/><tag k="addr:housenumber" v="10213"/><tag k="addr:postcode" v="78736"/></node><node id="-314" lat="30.252039" lon="-97.9201" changeset="false"><tag k="addr:street" v="Thomaswood Lane"/><tag k="addr:housenumber" v="10204"/><tag k="addr:postcode" v="78736"/></node><node id="-315" lat="30.226025" lon="-97.967839" changeset="false"><tag k="addr:street" v="Fitzhugh Road"/><tag k="addr:housenumber" v="11221"/><tag k="addr:postcode" v="78737"/></node><node id="-316" lat="30.224973" lon="-97.95954" changeset="false"><tag k="addr:street" v="Fitzhugh Road"/><tag k="addr:housenumber" v="11070"/><tag k="addr:postcode" v="78736"/></node></osm>