<?xml version="1.0" encoding="UTF-8"?><osm version="0.6" generator="github.com/aaronlidman/osm-and-geojson"><node id="-1" lat="30.370845" lon="-97.733387" changeset="false"><tag k="addr:street" v="Little Laura Drive"/><tag k="addr:housenumber" v="8613"/></node><node id="-2" lat="30.376075" lon="-97.735066" changeset="false"><tag k="addr:street" v="Shoal Creek Boulevard"/><tag k="addr:housenumber" v="8814"/></node><node id="-3" lat="30.369958" lon="-97.736149" changeset="false"><tag k="addr:street" v="Millway Drive"/><tag k="addr:housenumber" v="8503"/></node><node id="-4" lat="30.369407" lon="-97.737482" changeset="false"><tag k="addr:street" v="Shoal Creek Boulevard"/><tag k="addr:housenumber" v="8403"/></node><node id="-5" lat="30.375105" lon="-97.732972" changeset="false"><tag k="addr:street" v="Shoal Creek Boulevard"/><tag k="addr:housenumber" v="8929"/></node><node id="-6" lat="30.37491" lon="-97.736114" changeset="false"><tag k="addr:street" v="Shoal Creek Boulevard"/><tag k="addr:housenumber" v="8802"/></node><node id="-7" lat="30.370039" lon="-97.738107" changeset="false"><tag k="addr:street" v="Shoal Creek Boulevard"/><tag k="addr:housenumber" v="8500"/></node><node id="-8" lat="30.371529" lon="-97.734275" changeset="false"><tag k="addr:street" v="Little Laura Drive"/><tag k="addr:housenumber" v="8610"/></node><node id="-9" lat="30.374745" lon="-97.735429" changeset="false"><tag k="addr:street" v="Shoal Creek Boulevard"/><tag k="addr:housenumber" v="8733"/></node><node id="-10" lat="30.373568" lon="-97.736316" changeset="false"><tag k="addr:street" v="Shoal Creek Boulevard"/><tag k="addr:housenumber" v="8705"/></node><node id="-11" lat="30.372105" lon="-97.734597" changeset="false"><tag k="addr:street" v="Dawnridge Circle"/><tag k="addr:housenumber" v="8609"/></node><node id="-12" lat="30.373736" lon="-97.736637" changeset="false"><tag k="addr:street" v="Shoal Creek Boulevard"/><tag k="addr:housenumber" v="8708"/></node><node id="-13" lat="30.368223" lon="-97.737546" changeset="false"><tag k="addr:street" v="Shoal Creek Boulevard"/><tag k="addr:housenumber" v="8305"/></node><node id="-14" lat="30.370329" lon="-97.735991" changeset="false"><tag k="addr:street" v="Millway Drive"/><tag k="addr:housenumber" v="8507"/></node><node id="-15" lat="30.37105" lon="-97.73712" changeset="false"><tag k="addr:street" v="Shoal Creek Boulevard"/><tag k="addr:housenumber" v="8525"/></node><node id="-16" lat="30.368554" lon="-97.736502" changeset="false"><tag k="addr:street" v="Millway Drive"/><tag k="addr:housenumber" v="8401"/></node><node id="-17" lat="30.375336" lon="-97.73487" changeset="false"><tag k="addr:street" v="Shoal Creek Boulevard"/><tag k="addr:housenumber" v="8818"/></node><node id="-18" lat="30.365737" lon="-97.736489" changeset="false"><tag k="addr:street" v="Daleview Drive"/><tag k="addr:housenumber" v="8200"/></node><node id="-19" lat="30.373791" lon="-97.732979" changeset="false"><tag k="addr:street" v="Thrushwood Drive"/><tag k="addr:housenumber" v="2928"/></node><node id="-20" lat="30.36858" lon="-97.73256" changeset="false"><tag k="addr:street" v="Rockwood Lane"/><tag k="addr:housenumber" v="8500"/></node><node id="-21" lat="30.375895" lon="-97.734998" changeset="false"><tag k="addr:street" v="Shoal Creek Boulevard"/><tag k="addr:housenumber" v="8806"/></node><node id="-22" lat="30.370778" lon="-97.738051" changeset="false"><tag k="addr:street" v="Shoal Creek Boulevard"/><tag k="addr:housenumber" v="8512"/></node><node id="-23" lat="30.373765" lon="-97.729281" changeset="false"><tag k="addr:street" v="Research Boulevard,1100"/><tag k="addr:housenumber" v="9100"/></node><node id="-24" lat="30.367858" lon="-97.73759" changeset="false"><tag k="addr:street" v="Shoal Creek Boulevard"/><tag k="addr:housenumber" v="8301"/></node><node id="-25" lat="30.370114" lon="-97.737315" changeset="false"><tag k="addr:street" v="Shoal Creek Boulevard"/><tag k="addr:housenumber" v="8505"/></node><node id="-26" lat="30.367489" lon="-97.740279" changeset="false"><tag k="addr:street" v="Steck Avenue"/><tag k="addr:housenumber" v="3416"/></node><node id="-27" lat="30.367233" lon="-97.739763" changeset="false"><tag k="addr:street" v="Steck Avenue"/><tag k="addr:housenumber" v="3400"/></node><node id="-28" lat="30.371966" lon="-97.737463" changeset="false"><tag k="addr:street" v="Shoal Creek Boulevard"/><tag k="addr:housenumber" v="8610"/></node><node id="-29" lat="30.369462" lon="-97.733254" changeset="false"><tag k="addr:street" v="Crosscreek Drive"/><tag k="addr:housenumber" v="3025"/></node><node id="-30" lat="30.370525" lon="-97.738075" changeset="false"><tag k="addr:street" v="Shoal Creek Boulevard"/><tag k="addr:housenumber" v="8510"/></node><node id="-31" lat="30.367807" lon="-97.733997" changeset="false"><tag k="addr:street" v="Franwood Lane"/><tag k="addr:housenumber" v="8401"/></node><node id="-32" lat="30.368413" lon="-97.737538" changeset="false"><tag k="addr:street" v="Shoal Creek Boulevard"/><tag k="addr:housenumber" v="8307"/></node><node id="-33" lat="30.370656" lon="-97.737191" changeset="false"><tag k="addr:street" v="Shoal Creek Boulevard"/><tag k="addr:housenumber" v="8515"/></node><node id="-34" lat="30.374776" lon="-97.731796" changeset="false"><tag k="addr:street" v="Research Boulevard,1100"/><tag k="addr:housenumber" v="9160"/></node><node id="-35" lat="30.369786" lon="-97.736194" changeset="false"><tag k="addr:street" v="Millway Drive"/><tag k="addr:housenumber" v="8501"/></node><node id="-36" lat="30.370836" lon="-97.732631" changeset="false"><tag k="addr:street" v="Donna Gail Drive"/><tag k="addr:housenumber" v="8601"/></node><node id="-37" lat="30.370218" lon="-97.738119" changeset="false"><tag k="addr:street" v="Shoal Creek Boulevard"/><tag k="addr:housenumber" v="8502"/></node><node id="-38" lat="30.372877" lon="-97.736394" changeset="false"><tag k="addr:street" v="Shoal Creek Boulevard"/><tag k="addr:housenumber" v="8701"/></node><node id="-39" lat="30.36983" lon="-97.738131" changeset="false"><tag k="addr:street" v="Shoal Creek Boulevard"/><tag k="addr:housenumber" v="8406"/></node><node id="-40" lat="30.371661" lon="-97.72967" changeset="false"><tag k="addr:street" v="Thrushwood Drive"/><tag k="addr:housenumber" v="2703"/></node><node id="-41" lat="30.373959" lon="-97.729999" changeset="false"><tag k="addr:street" v="Research Boulevard,1100"/><tag k="addr:housenumber" v="9118"/></node><node id="-42" lat="30.376261" lon="-97.735044" changeset="false"><tag k="addr:street" v="Shoal Creek Boulevard"/><tag k="addr:housenumber" v="8824"/></node><node id="-43" lat="30.371873" lon="-97.731432" changeset="false"><tag k="addr:street" v="Donna Gail Drive"/><tag k="addr:housenumber" v="8704"/></node><node id="-44" lat="30.375288" lon="-97.735581" changeset="false"><tag k="addr:street" v="Shoal Creek Boulevard"/><tag k="addr:housenumber" v="8810"/></node><node id="-45" lat="30.375474" lon="-97.735564" changeset="false"><tag k="addr:street" v="Shoal Creek Boulevard"/><tag k="addr:housenumber" v="8812"/></node><node id="-46" lat="30.376269" lon="-97.736395" changeset="false"><tag k="addr:street" v="Shoal Creek Boulevard"/><tag k="addr:housenumber" v="8748"/></node><node id="-47" lat="30.376302" lon="-97.736369" changeset="false"><tag k="addr:street" v="Shoal Creek Boulevard"/><tag k="addr:housenumber" v="8750"/></node><node id="-48" lat="30.377267" lon="-97.736097" changeset="false"><tag k="addr:street" v="Research Boulevard,1100"/><tag k="addr:housenumber" v="9230"/></node><node id="-49" lat="30.376747" lon="-97.736211" changeset="false"><tag k="addr:street" v="Research Boulevard,1100"/><tag k="addr:housenumber" v="9222"/></node><node id="-50" lat="30.376047" lon="-97.7364" changeset="false"><tag k="addr:street" v="Shoal Creek Boulevard"/><tag k="addr:housenumber" v="8744"/></node><node id="-51" lat="30.37648" lon="-97.736329" changeset="false"><tag k="addr:street" v="Research Boulevard,1100"/><tag k="addr:housenumber" v="9220"/></node><node id="-52" lat="30.376079" lon="-97.736374" changeset="false"><tag k="addr:street" v="Shoal Creek Boulevard"/><tag k="addr:housenumber" v="8746"/></node><node id="-53" lat="30.377382" lon="-97.73618" changeset="false"><tag k="addr:street" v="Research Boulevard,1100"/><tag k="addr:housenumber" v="9232"/></node><node id="-54" lat="30.376983" lon="-97.736008" changeset="false"><tag k="addr:street" v="Research Boulevard,1100"/><tag k="addr:housenumber" v="9224"/></node><node id="-55" lat="30.375612" lon="-97.736608" changeset="false"><tag k="addr:street" v="Shoal Creek Boulevard"/><tag k="addr:housenumber" v="8742"/></node><node id="-56" lat="30.377073" lon="-97.736161" changeset="false"><tag k="addr:street" v="Research Boulevard,1100"/><tag k="addr:housenumber" v="9226"/></node><node id="-57" lat="30.368803" lon="-97.737535" changeset="false"><tag k="addr:street" v="Shoal Creek Boulevard"/><tag k="addr:housenumber" v="8311"/></node><node id="-58" lat="30.369187" lon="-97.737492" changeset="false"><tag k="addr:street" v="Shoal Creek Boulevard"/><tag k="addr:housenumber" v="8401"/></node></osm>