<?xml version="1.0" encoding="UTF-8"?><osm version="0.6" generator="github.com/aaronlidman/osm-and-geojson"><node id="-1" lat="30.150879" lon="-97.816861" changeset="false"><tag k="addr:street" v="Watchful Fox Drive"/><tag k="addr:housenumber" v="11016"/><tag k="addr:postcode" v="78748"/></node><node id="-2" lat="30.150362" lon="-97.821371" changeset="false"><tag k="addr:street" v="Slaughter Creek Drive"/><tag k="addr:housenumber" v="11236"/><tag k="addr:postcode" v="78748"/></node><node id="-3" lat="30.156217" lon="-97.812741" changeset="false"><tag k="addr:street" v="Decker Prairie Drive"/><tag k="addr:housenumber" v="700"/><tag k="addr:postcode" v="78748"/></node><node id="-4" lat="30.156778" lon="-97.82026" changeset="false"><tag k="addr:street" v="Penion Drive"/><tag k="addr:housenumber" v="911"/><tag k="addr:postcode" v="78748"/></node><node id="-5" lat="30.164789" lon="-97.821223" changeset="false"><tag k="addr:street" v="Slaughter Creek Drive"/><tag k="addr:housenumber" v="10109"/><tag k="addr:postcode" v="78748"/></node><node id="-6" lat="30.157703" lon="-97.818205" changeset="false"><tag k="addr:street" v="Slaughter Creek Drive"/><tag k="addr:housenumber" v="10801"/><tag k="addr:postcode" v="78748"/></node><node id="-7" lat="30.161559" lon="-97.81972" changeset="false"><tag k="addr:street" v="Etta Lane"/><tag k="addr:housenumber" v="10505"/><tag k="addr:postcode" v="78748"/></node><node id="-8" lat="30.158448" lon="-97.823976" changeset="false"><tag k="addr:street" v="Creek View Drive"/><tag k="addr:housenumber" v="10706"/><tag k="addr:postcode" v="78748"/></node><node id="-9" lat="30.150382" lon="-97.816438" changeset="false"><tag k="addr:street" v="Watchful Fox Drive"/><tag k="addr:housenumber" v="11022"/><tag k="addr:postcode" v="78748"/></node><node id="-10" lat="30.160529" lon="-97.817901" changeset="false"><tag k="addr:street" v="Etta Lane"/><tag k="addr:housenumber" v="10603"/><tag k="addr:postcode" v="78748"/></node><node id="-11" lat="30.155941" lon="-97.824438" changeset="false"><tag k="addr:street" v="Penion Drive"/><tag k="addr:housenumber" v="1122"/><tag k="addr:postcode" v="78748"/></node><node id="-12" lat="30.160479" lon="-97.803765" changeset="false"><tag k="addr:street" v="Grizzly Oak Dr"/><tag k="addr:housenumber" v="10004"/><tag k="addr:postcode" v="78748"/></node><node id="-13" lat="30.15714" lon="-97.817712" changeset="false"><tag k="addr:street" v="Slaughter Creek Drive"/><tag k="addr:housenumber" v="10807"/><tag k="addr:postcode" v="78748"/></node><node id="-14" lat="30.159295" lon="-97.815266" changeset="false"><tag k="addr:street" v="Bilbrook Place"/><tag k="addr:housenumber" v="10523"/><tag k="addr:postcode" v="78748"/></node><node id="-15" lat="30.150283" lon="-97.81627" changeset="false"><tag k="addr:street" v="Watchful Fox Drive"/><tag k="addr:housenumber" v="11024"/><tag k="addr:postcode" v="78748"/></node><node id="-16" lat="30.16049" lon="-97.81942" changeset="false"><tag k="addr:street" v="Etta Lane"/><tag k="addr:housenumber" v="10506"/><tag k="addr:postcode" v="78748"/></node><node id="-17" lat="30.159632" lon="-97.802394" changeset="false"><tag k="addr:street" v="Angel Oak Street"/><tag k="addr:housenumber" v="400"/><tag k="addr:postcode" v="78748"/></node><node id="-18" lat="30.156098" lon="-97.802263" changeset="false"><tag k="addr:street" v="Salem Oak Cv"/><tag k="addr:housenumber" v="10208"/><tag k="addr:postcode" v="78748"/></node><node id="-19" lat="30.157033" lon="-97.803242" changeset="false"><tag k="addr:street" v="Hogg Pecan Pass"/><tag k="addr:housenumber" v="400"/><tag k="addr:postcode" v="78748"/></node><node id="-20" lat="30.162496" lon="-97.822828" changeset="false"><tag k="addr:street" v="Slaughter Creek Drive"/><tag k="addr:housenumber" v="10410"/><tag k="addr:postcode" v="78748"/></node><node id="-21" lat="30.15114" lon="-97.814971" changeset="false"><tag k="addr:street" v="Kingfisher Creek Drive"/><tag k="addr:housenumber" v="620"/><tag k="addr:postcode" v="78748"/></node><node id="-22" lat="30.148749" lon="-97.813122" changeset="false"><tag k="addr:street" v="Kingfisher Creek Drive"/><tag k="addr:housenumber" v="500"/><tag k="addr:postcode" v="78748"/></node><node id="-23" lat="30.162089" lon="-97.812504" changeset="false"><tag k="addr:street" v="David Moore Drive"/><tag k="addr:housenumber" v="10201"/><tag k="addr:postcode" v="78748"/></node><node id="-24" lat="30.157489" lon="-97.801834" changeset="false"><tag k="addr:street" v="Island Oak Drive"/><tag k="addr:housenumber" v="301"/><tag k="addr:postcode" v="78748"/></node><node id="-25" lat="30.157208" lon="-97.82193" changeset="false"><tag k="addr:street" v="Penion Drive"/><tag k="addr:housenumber" v="1009"/><tag k="addr:postcode" v="78748"/></node><node id="-26" lat="30.155013" lon="-97.817109" changeset="false"><tag k="addr:street" v="Watchful Fox Drive"/><tag k="addr:housenumber" v="10806"/><tag k="addr:postcode" v="78748"/></node><node id="-27" lat="30.155397" lon="-97.824045" changeset="false"><tag k="addr:street" v="Penion Drive"/><tag k="addr:housenumber" v="1133"/><tag k="addr:postcode" v="78748"/></node><node id="-28" lat="30.15909" lon="-97.818255" changeset="false"><tag k="addr:street" v="Etta Lane"/><tag k="addr:housenumber" v="10613"/><tag k="addr:postcode" v="78748"/></node><node id="-29" lat="30.159099" lon="-97.818879" changeset="false"><tag k="addr:street" v="Etta Lane"/><tag k="addr:housenumber" v="10615"/><tag k="addr:postcode" v="78748"/></node><node id="-30" lat="30.155275" lon="-97.818251" changeset="false"><tag k="addr:street" v="Slaughter Creek Drive"/><tag k="addr:housenumber" v="10913"/><tag k="addr:postcode" v="78748"/></node><node id="-31" lat="30.16152" lon="-97.820328" changeset="false"><tag k="addr:street" v="Slaughter Creek Drive"/><tag k="addr:housenumber" v="10505"/><tag k="addr:postcode" v="78748"/></node><node id="-32" lat="30.165213" lon="-97.822153" changeset="false"><tag k="addr:street" v="Slaughter Creek Drive"/><tag k="addr:housenumber" v="10200"/><tag k="addr:postcode" v="78748"/></node><node id="-33" lat="30.159826" lon="-97.81976" changeset="false"><tag k="addr:street" v="Etta Lane"/><tag k="addr:housenumber" v="10620"/><tag k="addr:postcode" v="78748"/></node><node id="-34" lat="30.156337" lon="-97.824273" changeset="false"><tag k="addr:street" v="Penion Drive"/><tag k="addr:housenumber" v="1116"/><tag k="addr:postcode" v="78748"/></node><node id="-35" lat="30.158681" lon="-97.812733" changeset="false"><tag k="addr:street" v="Bilbrook Place"/><tag k="addr:housenumber" v="10552"/><tag k="addr:postcode" v="78748"/></node><node id="-36" lat="30.157919" lon="-97.801495" changeset="false"><tag k="addr:street" v="Island Oak Drive"/><tag k="addr:housenumber" v="300"/><tag k="addr:postcode" v="78748"/></node><node id="-37" lat="30.158939" lon="-97.823874" changeset="false"><tag k="addr:street" v="Creek View Drive"/><tag k="addr:housenumber" v="10704"/><tag k="addr:postcode" v="78748"/></node><node id="-38" lat="30.15434" lon="-97.802374" changeset="false"><tag k="addr:street" v="Camperdown Elm Dr"/><tag k="addr:housenumber" v="213"/><tag k="addr:postcode" v="78748"/></node><node id="-39" lat="30.156726" lon="-97.81946" changeset="false"><tag k="addr:street" v="Slaughter Creek Drive"/><tag k="addr:housenumber" v="10808"/><tag k="addr:postcode" v="78748"/></node><node id="-40" lat="30.152877" lon="-97.818925" changeset="false"><tag k="addr:street" v="Chappell Lane"/><tag k="addr:housenumber" v="900"/><tag k="addr:postcode" v="78748"/></node><node id="-41" lat="30.148817" lon="-97.813906" changeset="false"><tag k="addr:street" v="Kingfisher Creek Drive"/><tag k="addr:housenumber" v="505"/><tag k="addr:postcode" v="78748"/></node><node id="-42" lat="30.148687" lon="-97.813727" changeset="false"><tag k="addr:street" v="Kingfisher Creek Drive"/><tag k="addr:housenumber" v="503"/><tag k="addr:postcode" v="78748"/></node><node id="-43" lat="30.163199" lon="-97.82261" changeset="false"><tag k="addr:street" v="Slaughter Creek Drive"/><tag k="addr:housenumber" v="10400"/><tag k="addr:postcode" v="78748"/></node><node id="-44" lat="30.156813" lon="-97.820662" changeset="false"><tag k="addr:street" v="Penion Drive"/><tag k="addr:housenumber" v="915"/><tag k="addr:postcode" v="78748"/></node><node id="-45" lat="30.151284" lon="-97.815042" changeset="false"><tag k="addr:street" v="Kingfisher Creek Drive"/><tag k="addr:housenumber" v="622"/><tag k="addr:postcode" v="78748"/></node><node id="-46" lat="30.151845" lon="-97.816273" changeset="false"><tag k="addr:street" v="Kingfisher Creek Drive"/><tag k="addr:housenumber" v="700"/><tag k="addr:postcode" v="78748"/></node><node id="-47" lat="30.1614" lon="-97.815458" changeset="false"><tag k="addr:street" v="Angleton Cove"/><tag k="addr:housenumber" v="802"/><tag k="addr:postcode" v="78748"/></node><node id="-48" lat="30.156238" lon="-97.814241" changeset="false"><tag k="addr:street" v="Decker Prairie Drive"/><tag k="addr:housenumber" v="718"/><tag k="addr:postcode" v="78748"/></node><node id="-49" lat="30.159359" lon="-97.810552" changeset="false"><tag k="addr:street" v="Cayuse Cove"/><tag k="addr:housenumber" v="10425"/><tag k="addr:postcode" v="78748"/></node><node id="-50" lat="30.157133" lon="-97.819108" changeset="false"><tag k="addr:street" v="Slaughter Creek Drive"/><tag k="addr:housenumber" v="10810"/><tag k="addr:postcode" v="78748"/></node><node id="-51" lat="30.15672" lon="-97.800697" changeset="false"><tag k="addr:street" v="English Oak Drive"/><tag k="addr:housenumber" v="10205"/><tag k="addr:postcode" v="78748"/></node><node id="-52" lat="30.156704" lon="-97.802792" changeset="false"><tag k="addr:street" v="Hogg Pecan Pass"/><tag k="addr:housenumber" v="316"/><tag k="addr:postcode" v="78748"/></node><node id="-53" lat="30.156932" lon="-97.803094" changeset="false"><tag k="addr:street" v="Hogg Pecan Pass"/><tag k="addr:housenumber" v="324"/><tag k="addr:postcode" v="78748"/></node><node id="-54" lat="30.157858" lon="-97.802858" changeset="false"><tag k="addr:street" v="Kissing Oak Drive"/><tag k="addr:housenumber" v="320"/><tag k="addr:postcode" v="78748"/></node><node id="-55" lat="30.158357" lon="-97.800585" changeset="false"><tag k="addr:street" v="South 1st Street"/><tag k="addr:housenumber" v="10100 1/2"/><tag k="addr:postcode" v="78748"/></node><node id="-56" lat="30.159674" lon="-97.815079" changeset="false"><tag k="addr:street" v="Shiny Rock Drive"/><tag k="addr:housenumber" v="735"/><tag k="addr:postcode" v="78748"/></node><node id="-57" lat="30.161087" lon="-97.81789" changeset="false"><tag k="addr:street" v="Etta Lane"/><tag k="addr:housenumber" v="10515"/><tag k="addr:postcode" v="78748"/></node><node id="-58" lat="30.15043" lon="-97.817478" changeset="false"><tag k="addr:street" v="Hidatas Cove"/><tag k="addr:housenumber" v="709"/><tag k="addr:postcode" v="78748"/></node><node id="-59" lat="30.150197" lon="-97.816118" changeset="false"><tag k="addr:street" v="Watchful Fox Drive"/><tag k="addr:housenumber" v="11026"/><tag k="addr:postcode" v="78748"/></node><node id="-60" lat="30.155108" lon="-97.800533" changeset="false"><tag k="addr:street" v="South 1st Street"/><tag k="addr:housenumber" v="10310"/><tag k="addr:postcode" v="78748"/></node><node id="-61" lat="30.153092" lon="-97.815794" changeset="false"><tag k="addr:street" v="Fairchild Drive"/><tag k="addr:housenumber" v="701"/><tag k="addr:postcode" v="78748"/></node><node id="-62" lat="30.152884" lon="-97.817644" changeset="false"><tag k="addr:street" v="Chappell Lane"/><tag k="addr:housenumber" v="810"/><tag k="addr:postcode" v="78748"/></node><node id="-63" lat="30.154564" lon="-97.821665" changeset="false"><tag k="addr:street" v="Chappell Lane"/><tag k="addr:housenumber" v="1040"/><tag k="addr:postcode" v="78748"/></node><node id="-64" lat="30.150442" lon="-97.820606" changeset="false"><tag k="addr:street" v="Slaughter Creek Drive"/><tag k="addr:housenumber" v="11224"/><tag k="addr:postcode" v="78748"/></node><node id="-65" lat="30.162108" lon="-97.820409" changeset="false"><tag k="addr:street" v="Slaughter Creek Drive"/><tag k="addr:housenumber" v="10501"/><tag k="addr:postcode" v="78748"/></node><node id="-66" lat="30.157686" lon="-97.801223" changeset="false"><tag k="addr:street" v="Auction Oak Drive"/><tag k="addr:housenumber" v="10117"/><tag k="addr:postcode" v="78748"/></node><node id="-67" lat="30.160675" lon="-97.822367" changeset="false"><tag k="addr:street" v="Creek View Drive"/><tag k="addr:housenumber" v="10614"/><tag k="addr:postcode" v="78748"/></node><node id="-68" lat="30.150504" lon="-97.817191" changeset="false"><tag k="addr:street" v="Hidatas Cove"/><tag k="addr:housenumber" v="707"/><tag k="addr:postcode" v="78748"/></node><node id="-69" lat="30.154667" lon="-97.816014" changeset="false"><tag k="addr:street" v="Arikara River Drive"/><tag k="addr:housenumber" v="10802"/><tag k="addr:postcode" v="78748"/></node><node id="-70" lat="30.158234" lon="-97.803524" changeset="false"><tag k="addr:street" v="Kissing Oak Drive"/><tag k="addr:housenumber" v="408"/><tag k="addr:postcode" v="78748"/></node><node id="-71" lat="30.159972" lon="-97.80498" changeset="false"><tag k="addr:street" v="Mock Cherry Cv"/><tag k="addr:housenumber" v="417"/><tag k="addr:postcode" v="78748"/></node><node id="-72" lat="30.15419" lon="-97.801753" changeset="false"><tag k="addr:street" v="Camperdown Elm Dr"/><tag k="addr:housenumber" v="205 1/2"/><tag k="addr:postcode" v="78748"/></node><node id="-73" lat="30.160219" lon="-97.804813" changeset="false"><tag k="addr:street" v="Mock Cherry Cv"/><tag k="addr:housenumber" v="416"/><tag k="addr:postcode" v="78748"/></node><node id="-74" lat="30.148618" lon="-97.813406" changeset="false"><tag k="addr:street" v="Kingfisher Creek Drive"/><tag k="addr:housenumber" v="501"/><tag k="addr:postcode" v="78748"/></node><node id="-75" lat="30.157938" lon="-97.822152" changeset="false"><tag k="addr:street" v="Penion Drive"/><tag k="addr:housenumber" v="1008"/><tag k="addr:postcode" v="78748"/></node><node id="-76" lat="30.157219" lon="-97.822588" changeset="false"><tag k="addr:street" v="Penion Drive"/><tag k="addr:housenumber" v="1013"/><tag k="addr:postcode" v="78748"/></node><node id="-77" lat="30.150139" lon="-97.815947" changeset="false"><tag k="addr:street" v="Watchful Fox Drive"/><tag k="addr:housenumber" v="11028"/><tag k="addr:postcode" v="78748"/></node><node id="-78" lat="30.160312" lon="-97.823485" changeset="false"><tag k="addr:street" v="Creek View Drive"/><tag k="addr:housenumber" v="10620"/><tag k="addr:postcode" v="78748"/></node><node id="-79" lat="30.150266" lon="-97.818517" changeset="false"><tag k="addr:street" v="Slaughter Creek Drive"/><tag k="addr:housenumber" v="11211"/><tag k="addr:postcode" v="78748"/></node><node id="-80" lat="30.157823" lon="-97.81441" changeset="false"><tag k="addr:street" v="Watchful Fox Drive"/><tag k="addr:housenumber" v="10601"/><tag k="addr:postcode" v="78748"/></node><node id="-81" lat="30.159261" lon="-97.820111" changeset="false"><tag k="addr:street" v="Slaughter Creek Drive"/><tag k="addr:housenumber" v="10614"/><tag k="addr:postcode" v="78748"/></node><node id="-82" lat="30.157851" lon="-97.800818" changeset="false"><tag k="addr:street" v="Auction Oak Drive"/><tag k="addr:housenumber" v="10109"/><tag k="addr:postcode" v="78748"/></node><node id="-83" lat="30.162409" lon="-97.822277" changeset="false"><tag k="addr:street" v="Slaughter Creek Drive"/><tag k="addr:housenumber" v="10403"/><tag k="addr:postcode" v="78748"/></node><node id="-84" lat="30.156008" lon="-97.801269" changeset="false"><tag k="addr:street" v="English Oak Drive"/><tag k="addr:housenumber" v="10224"/><tag k="addr:postcode" v="78748"/></node><node id="-85" lat="30.150476" lon="-97.81661" changeset="false"><tag k="addr:street" v="Watchful Fox Drive"/><tag k="addr:housenumber" v="11020"/><tag k="addr:postcode" v="78748"/></node><node id="-86" lat="30.154415" lon="-97.802551" changeset="false"><tag k="addr:street" v="Camperdown Elm Dr"/><tag k="addr:housenumber" v="217"/><tag k="addr:postcode" v="78748"/></node><node id="-87" lat="30.155183" lon="-97.817089" changeset="false"><tag k="addr:street" v="Watchful Fox Drive"/><tag k="addr:housenumber" v="10804"/><tag k="addr:postcode" v="78748"/></node><node id="-88" lat="30.160515" lon="-97.803045" changeset="false"><tag k="addr:street" v="Grizzly Oak Dr"/><tag k="addr:housenumber" v="10001"/><tag k="addr:postcode" v="78748"/></node><node id="-89" lat="30.159809" lon="-97.817747" changeset="false"><tag k="addr:street" v="Etta Lane"/><tag k="addr:housenumber" v="10607"/><tag k="addr:postcode" v="78748"/></node><node id="-90" lat="30.159935" lon="-97.802718" changeset="false"><tag k="addr:street" v="Angel Oak Street"/><tag k="addr:housenumber" v="412"/><tag k="addr:postcode" v="78748"/></node><node id="-91" lat="30.159965" lon="-97.804238" changeset="false"><tag k="addr:street" v="Mock Cherry Cv"/><tag k="addr:housenumber" v="408"/><tag k="addr:postcode" v="78748"/></node><node id="-92" lat="30.157522" lon="-97.802399" changeset="false"><tag k="addr:street" v="Kissing Oak Drive"/><tag k="addr:housenumber" v="308"/><tag k="addr:postcode" v="78748"/></node><node id="-93" lat="30.154282" lon="-97.802148" changeset="false"><tag k="addr:street" v="Camperdown Elm Dr"/><tag k="addr:housenumber" v="209"/><tag k="addr:postcode" v="78748"/></node><node id="-94" lat="30.15255" lon="-97.817467" changeset="false"><tag k="addr:street" v="Chappell Lane"/><tag k="addr:housenumber" v="809"/><tag k="addr:postcode" v="78748"/></node><node id="-95" lat="30.153949" lon="-97.818081" changeset="false"><tag k="addr:street" v="Slaughter Creek Drive"/><tag k="addr:housenumber" v="11007"/><tag k="addr:postcode" v="78748"/></node><node id="-96" lat="30.157611" lon="-97.802515" changeset="false"><tag k="addr:street" v="Kissing Oak Drive"/><tag k="addr:housenumber" v="312"/><tag k="addr:postcode" v="78748"/></node><node id="-97" lat="30.159508" lon="-97.810584" changeset="false"><tag k="addr:street" v="Cayuse Cove"/><tag k="addr:housenumber" v="10421"/><tag k="addr:postcode" v="78748"/></node><node id="-98" lat="30.156383" lon="-97.80069" changeset="false"><tag k="addr:street" v="English Oak Drive"/><tag k="addr:housenumber" v="10213"/><tag k="addr:postcode" v="78748"/></node><node id="-99" lat="30.150863" lon="-97.818238" changeset="false"><tag k="addr:street" v="Slaughter Creek Drive"/><tag k="addr:housenumber" v="11207"/><tag k="addr:postcode" v="78748"/></node><node id="-100" lat="30.158244" lon="-97.80072" changeset="false"><tag k="addr:street" v="Auction Oak Drive"/><tag k="addr:housenumber" v="10101"/><tag k="addr:postcode" v="78748"/></node><node id="-101" lat="30.158078" lon="-97.819543" changeset="false"><tag k="addr:street" v="Slaughter Creek Drive"/><tag k="addr:housenumber" v="10800"/><tag k="addr:postcode" v="78748"/></node><node id="-102" lat="30.158941" lon="-97.803961" changeset="false"><tag k="addr:street" v="Island Oak Drive"/><tag k="addr:housenumber" v="421"/><tag k="addr:postcode" v="78748"/></node><node id="-103" lat="30.155858" lon="-97.801287" changeset="false"><tag k="addr:street" v="English Oak Drive"/><tag k="addr:housenumber" v="10228"/><tag k="addr:postcode" v="78748"/></node><node id="-104" lat="30.160027" lon="-97.815021" changeset="false"><tag k="addr:street" v="Shade Tree Drive"/><tag k="addr:housenumber" v="737"/><tag k="addr:postcode" v="78748"/></node><node id="-105" lat="30.158182" lon="-97.818275" changeset="false"><tag k="addr:street" v="Slaughter Creek Drive"/><tag k="addr:housenumber" v="10715"/><tag k="addr:postcode" v="78748"/></node><node id="-106" lat="30.158883" lon="-97.810843" changeset="false"><tag k="addr:street" v="Bilbrook Place"/><tag k="addr:housenumber" v="10588"/><tag k="addr:postcode" v="78748"/></node><node id="-107" lat="30.159463" lon="-97.816671" changeset="false"><tag k="addr:street" v="North Platt River Drive"/><tag k="addr:housenumber" v="10503"/><tag k="addr:postcode" v="78748"/></node><node id="-108" lat="30.156301" lon="-97.81923" changeset="false"><tag k="addr:street" v="Slaughter Creek Drive"/><tag k="addr:housenumber" v="10900"/><tag k="addr:postcode" v="78748"/></node><node id="-109" lat="30.156569" lon="-97.81426" changeset="false"><tag k="addr:street" v="Marias River Drive"/><tag k="addr:housenumber" v="10615"/><tag k="addr:postcode" v="78748"/></node><node id="-110" lat="30.149587" lon="-97.814579" changeset="false"><tag k="addr:street" v="Kingfisher Creek Drive"/><tag k="addr:housenumber" v="605"/><tag k="addr:postcode" v="78748"/></node><node id="-111" lat="30.159457" lon="-97.82366" changeset="false"><tag k="addr:street" v="Creek View Drive"/><tag k="addr:housenumber" v="10700"/><tag k="addr:postcode" v="78748"/></node><node id="-112" lat="30.161071" lon="-97.815092" changeset="false"><tag k="addr:street" v="Angleton Cove"/><tag k="addr:housenumber" v="801"/><tag k="addr:postcode" v="78748"/></node><node id="-113" lat="30.159419" lon="-97.815415" changeset="false"><tag k="addr:street" v="Bilbrook Place"/><tag k="addr:housenumber" v="10519"/><tag k="addr:postcode" v="78748"/></node><node id="-114" lat="30.155865" lon="-97.818761" changeset="false"><tag k="addr:street" v="Slaughter Creek Drive"/><tag k="addr:housenumber" v="10901"/><tag k="addr:postcode" v="78748"/></node><node id="-115" lat="30.148981" lon="-97.813974" changeset="false"><tag k="addr:street" v="Kingfisher Creek Drive"/><tag k="addr:housenumber" v="507"/><tag k="addr:postcode" v="78748"/></node><node id="-116" lat="30.160092" lon="-97.823632" changeset="false"><tag k="addr:street" v="Creek View Drive"/><tag k="addr:housenumber" v="10622"/><tag k="addr:postcode" v="78748"/></node><node id="-117" lat="30.157684" lon="-97.820746" changeset="false"><tag k="addr:street" v="Penion Drive"/><tag k="addr:housenumber" v="912"/><tag k="addr:postcode" v="78748"/></node><node id="-118" lat="30.158207" lon="-97.801659" changeset="false"><tag k="addr:street" v="Island Oak Drive"/><tag k="addr:housenumber" v="308"/><tag k="addr:postcode" v="78748"/></node><node id="-119" lat="30.15966" lon="-97.810617" changeset="false"><tag k="addr:street" v="Cayuse Cove"/><tag k="addr:housenumber" v="10417"/><tag k="addr:postcode" v="78748"/></node><node id="-120" lat="30.153044" lon="-97.81713" changeset="false"><tag k="addr:street" v="Watchful Fox Drive"/><tag k="addr:housenumber" v="10910"/><tag k="addr:postcode" v="78748"/></node><node id="-121" lat="30.155869" lon="-97.813349" changeset="false"><tag k="addr:street" v="Decker Prairie Drive"/><tag k="addr:housenumber" v="709"/><tag k="addr:postcode" v="78748"/></node><node id="-122" lat="30.149394" lon="-97.81431" changeset="false"><tag k="addr:street" v="Kingfisher Creek Drive"/><tag k="addr:housenumber" v="601"/><tag k="addr:postcode" v="78748"/></node><node id="-123" lat="30.158871" lon="-97.80132" changeset="false"><tag k="addr:street" v="Angel Oak Street"/><tag k="addr:housenumber" v="312"/><tag k="addr:postcode" v="78748"/></node><node id="-124" lat="30.159709" lon="-97.823378" changeset="false"><tag k="addr:street" v="Creek View Drive"/><tag k="addr:housenumber" v="10626"/><tag k="addr:postcode" v="78748"/></node><node id="-125" lat="30.1588" lon="-97.815568" changeset="false"><tag k="addr:street" v="Bilbrook Place"/><tag k="addr:housenumber" v="10528"/><tag k="addr:postcode" v="78748"/></node><node id="-126" lat="30.157118" lon="-97.81953" changeset="false"><tag k="addr:street" v="Slaughter Creek Drive"/><tag k="addr:housenumber" v="10802"/><tag k="addr:postcode" v="78748"/></node><node id="-127" lat="30.150177" lon="-97.823427" changeset="false"><tag k="addr:street" v="Slaughter Creek Drive"/><tag k="addr:housenumber" v="11250 1/2"/><tag k="addr:postcode" v="78748"/></node><node id="-128" lat="30.161346" lon="-97.815099" changeset="false"><tag k="addr:street" v="Angleton Cove"/><tag k="addr:housenumber" v="800"/><tag k="addr:postcode" v="78748"/></node><node id="-129" lat="30.161277" lon="-97.820102" changeset="false"><tag k="addr:street" v="Etta Lane"/><tag k="addr:housenumber" v="10501"/><tag k="addr:postcode" v="78748"/></node><node id="-130" lat="30.149013" lon="-97.813078" changeset="false"><tag k="addr:street" v="Kingfisher Creek Drive"/><tag k="addr:housenumber" v="502"/><tag k="addr:postcode" v="78748"/></node><node id="-131" lat="30.159959" lon="-97.80325" changeset="false"><tag k="addr:street" v="Grizzly Oak Dr"/><tag k="addr:housenumber" v="10009"/><tag k="addr:postcode" v="78748"/></node><node id="-132" lat="30.151441" lon="-97.815164" changeset="false"><tag k="addr:street" v="Kingfisher Creek Drive"/><tag k="addr:housenumber" v="624"/><tag k="addr:postcode" v="78748"/></node><node id="-133" lat="30.159793" lon="-97.819901" changeset="false"><tag k="addr:street" v="Etta Lane"/><tag k="addr:housenumber" v="10622"/><tag k="addr:postcode" v="78748"/></node><node id="-134" lat="30.156616" lon="-97.80182" changeset="false"><tag k="addr:street" v="Kissing Oak Drive"/><tag k="addr:housenumber" v="217"/><tag k="addr:postcode" v="78748"/></node><node id="-135" lat="30.15714" lon="-97.803389" changeset="false"><tag k="addr:street" v="Hogg Pecan Pass"/><tag k="addr:housenumber" v="404"/><tag k="addr:postcode" v="78748"/></node><node id="-136" lat="30.159802" lon="-97.821219" changeset="false"><tag k="addr:street" v="Creek View Drive"/><tag k="addr:housenumber" v="10607"/><tag k="addr:postcode" v="78748"/></node><node id="-137" lat="30.151848" lon="-97.821165" changeset="false"><tag k="addr:street" v="Slaughter Creek Drive"/><tag k="addr:housenumber" v="11230"/><tag k="addr:postcode" v="78748"/></node><node id="-138" lat="30.165278" lon="-97.822031" changeset="false"><tag k="addr:street" v="Slaughter Creek Drive"/><tag k="addr:housenumber" v="10110"/><tag k="addr:postcode" v="78748"/></node><node id="-139" lat="30.162581" lon="-97.822814" changeset="false"><tag k="addr:street" v="Slaughter Creek Drive"/><tag k="addr:housenumber" v="10408"/><tag k="addr:postcode" v="78748"/></node><node id="-140" lat="30.150896" lon="-97.816958" changeset="false"><tag k="addr:street" v="Hidatas Cove"/><tag k="addr:housenumber" v="701"/><tag k="addr:postcode" v="78748"/></node><node id="-141" lat="30.154864" lon="-97.815097" changeset="false"><tag k="addr:street" v="Fort Chadbourne Drive"/><tag k="addr:housenumber" v="706"/><tag k="addr:postcode" v="78748"/></node><node id="-142" lat="30.154848" lon="-97.815124" changeset="false"><tag k="addr:street" v="Fort Chadbourne Drive"/><tag k="addr:housenumber" v="708"/><tag k="addr:postcode" v="78748"/></node><node id="-143" lat="30.150465" lon="-97.823302" changeset="false"><tag k="addr:street" v="Slaughter Creek Drive"/><tag k="addr:housenumber" v="11250"/><tag k="addr:postcode" v="78748"/></node><node id="-144" lat="30.150472" lon="-97.8232" changeset="false"><tag k="addr:street" v="Slaughter Creek Drive"/><tag k="addr:housenumber" v="11248 1/2"/><tag k="addr:postcode" v="78748"/></node></osm>