<?xml version="1.0" encoding="UTF-8"?><osm version="0.6" generator="github.com/aaronlidman/osm-and-geojson"><node id="-1" lat="30.429687" lon="-97.69849" changeset="false"><tag k="addr:street" v="Scofield Ridge Parkway"/><tag k="addr:housenumber" v="2801"/><tag k="addr:postcode" v="78727"/></node><node id="-2" lat="30.427618" lon="-97.698671" changeset="false"><tag k="addr:street" v="Armaga Springs Road"/><tag k="addr:housenumber" v="12907"/><tag k="addr:postcode" v="78727"/></node><node id="-3" lat="30.427155" lon="-97.697105" changeset="false"><tag k="addr:street" v="Armaga Springs Road"/><tag k="addr:housenumber" v="13008"/><tag k="addr:postcode" v="78727"/></node><node id="-4" lat="30.427122" lon="-97.696929" changeset="false"><tag k="addr:street" v="Armaga Springs Road"/><tag k="addr:housenumber" v="13010"/><tag k="addr:postcode" v="78727"/></node><node id="-5" lat="30.426726" lon="-97.697013" changeset="false"><tag k="addr:street" v="Armaga Springs Road"/><tag k="addr:housenumber" v="13013"/><tag k="addr:postcode" v="78727"/></node><node id="-6" lat="30.426659" lon="-97.696861" changeset="false"><tag k="addr:street" v="Armaga Springs Road"/><tag k="addr:housenumber" v="13015"/><tag k="addr:postcode" v="78727"/></node><node id="-7" lat="30.42692" lon="-97.696507" changeset="false"><tag k="addr:street" v="Armaga Springs Road"/><tag k="addr:housenumber" v="13016"/><tag k="addr:postcode" v="78727"/></node><node id="-8" lat="30.429988" lon="-97.699649" changeset="false"><tag k="addr:street" v="Scofield Ridge Parkway"/><tag k="addr:housenumber" v="3001"/><tag k="addr:postcode" v="78727"/></node><node id="-9" lat="30.428153" lon="-97.699769" changeset="false"><tag k="addr:street" v="Wingate Way"/><tag k="addr:housenumber" v="13110"/><tag k="addr:postcode" v="78727"/></node><node id="-10" lat="30.428186" lon="-97.698881" changeset="false"><tag k="addr:street" v="Armaga Springs Road"/><tag k="addr:housenumber" v="12900"/><tag k="addr:postcode" v="78727"/></node><node id="-11" lat="30.427823" lon="-97.699096" changeset="false"><tag k="addr:street" v="Armaga Springs Road"/><tag k="addr:housenumber" v="12901"/><tag k="addr:postcode" v="78727"/></node><node id="-12" lat="30.42763" lon="-97.697906" changeset="false"><tag k="addr:street" v="Armaga Springs Road"/><tag k="addr:housenumber" v="12914"/><tag k="addr:postcode" v="78727"/></node><node id="-13" lat="30.42712" lon="-97.697902" changeset="false"><tag k="addr:street" v="Armaga Springs Road"/><tag k="addr:housenumber" v="13001"/><tag k="addr:postcode" v="78727"/></node><node id="-14" lat="30.427264" lon="-97.697387" changeset="false"><tag k="addr:street" v="Armaga Springs Road"/><tag k="addr:housenumber" v="13004"/><tag k="addr:postcode" v="78727"/></node><node id="-15" lat="30.427073" lon="-97.69676" changeset="false"><tag k="addr:street" v="Armaga Springs Road"/><tag k="addr:housenumber" v="13012"/><tag k="addr:postcode" v="78727"/></node><node id="-16" lat="30.42679" lon="-97.696194" changeset="false"><tag k="addr:street" v="Armaga Springs Road"/><tag k="addr:housenumber" v="13020"/><tag k="addr:postcode" v="78727"/></node><node id="-17" lat="30.427465" lon="-97.695127" changeset="false"><tag k="addr:street" v="Troops Trail"/><tag k="addr:housenumber" v="13117"/><tag k="addr:postcode" v="78727"/></node><node id="-18" lat="30.427913" lon="-97.699984" changeset="false"><tag k="addr:street" v="Wingate Way"/><tag k="addr:housenumber" v="13106"/><tag k="addr:postcode" v="78727"/></node><node id="-19" lat="30.427699" lon="-97.698808" changeset="false"><tag k="addr:street" v="Armaga Springs Road"/><tag k="addr:housenumber" v="12905"/><tag k="addr:postcode" v="78727"/></node><node id="-20" lat="30.427402" lon="-97.698273" changeset="false"><tag k="addr:street" v="Armaga Springs Road"/><tag k="addr:housenumber" v="12913"/><tag k="addr:postcode" v="78727"/></node><node id="-21" lat="30.427536" lon="-97.697766" changeset="false"><tag k="addr:street" v="Armaga Springs Road"/><tag k="addr:housenumber" v="12916"/><tag k="addr:postcode" v="78727"/></node><node id="-22" lat="30.427024" lon="-97.697773" changeset="false"><tag k="addr:street" v="Armaga Springs Road"/><tag k="addr:housenumber" v="13003"/><tag k="addr:postcode" v="78727"/></node><node id="-23" lat="30.426959" lon="-97.697653" changeset="false"><tag k="addr:street" v="Armaga Springs Road"/><tag k="addr:housenumber" v="13005"/><tag k="addr:postcode" v="78727"/></node><node id="-24" lat="30.426596" lon="-97.696707" changeset="false"><tag k="addr:street" v="Armaga Springs Road"/><tag k="addr:housenumber" v="13017"/><tag k="addr:postcode" v="78727"/></node><node id="-25" lat="30.426623" lon="-97.696005" changeset="false"><tag k="addr:street" v="Armaga Springs Road"/><tag k="addr:housenumber" v="13100"/><tag k="addr:postcode" v="78727"/></node><node id="-26" lat="30.428059" lon="-97.699903" changeset="false"><tag k="addr:street" v="Wingate Way"/><tag k="addr:housenumber" v="13108"/><tag k="addr:postcode" v="78727"/></node><node id="-27" lat="30.428242" lon="-97.699561" changeset="false"><tag k="addr:street" v="Wingate Way"/><tag k="addr:housenumber" v="13112"/><tag k="addr:postcode" v="78727"/></node><node id="-28" lat="30.428084" lon="-97.698741" changeset="false"><tag k="addr:street" v="Armaga Springs Road"/><tag k="addr:housenumber" v="12902"/><tag k="addr:postcode" v="78727"/></node><node id="-29" lat="30.427768" lon="-97.698927" changeset="false"><tag k="addr:street" v="Armaga Springs Road"/><tag k="addr:housenumber" v="12903"/><tag k="addr:postcode" v="78727"/></node><node id="-30" lat="30.428021" lon="-97.698628" changeset="false"><tag k="addr:street" v="Armaga Springs Road"/><tag k="addr:housenumber" v="12904"/><tag k="addr:postcode" v="78727"/></node><node id="-31" lat="30.427943" lon="-97.698478" changeset="false"><tag k="addr:street" v="Armaga Springs Road"/><tag k="addr:housenumber" v="12906"/><tag k="addr:postcode" v="78727"/></node><node id="-32" lat="30.426866" lon="-97.696352" changeset="false"><tag k="addr:street" v="Armaga Springs Road"/><tag k="addr:housenumber" v="13018"/><tag k="addr:postcode" v="78727"/></node><node id="-33" lat="30.426448" lon="-97.696412" changeset="false"><tag k="addr:street" v="Armaga Springs Road"/><tag k="addr:housenumber" v="13021"/><tag k="addr:postcode" v="78727"/></node><node id="-34" lat="30.427546" lon="-97.698544" changeset="false"><tag k="addr:street" v="Armaga Springs Road"/><tag k="addr:housenumber" v="12909"/><tag k="addr:postcode" v="78727"/></node><node id="-35" lat="30.427483" lon="-97.698407" changeset="false"><tag k="addr:street" v="Armaga Springs Road"/><tag k="addr:housenumber" v="12911"/><tag k="addr:postcode" v="78727"/></node><node id="-36" lat="30.427333" lon="-97.698129" changeset="false"><tag k="addr:street" v="Armaga Springs Road"/><tag k="addr:housenumber" v="12915"/><tag k="addr:postcode" v="78727"/></node><node id="-37" lat="30.427219" lon="-97.698025" changeset="false"><tag k="addr:street" v="Armaga Springs Road"/><tag k="addr:housenumber" v="12917"/><tag k="addr:postcode" v="78727"/></node><node id="-38" lat="30.424389" lon="-97.690078" changeset="false"><tag k="addr:street" v="Bourbon Street"/><tag k="addr:housenumber" v="13117"/><tag k="addr:postcode" v="78727"/></node><node id="-39" lat="30.428439" lon="-97.694481" changeset="false"><tag k="addr:street" v="Rodeo Drive"/><tag k="addr:housenumber" v="2403 1/2"/><tag k="addr:postcode" v="78727"/></node><node id="-40" lat="30.427177" lon="-97.699051" changeset="false"><tag k="addr:street" v="North Shields Drive"/><tag k="addr:housenumber" v="2606"/><tag k="addr:postcode" v="78727"/></node><node id="-41" lat="30.426527" lon="-97.696563" changeset="false"><tag k="addr:street" v="Armaga Springs Road"/><tag k="addr:housenumber" v="13019"/><tag k="addr:postcode" v="78727"/></node><node id="-42" lat="30.428274" lon="-97.699358" changeset="false"><tag k="addr:street" v="Wingate Way"/><tag k="addr:housenumber" v="13114"/><tag k="addr:postcode" v="78727"/></node><node id="-43" lat="30.427867" lon="-97.69833" changeset="false"><tag k="addr:street" v="Armaga Springs Road"/><tag k="addr:housenumber" v="12908"/><tag k="addr:postcode" v="78727"/></node><node id="-44" lat="30.427717" lon="-97.698042" changeset="false"><tag k="addr:street" v="Armaga Springs Road"/><tag k="addr:housenumber" v="12912"/><tag k="addr:postcode" v="78727"/></node><node id="-45" lat="30.42742" lon="-97.697658" changeset="false"><tag k="addr:street" v="Armaga Springs Road"/><tag k="addr:housenumber" v="13000"/><tag k="addr:postcode" v="78727"/></node><node id="-46" lat="30.426886" lon="-97.697478" changeset="false"><tag k="addr:street" v="Armaga Springs Road"/><tag k="addr:housenumber" v="13007"/><tag k="addr:postcode" v="78727"/></node><node id="-47" lat="30.426832" lon="-97.697333" changeset="false"><tag k="addr:street" v="Armaga Springs Road"/><tag k="addr:housenumber" v="13009"/><tag k="addr:postcode" v="78727"/></node><node id="-48" lat="30.426986" lon="-97.696647" changeset="false"><tag k="addr:street" v="Armaga Springs Road"/><tag k="addr:housenumber" v="13014"/><tag k="addr:postcode" v="78727"/></node><node id="-49" lat="30.428234" lon="-97.699036" changeset="false"><tag k="addr:street" v="Wingate Way"/><tag k="addr:housenumber" v="13118"/><tag k="addr:postcode" v="78727"/></node><node id="-50" lat="30.427345" lon="-97.697531" changeset="false"><tag k="addr:street" v="Armaga Springs Road"/><tag k="addr:housenumber" v="13002"/><tag k="addr:postcode" v="78727"/></node><node id="-51" lat="30.427197" lon="-97.69725" changeset="false"><tag k="addr:street" v="Armaga Springs Road"/><tag k="addr:housenumber" v="13006"/><tag k="addr:postcode" v="78727"/></node><node id="-52" lat="30.42873" lon="-97.696985" changeset="false"><tag k="addr:street" v="Scofield Ridge Parkway"/><tag k="addr:housenumber" v="2601"/><tag k="addr:postcode" v="78727"/></node><node id="-53" lat="30.428277" lon="-97.699209" changeset="false"><tag k="addr:street" v="Wingate Way"/><tag k="addr:housenumber" v="13116"/><tag k="addr:postcode" v="78727"/></node><node id="-54" lat="30.427813" lon="-97.698179" changeset="false"><tag k="addr:street" v="Armaga Springs Road"/><tag k="addr:housenumber" v="12910"/><tag k="addr:postcode" v="78727"/></node><node id="-55" lat="30.426783" lon="-97.697174" changeset="false"><tag k="addr:street" v="Armaga Springs Road"/><tag k="addr:housenumber" v="13011"/><tag k="addr:postcode" v="78727"/></node><node id="-56" lat="30.426908" lon="-97.689699" changeset="false"><tag k="addr:street" v="Rodeo Drive"/><tag k="addr:housenumber" v="2101"/><tag k="addr:postcode" v="78727"/></node><node id="-57" lat="30.426928" lon="-97.698596" changeset="false"><tag k="addr:street" v="North Shields Drive"/><tag k="addr:housenumber" v="2602"/><tag k="addr:postcode" v="78727"/></node><node id="-58" lat="30.4268" lon="-97.698383" changeset="false"><tag k="addr:street" v="North Shields Drive"/><tag k="addr:housenumber" v="2600"/><tag k="addr:postcode" v="78727"/></node><node id="-59" lat="30.424397" lon="-97.689978" changeset="false"><tag k="addr:street" v="Bourbon Street"/><tag k="addr:housenumber" v="13103"/><tag k="addr:postcode" v="78727"/></node></osm>