<?xml version="1.0" encoding="UTF-8"?><osm version="0.6" generator="github.com/aaronlidman/osm-and-geojson"><node id="-1" lat="30.319624" lon="-97.714949" changeset="false"><tag k="addr:street" v="East Koenig Lane"/><tag k="addr:housenumber" v="501"/><tag k="addr:postcode" v="78751"/></node><node id="-2" lat="30.319526" lon="-97.716187" changeset="false"><tag k="addr:street" v="Duval Street"/><tag k="addr:housenumber" v="5517"/><tag k="addr:postcode" v="78751"/></node><node id="-3" lat="30.318165" lon="-97.71596" changeset="false"><tag k="addr:street" v="Evans Avenue"/><tag k="addr:housenumber" v="5501"/><tag k="addr:postcode" v="78751"/></node><node id="-4" lat="30.317796" lon="-97.716188" changeset="false"><tag k="addr:street" v="Evans Avenue"/><tag k="addr:housenumber" v="5413"/><tag k="addr:postcode" v="78751"/></node><node id="-5" lat="30.317547" lon="-97.713738" changeset="false"><tag k="addr:street" v="Middle Fiskville Road"/><tag k="addr:housenumber" v="5512"/><tag k="addr:postcode" v="78751"/></node><node id="-6" lat="30.318622" lon="-97.715051" changeset="false"><tag k="addr:street" v="East 56th Street"/><tag k="addr:housenumber" v="605"/><tag k="addr:postcode" v="78751"/></node><node id="-7" lat="30.317893" lon="-97.716111" changeset="false"><tag k="addr:street" v="Evans Avenue"/><tag k="addr:housenumber" v="5415"/><tag k="addr:postcode" v="78751"/></node><node id="-8" lat="30.318799" lon="-97.713609" changeset="false"><tag k="addr:street" v="Middle Fiskville Road"/><tag k="addr:housenumber" v="5600"/><tag k="addr:postcode" v="78751"/></node><node id="-9" lat="30.318915" lon="-97.715486" changeset="false"><tag k="addr:street" v="East 56th Street"/><tag k="addr:housenumber" v="601"/><tag k="addr:postcode" v="78751"/></node><node id="-10" lat="30.318677" lon="-97.716096" changeset="false"><tag k="addr:street" v="Evans Avenue"/><tag k="addr:housenumber" v="5506"/><tag k="addr:postcode" v="78751"/></node><node id="-11" lat="30.318822" lon="-97.716051" changeset="false"><tag k="addr:street" v="Evans Avenue"/><tag k="addr:housenumber" v="5512"/><tag k="addr:postcode" v="78751"/></node><node id="-12" lat="30.31911" lon="-97.716045" changeset="false"><tag k="addr:street" v="Evans Avenue"/><tag k="addr:housenumber" v="5514"/><tag k="addr:postcode" v="78751"/></node><node id="-13" lat="30.316498" lon="-97.715134" changeset="false"><tag k="addr:street" v="Middle Fiskville Road"/><tag k="addr:housenumber" v="5402"/><tag k="addr:postcode" v="78751"/></node><node id="-14" lat="30.31639" lon="-97.71592" changeset="false"><tag k="addr:street" v="Martin Avenue"/><tag k="addr:housenumber" v="5315"/><tag k="addr:postcode" v="78751"/></node><node id="-15" lat="30.316657" lon="-97.715802" changeset="false"><tag k="addr:street" v="Martin Avenue"/><tag k="addr:housenumber" v="5401"/><tag k="addr:postcode" v="78751"/></node><node id="-16" lat="30.316758" lon="-97.714149" changeset="false"><tag k="addr:street" v="Airport Boulevard"/><tag k="addr:housenumber" v="5420"/><tag k="addr:postcode" v="78751"/></node><node id="-17" lat="30.317191" lon="-97.71541" changeset="false"><tag k="addr:street" v="East 55th Street"/><tag k="addr:housenumber" v="701"/><tag k="addr:postcode" v="78751"/></node><node id="-18" lat="30.316934" lon="-97.716078" changeset="false"><tag k="addr:street" v="Martin Avenue"/><tag k="addr:housenumber" v="5402"/><tag k="addr:postcode" v="78751"/></node><node id="-19" lat="30.316827" lon="-97.716193" changeset="false"><tag k="addr:street" v="East 54th Street"/><tag k="addr:housenumber" v="606"/><tag k="addr:postcode" v="78751"/></node><node id="-20" lat="30.317091" lon="-97.71604" changeset="false"><tag k="addr:street" v="Martin Avenue"/><tag k="addr:housenumber" v="5404"/><tag k="addr:postcode" v="78751"/></node><node id="-21" lat="30.317207" lon="-97.715967" changeset="false"><tag k="addr:street" v="Martin Avenue"/><tag k="addr:housenumber" v="5406"/><tag k="addr:postcode" v="78751"/></node><node id="-22" lat="30.315306" lon="-97.715892" changeset="false"><tag k="addr:street" v="East 53rd Street"/><tag k="addr:housenumber" v="706"/><tag k="addr:postcode" v="78751"/></node><node id="-23" lat="30.315435" lon="-97.714807" changeset="false"><tag k="addr:street" v="Airport Boulevard"/><tag k="addr:housenumber" v="5324"/><tag k="addr:postcode" v="78751"/></node><node id="-24" lat="30.316032" lon="-97.716141" changeset="false"><tag k="addr:street" v="Martin Avenue"/><tag k="addr:housenumber" v="5309"/><tag k="addr:postcode" v="78751"/></node><node id="-25" lat="30.315755" lon="-97.714591" changeset="false"><tag k="addr:street" v="Airport Boulevard"/><tag k="addr:housenumber" v="5330"/><tag k="addr:postcode" v="78751"/></node><node id="-26" lat="30.31591" lon="-97.715309" changeset="false"><tag k="addr:street" v="Middle Fiskville Road"/><tag k="addr:housenumber" v="5306"/><tag k="addr:postcode" v="78751"/></node><node id="-27" lat="30.316143" lon="-97.716053" changeset="false"><tag k="addr:street" v="Martin Avenue"/><tag k="addr:housenumber" v="5311"/><tag k="addr:postcode" v="78751"/></node><node id="-28" lat="30.31627" lon="-97.715976" changeset="false"><tag k="addr:street" v="Martin Avenue"/><tag k="addr:housenumber" v="5313"/><tag k="addr:postcode" v="78751"/></node><node id="-29" lat="30.31626" lon="-97.714473" changeset="false"><tag k="addr:street" v="Airport Boulevard"/><tag k="addr:housenumber" v="5410"/><tag k="addr:postcode" v="78751"/></node><node id="-30" lat="30.319147" lon="-97.717044" changeset="false"><tag k="addr:street" v="Duval Street"/><tag k="addr:housenumber" v="5506"/><tag k="addr:postcode" v="78751"/></node><node id="-31" lat="30.31927" lon="-97.716329" changeset="false"><tag k="addr:street" v="Duval Street"/><tag k="addr:housenumber" v="5513"/><tag k="addr:postcode" v="78751"/></node><node id="-32" lat="30.319388" lon="-97.716856" changeset="false"><tag k="addr:street" v="Duval Street"/><tag k="addr:housenumber" v="5510"/><tag k="addr:postcode" v="78751"/></node><node id="-33" lat="30.319414" lon="-97.71625" changeset="false"><tag k="addr:street" v="Duval Street"/><tag k="addr:housenumber" v="5515"/><tag k="addr:postcode" v="78751"/></node><node id="-34" lat="30.319502" lon="-97.716783" changeset="false"><tag k="addr:street" v="Duval Street"/><tag k="addr:housenumber" v="5512"/><tag k="addr:postcode" v="78751"/></node><node id="-35" lat="30.319269" lon="-97.716945" changeset="false"><tag k="addr:street" v="Duval Street"/><tag k="addr:housenumber" v="5508"/><tag k="addr:postcode" v="78751"/></node><node id="-36" lat="30.319611" lon="-97.716708" changeset="false"><tag k="addr:street" v="Duval Street"/><tag k="addr:housenumber" v="5514"/><tag k="addr:postcode" v="78751"/></node><node id="-37" lat="30.319741" lon="-97.716634" changeset="false"><tag k="addr:street" v="Duval Street"/><tag k="addr:housenumber" v="5516"/><tag k="addr:postcode" v="78751"/></node><node id="-38" lat="30.318144" lon="-97.716655" changeset="false"><tag k="addr:street" v="Evans Avenue"/><tag k="addr:housenumber" v="5416"/><tag k="addr:postcode" v="78751"/></node><node id="-39" lat="30.318361" lon="-97.716282" changeset="false"><tag k="addr:street" v="Evans Avenue"/><tag k="addr:housenumber" v="5500"/><tag k="addr:postcode" v="78751"/></node><node id="-40" lat="30.318293" lon="-97.716965" changeset="false"><tag k="addr:street" v="Duval Street"/><tag k="addr:housenumber" v="5413"/><tag k="addr:postcode" v="78751"/></node><node id="-41" lat="30.31845" lon="-97.71623" changeset="false"><tag k="addr:street" v="Evans Avenue"/><tag k="addr:housenumber" v="5502"/><tag k="addr:postcode" v="78751"/></node><node id="-42" lat="30.318561" lon="-97.716771" changeset="false"><tag k="addr:street" v="Duval Street"/><tag k="addr:housenumber" v="5501"/><tag k="addr:postcode" v="78751"/></node><node id="-43" lat="30.318681" lon="-97.71672" changeset="false"><tag k="addr:street" v="Duval Street"/><tag k="addr:housenumber" v="5503"/><tag k="addr:postcode" v="78751"/></node><node id="-44" lat="30.318795" lon="-97.716647" changeset="false"><tag k="addr:street" v="Duval Street"/><tag k="addr:housenumber" v="5505"/><tag k="addr:postcode" v="78751"/></node><node id="-45" lat="30.31892" lon="-97.716571" changeset="false"><tag k="addr:street" v="Duval Street"/><tag k="addr:housenumber" v="5507"/><tag k="addr:postcode" v="78751"/></node><node id="-46" lat="30.319032" lon="-97.716507" changeset="false"><tag k="addr:street" v="Duval Street"/><tag k="addr:housenumber" v="5509"/><tag k="addr:postcode" v="78751"/></node><node id="-47" lat="30.319137" lon="-97.7164" changeset="false"><tag k="addr:street" v="Duval Street"/><tag k="addr:housenumber" v="5511"/><tag k="addr:postcode" v="78751"/></node><node id="-48" lat="30.317395" lon="-97.716375" changeset="false"><tag k="addr:street" v="Evans Avenue"/><tag k="addr:housenumber" v="5407"/><tag k="addr:postcode" v="78751"/></node><node id="-49" lat="30.317488" lon="-97.716859" changeset="false"><tag k="addr:street" v="Evans Avenue"/><tag k="addr:housenumber" v="5404"/><tag k="addr:postcode" v="78751"/></node><node id="-50" lat="30.317534" lon="-97.716312" changeset="false"><tag k="addr:street" v="Evans Avenue"/><tag k="addr:housenumber" v="5409"/><tag k="addr:postcode" v="78751"/></node><node id="-51" lat="30.317613" lon="-97.716798" changeset="false"><tag k="addr:street" v="Evans Avenue"/><tag k="addr:housenumber" v="5406"/><tag k="addr:postcode" v="78751"/></node><node id="-52" lat="30.317645" lon="-97.716232" changeset="false"><tag k="addr:street" v="Evans Avenue"/><tag k="addr:housenumber" v="5411"/><tag k="addr:postcode" v="78751"/></node><node id="-53" lat="30.317902" lon="-97.716828" changeset="false"><tag k="addr:street" v="Evans Avenue"/><tag k="addr:housenumber" v="5412"/><tag k="addr:postcode" v="78751"/></node><node id="-54" lat="30.317955" lon="-97.716566" changeset="false"><tag k="addr:street" v="Evans Avenue"/><tag k="addr:housenumber" v="5414"/><tag k="addr:postcode" v="78751"/></node><node id="-55" lat="30.315796" lon="-97.716293" changeset="false"><tag k="addr:street" v="Martin Avenue"/><tag k="addr:housenumber" v="5305"/><tag k="addr:postcode" v="78751"/></node><node id="-56" lat="30.31556" lon="-97.716467" changeset="false"><tag k="addr:street" v="Martin Avenue"/><tag k="addr:housenumber" v="5301"/><tag k="addr:postcode" v="78751"/></node><node id="-57" lat="30.315942" lon="-97.716859" changeset="false"><tag k="addr:street" v="East 53rd Street"/><tag k="addr:housenumber" v="600"/><tag k="addr:postcode" v="78751"/></node><node id="-58" lat="30.316996" lon="-97.716476" changeset="false"><tag k="addr:street" v="Evans Avenue"/><tag k="addr:housenumber" v="5401"/><tag k="addr:postcode" v="78751"/></node><node id="-59" lat="30.315912" lon="-97.716218" changeset="false"><tag k="addr:street" v="Martin Avenue"/><tag k="addr:housenumber" v="5307"/><tag k="addr:postcode" v="78751"/></node><node id="-60" lat="30.315677" lon="-97.716401" changeset="false"><tag k="addr:street" v="Martin Avenue"/><tag k="addr:housenumber" v="5303"/><tag k="addr:postcode" v="78751"/></node><node id="-61" lat="30.317186" lon="-97.716563" changeset="false"><tag k="addr:street" v="Evans Avenue"/><tag k="addr:housenumber" v="5403"/><tag k="addr:postcode" v="78751"/></node><node id="-62" lat="30.31726" lon="-97.717019" changeset="false"><tag k="addr:street" v="East 54th Street"/><tag k="addr:housenumber" v="506"/><tag k="addr:postcode" v="78751"/></node><node id="-63" lat="30.317295" lon="-97.716445" changeset="false"><tag k="addr:street" v="Evans Avenue"/><tag k="addr:housenumber" v="5405"/><tag k="addr:postcode" v="78751"/></node><node id="-64" lat="30.319373" lon="-97.717488" changeset="false"><tag k="addr:street" v="Avenue H"/><tag k="addr:housenumber" v="5507"/><tag k="addr:postcode" v="78751"/></node><node id="-65" lat="30.319479" lon="-97.717409" changeset="false"><tag k="addr:street" v="Avenue H"/><tag k="addr:housenumber" v="5509"/><tag k="addr:postcode" v="78751"/></node><node id="-66" lat="30.319622" lon="-97.717391" changeset="false"><tag k="addr:street" v="Avenue H"/><tag k="addr:housenumber" v="5511"/><tag k="addr:postcode" v="78751"/></node><node id="-67" lat="30.319857" lon="-97.717214" changeset="false"><tag k="addr:street" v="Avenue H"/><tag k="addr:housenumber" v="5515"/><tag k="addr:postcode" v="78751"/></node><node id="-68" lat="30.319718" lon="-97.717275" changeset="false"><tag k="addr:street" v="Avenue H"/><tag k="addr:housenumber" v="5513"/><tag k="addr:postcode" v="78751"/></node><node id="-69" lat="30.31995" lon="-97.717702" changeset="false"><tag k="addr:street" v="Avenue H"/><tag k="addr:housenumber" v="5512"/><tag k="addr:postcode" v="78751"/></node><node id="-70" lat="30.31998" lon="-97.717141" changeset="false"><tag k="addr:street" v="Avenue H"/><tag k="addr:housenumber" v="5517"/><tag k="addr:postcode" v="78751"/></node><node id="-71" lat="30.320024" lon="-97.717553" changeset="false"><tag k="addr:street" v="Avenue H"/><tag k="addr:housenumber" v="5514"/><tag k="addr:postcode" v="78751"/></node><node id="-72" lat="30.320149" lon="-97.717476" changeset="false"><tag k="addr:street" v="Avenue H"/><tag k="addr:housenumber" v="5516"/><tag k="addr:postcode" v="78751"/></node><node id="-73" lat="30.319146" lon="-97.71767" changeset="false"><tag k="addr:street" v="Avenue H"/><tag k="addr:housenumber" v="5503"/><tag k="addr:postcode" v="78751"/></node><node id="-74" lat="30.319027" lon="-97.717107" changeset="false"><tag k="addr:street" v="Duval Street"/><tag k="addr:housenumber" v="5504"/><tag k="addr:postcode" v="78751"/></node><node id="-75" lat="30.318802" lon="-97.717256" changeset="false"><tag k="addr:street" v="Duval Street"/><tag k="addr:housenumber" v="5500"/><tag k="addr:postcode" v="78751"/></node><node id="-76" lat="30.318921" lon="-97.717157" changeset="false"><tag k="addr:street" v="Duval Street"/><tag k="addr:housenumber" v="5502"/><tag k="addr:postcode" v="78751"/></node><node id="-77" lat="30.319257" lon="-97.717564" changeset="false"><tag k="addr:street" v="Avenue H"/><tag k="addr:housenumber" v="5505"/><tag k="addr:postcode" v="78751"/></node><node id="-78" lat="30.317657" lon="-97.717363" changeset="false"><tag k="addr:street" v="Duval Street"/><tag k="addr:housenumber" v="5403"/><tag k="addr:postcode" v="78751"/></node><node id="-79" lat="30.31806" lon="-97.717165" changeset="false"><tag k="addr:street" v="Duval Street"/><tag k="addr:housenumber" v="5409"/><tag k="addr:postcode" v="78751"/></node><node id="-80" lat="30.31814" lon="-97.717039" changeset="false"><tag k="addr:street" v="Duval Street"/><tag k="addr:housenumber" v="5411"/><tag k="addr:postcode" v="78751"/></node><node id="-81" lat="30.318302" lon="-97.717561" changeset="false"><tag k="addr:street" v="Duval Street"/><tag k="addr:housenumber" v="5410"/><tag k="addr:postcode" v="78751"/></node><node id="-82" lat="30.318138" lon="-97.717619" changeset="false"><tag k="addr:street" v="Duval Street"/><tag k="addr:housenumber" v="5408"/><tag k="addr:postcode" v="78751"/></node><node id="-83" lat="30.317778" lon="-97.717341" changeset="false"><tag k="addr:street" v="Duval Street"/><tag k="addr:housenumber" v="5405"/><tag k="addr:postcode" v="78751"/></node><node id="-84" lat="30.31791" lon="-97.717217" changeset="false"><tag k="addr:street" v="Duval Street"/><tag k="addr:housenumber" v="5407"/><tag k="addr:postcode" v="78751"/></node><node id="-85" lat="30.318413" lon="-97.717466" changeset="false"><tag k="addr:street" v="Duval Street"/><tag k="addr:housenumber" v="5412"/><tag k="addr:postcode" v="78751"/></node><node id="-86" lat="30.318547" lon="-97.717399" changeset="false"><tag k="addr:street" v="Duval Street"/><tag k="addr:housenumber" v="5414"/><tag k="addr:postcode" v="78751"/></node><node id="-87" lat="30.31655" lon="-97.717532" changeset="false"><tag k="addr:street" v="Evans Avenue"/><tag k="addr:housenumber" v="5306"/><tag k="addr:postcode" v="78751"/></node><node id="-88" lat="30.317083" lon="-97.717366" changeset="false"><tag k="addr:street" v="East 54th Street"/><tag k="addr:housenumber" v="505"/><tag k="addr:postcode" v="78751"/></node><node id="-89" lat="30.316988" lon="-97.717173" changeset="false"><tag k="addr:street" v="East 54th Street"/><tag k="addr:housenumber" v="507"/><tag k="addr:postcode" v="78751"/></node><node id="-90" lat="30.316405" lon="-97.717582" changeset="false"><tag k="addr:street" v="Evans Avenue"/><tag k="addr:housenumber" v="5304"/><tag k="addr:postcode" v="78751"/></node><node id="-91" lat="30.316761" lon="-97.717358" changeset="false"><tag k="addr:street" v="Evans Avenue"/><tag k="addr:housenumber" v="5310"/><tag k="addr:postcode" v="78751"/></node><node id="-92" lat="30.316641" lon="-97.717403" changeset="false"><tag k="addr:street" v="Evans Avenue"/><tag k="addr:housenumber" v="5308"/><tag k="addr:postcode" v="78751"/></node><node id="-93" lat="30.319813" lon="-97.717672" changeset="false"><tag k="addr:street" v="Avenue H"/><tag k="addr:housenumber" v="5510"/><tag k="addr:postcode" v="78751"/></node><node id="-94" lat="30.31993" lon="-97.718336" changeset="false"><tag k="addr:street" v="Avenue G"/><tag k="addr:housenumber" v="5509"/><tag k="addr:postcode" v="78751"/></node><node id="-95" lat="30.320038" lon="-97.718239" changeset="false"><tag k="addr:street" v="Avenue G"/><tag k="addr:housenumber" v="5511"/><tag k="addr:postcode" v="78751"/></node><node id="-96" lat="30.321278" lon="-97.718247" changeset="false"><tag k="addr:street" v="Avenue F"/><tag k="addr:housenumber" v="5613"/><tag k="addr:postcode" v="78751"/></node><node id="-97" lat="30.320285" lon="-97.718101" changeset="false"><tag k="addr:street" v="Avenue G"/><tag k="addr:housenumber" v="5515"/><tag k="addr:postcode" v="78751"/></node><node id="-98" lat="30.320407" lon="-97.717998" changeset="false"><tag k="addr:street" v="Avenue G"/><tag k="addr:housenumber" v="5517"/><tag k="addr:postcode" v="78751"/></node><node id="-99" lat="30.320171" lon="-97.718155" changeset="false"><tag k="addr:street" v="Avenue G"/><tag k="addr:housenumber" v="5513"/><tag k="addr:postcode" v="78751"/></node><node id="-100" lat="30.318527" lon="-97.718065" changeset="false"><tag k="addr:street" v="Avenue H"/><tag k="addr:housenumber" v="5411"/><tag k="addr:postcode" v="78751"/></node><node id="-101" lat="30.318768" lon="-97.717872" changeset="false"><tag k="addr:street" v="Avenue H"/><tag k="addr:housenumber" v="5415"/><tag k="addr:postcode" v="78751"/></node><node id="-102" lat="30.319211" lon="-97.718142" changeset="false"><tag k="addr:street" v="Avenue H"/><tag k="addr:housenumber" v="5500"/><tag k="addr:postcode" v="78751"/></node><node id="-103" lat="30.319009" lon="-97.7177" changeset="false"><tag k="addr:street" v="Avenue H"/><tag k="addr:housenumber" v="5501"/><tag k="addr:postcode" v="78751"/></node><node id="-104" lat="30.318672" lon="-97.717998" changeset="false"><tag k="addr:street" v="Avenue H"/><tag k="addr:housenumber" v="5413"/><tag k="addr:postcode" v="78751"/></node><node id="-105" lat="30.319316" lon="-97.718047" changeset="false"><tag k="addr:street" v="Avenue H"/><tag k="addr:housenumber" v="5502"/><tag k="addr:postcode" v="78751"/></node><node id="-106" lat="30.319438" lon="-97.71795" changeset="false"><tag k="addr:street" v="Avenue H"/><tag k="addr:housenumber" v="5504"/><tag k="addr:postcode" v="78751"/></node><node id="-107" lat="30.319572" lon="-97.717911" changeset="false"><tag k="addr:street" v="Avenue H"/><tag k="addr:housenumber" v="5506"/><tag k="addr:postcode" v="78751"/></node><node id="-108" lat="30.319674" lon="-97.717777" changeset="false"><tag k="addr:street" v="Avenue H"/><tag k="addr:housenumber" v="5508"/><tag k="addr:postcode" v="78751"/></node><node id="-109" lat="30.317706" lon="-97.717967" changeset="false"><tag k="addr:street" v="Duval Street"/><tag k="addr:housenumber" v="5400"/><tag k="addr:postcode" v="78751"/></node><node id="-110" lat="30.317847" lon="-97.717871" changeset="false"><tag k="addr:street" v="Duval Street"/><tag k="addr:housenumber" v="5402"/><tag k="addr:postcode" v="78751"/></node><node id="-111" lat="30.317936" lon="-97.717793" changeset="false"><tag k="addr:street" v="Duval Street"/><tag k="addr:housenumber" v="5404"/><tag k="addr:postcode" v="78751"/></node><node id="-112" lat="30.318063" lon="-97.71771" changeset="false"><tag k="addr:street" v="Duval Street"/><tag k="addr:housenumber" v="5406"/><tag k="addr:postcode" v="78751"/></node><node id="-113" lat="30.318183" lon="-97.718303" changeset="false"><tag k="addr:street" v="Avenue H"/><tag k="addr:housenumber" v="5405"/><tag k="addr:postcode" v="78751"/></node><node id="-114" lat="30.318288" lon="-97.718208" changeset="false"><tag k="addr:street" v="Avenue H"/><tag k="addr:housenumber" v="5407"/><tag k="addr:postcode" v="78751"/></node><node id="-115" lat="30.318416" lon="-97.718132" changeset="false"><tag k="addr:street" v="Avenue H"/><tag k="addr:housenumber" v="5409"/><tag k="addr:postcode" v="78751"/></node><node id="-116" lat="30.31647" lon="-97.718055" changeset="false"><tag k="addr:street" v="Duval Street"/><tag k="addr:housenumber" v="5303"/><tag k="addr:postcode" v="78751"/></node><node id="-117" lat="30.317199" lon="-97.718238" changeset="false"><tag k="addr:street" v="Duval Street"/><tag k="addr:housenumber" v="5310"/><tag k="addr:postcode" v="78751"/></node><node id="-118" lat="30.316775" lon="-97.717942" changeset="false"><tag k="addr:street" v="Duval Street"/><tag k="addr:housenumber" v="5307"/><tag k="addr:postcode" v="78751"/></node><node id="-119" lat="30.316896" lon="-97.717919" changeset="false"><tag k="addr:street" v="Duval Street"/><tag k="addr:housenumber" v="5309"/><tag k="addr:postcode" v="78751"/></node><node id="-120" lat="30.317007" lon="-97.717834" changeset="false"><tag k="addr:street" v="Duval Street"/><tag k="addr:housenumber" v="5311"/><tag k="addr:postcode" v="78751"/></node><node id="-121" lat="30.317102" lon="-97.718291" changeset="false"><tag k="addr:street" v="Duval Street"/><tag k="addr:housenumber" v="5308"/><tag k="addr:postcode" v="78751"/></node><node id="-122" lat="30.317226" lon="-97.717698" changeset="false"><tag k="addr:street" v="Duval Street"/><tag k="addr:housenumber" v="5315"/><tag k="addr:postcode" v="78751"/></node><node id="-123" lat="30.317126" lon="-97.717751" changeset="false"><tag k="addr:street" v="Duval Street"/><tag k="addr:housenumber" v="5313"/><tag k="addr:postcode" v="78751"/></node><node id="-124" lat="30.317346" lon="-97.718135" changeset="false"><tag k="addr:street" v="Duval Street"/><tag k="addr:housenumber" v="5312"/><tag k="addr:postcode" v="78751"/></node><node id="-125" lat="30.317457" lon="-97.718072" changeset="false"><tag k="addr:street" v="Duval Street"/><tag k="addr:housenumber" v="5314"/><tag k="addr:postcode" v="78751"/></node><node id="-126" lat="30.322193" lon="-97.720404" changeset="false"><tag k="addr:street" v="West Koenig Lane"/><tag k="addr:housenumber" v="115"/><tag k="addr:postcode" v="78751"/></node><node id="-127" lat="30.322085" lon="-97.720054" changeset="false"><tag k="addr:street" v="West Koenig Lane"/><tag k="addr:housenumber" v="101"/><tag k="addr:postcode" v="78751"/></node><node id="-128" lat="30.321059" lon="-97.719899" changeset="false"><tag k="addr:street" v="Link Avenue"/><tag k="addr:housenumber" v="5513"/><tag k="addr:postcode" v="78751"/></node><node id="-129" lat="30.321034" lon="-97.719222" changeset="false"><tag k="addr:street" v="Avenue F"/><tag k="addr:housenumber" v="5516"/><tag k="addr:postcode" v="78751"/></node><node id="-130" lat="30.321141" lon="-97.719857" changeset="false"><tag k="addr:street" v="Link Avenue"/><tag k="addr:housenumber" v="5515"/><tag k="addr:postcode" v="78751"/></node><node id="-131" lat="30.321277" lon="-97.719781" changeset="false"><tag k="addr:street" v="Link Avenue"/><tag k="addr:housenumber" v="5517"/><tag k="addr:postcode" v="78751"/></node><node id="-132" lat="30.320787" lon="-97.719392" changeset="false"><tag k="addr:street" v="Avenue F"/><tag k="addr:housenumber" v="5512"/><tag k="addr:postcode" v="78751"/></node><node id="-133" lat="30.32083" lon="-97.718906" changeset="false"><tag k="addr:street" v="Avenue F"/><tag k="addr:housenumber" v="5517"/><tag k="addr:postcode" v="78751"/></node><node id="-134" lat="30.320804" lon="-97.720058" changeset="false"><tag k="addr:street" v="Link Avenue"/><tag k="addr:housenumber" v="5509"/><tag k="addr:postcode" v="78751"/></node><node id="-135" lat="30.320934" lon="-97.71996" changeset="false"><tag k="addr:street" v="Link Avenue"/><tag k="addr:housenumber" v="5511"/><tag k="addr:postcode" v="78751"/></node><node id="-136" lat="30.320918" lon="-97.719297" changeset="false"><tag k="addr:street" v="Avenue F"/><tag k="addr:housenumber" v="5514"/><tag k="addr:postcode" v="78751"/></node><node id="-137" lat="30.320546" lon="-97.720235" changeset="false"><tag k="addr:street" v="Link Avenue"/><tag k="addr:housenumber" v="5505"/><tag k="addr:postcode" v="78751"/></node><node id="-138" lat="30.320593" lon="-97.718372" changeset="false"><tag k="addr:street" v="Avenue G"/><tag k="addr:housenumber" v="5516"/><tag k="addr:postcode" v="78751"/></node><node id="-139" lat="30.320589" lon="-97.720852" changeset="false"><tag k="addr:street" v="West 55th Street"/><tag k="addr:housenumber" v="102"/><tag k="addr:postcode" v="78751"/></node><node id="-140" lat="30.320594" lon="-97.719062" changeset="false"><tag k="addr:street" v="Avenue F"/><tag k="addr:housenumber" v="5513"/><tag k="addr:postcode" v="78751"/></node><node id="-141" lat="30.320633" lon="-97.719489" changeset="false"><tag k="addr:street" v="Avenue F"/><tag k="addr:housenumber" v="5510"/><tag k="addr:postcode" v="78751"/></node><node id="-142" lat="30.320641" lon="-97.720153" changeset="false"><tag k="addr:street" v="Link Avenue"/><tag k="addr:housenumber" v="5507"/><tag k="addr:postcode" v="78751"/></node><node id="-143" lat="30.32071" lon="-97.718987" changeset="false"><tag k="addr:street" v="Avenue F"/><tag k="addr:housenumber" v="5515"/><tag k="addr:postcode" v="78751"/></node><node id="-144" lat="30.322494" lon="-97.721342" changeset="false"><tag k="addr:street" v="West Koenig Lane"/><tag k="addr:housenumber" v="211"/><tag k="addr:postcode" v="78751"/></node><node id="-145" lat="30.32101" lon="-97.721679" changeset="false"><tag k="addr:street" v="West 55th Street"/><tag k="addr:housenumber" v="200"/><tag k="addr:postcode" v="78751"/></node><node id="-146" lat="30.321063" lon="-97.721829" changeset="false"><tag k="addr:street" v="West 55th Street"/><tag k="addr:housenumber" v="202"/><tag k="addr:postcode" v="78751"/></node><node id="-147" lat="30.321211" lon="-97.722103" changeset="false"><tag k="addr:street" v="West 55th Street"/><tag k="addr:housenumber" v="206"/><tag k="addr:postcode" v="78751"/></node><node id="-148" lat="30.321272" lon="-97.722257" changeset="false"><tag k="addr:street" v="West 55th Street"/><tag k="addr:housenumber" v="208"/><tag k="addr:postcode" v="78751"/></node><node id="-149" lat="30.32114" lon="-97.721989" changeset="false"><tag k="addr:street" v="West 55th Street"/><tag k="addr:housenumber" v="204"/><tag k="addr:postcode" v="78751"/></node><node id="-150" lat="30.320608" lon="-97.721778" changeset="false"><tag k="addr:street" v="West 55th Street"/><tag k="addr:housenumber" v="113"/><tag k="addr:postcode" v="78751"/></node><node id="-151" lat="30.320664" lon="-97.721009" changeset="false"><tag k="addr:street" v="West 55th Street"/><tag k="addr:housenumber" v="104"/><tag k="addr:postcode" v="78751"/></node><node id="-152" lat="30.320743" lon="-97.722058" changeset="false"><tag k="addr:street" v="West 55th Street"/><tag k="addr:housenumber" v="203"/><tag k="addr:postcode" v="78751"/></node><node id="-153" lat="30.32079" lon="-97.721292" changeset="false"><tag k="addr:street" v="West 55th Street"/><tag k="addr:housenumber" v="108"/><tag k="addr:postcode" v="78751"/></node><node id="-154" lat="30.320803" lon="-97.722184" changeset="false"><tag k="addr:street" v="West 55th Street"/><tag k="addr:housenumber" v="205"/><tag k="addr:postcode" v="78751"/></node><node id="-155" lat="30.320719" lon="-97.721144" changeset="false"><tag k="addr:street" v="West 55th Street"/><tag k="addr:housenumber" v="106"/><tag k="addr:postcode" v="78751"/></node><node id="-156" lat="30.320674" lon="-97.721926" changeset="false"><tag k="addr:street" v="West 55th Street"/><tag k="addr:housenumber" v="201"/><tag k="addr:postcode" v="78751"/></node><node id="-157" lat="30.320856" lon="-97.721422" changeset="false"><tag k="addr:street" v="West 55th Street"/><tag k="addr:housenumber" v="110"/><tag k="addr:postcode" v="78751"/></node><node id="-158" lat="30.320925" lon="-97.721561" changeset="false"><tag k="addr:street" v="West 55th Street"/><tag k="addr:housenumber" v="112"/><tag k="addr:postcode" v="78751"/></node><node id="-159" lat="30.320878" lon="-97.722339" changeset="false"><tag k="addr:street" v="West 55th Street"/><tag k="addr:housenumber" v="207"/><tag k="addr:postcode" v="78751"/></node><node id="-160" lat="30.322753" lon="-97.722303" changeset="false"><tag k="addr:street" v="West Koenig Lane"/><tag k="addr:housenumber" v="301"/><tag k="addr:postcode" v="78751"/></node><node id="-161" lat="30.321923" lon="-97.7237" changeset="false"><tag k="addr:street" v="West 55th Street"/><tag k="addr:housenumber" v="402"/><tag k="addr:postcode" v="78751"/></node><node id="-162" lat="30.321286" lon="-97.723195" changeset="false"><tag k="addr:street" v="West 55th Street"/><tag k="addr:housenumber" v="303"/><tag k="addr:postcode" v="78751"/></node><node id="-163" lat="30.32146" lon="-97.723528" changeset="false"><tag k="addr:street" v="West 55th Street"/><tag k="addr:housenumber" v="309"/><tag k="addr:postcode" v="78751"/></node><node id="-164" lat="30.32156" lon="-97.722866" changeset="false"><tag k="addr:street" v="West 55th Street"/><tag k="addr:housenumber" v="300"/><tag k="addr:postcode" v="78751"/></node><node id="-165" lat="30.321409" lon="-97.723455" changeset="false"><tag k="addr:street" v="West 55th Street"/><tag k="addr:housenumber" v="307"/><tag k="addr:postcode" v="78751"/></node><node id="-166" lat="30.321857" lon="-97.723549" changeset="false"><tag k="addr:street" v="West 55th Street"/><tag k="addr:housenumber" v="400"/><tag k="addr:postcode" v="78751"/></node><node id="-167" lat="30.321801" lon="-97.723385" changeset="false"><tag k="addr:street" v="West 55th Street"/><tag k="addr:housenumber" v="308"/><tag k="addr:postcode" v="78751"/></node><node id="-168" lat="30.321389" lon="-97.722571" changeset="false"><tag k="addr:street" v="West 55th Street"/><tag k="addr:housenumber" v="212"/><tag k="addr:postcode" v="78751"/></node><node id="-169" lat="30.321678" lon="-97.723131" changeset="false"><tag k="addr:street" v="West 55th Street"/><tag k="addr:housenumber" v="304"/><tag k="addr:postcode" v="78751"/></node><node id="-170" lat="30.321343" lon="-97.723323" changeset="false"><tag k="addr:street" v="West 55th Street"/><tag k="addr:housenumber" v="305"/><tag k="addr:postcode" v="78751"/></node><node id="-171" lat="30.321507" lon="-97.723647" changeset="false"><tag k="addr:street" v="West 55th Street"/><tag k="addr:housenumber" v="311"/><tag k="addr:postcode" v="78751"/></node><node id="-172" lat="30.321322" lon="-97.722418" changeset="false"><tag k="addr:street" v="West 55th Street"/><tag k="addr:housenumber" v="210"/><tag k="addr:postcode" v="78751"/></node><node id="-173" lat="30.321741" lon="-97.723251" changeset="false"><tag k="addr:street" v="West 55th Street"/><tag k="addr:housenumber" v="306"/><tag k="addr:postcode" v="78751"/></node><node id="-174" lat="30.320589" lon="-97.722882" changeset="false"><tag k="addr:street" v="Nelray Boulevard"/><tag k="addr:housenumber" v="210"/><tag k="addr:postcode" v="78751"/></node><node id="-175" lat="30.320661" lon="-97.723051" changeset="false"><tag k="addr:street" v="Nelray Boulevard"/><tag k="addr:housenumber" v="212"/><tag k="addr:postcode" v="78751"/></node><node id="-176" lat="30.320952" lon="-97.722482" changeset="false"><tag k="addr:street" v="West 55th Street"/><tag k="addr:housenumber" v="209"/><tag k="addr:postcode" v="78751"/></node><node id="-177" lat="30.321013" lon="-97.722618" changeset="false"><tag k="addr:street" v="West 55th Street"/><tag k="addr:housenumber" v="211"/><tag k="addr:postcode" v="78751"/></node><node id="-178" lat="30.320923" lon="-97.72363" changeset="false"><tag k="addr:street" v="Nelray Boulevard"/><tag k="addr:housenumber" v="304"/><tag k="addr:postcode" v="78751"/></node><node id="-179" lat="30.320863" lon="-97.723489" changeset="false"><tag k="addr:street" v="Nelray Boulevard"/><tag k="addr:housenumber" v="302"/><tag k="addr:postcode" v="78751"/></node><node id="-180" lat="30.321081" lon="-97.722748" changeset="false"><tag k="addr:street" v="West 55th Street"/><tag k="addr:housenumber" v="213"/><tag k="addr:postcode" v="78751"/></node><node id="-181" lat="30.322612" lon="-97.724168" changeset="false"><tag k="addr:street" v="Guadalupe Street"/><tag k="addr:housenumber" v="5509"/><tag k="addr:postcode" v="78751"/></node><node id="-182" lat="30.323166" lon="-97.727578" changeset="false"><tag k="addr:street" v="North Lamar Boulevard"/><tag k="addr:housenumber" v="5501"/><tag k="addr:postcode" v="78751"/></node><node id="-183" lat="30.323047" lon="-97.723897" changeset="false"><tag k="addr:street" v="Guadalupe Street"/><tag k="addr:housenumber" v="5511"/><tag k="addr:postcode" v="78751"/></node><node id="-184" lat="30.323697" lon="-97.725719" changeset="false"><tag k="addr:street" v="North Lamar Boulevard"/><tag k="addr:housenumber" v="5555"/><tag k="addr:postcode" v="78751"/></node><node id="-185" lat="30.321953" lon="-97.724608" changeset="false"><tag k="addr:street" v="West 55th Street"/><tag k="addr:housenumber" v="503"/><tag k="addr:postcode" v="78751"/></node><node id="-186" lat="30.321989" lon="-97.723829" changeset="false"><tag k="addr:street" v="West 55th Street"/><tag k="addr:housenumber" v="404"/><tag k="addr:postcode" v="78751"/></node><node id="-187" lat="30.322027" lon="-97.724767" changeset="false"><tag k="addr:street" v="West 55th Street"/><tag k="addr:housenumber" v="505"/><tag k="addr:postcode" v="78751"/></node><node id="-188" lat="30.322102" lon="-97.726014" changeset="false"><tag k="addr:street" v="Guadalupe Street"/><tag k="addr:housenumber" v="5426"/><tag k="addr:postcode" v="78751"/></node><node id="-189" lat="30.322199" lon="-97.724258" changeset="false"><tag k="addr:street" v="West 55th Street"/><tag k="addr:housenumber" v="500"/><tag k="addr:postcode" v="78751"/></node><node id="-190" lat="30.322138" lon="-97.724118" changeset="false"><tag k="addr:street" v="West 55th Street"/><tag k="addr:housenumber" v="408"/><tag k="addr:postcode" v="78751"/></node><node id="-191" lat="30.322058" lon="-97.723972" changeset="false"><tag k="addr:street" v="West 55th Street"/><tag k="addr:housenumber" v="406"/><tag k="addr:postcode" v="78751"/></node><node id="-192" lat="30.322502" lon="-97.726863" changeset="false"><tag k="addr:street" v="Nelray Boulevard"/><tag k="addr:housenumber" v="700"/><tag k="addr:postcode" v="78751"/></node><node id="-193" lat="30.322291" lon="-97.724432" changeset="false"><tag k="addr:street" v="West 55th Street"/><tag k="addr:housenumber" v="502"/><tag k="addr:postcode" v="78751"/></node><node id="-194" lat="30.321609" lon="-97.725017" changeset="false"><tag k="addr:street" v="Nelray Boulevard"/><tag k="addr:housenumber" v="504"/><tag k="addr:postcode" v="78751"/></node><node id="-195" lat="30.321688" lon="-97.724055" changeset="false"><tag k="addr:street" v="West 55th Street"/><tag k="addr:housenumber" v="405"/><tag k="addr:postcode" v="78751"/></node><node id="-196" lat="30.321669" lon="-97.725126" changeset="false"><tag k="addr:street" v="Nelray Boulevard"/><tag k="addr:housenumber" v="506"/><tag k="addr:postcode" v="78751"/></node><node id="-197" lat="30.321633" lon="-97.723904" changeset="false"><tag k="addr:street" v="West 55th Street"/><tag k="addr:housenumber" v="403"/><tag k="addr:postcode" v="78751"/></node><node id="-198" lat="30.321721" lon="-97.725274" changeset="false"><tag k="addr:street" v="Nelray Boulevard"/><tag k="addr:housenumber" v="508"/><tag k="addr:postcode" v="78751"/></node><node id="-199" lat="30.321751" lon="-97.724157" changeset="false"><tag k="addr:street" v="West 55th Street"/><tag k="addr:housenumber" v="407"/><tag k="addr:postcode" v="78751"/></node><node id="-200" lat="30.321812" lon="-97.724314" changeset="false"><tag k="addr:street" v="West 55th Street"/><tag k="addr:housenumber" v="409"/><tag k="addr:postcode" v="78751"/></node><node id="-201" lat="30.322062" lon="-97.72511" changeset="false"><tag k="addr:street" v="Guadalupe Street"/><tag k="addr:housenumber" v="5413"/><tag k="addr:postcode" v="78751"/></node><node id="-202" lat="30.321878" lon="-97.724459" changeset="false"><tag k="addr:street" v="West 55th Street"/><tag k="addr:housenumber" v="501"/><tag k="addr:postcode" v="78751"/></node><node id="-203" lat="30.321561" lon="-97.723753" changeset="false"><tag k="addr:street" v="West 55th Street"/><tag k="addr:housenumber" v="401"/><tag k="addr:postcode" v="78751"/></node><node id="-204" lat="30.320989" lon="-97.723769" changeset="false"><tag k="addr:street" v="Nelray Boulevard"/><tag k="addr:housenumber" v="306"/><tag k="addr:postcode" v="78751"/></node><node id="-205" lat="30.321075" lon="-97.723914" changeset="false"><tag k="addr:street" v="Nelray Boulevard"/><tag k="addr:housenumber" v="308"/><tag k="addr:postcode" v="78751"/></node><node id="-206" lat="30.321141" lon="-97.72405" changeset="false"><tag k="addr:street" v="Nelray Boulevard"/><tag k="addr:housenumber" v="400"/><tag k="addr:postcode" v="78751"/></node><node id="-207" lat="30.321545" lon="-97.724869" changeset="false"><tag k="addr:street" v="Nelray Boulevard"/><tag k="addr:housenumber" v="502"/><tag k="addr:postcode" v="78751"/></node><node id="-208" lat="30.321193" lon="-97.724177" changeset="false"><tag k="addr:street" v="Nelray Boulevard"/><tag k="addr:housenumber" v="402"/><tag k="addr:postcode" v="78751"/></node><node id="-209" lat="30.321495" lon="-97.724707" changeset="false"><tag k="addr:street" v="Nelray Boulevard"/><tag k="addr:housenumber" v="500"/><tag k="addr:postcode" v="78751"/></node><node id="-210" lat="30.321322" lon="-97.724455" changeset="false"><tag k="addr:street" v="Nelray Boulevard"/><tag k="addr:housenumber" v="406"/><tag k="addr:postcode" v="78751"/></node><node id="-211" lat="30.321259" lon="-97.724316" changeset="false"><tag k="addr:street" v="Nelray Boulevard"/><tag k="addr:housenumber" v="404"/><tag k="addr:postcode" v="78751"/></node><node id="-212" lat="30.321377" lon="-97.724592" changeset="false"><tag k="addr:street" v="Nelray Boulevard"/><tag k="addr:housenumber" v="408"/><tag k="addr:postcode" v="78751"/></node><node id="-213" lat="30.320121" lon="-97.718675" changeset="false"><tag k="addr:street" v="Avenue G"/><tag k="addr:housenumber" v="5508"/><tag k="addr:postcode" v="78751"/></node><node id="-214" lat="30.320216" lon="-97.718604" changeset="false"><tag k="addr:street" v="Avenue G"/><tag k="addr:housenumber" v="5510"/><tag k="addr:postcode" v="78751"/></node><node id="-215" lat="30.320363" lon="-97.718545" changeset="false"><tag k="addr:street" v="Avenue G"/><tag k="addr:housenumber" v="5512"/><tag k="addr:postcode" v="78751"/></node><node id="-216" lat="30.320463" lon="-97.718462" changeset="false"><tag k="addr:street" v="Avenue G"/><tag k="addr:housenumber" v="5514"/><tag k="addr:postcode" v="78751"/></node><node id="-217" lat="30.318941" lon="-97.718937" changeset="false"><tag k="addr:street" v="Avenue G"/><tag k="addr:housenumber" v="5409"/><tag k="addr:postcode" v="78751"/></node><node id="-218" lat="30.318972" lon="-97.718318" changeset="false"><tag k="addr:street" v="Avenue H"/><tag k="addr:housenumber" v="5414"/><tag k="addr:postcode" v="78751"/></node><node id="-219" lat="30.31942" lon="-97.718558" changeset="false"><tag k="addr:street" v="Avenue G"/><tag k="addr:housenumber" v="5501"/><tag k="addr:postcode" v="78751"/></node><node id="-220" lat="30.319679" lon="-97.718467" changeset="false"><tag k="addr:street" v="Avenue G"/><tag k="addr:housenumber" v="5505"/><tag k="addr:postcode" v="78751"/></node><node id="-221" lat="30.319563" lon="-97.718546" changeset="false"><tag k="addr:street" v="Avenue G"/><tag k="addr:housenumber" v="5503"/><tag k="addr:postcode" v="78751"/></node><node id="-222" lat="30.319194" lon="-97.718793" changeset="false"><tag k="addr:street" v="Avenue G"/><tag k="addr:housenumber" v="5415"/><tag k="addr:postcode" v="78751"/></node><node id="-223" lat="30.319086" lon="-97.718886" changeset="false"><tag k="addr:street" v="Avenue G"/><tag k="addr:housenumber" v="5413"/><tag k="addr:postcode" v="78751"/></node><node id="-224" lat="30.319807" lon="-97.718401" changeset="false"><tag k="addr:street" v="Avenue G"/><tag k="addr:housenumber" v="5507"/><tag k="addr:postcode" v="78751"/></node><node id="-225" lat="30.32001" lon="-97.718776" changeset="false"><tag k="addr:street" v="Avenue G"/><tag k="addr:housenumber" v="5506"/><tag k="addr:postcode" v="78751"/></node><node id="-226" lat="30.317946" lon="-97.718433" changeset="false"><tag k="addr:street" v="Avenue H"/><tag k="addr:housenumber" v="5401"/><tag k="addr:postcode" v="78751"/></node><node id="-227" lat="30.318499" lon="-97.71857" changeset="false"><tag k="addr:street" v="Avenue H"/><tag k="addr:housenumber" v="5406"/><tag k="addr:postcode" v="78751"/></node><node id="-228" lat="30.318057" lon="-97.718335" changeset="false"><tag k="addr:street" v="Avenue H"/><tag k="addr:housenumber" v="5403"/><tag k="addr:postcode" v="78751"/></node><node id="-229" lat="30.318363" lon="-97.71867" changeset="false"><tag k="addr:street" v="Avenue H"/><tag k="addr:housenumber" v="5404"/><tag k="addr:postcode" v="78751"/></node><node id="-230" lat="30.318247" lon="-97.718735" changeset="false"><tag k="addr:street" v="Avenue H"/><tag k="addr:housenumber" v="5402"/><tag k="addr:postcode" v="78751"/></node><node id="-231" lat="30.318141" lon="-97.718804" changeset="false"><tag k="addr:street" v="Avenue H"/><tag k="addr:housenumber" v="5400"/><tag k="addr:postcode" v="78751"/></node><node id="-232" lat="30.318599" lon="-97.718504" changeset="false"><tag k="addr:street" v="Avenue H"/><tag k="addr:housenumber" v="5408"/><tag k="addr:postcode" v="78751"/></node><node id="-233" lat="30.31871" lon="-97.718425" changeset="false"><tag k="addr:street" v="Avenue H"/><tag k="addr:housenumber" v="5410"/><tag k="addr:postcode" v="78751"/></node><node id="-234" lat="30.31886" lon="-97.718329" changeset="false"><tag k="addr:street" v="Avenue H"/><tag k="addr:housenumber" v="5412"/><tag k="addr:postcode" v="78751"/></node><node id="-235" lat="30.316852" lon="-97.718544" changeset="false"><tag k="addr:street" v="Duval Street"/><tag k="addr:housenumber" v="5302"/><tag k="addr:postcode" v="78751"/></node><node id="-236" lat="30.316667" lon="-97.718706" changeset="false"><tag k="addr:street" v="Duval Street"/><tag k="addr:housenumber" v="5300"/><tag k="addr:postcode" v="78751"/></node><node id="-237" lat="30.317001" lon="-97.718468" changeset="false"><tag k="addr:street" v="Duval Street"/><tag k="addr:housenumber" v="5304"/><tag k="addr:postcode" v="78751"/></node><node id="-238" lat="30.317227" lon="-97.718918" changeset="false"><tag k="addr:street" v="Avenue H"/><tag k="addr:housenumber" v="5307"/><tag k="addr:postcode" v="78751"/></node><node id="-239" lat="30.317082" lon="-97.718948" changeset="false"><tag k="addr:street" v="Avenue H"/><tag k="addr:housenumber" v="5305"/><tag k="addr:postcode" v="78751"/></node><node id="-240" lat="30.317107" lon="-97.718415" changeset="false"><tag k="addr:street" v="Duval Street"/><tag k="addr:housenumber" v="5306"/><tag k="addr:postcode" v="78751"/></node><node id="-241" lat="30.317302" lon="-97.71867" changeset="false"><tag k="addr:street" v="Avenue H"/><tag k="addr:housenumber" v="5309"/><tag k="addr:postcode" v="78751"/></node><node id="-242" lat="30.31745" lon="-97.718776" changeset="false"><tag k="addr:street" v="Avenue H"/><tag k="addr:housenumber" v="5311"/><tag k="addr:postcode" v="78751"/></node><node id="-243" lat="30.31758" lon="-97.718677" changeset="false"><tag k="addr:street" v="Avenue H"/><tag k="addr:housenumber" v="5313"/><tag k="addr:postcode" v="78751"/></node><node id="-244" lat="30.317705" lon="-97.718592" changeset="false"><tag k="addr:street" v="Avenue H"/><tag k="addr:housenumber" v="5315"/><tag k="addr:postcode" v="78751"/></node><node id="-245" lat="30.317864" lon="-97.71898" changeset="false"><tag k="addr:street" v="Avenue H"/><tag k="addr:housenumber" v="5314"/><tag k="addr:postcode" v="78751"/></node><node id="-246" lat="30.319626" lon="-97.71964" changeset="false"><tag k="addr:street" v="Avenue F"/><tag k="addr:housenumber" v="5415"/><tag k="addr:postcode" v="78751"/></node><node id="-247" lat="30.319912" lon="-97.719491" changeset="false"><tag k="addr:street" v="Avenue F"/><tag k="addr:housenumber" v="5501"/><tag k="addr:postcode" v="78751"/></node><node id="-248" lat="30.320241" lon="-97.719301" changeset="false"><tag k="addr:street" v="Avenue F"/><tag k="addr:housenumber" v="5507"/><tag k="addr:postcode" v="78751"/></node><node id="-249" lat="30.320405" lon="-97.719633" changeset="false"><tag k="addr:street" v="Avenue F"/><tag k="addr:housenumber" v="5506"/><tag k="addr:postcode" v="78751"/></node><node id="-250" lat="30.319992" lon="-97.719382" changeset="false"><tag k="addr:street" v="Avenue F"/><tag k="addr:housenumber" v="5503"/><tag k="addr:postcode" v="78751"/></node><node id="-251" lat="30.320116" lon="-97.719377" changeset="false"><tag k="addr:street" v="Avenue F"/><tag k="addr:housenumber" v="5505"/><tag k="addr:postcode" v="78751"/></node><node id="-252" lat="30.320469" lon="-97.719151" changeset="false"><tag k="addr:street" v="Avenue F"/><tag k="addr:housenumber" v="5511"/><tag k="addr:postcode" v="78751"/></node><node id="-253" lat="30.320526" lon="-97.719586" changeset="false"><tag k="addr:street" v="Avenue F"/><tag k="addr:housenumber" v="5508"/><tag k="addr:postcode" v="78751"/></node><node id="-254" lat="30.320356" lon="-97.719155" changeset="false"><tag k="addr:street" v="Avenue F"/><tag k="addr:housenumber" v="5509"/><tag k="addr:postcode" v="78751"/></node><node id="-255" lat="30.318796" lon="-97.719517" changeset="false"><tag k="addr:street" v="Avenue G"/><tag k="addr:housenumber" v="5404"/><tag k="addr:postcode" v="78751"/></node><node id="-256" lat="30.318814" lon="-97.719032" changeset="false"><tag k="addr:street" v="Avenue G"/><tag k="addr:housenumber" v="5407"/><tag k="addr:postcode" v="78751"/></node><node id="-257" lat="30.318938" lon="-97.719479" changeset="false"><tag k="addr:street" v="Avenue G"/><tag k="addr:housenumber" v="5406"/><tag k="addr:postcode" v="78751"/></node><node id="-258" lat="30.319028" lon="-97.719421" changeset="false"><tag k="addr:street" v="Avenue G"/><tag k="addr:housenumber" v="5408"/><tag k="addr:postcode" v="78751"/></node><node id="-259" lat="30.319139" lon="-97.71933" changeset="false"><tag k="addr:street" v="Avenue G"/><tag k="addr:housenumber" v="5410"/><tag k="addr:postcode" v="78751"/></node><node id="-260" lat="30.319279" lon="-97.719199" changeset="false"><tag k="addr:street" v="Avenue G"/><tag k="addr:housenumber" v="5412"/><tag k="addr:postcode" v="78751"/></node><node id="-261" lat="30.319391" lon="-97.719158" changeset="false"><tag k="addr:street" v="Avenue G"/><tag k="addr:housenumber" v="5414"/><tag k="addr:postcode" v="78751"/></node><node id="-262" lat="30.318116" lon="-97.719506" changeset="false"><tag k="addr:street" v="Avenue G"/><tag k="addr:housenumber" v="5315"/><tag k="addr:postcode" v="78751"/></node><node id="-263" lat="30.318607" lon="-97.719705" changeset="false"><tag k="addr:street" v="Avenue G"/><tag k="addr:housenumber" v="5400"/><tag k="addr:postcode" v="78751"/></node><node id="-264" lat="30.318504" lon="-97.719219" changeset="false"><tag k="addr:street" v="Avenue G"/><tag k="addr:housenumber" v="5403"/><tag k="addr:postcode" v="78751"/></node><node id="-265" lat="30.318643" lon="-97.719167" changeset="false"><tag k="addr:street" v="Avenue G"/><tag k="addr:housenumber" v="5405"/><tag k="addr:postcode" v="78751"/></node><node id="-266" lat="30.318368" lon="-97.719296" changeset="false"><tag k="addr:street" v="Avenue G"/><tag k="addr:housenumber" v="5401"/><tag k="addr:postcode" v="78751"/></node><node id="-267" lat="30.318697" lon="-97.719648" changeset="false"><tag k="addr:street" v="Avenue G"/><tag k="addr:housenumber" v="5402"/><tag k="addr:postcode" v="78751"/></node><node id="-268" lat="30.316991" lon="-97.71908" changeset="false"><tag k="addr:street" v="Avenue H"/><tag k="addr:housenumber" v="5303"/><tag k="addr:postcode" v="78751"/></node><node id="-269" lat="30.317166" lon="-97.719421" changeset="false"><tag k="addr:street" v="Avenue H"/><tag k="addr:housenumber" v="5302"/><tag k="addr:postcode" v="78751"/></node><node id="-270" lat="30.317399" lon="-97.719266" changeset="false"><tag k="addr:street" v="Avenue H"/><tag k="addr:housenumber" v="5306"/><tag k="addr:postcode" v="78751"/></node><node id="-271" lat="30.317285" lon="-97.719342" changeset="false"><tag k="addr:street" v="Avenue H"/><tag k="addr:housenumber" v="5304"/><tag k="addr:postcode" v="78751"/></node><node id="-272" lat="30.317531" lon="-97.719246" changeset="false"><tag k="addr:street" v="Avenue H"/><tag k="addr:housenumber" v="5308"/><tag k="addr:postcode" v="78751"/></node><node id="-273" lat="30.317653" lon="-97.719154" changeset="false"><tag k="addr:street" v="Avenue H"/><tag k="addr:housenumber" v="5310"/><tag k="addr:postcode" v="78751"/></node><node id="-274" lat="30.317754" lon="-97.71969" changeset="false"><tag k="addr:street" v="Avenue G"/><tag k="addr:housenumber" v="5309"/><tag k="addr:postcode" v="78751"/></node><node id="-275" lat="30.317761" lon="-97.719055" changeset="false"><tag k="addr:street" v="Avenue H"/><tag k="addr:housenumber" v="5312"/><tag k="addr:postcode" v="78751"/></node><node id="-276" lat="30.320082" lon="-97.719859" changeset="false"><tag k="addr:street" v="Avenue F"/><tag k="addr:housenumber" v="5500"/><tag k="addr:postcode" v="78751"/></node><node id="-277" lat="30.320165" lon="-97.719765" changeset="false"><tag k="addr:street" v="Avenue F"/><tag k="addr:housenumber" v="5502"/><tag k="addr:postcode" v="78751"/></node><node id="-278" lat="30.320223" lon="-97.720256" changeset="false"><tag k="addr:street" v="East 55th Street"/><tag k="addr:housenumber" v="106"/><tag k="addr:postcode" v="78751"/></node><node id="-279" lat="30.320291" lon="-97.720394" changeset="false"><tag k="addr:street" v="Link Avenue"/><tag k="addr:housenumber" v="5501"/><tag k="addr:postcode" v="78751"/></node><node id="-280" lat="30.320295" lon="-97.719763" changeset="false"><tag k="addr:street" v="Avenue F"/><tag k="addr:housenumber" v="5504"/><tag k="addr:postcode" v="78751"/></node><node id="-281" lat="30.320422" lon="-97.720336" changeset="false"><tag k="addr:street" v="Link Avenue"/><tag k="addr:housenumber" v="5503"/><tag k="addr:postcode" v="78751"/></node><node id="-282" lat="30.319179" lon="-97.719958" changeset="false"><tag k="addr:street" v="Avenue F"/><tag k="addr:housenumber" v="5407"/><tag k="addr:postcode" v="78751"/></node><node id="-283" lat="30.319208" lon="-97.72042" changeset="false"><tag k="addr:street" v="Avenue F"/><tag k="addr:housenumber" v="5404"/><tag k="addr:postcode" v="78751"/></node><node id="-284" lat="30.319315" lon="-97.719895" changeset="false"><tag k="addr:street" v="Avenue F"/><tag k="addr:housenumber" v="5409"/><tag k="addr:postcode" v="78751"/></node><node id="-285" lat="30.319413" lon="-97.719806" changeset="false"><tag k="addr:street" v="Avenue F"/><tag k="addr:housenumber" v="5411"/><tag k="addr:postcode" v="78751"/></node><node id="-286" lat="30.319472" lon="-97.720272" changeset="false"><tag k="addr:street" v="Avenue F"/><tag k="addr:housenumber" v="5408"/><tag k="addr:postcode" v="78751"/></node><node id="-287" lat="30.31936" lon="-97.720352" changeset="false"><tag k="addr:street" v="Avenue F"/><tag k="addr:housenumber" v="5406"/><tag k="addr:postcode" v="78751"/></node><node id="-288" lat="30.319605" lon="-97.720188" changeset="false"><tag k="addr:street" v="Avenue F"/><tag k="addr:housenumber" v="5410"/><tag k="addr:postcode" v="78751"/></node><node id="-289" lat="30.319543" lon="-97.719732" changeset="false"><tag k="addr:street" v="Avenue F"/><tag k="addr:housenumber" v="5413"/><tag k="addr:postcode" v="78751"/></node><node id="-290" lat="30.319727" lon="-97.72012" changeset="false"><tag k="addr:street" v="Avenue F"/><tag k="addr:housenumber" v="5412"/><tag k="addr:postcode" v="78751"/></node><node id="-291" lat="30.319813" lon="-97.720036" changeset="false"><tag k="addr:street" v="Avenue F"/><tag k="addr:housenumber" v="5414"/><tag k="addr:postcode" v="78751"/></node><node id="-292" lat="30.318286" lon="-97.719849" changeset="false"><tag k="addr:street" v="Avenue G"/><tag k="addr:housenumber" v="5314"/><tag k="addr:postcode" v="78751"/></node><node id="-293" lat="30.318377" lon="-97.720015" changeset="false"><tag k="addr:street" v="East 54th Street"/><tag k="addr:housenumber" v="205"/><tag k="addr:postcode" v="78751"/></node><node id="-294" lat="30.318455" lon="-97.720451" changeset="false"><tag k="addr:street" v="Avenue F"/><tag k="addr:housenumber" v="5313"/><tag k="addr:postcode" v="78751"/></node><node id="-295" lat="30.318563" lon="-97.720377" changeset="false"><tag k="addr:street" v="Avenue F"/><tag k="addr:housenumber" v="5315"/><tag k="addr:postcode" v="78751"/></node><node id="-296" lat="30.318815" lon="-97.720185" changeset="false"><tag k="addr:street" v="Avenue F"/><tag k="addr:housenumber" v="5401"/><tag k="addr:postcode" v="78751"/></node><node id="-297" lat="30.318934" lon="-97.72009" changeset="false"><tag k="addr:street" v="Avenue F"/><tag k="addr:housenumber" v="5403"/><tag k="addr:postcode" v="78751"/></node><node id="-298" lat="30.319048" lon="-97.720027" changeset="false"><tag k="addr:street" v="Avenue F"/><tag k="addr:housenumber" v="5405"/><tag k="addr:postcode" v="78751"/></node><node id="-299" lat="30.317291" lon="-97.720011" changeset="false"><tag k="addr:street" v="Avenue G"/><tag k="addr:housenumber" v="5301"/><tag k="addr:postcode" v="78751"/></node><node id="-300" lat="30.31757" lon="-97.719838" changeset="false"><tag k="addr:street" v="Avenue G"/><tag k="addr:housenumber" v="5305"/><tag k="addr:postcode" v="78751"/></node><node id="-301" lat="30.31741" lon="-97.719937" changeset="false"><tag k="addr:street" v="Avenue G"/><tag k="addr:housenumber" v="5303"/><tag k="addr:postcode" v="78751"/></node><node id="-302" lat="30.317502" lon="-97.720372" changeset="false"><tag k="addr:street" v="Avenue G"/><tag k="addr:housenumber" v="5300"/><tag k="addr:postcode" v="78751"/></node><node id="-303" lat="30.317679" lon="-97.720318" changeset="false"><tag k="addr:street" v="Avenue G"/><tag k="addr:housenumber" v="5302"/><tag k="addr:postcode" v="78751"/></node><node id="-304" lat="30.317825" lon="-97.720166" changeset="false"><tag k="addr:street" v="Avenue G"/><tag k="addr:housenumber" v="5304"/><tag k="addr:postcode" v="78751"/></node><node id="-305" lat="30.318011" lon="-97.720015" changeset="false"><tag k="addr:street" v="Avenue G"/><tag k="addr:housenumber" v="5308"/><tag k="addr:postcode" v="78751"/></node><node id="-306" lat="30.318123" lon="-97.719959" changeset="false"><tag k="addr:street" v="Avenue G"/><tag k="addr:housenumber" v="5310"/><tag k="addr:postcode" v="78751"/></node><node id="-307" lat="30.320352" lon="-97.721213" changeset="false"><tag k="addr:street" v="West 55th Street"/><tag k="addr:housenumber" v="105"/><tag k="addr:postcode" v="78751"/></node><node id="-308" lat="30.320371" lon="-97.722422" changeset="false"><tag k="addr:street" v="Nelray Boulevard"/><tag k="addr:housenumber" v="204"/><tag k="addr:postcode" v="78751"/></node><node id="-309" lat="30.320432" lon="-97.722596" changeset="false"><tag k="addr:street" v="Nelray Boulevard"/><tag k="addr:housenumber" v="206"/><tag k="addr:postcode" v="78751"/></node><node id="-310" lat="30.320412" lon="-97.721357" changeset="false"><tag k="addr:street" v="West 55th Street"/><tag k="addr:housenumber" v="107"/><tag k="addr:postcode" v="78751"/></node><node id="-311" lat="30.320465" lon="-97.721499" changeset="false"><tag k="addr:street" v="West 55th Street"/><tag k="addr:housenumber" v="109"/><tag k="addr:postcode" v="78751"/></node><node id="-312" lat="30.320501" lon="-97.722735" changeset="false"><tag k="addr:street" v="Nelray Boulevard"/><tag k="addr:housenumber" v="208"/><tag k="addr:postcode" v="78751"/></node><node id="-313" lat="30.320555" lon="-97.721636" changeset="false"><tag k="addr:street" v="West 55th Street"/><tag k="addr:housenumber" v="111"/><tag k="addr:postcode" v="78751"/></node><node id="-314" lat="30.320548" lon="-97.720715" changeset="false"><tag k="addr:street" v="West 55th Street"/><tag k="addr:housenumber" v="100"/><tag k="addr:postcode" v="78751"/></node><node id="-315" lat="30.319947" lon="-97.720649" changeset="false"><tag k="addr:street" v="Link Avenue"/><tag k="addr:housenumber" v="5413"/><tag k="addr:postcode" v="78751"/></node><node id="-316" lat="30.32" lon="-97.721651" changeset="false"><tag k="addr:street" v="Nelray Boulevard"/><tag k="addr:housenumber" v="106"/><tag k="addr:postcode" v="78751"/></node><node id="-317" lat="30.320055" lon="-97.720549" changeset="false"><tag k="addr:street" v="Link Avenue"/><tag k="addr:housenumber" v="5415"/><tag k="addr:postcode" v="78751"/></node><node id="-318" lat="30.320139" lon="-97.721792" changeset="false"><tag k="addr:street" v="Nelray Boulevard"/><tag k="addr:housenumber" v="108"/><tag k="addr:postcode" v="78751"/></node><node id="-319" lat="30.320142" lon="-97.721976" changeset="false"><tag k="addr:street" v="Nelray Boulevard"/><tag k="addr:housenumber" v="110"/><tag k="addr:postcode" v="78751"/></node><node id="-320" lat="30.32018" lon="-97.720905" changeset="false"><tag k="addr:street" v="West 55th Street"/><tag k="addr:housenumber" v="101"/><tag k="addr:postcode" v="78751"/></node><node id="-321" lat="30.320211" lon="-97.722136" changeset="false"><tag k="addr:street" v="Nelray Boulevard"/><tag k="addr:housenumber" v="200"/><tag k="addr:postcode" v="78751"/></node><node id="-322" lat="30.319934" lon="-97.721499" changeset="false"><tag k="addr:street" v="Nelray Boulevard"/><tag k="addr:housenumber" v="104"/><tag k="addr:postcode" v="78751"/></node><node id="-323" lat="30.320282" lon="-97.72106" changeset="false"><tag k="addr:street" v="West 55th Street"/><tag k="addr:housenumber" v="103"/><tag k="addr:postcode" v="78751"/></node><node id="-324" lat="30.320294" lon="-97.722295" changeset="false"><tag k="addr:street" v="Nelray Boulevard"/><tag k="addr:housenumber" v="202"/><tag k="addr:postcode" v="78751"/></node><node id="-325" lat="30.319371" lon="-97.720996" changeset="false"><tag k="addr:street" v="Link Avenue"/><tag k="addr:housenumber" v="5403"/><tag k="addr:postcode" v="78751"/></node><node id="-326" lat="30.319502" lon="-97.720944" changeset="false"><tag k="addr:street" v="Link Avenue"/><tag k="addr:housenumber" v="5405"/><tag k="addr:postcode" v="78751"/></node><node id="-327" lat="30.319827" lon="-97.720732" changeset="false"><tag k="addr:street" v="Link Avenue"/><tag k="addr:housenumber" v="5411"/><tag k="addr:postcode" v="78751"/></node><node id="-328" lat="30.31974" lon="-97.720768" changeset="false"><tag k="addr:street" v="Link Avenue"/><tag k="addr:housenumber" v="5409"/><tag k="addr:postcode" v="78751"/></node><node id="-329" lat="30.319621" lon="-97.72084" changeset="false"><tag k="addr:street" v="Link Avenue"/><tag k="addr:housenumber" v="5407"/><tag k="addr:postcode" v="78751"/></node><node id="-330" lat="30.319848" lon="-97.721351" changeset="false"><tag k="addr:street" v="Nelray Boulevard"/><tag k="addr:housenumber" v="102"/><tag k="addr:postcode" v="78751"/></node><node id="-331" lat="30.31785" lon="-97.720853" changeset="false"><tag k="addr:street" v="Avenue F"/><tag k="addr:housenumber" v="5303"/><tag k="addr:postcode" v="78751"/></node><node id="-332" lat="30.31775" lon="-97.720844" changeset="false"><tag k="addr:street" v="East 53rd Street"/><tag k="addr:housenumber" v="200"/><tag k="addr:postcode" v="78751"/></node><node id="-333" lat="30.317924" lon="-97.720735" changeset="false"><tag k="addr:street" v="Avenue F"/><tag k="addr:housenumber" v="5305"/><tag k="addr:postcode" v="78751"/></node><node id="-334" lat="30.317579" lon="-97.720531" changeset="false"><tag k="addr:street" v="East 53rd Street"/><tag k="addr:housenumber" v="204"/><tag k="addr:postcode" v="78751"/></node><node id="-335" lat="30.318071" lon="-97.720649" changeset="false"><tag k="addr:street" v="Avenue F"/><tag k="addr:housenumber" v="5307"/><tag k="addr:postcode" v="78751"/></node><node id="-336" lat="30.318314" lon="-97.720537" changeset="false"><tag k="addr:street" v="Avenue F"/><tag k="addr:housenumber" v="5311"/><tag k="addr:postcode" v="78751"/></node><node id="-337" lat="30.318196" lon="-97.72056" changeset="false"><tag k="addr:street" v="Avenue F"/><tag k="addr:housenumber" v="5309"/><tag k="addr:postcode" v="78751"/></node><node id="-338" lat="30.318994" lon="-97.72058" changeset="false"><tag k="addr:street" v="Avenue F"/><tag k="addr:housenumber" v="5400"/><tag k="addr:postcode" v="78751"/></node><node id="-339" lat="30.319082" lon="-97.720527" changeset="false"><tag k="addr:street" v="Avenue F"/><tag k="addr:housenumber" v="5402"/><tag k="addr:postcode" v="78751"/></node><node id="-340" lat="30.319232" lon="-97.721061" changeset="false"><tag k="addr:street" v="Link Avenue"/><tag k="addr:housenumber" v="5401"/><tag k="addr:postcode" v="78751"/></node></osm>