<?xml version="1.0" encoding="UTF-8"?><osm version="0.6" generator="github.com/aaronlidman/osm-and-geojson"><node id="-1" lat="30.384443" lon="-97.719996" changeset="false"><tag k="addr:street" v="Mc Kalla Place"/><tag k="addr:housenumber" v="10202"/><tag k="coa:place_id" v="322539"/></node><node id="-2" lat="30.376588" lon="-97.727545" changeset="false"><tag k="addr:street" v="Waterford Centre Boulevard"/><tag k="addr:housenumber" v="9229"/><tag k="coa:place_id" v="206826"/></node><node id="-3" lat="30.376649" lon="-97.730433" changeset="false"><tag k="addr:street" v="Waterford Centre Boulevard"/><tag k="addr:housenumber" v="9100"/><tag k="coa:place_id" v="671578"/></node><node id="-4" lat="30.390717" lon="-97.721748" changeset="false"><tag k="addr:street" v="Burnet Road,1100"/><tag k="addr:housenumber" v="10629"/><tag k="coa:place_id" v="307364"/></node><node id="-5" lat="30.388369" lon="-97.722459" changeset="false"><tag k="addr:street" v="Burnet Road,1100"/><tag k="addr:housenumber" v="10431"/><tag k="coa:place_id" v="418862"/></node><node id="-6" lat="30.379674" lon="-97.727549" changeset="false"><tag k="addr:street" v="Reid Drive"/><tag k="addr:housenumber" v="9410"/><tag k="coa:place_id" v="148075"/></node><node id="-7" lat="30.406718" lon="-97.712964" changeset="false"><tag k="addr:street" v="Gracy Farms Lane"/><tag k="addr:housenumber" v="2700"/><tag k="coa:place_id" v="191581"/></node><node id="-8" lat="30.389241" lon="-97.722858" changeset="false"><tag k="addr:street" v="Burnet Road,1100"/><tag k="addr:housenumber" v="10502 1/2"/><tag k="coa:place_id" v="3184762"/></node><node id="-9" lat="30.389654" lon="-97.717516" changeset="false"><tag k="addr:street" v="West Braker Lane"/><tag k="addr:housenumber" v="2411"/><tag k="coa:place_id" v="234869"/></node><node id="-10" lat="30.384186" lon="-97.719393" changeset="false"><tag k="addr:street" v="Mc Kalla Place"/><tag k="addr:housenumber" v="10209"/><tag k="coa:place_id" v="130765"/></node><node id="-11" lat="30.383154" lon="-97.721924" changeset="false"><tag k="addr:street" v="Rutland Drive"/><tag k="addr:housenumber" v="2416"/><tag k="coa:place_id" v="985935"/></node><node id="-12" lat="30.382567" lon="-97.723093" changeset="false"><tag k="addr:street" v="Rutland Drive"/><tag k="addr:housenumber" v="2521"/><tag k="coa:place_id" v="674709"/></node><node id="-13" lat="30.382601" lon="-97.732833" changeset="false"><tag k="addr:street" v="Neils Thompson Drive"/><tag k="addr:housenumber" v="9419"/><tag k="coa:place_id" v="387182"/></node><node id="-14" lat="30.377462" lon="-97.729431" changeset="false"><tag k="addr:street" v="Waterford Centre Boulevard"/><tag k="addr:housenumber" v="9200"/><tag k="coa:place_id" v="134643"/></node><node id="-15" lat="30.376982" lon="-97.72434" changeset="false"><tag k="addr:street" v="Mc Neil Road"/><tag k="addr:housenumber" v="9315"/><tag k="coa:place_id" v="307118"/></node><node id="-16" lat="30.381185" lon="-97.724774" changeset="false"><tag k="addr:street" v="Burnet Road,1100"/><tag k="addr:housenumber" v="9708"/><tag k="coa:place_id" v="837759"/></node><node id="-17" lat="30.375663" lon="-97.726134" changeset="false"><tag k="addr:street" v="Burnet Road,1100"/><tag k="addr:housenumber" v="9120"/><tag k="coa:place_id" v="177495"/></node><node id="-18" lat="30.407553" lon="-97.716371" changeset="false"><tag k="addr:street" v="North MoPac Expressway"/><tag k="addr:housenumber" v="11965 1/2"/><tag k="coa:place_id" v="3224463"/></node><node id="-19" lat="30.406291" lon="-97.719824" changeset="false"><tag k="addr:street" v="Domain Drive"/><tag k="addr:housenumber" v="11920 1/2"/><tag k="coa:place_id" v="3334459"/></node><node id="-20" lat="30.392489" lon="-97.725236" changeset="false"><tag k="addr:street" v="West Braker Lane"/><tag k="addr:housenumber" v="3216 1/2"/><tag k="coa:place_id" v="3286767"/></node><node id="-21" lat="30.392416" lon="-97.723069" changeset="false"><tag k="addr:street" v="Domain Drive"/><tag k="addr:housenumber" v="10721"/><tag k="coa:place_id" v="5189952"/></node><node id="-22" lat="30.407375" lon="-97.713649" changeset="false"><tag k="addr:street" v="Burnet Road,1100"/><tag k="addr:housenumber" v="12001"/><tag k="coa:place_id" v="3116024"/></node><node id="-23" lat="30.382262" lon="-97.721436" changeset="false"><tag k="addr:street" v="Rutland Drive"/><tag k="addr:housenumber" v="2425"/><tag k="coa:place_id" v="206260"/></node><node id="-24" lat="30.375896" lon="-97.730167" changeset="false"><tag k="addr:street" v="Waterford Centre Boulevard"/><tag k="addr:housenumber" v="9000"/><tag k="coa:place_id" v="223203"/></node><node id="-25" lat="30.388446" lon="-97.722492" changeset="false"><tag k="addr:street" v="Burnet Road,1100"/><tag k="addr:housenumber" v="10435"/><tag k="coa:place_id" v="515469"/></node><node id="-26" lat="30.393484" lon="-97.720617" changeset="false"><tag k="addr:street" v="Burnet Road,1100"/><tag k="addr:housenumber" v="10809"/><tag k="coa:place_id" v="91434"/></node><node id="-27" lat="30.379045" lon="-97.725324" changeset="false"><tag k="addr:street" v="Burnet Road,1100"/><tag k="addr:housenumber" v="9500"/><tag k="coa:place_id" v="798615"/></node><node id="-28" lat="30.390055" lon="-97.721922" changeset="false"><tag k="addr:street" v="Burnet Road,1100"/><tag k="addr:housenumber" v="10615"/><tag k="coa:place_id" v="307370"/></node><node id="-29" lat="30.392732" lon="-97.718311" changeset="false"><tag k="addr:street" v="Brockton Drive"/><tag k="addr:housenumber" v="2518"/><tag k="coa:place_id" v="192529"/></node><node id="-30" lat="30.386286" lon="-97.718773" changeset="false"><tag k="addr:street" v="Mc Kalla Place"/><tag k="addr:housenumber" v="10414"/><tag k="coa:place_id" v="168714"/></node><node id="-31" lat="30.376801" lon="-97.731774" changeset="false"><tag k="addr:street" v="United Drive"/><tag k="addr:housenumber" v="9008"/><tag k="coa:place_id" v="387170"/></node><node id="-32" lat="30.405371" lon="-97.71135" changeset="false"><tag k="addr:street" v="Gracy Farms Lane"/><tag k="addr:housenumber" v="2600"/><tag k="coa:place_id" v="123626"/></node><node id="-33" lat="30.396028" lon="-97.727436" changeset="false"><tag k="addr:street" v="Amy Donovan Plaza"/><tag k="addr:housenumber" v="3211"/><tag k="coa:place_id" v="3380099"/></node><node id="-34" lat="30.408059" lon="-97.712981" changeset="false"><tag k="addr:street" v="Burnet Road,1100"/><tag k="addr:housenumber" v="12025"/><tag k="coa:place_id" v="3220068"/></node><node id="-35" lat="30.404923" lon="-97.718276" changeset="false"><tag k="addr:street" v="Alterra Parkway"/><tag k="addr:housenumber" v="11815"/><tag k="coa:place_id" v="3334455"/></node><node id="-36" lat="30.403713" lon="-97.723291" changeset="false"><tag k="addr:street" v="Domain Drive"/><tag k="addr:housenumber" v="11711"/><tag k="coa:place_id" v="3334472"/></node><node id="-37" lat="30.39505" lon="-97.726217" changeset="false"><tag k="addr:street" v="Domain Drive"/><tag k="addr:housenumber" v="10901"/><tag k="coa:place_id" v="3382325"/></node><node id="-38" lat="30.380559" lon="-97.72439" changeset="false"><tag k="addr:street" v="Mc Neil Road"/><tag k="addr:housenumber" v="9609"/><tag k="coa:place_id" v="418646"/></node><node id="-39" lat="30.392033" lon="-97.721845" changeset="false"><tag k="addr:street" v="Burnet Road,1100"/><tag k="addr:housenumber" v="10712"/><tag k="coa:place_id" v="3564813"/></node><node id="-40" lat="30.392773" lon="-97.717891" changeset="false"><tag k="addr:street" v="Brockton Drive"/><tag k="addr:housenumber" v="2528"/><tag k="coa:place_id" v="660909"/></node><node id="-41" lat="30.390704" lon="-97.722458" changeset="false"><tag k="addr:street" v="Burnet Road,1100"/><tag k="addr:housenumber" v="10626"/><tag k="coa:place_id" v="418952"/></node><node id="-42" lat="30.38057" lon="-97.727113" changeset="false"><tag k="addr:street" v="Longhorn Boulevard"/><tag k="addr:housenumber" v="2809"/><tag k="coa:place_id" v="307556"/></node><node id="-43" lat="30.406969" lon="-97.713137" changeset="false"><tag k="addr:street" v="Gracy Farms Lane"/><tag k="addr:housenumber" v="2706"/><tag k="coa:place_id" v="200529"/></node><node id="-44" lat="30.390552" lon="-97.721365" changeset="false"><tag k="addr:street" v="West Braker Lane"/><tag k="addr:housenumber" v="2623"/><tag k="coa:place_id" v="256265"/></node><node id="-45" lat="30.389086" lon="-97.722276" changeset="false"><tag k="addr:street" v="Burnet Road,1100"/><tag k="addr:housenumber" v="10505"/><tag k="coa:place_id" v="418886"/></node><node id="-46" lat="30.373895" lon="-97.726917" changeset="false"><tag k="addr:street" v="Research Boulevard,1100"/><tag k="addr:housenumber" v="9053"/><tag k="coa:place_id" v="105111"/></node><node id="-47" lat="30.377329" lon="-97.725043" changeset="false"><tag k="addr:street" v="Burnet Road,1100"/><tag k="addr:housenumber" v="9325"/><tag k="coa:place_id" v="307160"/></node><node id="-48" lat="30.375893" lon="-97.726125" changeset="false"><tag k="addr:street" v="Burnet Road,1100"/><tag k="addr:housenumber" v="9200"/><tag k="coa:place_id" v="169509"/></node><node id="-49" lat="30.377712" lon="-97.727202" changeset="false"><tag k="addr:street" v="Waterford Centre Boulevard"/><tag k="addr:housenumber" v="9228"/><tag k="coa:place_id" v="102871"/></node><node id="-50" lat="30.377667" lon="-97.725249" changeset="false"><tag k="addr:street" v="Burnet Road,1100"/><tag k="addr:housenumber" v="9321"/><tag k="coa:place_id" v="576039"/></node><node id="-51" lat="30.40276" lon="-97.712494" changeset="false"><tag k="addr:street" v="Burnet Road,1100"/><tag k="addr:housenumber" v="11825 1/2"/><tag k="coa:place_id" v="3066323"/></node><node id="-52" lat="30.4053" lon="-97.723082" changeset="false"><tag k="addr:street" v="Domain Drive"/><tag k="addr:housenumber" v="11800"/><tag k="coa:place_id" v="3224779"/></node><node id="-53" lat="30.401027" lon="-97.727685" changeset="false"><tag k="addr:street" v="Esperanza Crossing"/><tag k="addr:housenumber" v="3409"/><tag k="coa:place_id" v="3224758"/></node><node id="-54" lat="30.394043" lon="-97.726817" changeset="false"><tag k="addr:street" v="Domain Drive"/><tag k="addr:housenumber" v="10810"/><tag k="coa:place_id" v="3349527"/></node><node id="-55" lat="30.399071" lon="-97.721002" changeset="false"><tag k="addr:street" v="Esperanza Crossing"/><tag k="addr:housenumber" v="3000"/><tag k="coa:place_id" v="3334850"/></node><node id="-56" lat="30.403814" lon="-97.719091" changeset="false"><tag k="addr:street" v="Alterra Parkway"/><tag k="addr:housenumber" v="11800"/><tag k="coa:place_id" v="3334483"/></node><node id="-57" lat="30.402961" lon="-97.7194" changeset="false"><tag k="addr:street" v="Palm Way"/><tag k="addr:housenumber" v="3000"/><tag k="coa:place_id" v="3334484"/></node><node id="-58" lat="30.399863" lon="-97.722868" changeset="false"><tag k="addr:street" v="Esperanza Crossing"/><tag k="addr:housenumber" v="3100"/><tag k="coa:place_id" v="3334855"/></node><node id="-59" lat="30.400997" lon="-97.719008" changeset="false"><tag k="addr:street" v="Burnet Road,1100"/><tag k="addr:housenumber" v="11504"/><tag k="coa:place_id" v="3380929"/></node><node id="-60" lat="30.401339" lon="-97.724155" changeset="false"><tag k="addr:street" v="Domain Drive"/><tag k="addr:housenumber" v="11501"/><tag k="coa:place_id" v="3374446"/></node><node id="-61" lat="30.399514" lon="-97.722325" changeset="false"><tag k="addr:street" v="Esperanza Crossing"/><tag k="addr:housenumber" v="3100 1/2"/><tag k="coa:place_id" v="5076182"/></node><node id="-62" lat="30.407374" lon="-97.716334" changeset="false"><tag k="addr:street" v="North MoPac Expressway"/><tag k="addr:housenumber" v="11925 1/2"/><tag k="coa:place_id" v="3181313"/></node><node id="-63" lat="30.393875" lon="-97.720343" changeset="false"><tag k="addr:street" v="Burnet Road,1100"/><tag k="addr:housenumber" v="10811 1/2"/><tag k="coa:place_id" v="1162667"/></node><node id="-64" lat="30.403256" lon="-97.717592" changeset="false"><tag k="addr:street" v="Burnet Road,1100"/><tag k="addr:housenumber" v="11824"/><tag k="coa:place_id" v="307418"/></node><node id="-65" lat="30.382278" lon="-97.721483" changeset="false"><tag k="addr:street" v="Rutland Drive"/><tag k="addr:housenumber" v="2427"/><tag k="coa:place_id" v="329835"/></node><node id="-66" lat="30.381424" lon="-97.726761" changeset="false"><tag k="addr:street" v="Longhorn Boulevard"/><tag k="addr:housenumber" v="2800"/><tag k="coa:place_id" v="386906"/></node><node id="-67" lat="30.380869" lon="-97.725915" changeset="false"><tag k="addr:street" v="Longhorn Boulevard"/><tag k="addr:housenumber" v="2632"/><tag k="coa:place_id" v="386888"/></node><node id="-68" lat="30.373829" lon="-97.726678" changeset="false"><tag k="addr:street" v="Research Boulevard,1100"/><tag k="addr:housenumber" v="9051"/><tag k="coa:place_id" v="118539"/></node><node id="-69" lat="30.390492" lon="-97.720414" changeset="false"><tag k="addr:street" v="West Braker Lane"/><tag k="addr:housenumber" v="2607"/><tag k="coa:place_id" v="210973"/></node><node id="-70" lat="30.378189" lon="-97.723528" changeset="false"><tag k="addr:street" v="Saunders Lane"/><tag k="addr:housenumber" v="9603"/><tag k="coa:place_id" v="418544"/></node><node id="-71" lat="30.377755" lon="-97.728805" changeset="false"><tag k="addr:street" v="Waterford Centre Boulevard"/><tag k="addr:housenumber" v="9208"/><tag k="coa:place_id" v="136470"/></node><node id="-72" lat="30.381477" lon="-97.729005" changeset="false"><tag k="addr:street" v="Longhorn Boulevard"/><tag k="addr:housenumber" v="3007"/><tag k="coa:place_id" v="399603"/></node><node id="-73" lat="30.377711" lon="-97.725824" changeset="false"><tag k="addr:street" v="Burnet Road,1100"/><tag k="addr:housenumber" v="9304"/><tag k="coa:place_id" v="549614"/></node><node id="-74" lat="30.382517" lon="-97.732869" changeset="false"><tag k="addr:street" v="Neils Thompson Drive"/><tag k="addr:housenumber" v="9411"/><tag k="coa:place_id" v="248251"/></node><node id="-75" lat="30.37731" lon="-97.728691" changeset="false"><tag k="addr:street" v="Waterford Centre Boulevard"/><tag k="addr:housenumber" v="9201"/><tag k="coa:place_id" v="156781"/></node><node id="-76" lat="30.400801" lon="-97.726802" changeset="false"><tag k="addr:street" v="Esperanza Crossing"/><tag k="addr:housenumber" v="3400"/><tag k="coa:place_id" v="3224756"/></node><node id="-77" lat="30.403272" lon="-97.723274" changeset="false"><tag k="addr:street" v="Palm Way"/><tag k="addr:housenumber" v="3250"/><tag k="coa:place_id" v="3334468"/></node><node id="-78" lat="30.386928" lon="-97.722876" changeset="false"><tag k="addr:street" v="Burnet Road,1100"/><tag k="addr:housenumber" v="10321"/><tag k="coa:place_id" v="418934"/></node><node id="-79" lat="30.405291" lon="-97.718416" changeset="false"><tag k="addr:street" v="Alterra Parkway"/><tag k="addr:housenumber" v="11901"/><tag k="coa:place_id" v="3334451"/></node><node id="-80" lat="30.404512" lon="-97.718145" changeset="false"><tag k="addr:street" v="Alterra Parkway"/><tag k="addr:housenumber" v="11811"/><tag k="coa:place_id" v="3334453"/></node><node id="-81" lat="30.3909" lon="-97.722265" changeset="false"><tag k="addr:street" v="Burnet Road,1100"/><tag k="addr:housenumber" v="10632"/><tag k="coa:place_id" v="3254727"/></node><node id="-82" lat="30.396664" lon="-97.721877" changeset="false"><tag k="addr:street" v="Alterra Parkway"/><tag k="addr:housenumber" v="11100"/><tag k="coa:place_id" v="3304792"/></node><node id="-83" lat="30.402739" lon="-97.717957" changeset="false"><tag k="addr:street" v="Palm Way"/><tag k="addr:housenumber" v="2900"/><tag k="coa:place_id" v="3334488"/></node><node id="-84" lat="30.402861" lon="-97.718447" changeset="false"><tag k="addr:street" v="Palm Way"/><tag k="addr:housenumber" v="2904"/><tag k="coa:place_id" v="3334489"/></node><node id="-85" lat="30.396316" lon="-97.720872" changeset="false"><tag k="addr:street" v="Alterra Parkway"/><tag k="addr:housenumber" v="11119"/><tag k="coa:place_id" v="5076495"/></node><node id="-86" lat="30.393058" lon="-97.726034" changeset="false"><tag k="addr:street" v="West Braker Lane"/><tag k="addr:housenumber" v="3310"/><tag k="coa:place_id" v="3690566"/></node><node id="-87" lat="30.396788" lon="-97.717031" changeset="false"><tag k="addr:street" v="Esperanza Crossing"/><tag k="addr:housenumber" v="2600"/><tag k="coa:place_id" v="5066341"/></node><node id="-88" lat="30.39925" lon="-97.718353" changeset="false"><tag k="addr:street" v="Esperanza Crossing"/><tag k="addr:housenumber" v="2800"/><tag k="coa:place_id" v="5052683"/></node><node id="-89" lat="30.390117" lon="-97.719152" changeset="false"><tag k="addr:street" v="West Braker Lane"/><tag k="addr:housenumber" v="2511"/><tag k="coa:place_id" v="5113533"/></node><node id="-90" lat="30.394008" lon="-97.726446" changeset="false"><tag k="addr:street" v="Domain Drive"/><tag k="addr:housenumber" v="10808"/><tag k="coa:place_id" v="5085938"/></node><node id="-91" lat="30.38495" lon="-97.732011" changeset="false"><tag k="addr:street" v="Neils Thompson Drive"/><tag k="addr:housenumber" v="9711"/><tag k="coa:place_id" v="5216299"/></node><node id="-92" lat="30.385142" lon="-97.721217" changeset="false"><tag k="addr:street" v="Mc Hale Court"/><tag k="addr:housenumber" v="2500"/><tag k="coa:place_id" v="359415"/></node><node id="-93" lat="30.391379" lon="-97.720503" changeset="false"><tag k="addr:street" v="West Braker Lane"/><tag k="addr:housenumber" v="2608"/><tag k="coa:place_id" v="143609"/></node><node id="-94" lat="30.405356" lon="-97.720063" changeset="false"><tag k="addr:street" v="Domain Drive"/><tag k="addr:housenumber" v="11921"/><tag k="coa:place_id" v="3334461"/></node><node id="-95" lat="30.405434" lon="-97.720768" changeset="false"><tag k="addr:street" v="Domain Drive"/><tag k="addr:housenumber" v="11909"/><tag k="coa:place_id" v="3334463"/></node><node id="-96" lat="30.396875" lon="-97.71748" changeset="false"><tag k="addr:street" v="Esperanza Crossing"/><tag k="addr:housenumber" v="2601"/><tag k="coa:place_id" v="5066340"/></node><node id="-97" lat="30.399951" lon="-97.72224" changeset="false"><tag k="addr:street" v="Esperanza Crossing"/><tag k="addr:housenumber" v="3110"/><tag k="coa:place_id" v="3381544"/></node><node id="-98" lat="30.400193" lon="-97.720526" changeset="false"><tag k="addr:street" v="Alterra Parkway"/><tag k="addr:housenumber" v="11420"/><tag k="coa:place_id" v="3334541"/></node><node id="-99" lat="30.397728" lon="-97.719157" changeset="false"><tag k="addr:street" v="Burnet Road,1100"/><tag k="addr:housenumber" v="11313"/><tag k="coa:place_id" v="5104344"/></node><node id="-100" lat="30.399031" lon="-97.725794" changeset="false"><tag k="addr:street" v="Domain Drive"/><tag k="addr:housenumber" v="11228"/><tag k="coa:place_id" v="5092829"/></node><node id="-101" lat="30.39762" lon="-97.726312" changeset="false"><tag k="addr:street" v="Domain Drive"/><tag k="addr:housenumber" v="11104 1/2"/><tag k="coa:place_id" v="3349439"/></node><node id="-102" lat="30.39106" lon="-97.720092" changeset="false"><tag k="addr:street" v="West Braker Lane"/><tag k="addr:housenumber" v="2600"/><tag k="coa:place_id" v="148639"/></node><node id="-103" lat="30.380151" lon="-97.728719" changeset="false"><tag k="addr:street" v="Industrial Terrace"/><tag k="addr:housenumber" v="2906"/><tag k="coa:place_id" v="387212"/></node><node id="-104" lat="30.405134" lon="-97.715276" changeset="false"><tag k="addr:street" v="Burnet Road,1100"/><tag k="addr:housenumber" v="11911"/><tag k="coa:place_id" v="728163"/></node><node id="-105" lat="30.379682" lon="-97.727674" changeset="false"><tag k="addr:street" v="Industrial Terrace"/><tag k="addr:housenumber" v="2800"/><tag k="coa:place_id" v="386912"/></node><node id="-106" lat="30.402789" lon="-97.721324" changeset="false"><tag k="addr:street" v="Palm Way"/><tag k="addr:housenumber" v="3120"/><tag k="coa:place_id" v="3334474"/></node><node id="-107" lat="30.380979" lon="-97.732137" changeset="false"><tag k="addr:street" v="Industrial Terrace"/><tag k="addr:housenumber" v="3205"/><tag k="coa:place_id" v="5099859"/></node><node id="-108" lat="30.395453" lon="-97.719437" changeset="false"><tag k="addr:street" v="Burnet Road,1100"/><tag k="addr:housenumber" v="11101"/><tag k="coa:place_id" v="418970"/></node><node id="-109" lat="30.400875" lon="-97.725942" changeset="false"><tag k="addr:street" v="Robinson Road"/><tag k="addr:housenumber" v="11408 1/2"/><tag k="coa:place_id" v="3293252"/></node><node id="-110" lat="30.402954" lon="-97.719483" changeset="false"><tag k="addr:street" v="Palm Way"/><tag k="addr:housenumber" v="3002 1/2"/><tag k="coa:place_id" v="5120246"/></node><node id="-111" lat="30.393709" lon="-97.72629" changeset="false"><tag k="addr:street" v="Domain Drive"/><tag k="addr:housenumber" v="10800 1/2"/><tag k="coa:place_id" v="3392585"/></node><node id="-112" lat="30.402166" lon="-97.720485" changeset="false"><tag k="addr:street" v="Palm Way"/><tag k="addr:housenumber" v="3101"/><tag k="coa:place_id" v="3334492"/></node><node id="-113" lat="30.387806" lon="-97.726785" changeset="false"><tag k="addr:street" v="Burnet Road,1100"/><tag k="addr:housenumber" v="10100"/><tag k="coa:place_id" v="1013967"/></node><node id="-114" lat="30.404166" lon="-97.712973" changeset="false"><tag k="addr:street" v="Hobby Horse Court"/><tag k="addr:housenumber" v="11901"/><tag k="coa:place_id" v="157123"/></node><node id="-115" lat="30.397491" lon="-97.726316" changeset="false"><tag k="addr:street" v="Domain Drive"/><tag k="addr:housenumber" v="11104"/><tag k="coa:place_id" v="3555266"/></node><node id="-116" lat="30.401934" lon="-97.718733" changeset="false"><tag k="addr:street" v="Alterra Parkway"/><tag k="addr:housenumber" v="11601"/><tag k="coa:place_id" v="5111065"/></node><node id="-117" lat="30.393537" lon="-97.725669" changeset="false"><tag k="addr:street" v="Domain Drive"/><tag k="addr:housenumber" v="10727"/><tag k="coa:place_id" v="5111306"/></node><node id="-118" lat="30.398374" lon="-97.721561" changeset="false"><tag k="addr:street" v="Esperanza Crossing"/><tag k="addr:housenumber" v="3001"/><tag k="coa:place_id" v="3334851"/></node><node id="-119" lat="30.386009" lon="-97.732317" changeset="false"><tag k="addr:street" v="Neils Thompson Drive"/><tag k="addr:housenumber" v="9802"/><tag k="coa:place_id" v="5281387"/></node><node id="-120" lat="30.402707" lon="-97.723068" changeset="false"><tag k="addr:street" v="Palm Way"/><tag k="addr:housenumber" v="3211"/><tag k="coa:place_id" v="3334494"/></node><node id="-121" lat="30.395026" lon="-97.718698" changeset="false"><tag k="addr:street" v="Kramer Lane"/><tag k="addr:housenumber" v="2618"/><tag k="coa:place_id" v="3302244"/></node><node id="-122" lat="30.397171" lon="-97.7191" changeset="false"><tag k="addr:street" v="Burnet Road,1100"/><tag k="addr:housenumber" v="11301"/><tag k="coa:place_id" v="5066345"/></node><node id="-123" lat="30.401464" lon="-97.727733" changeset="false"><tag k="addr:street" v="Esperanza Crossing"/><tag k="addr:housenumber" v="3417"/><tag k="coa:place_id" v="3335286"/></node><node id="-124" lat="30.404295" lon="-97.722682" changeset="false"><tag k="addr:street" v="Domain Drive"/><tag k="addr:housenumber" v="11811"/><tag k="coa:place_id" v="3334466"/></node><node id="-125" lat="30.403053" lon="-97.722402" changeset="false"><tag k="addr:street" v="Palm Way"/><tag k="addr:housenumber" v="3200"/><tag k="coa:place_id" v="3334470"/></node><node id="-126" lat="30.396604" lon="-97.727115" changeset="false"><tag k="addr:street" v="Amy Donovan Plaza"/><tag k="addr:housenumber" v="3210"/><tag k="coa:place_id" v="3380098"/></node><node id="-127" lat="30.396268" lon="-97.727401" changeset="false"><tag k="addr:street" v="Amy Donovan Plaza"/><tag k="addr:housenumber" v="3215"/><tag k="coa:place_id" v="3391120"/></node><node id="-128" lat="30.403458" lon="-97.719829" changeset="false"><tag k="addr:street" v="Palm Way"/><tag k="addr:housenumber" v="3004"/><tag k="coa:place_id" v="3334486"/></node><node id="-129" lat="30.402198" lon="-97.721154" changeset="false"><tag k="addr:street" v="Palm Way"/><tag k="addr:housenumber" v="3121"/><tag k="coa:place_id" v="3334493"/></node><node id="-130" lat="30.400738" lon="-97.719253" changeset="false"><tag k="addr:street" v="Alterra Parkway"/><tag k="addr:housenumber" v="11501"/><tag k="coa:place_id" v="3334507"/></node><node id="-131" lat="30.391016" lon="-97.719301" changeset="false"><tag k="addr:street" v="West Braker Lane"/><tag k="addr:housenumber" v="2512"/><tag k="coa:place_id" v="150769"/></node><node id="-132" lat="30.401742" lon="-97.719861" changeset="false"><tag k="addr:street" v="Alterra Parkway"/><tag k="addr:housenumber" v="11600"/><tag k="coa:place_id" v="5105192"/></node><node id="-133" lat="30.379785" lon="-97.724707" changeset="false"><tag k="addr:street" v="Burnet Road,1100"/><tag k="addr:housenumber" v="9601"/><tag k="coa:place_id" v="990620"/></node><node id="-134" lat="30.406057" lon="-97.721071" changeset="false"><tag k="addr:street" v="Domain Drive"/><tag k="addr:housenumber" v="11920"/><tag k="coa:place_id" v="3334458"/></node><node id="-135" lat="30.390311" lon="-97.722621" changeset="false"><tag k="addr:street" v="Burnet Road,1100"/><tag k="addr:housenumber" v="10620"/><tag k="coa:place_id" v="418946"/></node><node id="-136" lat="30.402451" lon="-97.719571" changeset="false"><tag k="addr:street" v="Palm Way"/><tag k="addr:housenumber" v="3001"/><tag k="coa:place_id" v="3334491"/></node><node id="-137" lat="30.398111" lon="-97.720288" changeset="false"><tag k="addr:street" v="Alterra Parkway"/><tag k="addr:housenumber" v="11305"/><tag k="coa:place_id" v="3334849"/></node><node id="-138" lat="30.378516" lon="-97.721751" changeset="false"><tag k="addr:street" v="West Rundberg Lane"/><tag k="addr:housenumber" v="2311"/><tag k="coa:place_id" v="418628"/></node><node id="-139" lat="30.386364" lon="-97.722597" changeset="false"><tag k="addr:street" v="Burnet Road,1100"/><tag k="addr:housenumber" v="10301"/><tag k="coa:place_id" v="307340"/></node><node id="-140" lat="30.400117" lon="-97.718455" changeset="false"><tag k="addr:street" v="Burnet Road,1100"/><tag k="addr:housenumber" v="11501"/><tag k="coa:place_id" v="760258"/></node><node id="-141" lat="30.382472" lon="-97.72075" changeset="false"><tag k="addr:street" v="Rutland Drive"/><tag k="addr:housenumber" v="2314 1/2"/><tag k="coa:place_id" v="420356"/></node><node id="-142" lat="30.379732" lon="-97.723759" changeset="false"><tag k="addr:street" v="Mc Neil Road"/><tag k="addr:housenumber" v="9613"/><tag k="coa:place_id" v="418664"/></node><node id="-143" lat="30.380125" lon="-97.724245" changeset="false"><tag k="addr:street" v="Mc Neil Road"/><tag k="addr:housenumber" v="9601"/><tag k="coa:place_id" v="520245"/></node><node id="-144" lat="30.382584" lon="-97.73284" changeset="false"><tag k="addr:street" v="Neils Thompson Drive"/><tag k="addr:housenumber" v="9417"/><tag k="coa:place_id" v="388418"/></node><node id="-145" lat="30.378265" lon="-97.724193" changeset="false"><tag k="addr:street" v="Mc Neil Road"/><tag k="addr:housenumber" v="9504"/><tag k="coa:place_id" v="530787"/></node><node id="-146" lat="30.398828" lon="-97.719471" changeset="false"><tag k="addr:street" v="Burnet Road,1100"/><tag k="addr:housenumber" v="11400 1/2"/><tag k="coa:place_id" v="1126507"/></node><node id="-147" lat="30.407664" lon="-97.713687" changeset="false"><tag k="addr:street" v="Burnet Road,1100"/><tag k="addr:housenumber" v="12005 1/2"/><tag k="coa:place_id" v="3181312"/></node><node id="-148" lat="30.385521" lon="-97.718604" changeset="false"><tag k="addr:street" v="Mc Kalla Place"/><tag k="addr:housenumber" v="10401"/><tag k="coa:place_id" v="418754"/></node><node id="-149" lat="30.378037" lon="-97.734914" changeset="false"><tag k="addr:street" v="Research Boulevard,1100"/><tag k="addr:housenumber" v="9211"/><tag k="coa:place_id" v="578950"/></node><node id="-150" lat="30.381197" lon="-97.724379" changeset="false"><tag k="addr:street" v="Burnet Road,1100"/><tag k="addr:housenumber" v="9715"/><tag k="coa:place_id" v="134856"/></node><node id="-151" lat="30.396431" lon="-97.724248" changeset="false"><tag k="addr:street" v="Kramer Lane"/><tag k="addr:housenumber" v="3101"/><tag k="coa:place_id" v="5280331"/></node><node id="-152" lat="30.385136" lon="-97.732779" changeset="false"><tag k="addr:street" v="Neils Thompson Drive"/><tag k="addr:housenumber" v="9712"/><tag k="coa:place_id" v="5281603"/></node><node id="-153" lat="30.38566" lon="-97.727329" changeset="false"><tag k="addr:street" v="Harry Ransom Trail"/><tag k="addr:housenumber" v="9951"/><tag k="coa:place_id" v="5281602"/></node><node id="-154" lat="30.389394" lon="-97.72218" changeset="false"><tag k="addr:street" v="Burnet Road,1100"/><tag k="addr:housenumber" v="10509"/><tag k="coa:place_id" v="307358"/></node><node id="-155" lat="30.375168" lon="-97.726297" changeset="false"><tag k="addr:street" v="Burnet Road,1100"/><tag k="addr:housenumber" v="9110"/><tag k="coa:place_id" v="206404"/></node><node id="-156" lat="30.376813" lon="-97.732076" changeset="false"><tag k="addr:street" v="Research Boulevard,1100"/><tag k="addr:housenumber" v="9181"/><tag k="coa:place_id" v="3035339"/></node><node id="-157" lat="30.391223" lon="-97.730142" changeset="false"><tag k="addr:street" v="West Braker Lane"/><tag k="addr:housenumber" v="3311"/><tag k="coa:place_id" v="3043197"/></node><node id="-158" lat="30.377929" lon="-97.731941" changeset="false"><tag k="addr:street" v="Research Boulevard,1100"/><tag k="addr:housenumber" v="9195"/><tag k="coa:place_id" v="1107427"/></node><node id="-159" lat="30.377687" lon="-97.72439" changeset="false"><tag k="addr:street" v="Mc Neil Road"/><tag k="addr:housenumber" v="9322"/><tag k="coa:place_id" v="407320"/></node><node id="-160" lat="30.390575" lon="-97.717201" changeset="false"><tag k="addr:street" v="West Braker Lane"/><tag k="addr:housenumber" v="2412"/><tag k="coa:place_id" v="150775"/></node><node id="-161" lat="30.39309" lon="-97.719303" changeset="false"><tag k="addr:street" v="Brockton Drive"/><tag k="addr:housenumber" v="2600"/><tag k="coa:place_id" v="205783"/></node><node id="-162" lat="30.379971" lon="-97.72823" changeset="false"><tag k="addr:street" v="Industrial Terrace"/><tag k="addr:housenumber" v="2808"/><tag k="coa:place_id" v="387206"/></node><node id="-163" lat="30.377295" lon="-97.728125" changeset="false"><tag k="addr:street" v="Waterford Centre Boulevard"/><tag k="addr:housenumber" v="9211"/><tag k="coa:place_id" v="216846"/></node><node id="-164" lat="30.376676" lon="-97.724375" changeset="false"><tag k="addr:street" v="Mc Neil Road"/><tag k="addr:housenumber" v="9313"/><tag k="coa:place_id" v="3115632"/></node><node id="-165" lat="30.388123" lon="-97.723057" changeset="false"><tag k="addr:street" v="Burnet Road,1100"/><tag k="addr:housenumber" v="10400"/><tag k="coa:place_id" v="549584"/></node><node id="-166" lat="30.375247" lon="-97.729257" changeset="false"><tag k="addr:street" v="Research Boulevard,1100"/><tag k="addr:housenumber" v="9131"/><tag k="coa:place_id" v="199869"/></node><node id="-167" lat="30.375624" lon="-97.730228" changeset="false"><tag k="addr:street" v="Waterford Centre Boulevard"/><tag k="addr:housenumber" v="9003"/><tag k="coa:place_id" v="191591"/></node><node id="-168" lat="30.379037" lon="-97.724851" changeset="false"><tag k="addr:street" v="Burnet Road,1100"/><tag k="addr:housenumber" v="9518"/><tag k="coa:place_id" v="3179542"/></node><node id="-169" lat="30.373582" lon="-97.726003" changeset="false"><tag k="addr:street" v="Research Boulevard,1100"/><tag k="addr:housenumber" v="9045"/><tag k="coa:place_id" v="600801"/></node><node id="-170" lat="30.382618" lon="-97.732825" changeset="false"><tag k="addr:street" v="Neils Thompson Drive"/><tag k="addr:housenumber" v="9421"/><tag k="coa:place_id" v="387176"/></node><node id="-171" lat="30.382549" lon="-97.732855" changeset="false"><tag k="addr:street" v="Neils Thompson Drive"/><tag k="addr:housenumber" v="9413"/><tag k="coa:place_id" v="387194"/></node><node id="-172" lat="30.406898" lon="-97.718658" changeset="false"><tag k="addr:street" v="North MoPac Expressway"/><tag k="addr:housenumber" v="11901"/><tag k="coa:place_id" v="145840"/></node><node id="-173" lat="30.381572" lon="-97.73327" changeset="false"><tag k="addr:street" v="Neils Thompson Drive"/><tag k="addr:housenumber" v="9321"/><tag k="coa:place_id" v="298240"/></node><node id="-174" lat="30.398802" lon="-97.722477" changeset="false"><tag k="addr:street" v="Esperanza Crossing"/><tag k="addr:housenumber" v="3101"/><tag k="coa:place_id" v="3298218"/></node><node id="-175" lat="30.405043" lon="-97.719907" changeset="false"><tag k="addr:street" v="Alterra Parkway"/><tag k="addr:housenumber" v="11920"/><tag k="coa:place_id" v="3334456"/></node><node id="-176" lat="30.393854" lon="-97.718596" changeset="false"><tag k="addr:street" v="Kramer Lane"/><tag k="addr:housenumber" v="2525"/><tag k="coa:place_id" v="172794"/></node><node id="-177" lat="30.393837" lon="-97.718706" changeset="false"><tag k="addr:street" v="Kramer Lane"/><tag k="addr:housenumber" v="2601"/><tag k="coa:place_id" v="588951"/></node><node id="-178" lat="30.385055" lon="-97.718859" changeset="false"><tag k="addr:street" v="Mc Kalla Place"/><tag k="addr:housenumber" v="10315"/><tag k="coa:place_id" v="186851"/></node><node id="-179" lat="30.385145" lon="-97.7188" changeset="false"><tag k="addr:street" v="Mc Kalla Place"/><tag k="addr:housenumber" v="10317"/><tag k="coa:place_id" v="111087"/></node><node id="-180" lat="30.382125" lon="-97.721015" changeset="false"><tag k="addr:street" v="Rutland Drive"/><tag k="addr:housenumber" v="2407"/><tag k="coa:place_id" v="364227"/></node><node id="-181" lat="30.382171" lon="-97.721155" changeset="false"><tag k="addr:street" v="Rutland Drive"/><tag k="addr:housenumber" v="2413"/><tag k="coa:place_id" v="476349"/></node><node id="-182" lat="30.382155" lon="-97.721108" changeset="false"><tag k="addr:street" v="Rutland Drive"/><tag k="addr:housenumber" v="2411"/><tag k="coa:place_id" v="368355"/></node><node id="-183" lat="30.403991" lon="-97.724042" changeset="false"><tag k="addr:street" v="Domain Drive"/><tag k="addr:housenumber" v="11700"/><tag k="coa:place_id" v="3224778"/></node><node id="-184" lat="30.404643" lon="-97.723881" changeset="false"><tag k="addr:street" v="North MoPac Expressway"/><tag k="addr:housenumber" v="11701"/><tag k="coa:place_id" v="3151339"/></node><node id="-185" lat="30.401091" lon="-97.72575" changeset="false"><tag k="addr:street" v="Rogers Road"/><tag k="addr:housenumber" v="3311"/><tag k="coa:place_id" v="3224767"/></node><node id="-186" lat="30.400594" lon="-97.725916" changeset="false"><tag k="addr:street" v="Esperanza Crossing"/><tag k="addr:housenumber" v="3306"/><tag k="coa:place_id" v="3224762"/></node><node id="-187" lat="30.402569" lon="-97.725886" changeset="false"><tag k="addr:street" v="Century Oaks Terrace"/><tag k="addr:housenumber" v="11506"/><tag k="coa:place_id" v="3224771"/></node><node id="-188" lat="30.402555" lon="-97.725809" changeset="false"><tag k="addr:street" v="Century Oaks Terrace"/><tag k="addr:housenumber" v="11506 1/2"/><tag k="coa:place_id" v="3272617"/></node><node id="-189" lat="30.401249" lon="-97.725392" changeset="false"><tag k="addr:street" v="Rogers Road"/><tag k="addr:housenumber" v="3308 1/2"/><tag k="coa:place_id" v="3292249"/></node><node id="-190" lat="30.401281" lon="-97.725434" changeset="false"><tag k="addr:street" v="Rogers Road"/><tag k="addr:housenumber" v="3308"/><tag k="coa:place_id" v="3224766"/></node><node id="-191" lat="30.399964" lon="-97.725463" changeset="false"><tag k="addr:street" v="Domain Drive"/><tag k="addr:housenumber" v="11310"/><tag k="coa:place_id" v="3224763"/></node><node id="-192" lat="30.400049" lon="-97.725528" changeset="false"><tag k="addr:street" v="Esperanza Crossing"/><tag k="addr:housenumber" v="3301"/><tag k="coa:place_id" v="3255106"/></node><node id="-193" lat="30.399818" lon="-97.726884" changeset="false"><tag k="addr:street" v="Burnet Road,1100"/><tag k="addr:housenumber" v="11402 1/2"/><tag k="coa:place_id" v="3070444"/></node><node id="-194" lat="30.40008" lon="-97.726932" changeset="false"><tag k="addr:street" v="Esperanza Crossing"/><tag k="addr:housenumber" v="3311"/><tag k="coa:place_id" v="3224760"/></node><node id="-195" lat="30.400425" lon="-97.727148" changeset="false"><tag k="addr:street" v="Esperanza Crossing"/><tag k="addr:housenumber" v="3401 1/2"/><tag k="coa:place_id" v="3283688"/></node><node id="-196" lat="30.400384" lon="-97.727161" changeset="false"><tag k="addr:street" v="Esperanza Crossing"/><tag k="addr:housenumber" v="3401"/><tag k="coa:place_id" v="3224757"/></node><node id="-197" lat="30.37765" lon="-97.724722" changeset="false"><tag k="addr:street" v="Mc Neil Road"/><tag k="addr:housenumber" v="9404"/><tag k="coa:place_id" v="247855"/></node><node id="-198" lat="30.377657" lon="-97.724994" changeset="false"><tag k="addr:street" v="Burnet Road,1100"/><tag k="addr:housenumber" v="9401"/><tag k="coa:place_id" v="307154"/></node><node id="-199" lat="30.377736" lon="-97.724971" changeset="false"><tag k="addr:street" v="Burnet Road,1100"/><tag k="addr:housenumber" v="9403"/><tag k="coa:place_id" v="3054597"/></node><node id="-200" lat="30.378594" lon="-97.724494" changeset="false"><tag k="addr:street" v="Mc Neil Road"/><tag k="addr:housenumber" v="9514"/><tag k="coa:place_id" v="640689"/></node><node id="-201" lat="30.37861" lon="-97.724611" changeset="false"><tag k="addr:street" v="Burnet Road,1100"/><tag k="addr:housenumber" v="9505"/><tag k="coa:place_id" v="147823"/></node><node id="-202" lat="30.378266" lon="-97.724709" changeset="false"><tag k="addr:street" v="Burnet Road,1100"/><tag k="addr:housenumber" v="9421"/><tag k="coa:place_id" v="418460"/></node><node id="-203" lat="30.379151" lon="-97.724567" changeset="false"><tag k="addr:street" v="Burnet Road,1100"/><tag k="addr:housenumber" v="9523"/><tag k="coa:place_id" v="243345"/></node><node id="-204" lat="30.378922" lon="-97.724608" changeset="false"><tag k="addr:street" v="Burnet Road,1100"/><tag k="addr:housenumber" v="9513"/><tag k="coa:place_id" v="307142"/></node><node id="-205" lat="30.37325" lon="-97.724288" changeset="false"><tag k="addr:street" v="Research Boulevard,1100"/><tag k="addr:housenumber" v="9029"/><tag k="coa:place_id" v="246820"/></node><node id="-206" lat="30.372964" lon="-97.724018" changeset="false"><tag k="addr:street" v="Research Boulevard,1100"/><tag k="addr:housenumber" v="9025"/><tag k="coa:place_id" v="266806"/></node><node id="-207" lat="30.373652" lon="-97.725166" changeset="false"><tag k="addr:street" v="Research Boulevard,1100"/><tag k="addr:housenumber" v="9037"/><tag k="coa:place_id" v="127417"/></node><node id="-208" lat="30.373718" lon="-97.725572" changeset="false"><tag k="addr:street" v="Research Boulevard,1100"/><tag k="addr:housenumber" v="9041"/><tag k="coa:place_id" v="805107"/></node><node id="-209" lat="30.381142" lon="-97.730469" changeset="false"><tag k="addr:street" v="Business Drive"/><tag k="addr:housenumber" v="9406"/><tag k="coa:place_id" v="387254"/></node><node id="-210" lat="30.381009" lon="-97.73099" changeset="false"><tag k="addr:street" v="Industrial Terrace"/><tag k="addr:housenumber" v="3102"/><tag k="coa:place_id" v="925580"/></node><node id="-211" lat="30.381049" lon="-97.730532" changeset="false"><tag k="addr:street" v="Business Drive"/><tag k="addr:housenumber" v="9404"/><tag k="coa:place_id" v="243368"/></node><node id="-212" lat="30.381213" lon="-97.730859" changeset="false"><tag k="addr:street" v="Industrial Terrace"/><tag k="addr:housenumber" v="3106"/><tag k="coa:place_id" v="388172"/></node><node id="-213" lat="30.380965" lon="-97.730586" changeset="false"><tag k="addr:street" v="Business Drive"/><tag k="addr:housenumber" v="9402"/><tag k="coa:place_id" v="387230"/></node><node id="-214" lat="30.380865" lon="-97.730652" changeset="false"><tag k="addr:street" v="Business Drive"/><tag k="addr:housenumber" v="9400"/><tag k="coa:place_id" v="387224"/></node><node id="-215" lat="30.381286" lon="-97.73081" changeset="false"><tag k="addr:street" v="Industrial Terrace"/><tag k="addr:housenumber" v="3108"/><tag k="coa:place_id" v="298845"/></node><node id="-216" lat="30.381078" lon="-97.730934" changeset="false"><tag k="addr:street" v="Industrial Terrace"/><tag k="addr:housenumber" v="3104"/><tag k="coa:place_id" v="929750"/></node><node id="-217" lat="30.380836" lon="-97.730861" changeset="false"><tag k="addr:street" v="Industrial Terrace"/><tag k="addr:housenumber" v="3100"/><tag k="coa:place_id" v="388148"/></node><node id="-218" lat="30.377954" lon="-97.730798" changeset="false"><tag k="addr:street" v="United Drive"/><tag k="addr:housenumber" v="9206"/><tag k="coa:place_id" v="251829"/></node><node id="-219" lat="30.378094" lon="-97.731037" changeset="false"><tag k="addr:street" v="United Drive"/><tag k="addr:housenumber" v="9210"/><tag k="coa:place_id" v="350830"/></node></osm>