<?xml version="1.0" encoding="UTF-8"?><osm version="0.6" generator="github.com/aaronlidman/osm-and-geojson"><node id="-1" lat="30.404799" lon="-97.714823" changeset="false"><tag k="addr:street" v="Burnet Road"/><tag k="addr:housenumber" v="11901"/><tag k="addr:postcode" v="78758"/></node><node id="-2" lat="30.406854" lon="-97.718692" changeset="false"><tag k="addr:street" v="North MoPac Expressway"/><tag k="addr:housenumber" v="11901"/><tag k="addr:postcode" v="78758"/></node><node id="-3" lat="30.407124" lon="-97.717053" changeset="false"><tag k="addr:street" v="North MoPac Expressway"/><tag k="addr:housenumber" v="11921"/><tag k="addr:postcode" v="78758"/></node><node id="-4" lat="30.398366" lon="-97.71737" changeset="false"><tag k="addr:street" v="Esperanza Crossing"/><tag k="addr:housenumber" v="2700"/><tag k="addr:postcode" v="78758"/></node><node id="-5" lat="30.405522" lon="-97.71642" changeset="false"><tag k="addr:street" v="Burnet Road"/><tag k="addr:housenumber" v="11902"/><tag k="addr:postcode" v="78758"/></node><node id="-6" lat="30.390864" lon="-97.718839" changeset="false"><tag k="addr:street" v="West Braker Lane"/><tag k="addr:housenumber" v="2506"/><tag k="addr:postcode" v="78758"/></node><node id="-7" lat="30.390641" lon="-97.71777" changeset="false"><tag k="addr:street" v="West Braker Lane"/><tag k="addr:housenumber" v="2420"/><tag k="addr:postcode" v="78758"/></node><node id="-8" lat="30.390768" lon="-97.718478" changeset="false"><tag k="addr:street" v="West Braker Lane"/><tag k="addr:housenumber" v="2500"/><tag k="addr:postcode" v="78758"/></node><node id="-9" lat="30.392897" lon="-97.718731" changeset="false"><tag k="addr:street" v="Brockton Drive"/><tag k="addr:housenumber" v="2540"/><tag k="addr:postcode" v="78758"/></node><node id="-10" lat="30.391315" lon="-97.718393" changeset="false"><tag k="addr:street" v="Brockton Drive"/><tag k="addr:housenumber" v="2535"/><tag k="addr:postcode" v="78758"/></node><node id="-11" lat="30.391654" lon="-97.717244" changeset="false"><tag k="addr:street" v="Brockton Drive"/><tag k="addr:housenumber" v="2525"/><tag k="addr:postcode" v="78758"/></node><node id="-12" lat="30.392665" lon="-97.71723" changeset="false"><tag k="addr:street" v="Brockton Drive"/><tag k="addr:housenumber" v="2515"/><tag k="addr:postcode" v="78758"/></node><node id="-13" lat="30.39326" lon="-97.720232" changeset="false"><tag k="addr:street" v="Brockton Drive"/><tag k="addr:housenumber" v="2608"/><tag k="addr:postcode" v="78758"/></node><node id="-14" lat="30.394139" lon="-97.719601" changeset="false"><tag k="addr:street" v="Kramer Lane"/><tag k="addr:housenumber" v="2631"/><tag k="addr:postcode" v="78758"/></node><node id="-15" lat="30.394381" lon="-97.720176" changeset="false"><tag k="addr:street" v="Burnet Road"/><tag k="addr:housenumber" v="11005"/><tag k="addr:postcode" v="78758"/></node><node id="-16" lat="30.39899" lon="-97.719957" changeset="false"><tag k="addr:street" v="Esperanza Crossing"/><tag k="addr:housenumber" v="2900"/><tag k="addr:postcode" v="78758"/></node><node id="-17" lat="30.395554" lon="-97.719637" changeset="false"><tag k="addr:street" v="Burnet Road"/><tag k="addr:housenumber" v="11101"/><tag k="addr:postcode" v="78758"/></node><node id="-18" lat="30.399887" lon="-97.719703" changeset="false"><tag k="addr:street" v="Alterra Parkway"/><tag k="addr:housenumber" v="11405"/><tag k="addr:postcode" v="78758"/></node><node id="-19" lat="30.390264" lon="-97.719653" changeset="false"><tag k="addr:street" v="West Braker Lane"/><tag k="addr:housenumber" v="2601"/><tag k="addr:postcode" v="78758"/></node><node id="-20" lat="30.391722" lon="-97.7199" changeset="false"><tag k="addr:street" v="Brockton Drive"/><tag k="addr:housenumber" v="2545"/><tag k="addr:postcode" v="78758"/></node><node id="-21" lat="30.391587" lon="-97.721208" changeset="false"><tag k="addr:street" v="West Braker Lane"/><tag k="addr:housenumber" v="2616"/><tag k="addr:postcode" v="78758"/></node><node id="-22" lat="30.392407" lon="-97.720756" changeset="false"><tag k="addr:street" v="Burnet Road"/><tag k="addr:housenumber" v="10711"/><tag k="addr:postcode" v="78758"/></node><node id="-23" lat="30.384527" lon="-97.721268" changeset="false"><tag k="addr:street" v="Mc Hale Court"/><tag k="addr:housenumber" v="2500"/><tag k="addr:postcode" v="78758"/></node><node id="-24" lat="30.387633" lon="-97.721571" changeset="false"><tag k="addr:street" v="Burnet Road"/><tag k="addr:housenumber" v="10409"/><tag k="addr:postcode" v="78758"/></node><node id="-25" lat="30.384476" lon="-97.7204" changeset="false"><tag k="addr:street" v="Mc Kalla Place"/><tag k="addr:housenumber" v="10200"/><tag k="addr:postcode" v="78758"/></node><node id="-26" lat="30.404003" lon="-97.724459" changeset="false"><tag k="addr:street" v="Palm Way"/><tag k="addr:housenumber" v="3400"/><tag k="addr:postcode" v="78758"/></node><node id="-27" lat="30.400018" lon="-97.723449" changeset="false"><tag k="addr:street" v="Esperanza Crossing"/><tag k="addr:housenumber" v="3210"/><tag k="addr:postcode" v="78758"/></node><node id="-28" lat="30.399345" lon="-97.724531" changeset="false"><tag k="addr:street" v="Domain Drive"/><tag k="addr:housenumber" v="11301"/><tag k="addr:postcode" v="78758"/></node><node id="-29" lat="30.399172" lon="-97.723565" changeset="false"><tag k="addr:street" v="Esperanza Crossing"/><tag k="addr:housenumber" v="3201"/><tag k="addr:postcode" v="78758"/></node><node id="-30" lat="30.402174" lon="-97.723285" changeset="false"><tag k="addr:street" v="Domain Drive"/><tag k="addr:housenumber" v="11505"/><tag k="addr:postcode" v="78758"/></node><node id="-31" lat="30.403052" lon="-97.724779" changeset="false"><tag k="addr:street" v="Century Oaks Terrace"/><tag k="addr:housenumber" v="11601"/><tag k="addr:postcode" v="78758"/></node><node id="-32" lat="30.390653" lon="-97.722671" changeset="false"><tag k="addr:street" v="Burnet Road"/><tag k="addr:housenumber" v="10622"/><tag k="addr:postcode" v="78758"/></node><node id="-33" lat="30.393973" lon="-97.724165" changeset="false"><tag k="addr:street" v="Burnet Road"/><tag k="addr:housenumber" v="11400"/><tag k="addr:postcode" v="78758"/></node><node id="-34" lat="30.392534" lon="-97.725075" changeset="false"><tag k="addr:street" v="West Braker Lane"/><tag k="addr:housenumber" v="3216"/><tag k="addr:postcode" v="78758"/></node><node id="-35" lat="30.387966" lon="-97.724588" changeset="false"><tag k="addr:street" v="James Hart Trail"/><tag k="addr:housenumber" v="2811"/><tag k="addr:postcode" v="78758"/></node><node id="-36" lat="30.388456" lon="-97.724965" changeset="false"><tag k="addr:street" v="James Hart Trail"/><tag k="addr:housenumber" v="2821"/><tag k="addr:postcode" v="78758"/></node><node id="-37" lat="30.385954" lon="-97.724908" changeset="false"><tag k="addr:street" v="Read Granberry Trail"/><tag k="addr:housenumber" v="2740"/><tag k="addr:postcode" v="78758"/></node><node id="-38" lat="30.387009" lon="-97.722405" changeset="false"><tag k="addr:street" v="Burnet Road"/><tag k="addr:housenumber" v="10401"/><tag k="addr:postcode" v="78758"/></node><node id="-39" lat="30.400716" lon="-97.725194" changeset="false"><tag k="addr:street" v="Domain Drive"/><tag k="addr:housenumber" v="11400"/><tag k="addr:postcode" v="78758"/></node><node id="-40" lat="30.401105" lon="-97.72629" changeset="false"><tag k="addr:street" v="Century Oaks Terrace"/><tag k="addr:housenumber" v="11401"/><tag k="addr:postcode" v="78758"/></node><node id="-41" lat="30.401685" lon="-97.726732" changeset="false"><tag k="addr:street" v="Century Oaks Terrace"/><tag k="addr:housenumber" v="11410"/><tag k="addr:postcode" v="78758"/></node><node id="-42" lat="30.402091" lon="-97.725631" changeset="false"><tag k="addr:street" v="Century Oaks Terrace"/><tag k="addr:housenumber" v="11501"/><tag k="addr:postcode" v="78758"/></node><node id="-43" lat="30.403325" lon="-97.725239" changeset="false"><tag k="addr:street" v="Century Oaks Terrace"/><tag k="addr:housenumber" v="11600"/><tag k="addr:postcode" v="78758"/></node><node id="-44" lat="30.402065" lon="-97.724836" changeset="false"><tag k="addr:street" v="Domain Drive"/><tag k="addr:housenumber" v="11500"/><tag k="addr:postcode" v="78758"/></node><node id="-45" lat="30.396792" lon="-97.72673" changeset="false"><tag k="addr:street" v="Domain Drive"/><tag k="addr:housenumber" v="11010"/><tag k="addr:postcode" v="78758"/></node><node id="-46" lat="30.396767" lon="-97.725577" changeset="false"><tag k="addr:street" v="Kramer Lane"/><tag k="addr:housenumber" v="3121"/><tag k="addr:postcode" v="78758"/></node><node id="-47" lat="30.397301" lon="-97.725297" changeset="false"><tag k="addr:street" v="Kramer Lane"/><tag k="addr:housenumber" v="3120"/><tag k="addr:postcode" v="78758"/></node><node id="-48" lat="30.396547" lon="-97.726131" changeset="false"><tag k="addr:street" v="Domain Drive"/><tag k="addr:housenumber" v="11011"/><tag k="addr:postcode" v="78758"/></node><node id="-49" lat="30.400189" lon="-97.726446" changeset="false"><tag k="addr:street" v="Esperanza Crossing"/><tag k="addr:housenumber" v="3309"/><tag k="addr:postcode" v="78758"/></node><node id="-50" lat="30.389142" lon="-97.725601" changeset="false"><tag k="addr:street" v="James Hart Trail"/><tag k="addr:housenumber" v="2901"/><tag k="addr:postcode" v="78758"/></node><node id="-51" lat="30.389166" lon="-97.725163" changeset="false"><tag k="addr:street" v="James Hart Trail"/><tag k="addr:housenumber" v="2899"/><tag k="addr:postcode" v="78758"/></node><node id="-52" lat="30.395569" lon="-97.726947" changeset="false"><tag k="addr:street" v="Domain Drive"/><tag k="addr:housenumber" v="10910"/><tag k="addr:postcode" v="78758"/></node><node id="-53" lat="30.389153" lon="-97.725887" changeset="false"><tag k="addr:street" v="James Hart Trail"/><tag k="addr:housenumber" v="2903"/><tag k="addr:postcode" v="78758"/></node><node id="-54" lat="30.386573" lon="-97.726146" changeset="false"><tag k="addr:street" v="Read Granberry Trail"/><tag k="addr:housenumber" v="2821"/><tag k="addr:postcode" v="78758"/></node><node id="-55" lat="30.385775" lon="-97.725766" changeset="false"><tag k="addr:street" v="Harry Ransom Trail"/><tag k="addr:housenumber" v="10131"/><tag k="addr:postcode" v="78758"/></node><node id="-56" lat="30.38735" lon="-97.726355" changeset="false"><tag k="addr:street" v="Read Granberry Trail"/><tag k="addr:housenumber" v="2901"/><tag k="addr:postcode" v="78758"/></node><node id="-57" lat="30.386111" lon="-97.727043" changeset="false"><tag k="addr:street" v="Harry Ransom Trail"/><tag k="addr:housenumber" v="10111"/><tag k="addr:postcode" v="78758"/></node><node id="-58" lat="30.38597" lon="-97.726433" changeset="false"><tag k="addr:street" v="Harry Ransom Trail"/><tag k="addr:housenumber" v="10121"/><tag k="addr:postcode" v="78758"/></node><node id="-59" lat="30.388497" lon="-97.726305" changeset="false"><tag k="addr:street" v="James Hart Trail"/><tag k="addr:housenumber" v="3001"/><tag k="addr:postcode" v="78758"/></node><node id="-60" lat="30.388636" lon="-97.726617" changeset="false"><tag k="addr:street" v="James Hart Trail"/><tag k="addr:housenumber" v="3011"/><tag k="addr:postcode" v="78758"/></node><node id="-61" lat="30.395609" lon="-97.728287" changeset="false"><tag k="addr:street" v="Domain Drive"/><tag k="addr:housenumber" v="10850 1/2"/><tag k="addr:postcode" v="78758"/></node><node id="-62" lat="30.39681" lon="-97.727303" changeset="false"><tag k="addr:street" v="Amy Donovan Plaza"/><tag k="addr:housenumber" v="3220"/><tag k="addr:postcode" v="78758"/></node><node id="-63" lat="30.389028" lon="-97.729243" changeset="false"><tag k="addr:street" v="Clyde Davis Trail"/><tag k="addr:housenumber" v="3215"/><tag k="addr:postcode" v="78758"/></node><node id="-64" lat="30.389334" lon="-97.729208" changeset="false"><tag k="addr:street" v="Clyde Davis Trail"/><tag k="addr:housenumber" v="3217"/><tag k="addr:postcode" v="78758"/></node><node id="-65" lat="30.385841" lon="-97.728096" changeset="false"><tag k="addr:street" v="Harry Ransom Trail"/><tag k="addr:housenumber" v="10100"/><tag k="addr:postcode" v="78758"/></node><node id="-66" lat="30.386692" lon="-97.729278" changeset="false"><tag k="addr:street" v="Read Granberry Trail"/><tag k="addr:housenumber" v="3132"/><tag k="addr:postcode" v="78758"/></node><node id="-67" lat="30.386643" lon="-97.728848" changeset="false"><tag k="addr:street" v="Read Granberry Trail"/><tag k="addr:housenumber" v="3130"/><tag k="addr:postcode" v="78758"/></node><node id="-68" lat="30.388692" lon="-97.72829" changeset="false"><tag k="addr:street" v="Clyde Davis Trail"/><tag k="addr:housenumber" v="3131"/><tag k="addr:postcode" v="78758"/></node><node id="-69" lat="30.388744" lon="-97.730088" changeset="false"><tag k="addr:street" v="E H Bellards Road"/><tag k="addr:housenumber" v="10230"/><tag k="addr:postcode" v="78758"/></node><node id="-70" lat="30.389207" lon="-97.729661" changeset="false"><tag k="addr:street" v="Clyde Davis Trail"/><tag k="addr:housenumber" v="3223"/><tag k="addr:postcode" v="78758"/></node><node id="-71" lat="30.388611" lon="-97.731084" changeset="false"><tag k="addr:street" v="Read Granberry Trail"/><tag k="addr:housenumber" v="3331"/><tag k="addr:postcode" v="78758"/></node><node id="-72" lat="30.388613" lon="-97.731595" changeset="false"><tag k="addr:street" v="Read Granberry Trail"/><tag k="addr:housenumber" v="3333"/><tag k="addr:postcode" v="78758"/></node><node id="-73" lat="30.388774" lon="-97.730387" changeset="false"><tag k="addr:street" v="Clyde Davis Trail"/><tag k="addr:housenumber" v="3310"/><tag k="addr:postcode" v="78758"/></node><node id="-74" lat="30.38744" lon="-97.729965" changeset="false"><tag k="addr:street" v="Read Granberry Trail"/><tag k="addr:housenumber" v="3220"/><tag k="addr:postcode" v="78758"/></node><node id="-75" lat="30.387107" lon="-97.731477" changeset="false"><tag k="addr:street" v="Neils Thompson Drive"/><tag k="addr:housenumber" v="9900"/><tag k="addr:postcode" v="78758"/></node><node id="-76" lat="30.386314" lon="-97.731811" changeset="false"><tag k="addr:street" v="Neils Thompson Drive"/><tag k="addr:housenumber" v="9810"/><tag k="addr:postcode" v="78758"/></node><node id="-77" lat="30.387224" lon="-97.730754" changeset="false"><tag k="addr:street" v="Read Granberry Trail"/><tag k="addr:housenumber" v="3300"/><tag k="addr:postcode" v="78758"/></node><node id="-78" lat="30.386919" lon="-97.732084" changeset="false"><tag k="addr:street" v="Neils Thompson Drive"/><tag k="addr:housenumber" v="9820"/><tag k="addr:postcode" v="78758"/></node><node id="-79" lat="30.382939" lon="-97.723646" changeset="false"><tag k="addr:street" v="Burnet Road"/><tag k="addr:housenumber" v="9825"/><tag k="addr:postcode" v="78758"/></node><node id="-80" lat="30.384127" lon="-97.723393" changeset="false"><tag k="addr:street" v="Burnet Road"/><tag k="addr:housenumber" v="10025"/><tag k="addr:postcode" v="78758"/></node><node id="-81" lat="30.380753" lon="-97.725221" changeset="false"><tag k="addr:street" v="Longhorn Boulevard"/><tag k="addr:housenumber" v="2600"/><tag k="addr:postcode" v="78758"/></node><node id="-82" lat="30.373439" lon="-97.724696" changeset="false"><tag k="addr:street" v="Research Boulevard"/><tag k="addr:housenumber" v="9033"/><tag k="addr:postcode" v="78758"/></node><node id="-83" lat="30.374414" lon="-97.725204" changeset="false"><tag k="addr:street" v="Burnet Road"/><tag k="addr:housenumber" v="9101"/><tag k="addr:postcode" v="78758"/></node><node id="-84" lat="30.381925" lon="-97.727429" changeset="false"><tag k="addr:street" v="Longhorn Boulevard"/><tag k="addr:housenumber" v="2808"/><tag k="addr:postcode" v="78758"/></node><node id="-85" lat="30.382238" lon="-97.728282" changeset="false"><tag k="addr:street" v="Longhorn Boulevard"/><tag k="addr:housenumber" v="3006"/><tag k="addr:postcode" v="78758"/></node><node id="-86" lat="30.384941" lon="-97.726416" changeset="false"><tag k="addr:street" v="Read Granberry Trail"/><tag k="addr:housenumber" v="2900"/><tag k="addr:postcode" v="78758"/></node><node id="-87" lat="30.380625" lon="-97.726944" changeset="false"><tag k="addr:street" v="Longhorn Boulevard"/><tag k="addr:housenumber" v="2809"/><tag k="addr:postcode" v="78758"/></node><node id="-88" lat="30.381626" lon="-97.727128" changeset="false"><tag k="addr:street" v="Longhorn Boulevard"/><tag k="addr:housenumber" v="2804"/><tag k="addr:postcode" v="78758"/></node><node id="-89" lat="30.380978" lon="-97.727976" changeset="false"><tag k="addr:street" v="Longhorn Boulevard"/><tag k="addr:housenumber" v="2929"/><tag k="addr:postcode" v="78758"/></node><node id="-90" lat="30.374453" lon="-97.727807" changeset="false"><tag k="addr:street" v="Research Boulevard"/><tag k="addr:housenumber" v="9091"/><tag k="addr:postcode" v="78758"/></node><node id="-91" lat="30.374236" lon="-97.726847" changeset="false"><tag k="addr:street" v="Research Boulevard"/><tag k="addr:housenumber" v="9061"/><tag k="addr:postcode" v="78758"/></node><node id="-92" lat="30.374394" lon="-97.727335" changeset="false"><tag k="addr:street" v="Research Boulevard"/><tag k="addr:housenumber" v="9063"/><tag k="addr:postcode" v="78758"/></node><node id="-93" lat="30.374748" lon="-97.728211" changeset="false"><tag k="addr:street" v="Research Boulevard"/><tag k="addr:housenumber" v="9099"/><tag k="addr:postcode" v="78758"/></node><node id="-94" lat="30.375621" lon="-97.728459" changeset="false"><tag k="addr:street" v="Research Boulevard"/><tag k="addr:housenumber" v="9111"/><tag k="addr:postcode" v="78758"/></node><node id="-95" lat="30.374785" lon="-97.726409" changeset="false"><tag k="addr:street" v="Burnet Road"/><tag k="addr:housenumber" v="9100"/><tag k="addr:postcode" v="78758"/></node><node id="-96" lat="30.374931" lon="-97.728694" changeset="false"><tag k="addr:street" v="Research Boulevard"/><tag k="addr:housenumber" v="9101"/><tag k="addr:postcode" v="78758"/></node><node id="-97" lat="30.382182" lon="-97.732548" changeset="false"><tag k="addr:street" v="Neils Thompson Drive"/><tag k="addr:housenumber" v="9415"/><tag k="addr:postcode" v="78758"/></node><node id="-98" lat="30.382531" lon="-97.731201" changeset="false"><tag k="addr:street" v="Longhorn Boulevard"/><tag k="addr:housenumber" v="3201"/><tag k="addr:postcode" v="78758"/></node><node id="-99" lat="30.382667" lon="-97.729223" changeset="false"><tag k="addr:street" v="Longhorn Boulevard"/><tag k="addr:housenumber" v="3100"/><tag k="addr:postcode" v="78758"/></node><node id="-100" lat="30.382606" lon="-97.733651" changeset="false"><tag k="addr:street" v="Neils Thompson Drive"/><tag k="addr:housenumber" v="9416"/><tag k="addr:postcode" v="78758"/></node><node id="-101" lat="30.382961" lon="-97.729818" changeset="false"><tag k="addr:street" v="Longhorn Boulevard"/><tag k="addr:housenumber" v="3106"/><tag k="addr:postcode" v="78758"/></node><node id="-102" lat="30.382949" lon="-97.732221" changeset="false"><tag k="addr:street" v="Longhorn Boulevard"/><tag k="addr:housenumber" v="3203"/><tag k="addr:postcode" v="78758"/></node><node id="-103" lat="30.383408" lon="-97.733332" changeset="false"><tag k="addr:street" v="Neils Thompson Drive"/><tag k="addr:housenumber" v="9516"/><tag k="addr:postcode" v="78758"/></node><node id="-104" lat="30.383402" lon="-97.730905" changeset="false"><tag k="addr:street" v="Longhorn Boulevard"/><tag k="addr:housenumber" v="3206"/><tag k="addr:postcode" v="78758"/></node><node id="-105" lat="30.384941" lon="-97.732037" changeset="false"><tag k="addr:street" v="Neils Thompson Drive"/><tag k="addr:housenumber" v="9711"/><tag k="addr:postcode" v="78758"/></node><node id="-106" lat="30.383912" lon="-97.731758" changeset="false"><tag k="addr:street" v="Longhorn Boulevard"/><tag k="addr:housenumber" v="3306"/><tag k="addr:postcode" v="78758"/></node><node id="-107" lat="30.38431" lon="-97.73292" changeset="false"><tag k="addr:street" v="Neils Thompson Drive"/><tag k="addr:housenumber" v="9610"/><tag k="addr:postcode" v="78758"/></node><node id="-108" lat="30.385136" lon="-97.732798" changeset="false"><tag k="addr:street" v="Neils Thompson Drive"/><tag k="addr:housenumber" v="9712"/><tag k="addr:postcode" v="78758"/></node><node id="-109" lat="30.380661" lon="-97.7297" changeset="false"><tag k="addr:street" v="Industrial Terrace"/><tag k="addr:housenumber" v="3012"/><tag k="addr:postcode" v="78758"/></node><node id="-110" lat="30.381138" lon="-97.734363" changeset="false"><tag k="addr:street" v="Neils Thompson Drive"/><tag k="addr:housenumber" v="9230"/><tag k="addr:postcode" v="78758"/></node><node id="-111" lat="30.381063" lon="-97.733003" changeset="false"><tag k="addr:street" v="Neils Thompson Drive"/><tag k="addr:housenumber" v="9315"/><tag k="addr:postcode" v="78758"/></node><node id="-112" lat="30.381771" lon="-97.731898" changeset="false"><tag k="addr:street" v="Industrial Terrace"/><tag k="addr:housenumber" v="3206"/><tag k="addr:postcode" v="78758"/></node><node id="-113" lat="30.381795" lon="-97.733962" changeset="false"><tag k="addr:street" v="Neils Thompson Drive"/><tag k="addr:housenumber" v="9324"/><tag k="addr:postcode" v="78758"/></node><node id="-114" lat="30.381981" lon="-97.730221" changeset="false"><tag k="addr:street" v="Longhorn Boulevard"/><tag k="addr:housenumber" v="3101"/><tag k="addr:postcode" v="78758"/></node><node id="-115" lat="30.376704" lon="-97.73154" changeset="false"><tag k="addr:street" v="Research Boulevard"/><tag k="addr:housenumber" v="9151"/><tag k="addr:postcode" v="78758"/></node><node id="-116" lat="30.377146" lon="-97.732396" changeset="false"><tag k="addr:street" v="Research Boulevard"/><tag k="addr:housenumber" v="9185"/><tag k="addr:postcode" v="78758"/></node></osm>