<?xml version="1.0" encoding="UTF-8"?><osm version="0.6" generator="github.com/aaronlidman/osm-and-geojson"><node id="-1" lat="30.144136" lon="-97.87947" changeset="false"><tag k="addr:street" v="Copper Hills Drive"/><tag k="addr:housenumber" v="13412"/><tag k="coa:place_id" v="53393"/></node><node id="-2" lat="30.142513" lon="-97.882725" changeset="false"><tag k="addr:street" v="Copper Hills Drive"/><tag k="addr:housenumber" v="13604"/><tag k="coa:place_id" v="53422"/></node><node id="-3" lat="30.140013" lon="-97.883625" changeset="false"><tag k="addr:street" v="Copper Hills Drive"/><tag k="addr:housenumber" v="13707"/><tag k="coa:place_id" v="53409"/></node><node id="-4" lat="30.14412" lon="-97.87984" changeset="false"><tag k="addr:street" v="Copper Hills Drive"/><tag k="addr:housenumber" v="13414"/><tag k="coa:place_id" v="53394"/></node><node id="-5" lat="30.143749" lon="-97.878491" changeset="false"><tag k="addr:street" v="Copper Hills Drive"/><tag k="addr:housenumber" v="13406"/><tag k="coa:place_id" v="53390"/></node><node id="-6" lat="30.14325" lon="-97.880609" changeset="false"><tag k="addr:street" v="Copper Hills Drive"/><tag k="addr:housenumber" v="13501"/><tag k="coa:place_id" v="53405"/></node><node id="-7" lat="30.144197" lon="-97.880114" changeset="false"><tag k="addr:street" v="Copper Hills Drive"/><tag k="addr:housenumber" v="13416"/><tag k="coa:place_id" v="53395"/></node><node id="-8" lat="30.14308" lon="-97.87797" changeset="false"><tag k="addr:street" v="Copper Hills Drive"/><tag k="addr:housenumber" v="13402"/><tag k="coa:place_id" v="53388"/></node><node id="-9" lat="30.140774" lon="-97.884511" changeset="false"><tag k="addr:street" v="Copper Hills Drive"/><tag k="addr:housenumber" v="13708"/><tag k="coa:place_id" v="53382"/></node><node id="-10" lat="30.142138" lon="-97.882971" changeset="false"><tag k="addr:street" v="Copper Hills Drive"/><tag k="addr:housenumber" v="13608"/><tag k="coa:place_id" v="53423"/></node><node id="-11" lat="30.139912" lon="-97.881952" changeset="false"><tag k="addr:street" v="Copperplace Drive"/><tag k="addr:housenumber" v="3705"/><tag k="coa:place_id" v="53415"/></node><node id="-12" lat="30.143254" lon="-97.882126" changeset="false"><tag k="addr:street" v="Copper Hills Drive"/><tag k="addr:housenumber" v="13510"/><tag k="coa:place_id" v="53400"/></node><node id="-13" lat="30.142895" lon="-97.882412" changeset="false"><tag k="addr:street" v="Copper Hills Drive"/><tag k="addr:housenumber" v="13600"/><tag k="coa:place_id" v="53418"/></node><node id="-14" lat="30.14" lon="-97.884058" changeset="false"><tag k="addr:street" v="Copper Hills Drive"/><tag k="addr:housenumber" v="13709"/><tag k="coa:place_id" v="53410"/></node><node id="-15" lat="30.143943" lon="-97.878813" changeset="false"><tag k="addr:street" v="Copper Hills Drive"/><tag k="addr:housenumber" v="13408"/><tag k="coa:place_id" v="53391"/></node><node id="-16" lat="30.14104" lon="-97.884137" changeset="false"><tag k="addr:street" v="Copper Hills Drive"/><tag k="addr:housenumber" v="13704"/><tag k="coa:place_id" v="53383"/></node><node id="-17" lat="30.140154" lon="-97.884398" changeset="false"><tag k="addr:street" v="Copper Hills Drive"/><tag k="addr:housenumber" v="13710"/><tag k="coa:place_id" v="53381"/></node><node id="-18" lat="30.144054" lon="-97.879127" changeset="false"><tag k="addr:street" v="Copper Hills Drive"/><tag k="addr:housenumber" v="13410"/><tag k="coa:place_id" v="53392"/></node><node id="-19" lat="30.141564" lon="-97.88353" changeset="false"><tag k="addr:street" v="Copper Hills Drive"/><tag k="addr:housenumber" v="13700"/><tag k="coa:place_id" v="53420"/></node></osm>