<?xml version="1.0" encoding="UTF-8"?><osm version="0.6" generator="github.com/aaronlidman/osm-and-geojson"><node id="-1" lat="30.209545" lon="-97.879555" changeset="false"><tag k="addr:street" v="Lantana Way"/><tag k="addr:housenumber" v="9013"/><tag k="addr:postcode" v="78749"/></node><node id="-2" lat="30.204935" lon="-97.877249" changeset="false"><tag k="addr:street" v="Salcon Cliff Drive"/><tag k="addr:housenumber" v="6003"/><tag k="addr:postcode" v="78749"/></node><node id="-3" lat="30.206342" lon="-97.886022" changeset="false"><tag k="addr:street" v="Bungalow Lane"/><tag k="addr:housenumber" v="9512"/><tag k="addr:postcode" v="78749"/></node><node id="-4" lat="30.208858" lon="-97.885924" changeset="false"><tag k="addr:street" v="Haswell Lane"/><tag k="addr:housenumber" v="6613"/><tag k="addr:postcode" v="78749"/></node><node id="-5" lat="30.212991" lon="-97.879564" changeset="false"><tag k="addr:street" v="Clarion Drive"/><tag k="addr:housenumber" v="6332"/><tag k="addr:postcode" v="78749"/></node><node id="-6" lat="30.210637" lon="-97.874682" changeset="false"><tag k="addr:street" v="Mesa Verde Circle"/><tag k="addr:housenumber" v="5948"/><tag k="addr:postcode" v="78749"/></node><node id="-7" lat="30.20888" lon="-97.879894" changeset="false"><tag k="addr:street" v="Lantana Way"/><tag k="addr:housenumber" v="9109"/><tag k="addr:postcode" v="78749"/></node><node id="-8" lat="30.205055" lon="-97.872908" changeset="false"><tag k="addr:street" v="Janabyrd Lane"/><tag k="addr:housenumber" v="5723"/><tag k="addr:postcode" v="78749"/></node><node id="-9" lat="30.206969" lon="-97.870476" changeset="false"><tag k="addr:street" v="Lomita Verde Circle"/><tag k="addr:housenumber" v="5712"/><tag k="addr:postcode" v="78749"/></node><node id="-10" lat="30.20518" lon="-97.873075" changeset="false"><tag k="addr:street" v="Janabyrd Lane"/><tag k="addr:housenumber" v="5727"/><tag k="addr:postcode" v="78749"/></node><node id="-11" lat="30.210872" lon="-97.874038" changeset="false"><tag k="addr:street" v="Mesa Verde Court"/><tag k="addr:housenumber" v="8704"/><tag k="addr:postcode" v="78749"/></node><node id="-12" lat="30.207105" lon="-97.866795" changeset="false"><tag k="addr:street" v="Tiombe Bend"/><tag k="addr:housenumber" v="8804"/><tag k="addr:postcode" v="78749"/></node><node id="-13" lat="30.209959" lon="-97.880211" changeset="false"><tag k="addr:street" v="Taylorcrest Drive"/><tag k="addr:housenumber" v="6307"/><tag k="addr:postcode" v="78749"/></node><node id="-14" lat="30.204063" lon="-97.87406" changeset="false"><tag k="addr:street" v="Garden Ranch Court"/><tag k="addr:housenumber" v="9208"/><tag k="addr:postcode" v="78749"/></node><node id="-15" lat="30.208669" lon="-97.886684" changeset="false"><tag k="addr:street" v="Donner Lane"/><tag k="addr:housenumber" v="9301"/><tag k="addr:postcode" v="78749"/></node><node id="-16" lat="30.20921" lon="-97.879724" changeset="false"><tag k="addr:street" v="Lantana Way"/><tag k="addr:housenumber" v="9101"/><tag k="addr:postcode" v="78749"/></node><node id="-17" lat="30.205995" lon="-97.875304" changeset="false"><tag k="addr:street" v="Salcon Cliff Drive"/><tag k="addr:housenumber" v="5939"/><tag k="addr:postcode" v="78749"/></node><node id="-18" lat="30.210861" lon="-97.873808" changeset="false"><tag k="addr:street" v="Mesa Verde Court"/><tag k="addr:housenumber" v="8700"/><tag k="addr:postcode" v="78749"/></node><node id="-19" lat="30.20498" lon="-97.879094" changeset="false"><tag k="addr:street" v="Escarpment Boulevard"/><tag k="addr:housenumber" v="9308"/><tag k="addr:postcode" v="78749"/></node><node id="-20" lat="30.206051" lon="-97.886829" changeset="false"><tag k="addr:street" v="Carrington Drive"/><tag k="addr:housenumber" v="6605"/><tag k="addr:postcode" v="78749"/></node><node id="-21" lat="30.211551" lon="-97.897826" changeset="false"><tag k="addr:street" v="Ranch to Market Road 1826"/><tag k="addr:housenumber" v="9601"/><tag k="addr:postcode" v="78739"/></node><node id="-22" lat="30.210247" lon="-97.876149" changeset="false"><tag k="addr:street" v="Escarpment Boulevard"/><tag k="addr:housenumber" v="8819"/><tag k="addr:postcode" v="78749"/></node><node id="-23" lat="30.209446" lon="-97.873528" changeset="false"><tag k="addr:street" v="Mesa Verde Circle"/><tag k="addr:housenumber" v="5905"/><tag k="addr:postcode" v="78749"/></node><node id="-24" lat="30.210773" lon="-97.884264" changeset="false"><tag k="addr:street" v="Ruxton Lane"/><tag k="addr:housenumber" v="6629"/><tag k="addr:postcode" v="78749"/></node><node id="-25" lat="30.209504" lon="-97.899812" changeset="false"><tag k="addr:street" v="Ranch to Market Road 1826"/><tag k="addr:housenumber" v="9801"/><tag k="addr:postcode" v="78739"/></node><node id="-26" lat="30.207728" lon="-97.889993" changeset="false"><tag k="addr:street" v="West Slaughter Lane"/><tag k="addr:housenumber" v="6599"/><tag k="addr:postcode" v="78739"/></node><node id="-27" lat="30.207038" lon="-97.865601" changeset="false"><tag k="addr:street" v="Tiombe Bend"/><tag k="addr:housenumber" v="8712"/><tag k="addr:postcode" v="78749"/></node><node id="-28" lat="30.206808" lon="-97.867259" changeset="false"><tag k="addr:street" v="Tiombe Bend"/><tag k="addr:housenumber" v="8816"/><tag k="addr:postcode" v="78749"/></node><node id="-29" lat="30.204422" lon="-97.88549" changeset="false"><tag k="addr:street" v="Carrington Drive"/><tag k="addr:housenumber" v="6417"/><tag k="addr:postcode" v="78749"/></node><node id="-30" lat="30.203772" lon="-97.883591" changeset="false"><tag k="addr:street" v="Carrington Drive"/><tag k="addr:housenumber" v="6237"/><tag k="addr:postcode" v="78749"/></node><node id="-31" lat="30.206969" lon="-97.865432" changeset="false"><tag k="addr:street" v="Tiombe Bend"/><tag k="addr:housenumber" v="8708"/><tag k="addr:postcode" v="78749"/></node><node id="-32" lat="30.202847" lon="-97.877486" changeset="false"><tag k="addr:street" v="Escarpment Boulevard"/><tag k="addr:housenumber" v="9601"/><tag k="addr:postcode" v="78749"/></node><node id="-33" lat="30.210402" lon="-97.884407" changeset="false"><tag k="addr:street" v="Fainwood Lane"/><tag k="addr:housenumber" v="9143"/><tag k="addr:postcode" v="78749"/></node><node id="-34" lat="30.208175" lon="-97.886459" changeset="false"><tag k="addr:street" v="Ruxton Lane"/><tag k="addr:housenumber" v="6427"/><tag k="addr:postcode" v="78749"/></node><node id="-35" lat="30.205709" lon="-97.878028" changeset="false"><tag k="addr:street" v="Sommerland Way"/><tag k="addr:housenumber" v="9214"/><tag k="addr:postcode" v="78749"/></node><node id="-36" lat="30.209127" lon="-97.88704" changeset="false"><tag k="addr:street" v="Donner Lane"/><tag k="addr:housenumber" v="9300"/><tag k="addr:postcode" v="78749"/></node><node id="-37" lat="30.208329" lon="-97.863359" changeset="false"><tag k="addr:street" v="Davis Lane"/><tag k="addr:housenumber" v="5301"/><tag k="addr:postcode" v="78749"/></node><node id="-38" lat="30.208396" lon="-97.878288" changeset="false"><tag k="addr:street" v="Sautelle Lane"/><tag k="addr:housenumber" v="9024"/><tag k="addr:postcode" v="78749"/></node><node id="-39" lat="30.209493" lon="-97.898217" changeset="false"><tag k="addr:street" v="Ranch to Market Road 1826"/><tag k="addr:housenumber" v="9741"/><tag k="addr:postcode" v="78739"/></node><node id="-40" lat="30.207029" lon="-97.866978" changeset="false"><tag k="addr:street" v="Tiombe Bend"/><tag k="addr:housenumber" v="8808"/><tag k="addr:postcode" v="78749"/></node><node id="-41" lat="30.209034" lon="-97.887481" changeset="false"><tag k="addr:street" v="Edwardson Lane"/><tag k="addr:housenumber" v="9315"/><tag k="addr:postcode" v="78749"/></node><node id="-42" lat="30.203834" lon="-97.873862" changeset="false"><tag k="addr:street" v="Beckett Road"/><tag k="addr:housenumber" v="9208 1/2"/><tag k="addr:postcode" v="78749"/></node><node id="-43" lat="30.205583" lon="-97.881193" changeset="false"><tag k="addr:street" v="Hopeland Drive"/><tag k="addr:housenumber" v="9445"/><tag k="addr:postcode" v="78749"/></node><node id="-44" lat="30.209561" lon="-97.873645" changeset="false"><tag k="addr:street" v="Mesa Verde Circle"/><tag k="addr:housenumber" v="5909"/><tag k="addr:postcode" v="78749"/></node><node id="-45" lat="30.20615" lon="-97.883225" changeset="false"><tag k="addr:street" v="Hopeland Drive"/><tag k="addr:housenumber" v="9401"/><tag k="addr:postcode" v="78749"/></node><node id="-46" lat="30.207223" lon="-97.86363" changeset="false"><tag k="addr:street" v="La Cresada Drive"/><tag k="addr:housenumber" v="8701"/><tag k="addr:postcode" v="78749"/></node><node id="-47" lat="30.207118" lon="-97.86578" changeset="false"><tag k="addr:street" v="Tiombe Bend"/><tag k="addr:housenumber" v="8716"/><tag k="addr:postcode" v="78749"/></node><node id="-48" lat="30.208832" lon="-97.895965" changeset="false"><tag k="addr:street" v="Ranch to Market Road 1826"/><tag k="addr:housenumber" v="9727"/><tag k="addr:postcode" v="78739"/></node><node id="-49" lat="30.206439" lon="-97.870944" changeset="false"><tag k="addr:street" v="Beckett Road"/><tag k="addr:housenumber" v="8906"/><tag k="addr:postcode" v="78749"/></node><node id="-50" lat="30.210757" lon="-97.87409" changeset="false"><tag k="addr:street" v="Mesa Verde Court"/><tag k="addr:housenumber" v="8708"/><tag k="addr:postcode" v="78749"/></node><node id="-51" lat="30.210866" lon="-97.898688" changeset="false"><tag k="addr:street" v="Ranch to Market Road 1826"/><tag k="addr:housenumber" v="9611"/><tag k="addr:postcode" v="78739"/></node><node id="-52" lat="30.209378" lon="-97.879631" changeset="false"><tag k="addr:street" v="Lantana Way"/><tag k="addr:housenumber" v="9017"/><tag k="addr:postcode" v="78749"/></node><node id="-53" lat="30.205181" lon="-97.886187" changeset="false"><tag k="addr:street" v="Carrington Drive"/><tag k="addr:housenumber" v="6509"/><tag k="addr:postcode" v="78749"/></node><node id="-54" lat="30.209759" lon="-97.875646" changeset="false"><tag k="addr:street" v="Taylorcrest Drive"/><tag k="addr:housenumber" v="6018"/><tag k="addr:postcode" v="78749"/></node><node id="-55" lat="30.203287" lon="-97.884985" changeset="false"><tag k="addr:street" v="West Slaughter Lane"/><tag k="addr:housenumber" v="6303 1/2"/><tag k="addr:postcode" v="78739"/></node><node id="-56" lat="30.205543" lon="-97.873948" changeset="false"><tag k="addr:street" v="Janabyrd Cove"/><tag k="addr:housenumber" v="9116"/><tag k="addr:postcode" v="78749"/></node><node id="-57" lat="30.204898" lon="-97.865286" changeset="false"><tag k="addr:street" v="La Cresada Drive"/><tag k="addr:housenumber" v="8901"/><tag k="addr:postcode" v="78749"/></node><node id="-58" lat="30.206897" lon="-97.885733" changeset="false"><tag k="addr:street" v="Hopeland Drive"/><tag k="addr:housenumber" v="9213"/><tag k="addr:postcode" v="78749"/></node><node id="-59" lat="30.20403" lon="-97.885012" changeset="false"><tag k="addr:street" v="Carrington Drive"/><tag k="addr:housenumber" v="6405"/><tag k="addr:postcode" v="78749"/></node><node id="-60" lat="30.208901" lon="-97.87745" changeset="false"><tag k="addr:street" v="Sautelle Lane"/><tag k="addr:housenumber" v="9005"/><tag k="addr:postcode" v="78749"/></node><node id="-61" lat="30.211341" lon="-97.875139" changeset="false"><tag k="addr:street" v="Davis Lane"/><tag k="addr:housenumber" v="6111"/><tag k="addr:postcode" v="78749"/></node><node id="-62" lat="30.209063" lon="-97.883566" changeset="false"><tag k="addr:street" v="Hillside Terrace Drive"/><tag k="addr:housenumber" v="6504"/><tag k="addr:postcode" v="78749"/></node><node id="-63" lat="30.213542" lon="-97.880316" changeset="false"><tag k="addr:street" v="Farmdale Lane"/><tag k="addr:housenumber" v="6509"/><tag k="addr:postcode" v="78749"/></node><node id="-64" lat="30.211541" lon="-97.879219" changeset="false"><tag k="addr:street" v="Lantana Way"/><tag k="addr:housenumber" v="8817 1/2"/><tag k="addr:postcode" v="78749"/></node><node id="-65" lat="30.20717" lon="-97.866596" changeset="false"><tag k="addr:street" v="Tiombe Bend"/><tag k="addr:housenumber" v="8800"/><tag k="addr:postcode" v="78749"/></node><node id="-66" lat="30.203803" lon="-97.872994" changeset="false"><tag k="addr:street" v="Rock Castle Cove"/><tag k="addr:housenumber" v="9208"/><tag k="addr:postcode" v="78749"/></node><node id="-67" lat="30.20974" lon="-97.890865" changeset="false"><tag k="addr:street" v="West Slaughter Lane"/><tag k="addr:housenumber" v="7001"/><tag k="addr:postcode" v="78739"/></node><node id="-68" lat="30.202915" lon="-97.871156" changeset="false"><tag k="addr:street" v="Beckett Road"/><tag k="addr:housenumber" v="9206 1/2"/><tag k="addr:postcode" v="78749"/></node><node id="-69" lat="30.204177" lon="-97.86942" changeset="false"><tag k="addr:street" v="Korth Drive"/><tag k="addr:housenumber" v="5409"/><tag k="addr:postcode" v="78749"/></node><node id="-70" lat="30.207131" lon="-97.887563" changeset="false"><tag k="addr:street" v="Hopeland Drive"/><tag k="addr:housenumber" v="9100"/><tag k="addr:postcode" v="78749"/></node><node id="-71" lat="30.201504" lon="-97.881917" changeset="false"><tag k="addr:street" v="West Slaughter Lane"/><tag k="addr:housenumber" v="6101"/><tag k="addr:postcode" v="78739"/></node><node id="-72" lat="30.202292" lon="-97.885509" changeset="false"><tag k="addr:street" v="West Slaughter Lane"/><tag k="addr:housenumber" v="6301"/><tag k="addr:postcode" v="78739"/></node><node id="-73" lat="30.2042" lon="-97.878292" changeset="false"><tag k="addr:street" v="Escarpment Boulevard"/><tag k="addr:housenumber" v="9401"/><tag k="addr:postcode" v="78749"/></node><node id="-74" lat="30.204129" lon="-97.878982" changeset="false"><tag k="addr:street" v="Escarpment Boulevard"/><tag k="addr:housenumber" v="9500 1/2"/><tag k="addr:postcode" v="78749"/></node><node id="-75" lat="30.210521" lon="-97.874542" changeset="false"><tag k="addr:street" v="Mesa Verde Circle"/><tag k="addr:housenumber" v="5946"/><tag k="addr:postcode" v="78749"/></node><node id="-76" lat="30.204608" lon="-97.875662" changeset="false"><tag k="addr:street" v="Ridgewell Place"/><tag k="addr:housenumber" v="9239"/><tag k="addr:postcode" v="78749"/></node><node id="-77" lat="30.204328" lon="-97.88276" changeset="false"><tag k="addr:street" v="Colebrook Street"/><tag k="addr:housenumber" v="9528"/><tag k="addr:postcode" v="78749"/></node><node id="-78" lat="30.206975" lon="-97.88592" changeset="false"><tag k="addr:street" v="Hopeland Drive"/><tag k="addr:housenumber" v="9209"/><tag k="addr:postcode" v="78749"/></node><node id="-79" lat="30.21063" lon="-97.874201" changeset="false"><tag k="addr:street" v="Mesa Verde Circle"/><tag k="addr:housenumber" v="5938"/><tag k="addr:postcode" v="78749"/></node><node id="-80" lat="30.203741" lon="-97.883402" changeset="false"><tag k="addr:street" v="Carrington Drive"/><tag k="addr:housenumber" v="6233"/><tag k="addr:postcode" v="78749"/></node><node id="-81" lat="30.208766" lon="-97.875243" changeset="false"><tag k="addr:street" v="Wampton Way"/><tag k="addr:housenumber" v="8900"/><tag k="addr:postcode" v="78749"/></node><node id="-82" lat="30.209673" lon="-97.874325" changeset="false"><tag k="addr:street" v="Mesa Verde Circle"/><tag k="addr:housenumber" v="6017"/><tag k="addr:postcode" v="78749"/></node><node id="-83" lat="30.208507" lon="-97.886385" changeset="false"><tag k="addr:street" v="Donner Cove"/><tag k="addr:housenumber" v="6601"/><tag k="addr:postcode" v="78749"/></node><node id="-84" lat="30.214049" lon="-97.877058" changeset="false"><tag k="addr:street" v="Farmdale Lane"/><tag k="addr:housenumber" v="6309"/><tag k="addr:postcode" v="78749"/></node><node id="-85" lat="30.211418" lon="-97.877904" changeset="false"><tag k="addr:street" v="Davis Lane"/><tag k="addr:housenumber" v="6213"/><tag k="addr:postcode" v="78749"/></node><node id="-86" lat="30.216301" lon="-97.877657" changeset="false"><tag k="addr:street" v="Dunsmere Drive"/><tag k="addr:housenumber" v="8504"/><tag k="addr:postcode" v="78749"/></node><node id="-87" lat="30.213823" lon="-97.8792" changeset="false"><tag k="addr:street" v="Farmdale Lane"/><tag k="addr:housenumber" v="6413"/><tag k="addr:postcode" v="78749"/></node><node id="-88" lat="30.207228" lon="-97.86618" changeset="false"><tag k="addr:street" v="Tiombe Bend"/><tag k="addr:housenumber" v="8724"/><tag k="addr:postcode" v="78749"/></node><node id="-89" lat="30.213469" lon="-97.880546" changeset="false"><tag k="addr:street" v="Farmdale Lane"/><tag k="addr:housenumber" v="6511"/><tag k="addr:postcode" v="78749"/></node><node id="-90" lat="30.211483" lon="-97.878667" changeset="false"><tag k="addr:street" v="Davis Lane"/><tag k="addr:housenumber" v="6307"/><tag k="addr:postcode" v="78749"/></node><node id="-91" lat="30.209716" lon="-97.879468" changeset="false"><tag k="addr:street" v="Lantana Way"/><tag k="addr:housenumber" v="9009"/><tag k="addr:postcode" v="78749"/></node><node id="-92" lat="30.205306" lon="-97.87323" changeset="false"><tag k="addr:street" v="Janabyrd Lane"/><tag k="addr:housenumber" v="5733"/><tag k="addr:postcode" v="78749"/></node><node id="-93" lat="30.203739" lon="-97.881131" changeset="false"><tag k="addr:street" v="Crafton Place"/><tag k="addr:housenumber" v="6104"/><tag k="addr:postcode" v="78749"/></node><node id="-94" lat="30.214176" lon="-97.876837" changeset="false"><tag k="addr:street" v="Farmdale Lane"/><tag k="addr:housenumber" v="6307"/><tag k="addr:postcode" v="78749"/></node><node id="-95" lat="30.212454" lon="-97.877524" changeset="false"><tag k="addr:street" v="Clarion Court"/><tag k="addr:housenumber" v="8700"/><tag k="addr:postcode" v="78749"/></node><node id="-96" lat="30.200165" lon="-97.868496" changeset="false"><tag k="addr:street" v="West Slaughter Lane"/><tag k="addr:housenumber" v="5701"/><tag k="addr:postcode" v="78739"/></node><node id="-97" lat="30.199978" lon="-97.876542" changeset="false"><tag k="addr:street" v="West Slaughter Lane"/><tag k="addr:housenumber" v="5801"/><tag k="addr:postcode" v="78739"/></node><node id="-98" lat="30.2128" lon="-97.896943" changeset="false"><tag k="addr:street" v="Ranch to Market Road 1826"/><tag k="addr:housenumber" v="9411"/><tag k="addr:postcode" v="78739"/></node><node id="-99" lat="30.216723" lon="-97.894252" changeset="false"><tag k="addr:street" v="West Slaughter Lane"/><tag k="addr:housenumber" v="7435"/><tag k="addr:postcode" v="78739"/></node><node id="-100" lat="30.209051" lon="-97.877882" changeset="false"><tag k="addr:street" v="Sautelle Lane"/><tag k="addr:housenumber" v="9004"/><tag k="addr:postcode" v="78749"/></node><node id="-101" lat="30.208442" lon="-97.885762" changeset="false"><tag k="addr:street" v="Ruxton Lane"/><tag k="addr:housenumber" v="6453"/><tag k="addr:postcode" v="78749"/></node><node id="-102" lat="30.213163" lon="-97.89656" changeset="false"><tag k="addr:street" v="Ranch to Market Road 1826"/><tag k="addr:housenumber" v="9405"/><tag k="addr:postcode" v="78739"/></node><node id="-103" lat="30.210554" lon="-97.874396" changeset="false"><tag k="addr:street" v="Mesa Verde Circle"/><tag k="addr:housenumber" v="5942"/><tag k="addr:postcode" v="78749"/></node><node id="-104" lat="30.20483" lon="-97.881963" changeset="false"><tag k="addr:street" v="Colebrook Street"/><tag k="addr:housenumber" v="9513"/><tag k="addr:postcode" v="78749"/></node><node id="-105" lat="30.207218" lon="-97.86639" changeset="false"><tag k="addr:street" v="Tiombe Bend"/><tag k="addr:housenumber" v="8728"/><tag k="addr:postcode" v="78749"/></node><node id="-106" lat="30.207191" lon="-97.865971" changeset="false"><tag k="addr:street" v="Tiombe Bend"/><tag k="addr:housenumber" v="8720"/><tag k="addr:postcode" v="78749"/></node><node id="-107" lat="30.208973" lon="-97.886028" changeset="false"><tag k="addr:street" v="Haswell Lane"/><tag k="addr:housenumber" v="6617"/><tag k="addr:postcode" v="78749"/></node><node id="-108" lat="30.204978" lon="-97.881914" changeset="false"><tag k="addr:street" v="Colebrook Street"/><tag k="addr:housenumber" v="9509"/><tag k="addr:postcode" v="78749"/></node><node id="-109" lat="30.207223" lon="-97.871076" changeset="false"><tag k="addr:street" v="Lomita Verde Circle"/><tag k="addr:housenumber" v="5719"/><tag k="addr:postcode" v="78749"/></node><node id="-110" lat="30.207228" lon="-97.871053" changeset="false"><tag k="addr:street" v="Lomita Verde Circle"/><tag k="addr:housenumber" v="5721"/><tag k="addr:postcode" v="78749"/></node><node id="-111" lat="30.201629" lon="-97.875007" changeset="false"><tag k="addr:street" v="York Bridge Circle"/><tag k="addr:housenumber" v="5917"/><tag k="addr:postcode" v="78749"/></node><node id="-112" lat="30.201603" lon="-97.87498" changeset="false"><tag k="addr:street" v="York Bridge Circle"/><tag k="addr:housenumber" v="5917 1/2"/><tag k="addr:postcode" v="78749"/></node><node id="-113" lat="30.205566" lon="-97.884321" changeset="false"><tag k="addr:street" v="Argyle Drive"/><tag k="addr:housenumber" v="9512"/><tag k="addr:postcode" v="78749"/></node><node id="-114" lat="30.205715" lon="-97.884255" changeset="false"><tag k="addr:street" v="Argyle Drive"/><tag k="addr:housenumber" v="9508"/><tag k="addr:postcode" v="78749"/></node></osm>