<?xml version="1.0" encoding="UTF-8"?><osm version="0.6" generator="github.com/aaronlidman/osm-and-geojson"><node id="-1" lat="30.285269" lon="-97.705255" changeset="false"><tag k="addr:street" v="Airport Boulevard"/><tag k="addr:housenumber" v="2201"/><tag k="addr:postcode" v="78723"/></node><node id="-2" lat="30.284898" lon="-97.704988" changeset="false"><tag k="addr:street" v="Airport Boulevard"/><tag k="addr:housenumber" v="2101"/><tag k="addr:postcode" v="78723"/></node><node id="-3" lat="30.284186" lon="-97.704491" changeset="false"><tag k="addr:street" v="Airport Boulevard"/><tag k="addr:housenumber" v="2023"/><tag k="addr:postcode" v="78723"/></node><node id="-4" lat="30.284355" lon="-97.704695" changeset="false"><tag k="addr:street" v="Airport Boulevard"/><tag k="addr:housenumber" v="2035"/><tag k="addr:postcode" v="78723"/></node><node id="-5" lat="30.283243" lon="-97.703938" changeset="false"><tag k="addr:street" v="Airport Boulevard"/><tag k="addr:housenumber" v="1925"/><tag k="addr:postcode" v="78723"/></node><node id="-6" lat="30.283754" lon="-97.704216" changeset="false"><tag k="addr:street" v="Airport Boulevard"/><tag k="addr:housenumber" v="2009"/><tag k="addr:postcode" v="78723"/></node><node id="-7" lat="30.283104" lon="-97.702941" changeset="false"><tag k="addr:street" v="East Martin Luther King Jr Boulevard"/><tag k="addr:housenumber" v="3210"/><tag k="addr:postcode" v="78723"/></node></osm>