<?xml version="1.0" encoding="UTF-8"?><osm version="0.6" generator="github.com/aaronlidman/osm-and-geojson"><node id="-1" lat="30.288688" lon="-97.698716" changeset="false"><tag k="addr:street" v="Manor Road,1100"/><tag k="addr:housenumber" v="3515"/><tag k="coa:place_id" v="177770"/></node><node id="-2" lat="30.282945" lon="-97.703376" changeset="false"><tag k="addr:street" v="East Martin Luther King Jr Boulevard"/><tag k="addr:housenumber" v="3208"/><tag k="coa:place_id" v="90890"/></node><node id="-3" lat="30.282758" lon="-97.701796" changeset="false"><tag k="addr:street" v="East Martin Luther King Jr Boulevard"/><tag k="addr:housenumber" v="3247"/><tag k="coa:place_id" v="110299"/></node><node id="-4" lat="30.282528" lon="-97.701297" changeset="false"><tag k="addr:street" v="Loreto Drive"/><tag k="addr:housenumber" v="1812"/><tag k="coa:place_id" v="296240"/></node><node id="-5" lat="30.286219" lon="-97.705188" changeset="false"><tag k="addr:street" v="Manor Road,1100"/><tag k="addr:housenumber" v="3107"/><tag k="coa:place_id" v="694215"/></node><node id="-6" lat="30.285264" lon="-97.704548" changeset="false"><tag k="addr:street" v="Theo Drive"/><tag k="addr:housenumber" v="2129"/><tag k="coa:place_id" v="162357"/></node><node id="-7" lat="30.28594" lon="-97.705373" changeset="false"><tag k="addr:street" v="Airport Boulevard"/><tag k="addr:housenumber" v="2213"/><tag k="coa:place_id" v="559648"/></node><node id="-8" lat="30.285709" lon="-97.698954" changeset="false"><tag k="addr:street" v="Greenwood Avenue"/><tag k="addr:housenumber" v="2101"/><tag k="coa:place_id" v="177812"/></node><node id="-9" lat="30.284574" lon="-97.70446" changeset="false"><tag k="addr:street" v="Airport Boulevard"/><tag k="addr:housenumber" v="2039"/><tag k="coa:place_id" v="122220"/></node><node id="-10" lat="30.283701" lon="-97.700162" changeset="false"><tag k="addr:street" v="Pershing Drive"/><tag k="addr:housenumber" v="1905"/><tag k="coa:place_id" v="5061887"/></node><node id="-11" lat="30.284" lon="-97.696399" changeset="false"><tag k="addr:street" v="E M Franklin Avenue"/><tag k="addr:housenumber" v="1900"/><tag k="coa:place_id" v="311415"/></node><node id="-12" lat="30.285741" lon="-97.702485" changeset="false"><tag k="addr:street" v="Tillery Street"/><tag k="addr:housenumber" v="2200"/><tag k="coa:place_id" v="572440"/></node><node id="-13" lat="30.28633" lon="-97.705157" changeset="false"><tag k="addr:street" v="Manor Road,1100"/><tag k="addr:housenumber" v="3109"/><tag k="coa:place_id" v="178586"/></node><node id="-14" lat="30.28225" lon="-97.695935" changeset="false"><tag k="addr:street" v="E M Franklin Avenue"/><tag k="addr:housenumber" v="1706"/><tag k="coa:place_id" v="1046757"/></node><node id="-15" lat="30.286831" lon="-97.697894" changeset="false"><tag k="addr:street" v="E M Franklin Avenue"/><tag k="addr:housenumber" v="2110"/><tag k="coa:place_id" v="1043858"/></node><node id="-16" lat="30.284473" lon="-97.704802" changeset="false"><tag k="addr:street" v="Airport Boulevard"/><tag k="addr:housenumber" v="2037"/><tag k="coa:place_id" v="509464"/></node><node id="-17" lat="30.281512" lon="-97.696573" changeset="false"><tag k="addr:street" v="East 17th Street"/><tag k="addr:housenumber" v="3502"/><tag k="coa:place_id" v="296708"/></node><node id="-18" lat="30.284061" lon="-97.702978" changeset="false"><tag k="addr:street" v="Encino Circle"/><tag k="addr:housenumber" v="2007"/><tag k="coa:place_id" v="3036367"/></node><node id="-19" lat="30.279809" lon="-97.695171" changeset="false"><tag k="addr:street" v="E M Franklin Avenue"/><tag k="addr:housenumber" v="1314"/><tag k="coa:place_id" v="296942"/></node><node id="-20" lat="30.284902" lon="-97.698501" changeset="false"><tag k="addr:street" v="Greenwood Avenue"/><tag k="addr:housenumber" v="2005"/><tag k="coa:place_id" v="177848"/></node><node id="-21" lat="30.278588" lon="-97.69487" changeset="false"><tag k="addr:street" v="E M Franklin Avenue"/><tag k="addr:housenumber" v="1210"/><tag k="coa:place_id" v="3190852"/></node><node id="-22" lat="30.286764" lon="-97.702228" changeset="false"><tag k="addr:street" v="Tillery Street"/><tag k="addr:housenumber" v="2213"/><tag k="coa:place_id" v="178304"/></node><node id="-23" lat="30.286236" lon="-97.705837" changeset="false"><tag k="addr:street" v="Manor Road,1100"/><tag k="addr:housenumber" v="3103"/><tag k="coa:place_id" v="247657"/></node><node id="-24" lat="30.288167" lon="-97.699495" changeset="false"><tag k="addr:street" v="Manor Road,1100"/><tag k="addr:housenumber" v="3507"/><tag k="coa:place_id" v="3272090"/></node><node id="-25" lat="30.284604" lon="-97.697093" changeset="false"><tag k="addr:street" v="E M Franklin Avenue"/><tag k="addr:housenumber" v="1916"/><tag k="coa:place_id" v="5063394"/></node><node id="-26" lat="30.288425" lon="-97.698601" changeset="false"><tag k="addr:street" v="Pershing Drive"/><tag k="addr:housenumber" v="2218"/><tag k="coa:place_id" v="90770"/></node><node id="-27" lat="30.286134" lon="-97.69897" changeset="false"><tag k="addr:street" v="Greenwood Avenue"/><tag k="addr:housenumber" v="2107"/><tag k="coa:place_id" v="3038317"/></node><node id="-28" lat="30.286325" lon="-97.704559" changeset="false"><tag k="addr:street" v="Manor Road,1100"/><tag k="addr:housenumber" v="3115"/><tag k="coa:place_id" v="178604"/></node><node id="-29" lat="30.287311" lon="-97.701183" changeset="false"><tag k="addr:street" v="Manor Road,1100"/><tag k="addr:housenumber" v="3317"/><tag k="coa:place_id" v="178298"/></node><node id="-30" lat="30.278892" lon="-97.700738" changeset="false"><tag k="addr:street" v="Tillery Street"/><tag k="addr:housenumber" v="1401"/><tag k="coa:place_id" v="296732"/></node><node id="-31" lat="30.283225" lon="-97.696274" changeset="false"><tag k="addr:street" v="E M Franklin Avenue"/><tag k="addr:housenumber" v="1812"/><tag k="coa:place_id" v="296108"/></node><node id="-32" lat="30.27721" lon="-97.699311" changeset="false"><tag k="addr:street" v="East 12th Street"/><tag k="addr:housenumber" v="3300"/><tag k="coa:place_id" v="296738"/></node><node id="-33" lat="30.279935" lon="-97.70201" changeset="false"><tag k="addr:street" v="East 16th Street"/><tag k="addr:housenumber" v="3200"/><tag k="coa:place_id" v="3097586"/></node><node id="-34" lat="30.282719" lon="-97.702058" changeset="false"><tag k="addr:street" v="East Martin Luther King Jr Boulevard"/><tag k="addr:housenumber" v="3241"/><tag k="coa:place_id" v="110298"/></node><node id="-35" lat="30.279897" lon="-97.695397" changeset="false"><tag k="addr:street" v="E M Franklin Avenue"/><tag k="addr:housenumber" v="1316"/><tag k="coa:place_id" v="3039738"/></node><node id="-36" lat="30.285057" lon="-97.702377" changeset="false"><tag k="addr:street" v="Encino Circle"/><tag k="addr:housenumber" v="2038"/><tag k="coa:place_id" v="3354725"/></node><node id="-37" lat="30.284318" lon="-97.700679" changeset="false"><tag k="addr:street" v="Pershing Drive"/><tag k="addr:housenumber" v="2000"/><tag k="coa:place_id" v="3290348"/></node><node id="-38" lat="30.279638" lon="-97.695189" changeset="false"><tag k="addr:street" v="E M Franklin Avenue"/><tag k="addr:housenumber" v="1312"/><tag k="coa:place_id" v="3039739"/></node><node id="-39" lat="30.281532" lon="-97.696243" changeset="false"><tag k="addr:street" v="East 17th Street"/><tag k="addr:housenumber" v="3506"/><tag k="coa:place_id" v="5105009"/></node><node id="-40" lat="30.278425" lon="-97.69495" changeset="false"><tag k="addr:street" v="E M Franklin Avenue"/><tag k="addr:housenumber" v="1208"/><tag k="coa:place_id" v="3363414"/></node><node id="-41" lat="30.277751" lon="-97.695835" changeset="false"><tag k="addr:street" v="East 12th Street"/><tag k="addr:housenumber" v="3502"/><tag k="coa:place_id" v="296906"/></node><node id="-42" lat="30.284005" lon="-97.704369" changeset="false"><tag k="addr:street" v="Airport Boulevard"/><tag k="addr:housenumber" v="2021"/><tag k="coa:place_id" v="178664"/></node><node id="-43" lat="30.277259" lon="-97.698756" changeset="false"><tag k="addr:street" v="East 12th Street"/><tag k="addr:housenumber" v="3310"/><tag k="coa:place_id" v="993038"/></node><node id="-44" lat="30.284157" lon="-97.698182" changeset="false"><tag k="addr:street" v="Greenwood Avenue"/><tag k="addr:housenumber" v="1905"/><tag k="coa:place_id" v="3360457"/></node><node id="-45" lat="30.283936" lon="-97.698149" changeset="false"><tag k="addr:street" v="Greenwood Avenue"/><tag k="addr:housenumber" v="1903"/><tag k="coa:place_id" v="3359919"/></node><node id="-46" lat="30.28585" lon="-97.699058" changeset="false"><tag k="addr:street" v="Greenwood Avenue"/><tag k="addr:housenumber" v="2105"/><tag k="coa:place_id" v="177818"/></node><node id="-47" lat="30.285798" lon="-97.699555" changeset="false"><tag k="addr:street" v="Greenwood Avenue"/><tag k="addr:housenumber" v="2102"/><tag k="coa:place_id" v="177800"/></node><node id="-48" lat="30.286242" lon="-97.70029" changeset="false"><tag k="addr:street" v="Palo Pinto Drive"/><tag k="addr:housenumber" v="2201"/><tag k="coa:place_id" v="178070"/></node><node id="-49" lat="30.28593" lon="-97.701973" changeset="false"><tag k="addr:street" v="Denver Avenue"/><tag k="addr:housenumber" v="3302"/><tag k="coa:place_id" v="244637"/></node><node id="-50" lat="30.285394" lon="-97.702423" changeset="false"><tag k="addr:street" v="Tillery Street"/><tag k="addr:housenumber" v="2108"/><tag k="coa:place_id" v="178556"/></node><node id="-51" lat="30.287593" lon="-97.700811" changeset="false"><tag k="addr:street" v="Manor Road,1100"/><tag k="addr:housenumber" v="3401"/><tag k="coa:place_id" v="177999"/></node><node id="-52" lat="30.284691" lon="-97.702306" changeset="false"><tag k="addr:street" v="Encino Circle"/><tag k="addr:housenumber" v="2037"/><tag k="coa:place_id" v="178508"/></node><node id="-53" lat="30.285469" lon="-97.699996" changeset="false"><tag k="addr:street" v="Pershing Drive"/><tag k="addr:housenumber" v="2109"/><tag k="coa:place_id" v="3038310"/></node><node id="-54" lat="30.282849" lon="-97.698569" changeset="false"><tag k="addr:street" v="East Martin Luther King Jr Boulevard"/><tag k="addr:housenumber" v="3417"/><tag k="coa:place_id" v="256514"/></node><node id="-55" lat="30.28108" lon="-97.696791" changeset="false"><tag k="addr:street" v="East 17th Street"/><tag k="addr:housenumber" v="3501"/><tag k="coa:place_id" v="296720"/></node><node id="-56" lat="30.280082" lon="-97.695204" changeset="false"><tag k="addr:street" v="E M Franklin Avenue"/><tag k="addr:housenumber" v="1400"/><tag k="coa:place_id" v="296948"/></node><node id="-57" lat="30.286532" lon="-97.703002" changeset="false"><tag k="addr:street" v="Manor Road,1100"/><tag k="addr:housenumber" v="3219"/><tag k="coa:place_id" v="178562"/></node><node id="-58" lat="30.283626" lon="-97.704099" changeset="false"><tag k="addr:street" v="Airport Boulevard"/><tag k="addr:housenumber" v="2005"/><tag k="coa:place_id" v="178622"/></node><node id="-59" lat="30.2835" lon="-97.704012" changeset="false"><tag k="addr:street" v="Airport Boulevard"/><tag k="addr:housenumber" v="2001"/><tag k="coa:place_id" v="90908"/></node><node id="-60" lat="30.28357" lon="-97.704057" changeset="false"><tag k="addr:street" v="Airport Boulevard"/><tag k="addr:housenumber" v="2003"/><tag k="coa:place_id" v="178628"/></node><node id="-61" lat="30.282365" lon="-97.703009" changeset="false"><tag k="addr:street" v="East Martin Luther King Jr Boulevard"/><tag k="addr:housenumber" v="3223"/><tag k="coa:place_id" v="296252"/></node><node id="-62" lat="30.282405" lon="-97.702684" changeset="false"><tag k="addr:street" v="East Martin Luther King Jr Boulevard"/><tag k="addr:housenumber" v="3231"/><tag k="coa:place_id" v="694203"/></node><node id="-63" lat="30.283247" lon="-97.702144" changeset="false"><tag k="addr:street" v="East Martin Luther King Jr Boulevard"/><tag k="addr:housenumber" v="3232"/><tag k="coa:place_id" v="90896"/></node><node id="-64" lat="30.283218" lon="-97.702349" changeset="false"><tag k="addr:street" v="East Martin Luther King Jr Boulevard"/><tag k="addr:housenumber" v="3230"/><tag k="coa:place_id" v="178676"/></node></osm>