<?xml version="1.0" encoding="UTF-8"?><osm version="0.6" generator="github.com/aaronlidman/osm-and-geojson"><node id="-1" lat="30.308612" lon="-97.756482" changeset="false"><tag k="addr:street" v="West 35th Street"/><tag k="addr:housenumber" v="2005"/><tag k="addr:postcode" v="78703"/></node><node id="-2" lat="30.302843" lon="-97.755578" changeset="false"><tag k="addr:street" v="West 30th Street"/><tag k="addr:housenumber" v="1709"/><tag k="addr:postcode" v="78703"/></node><node id="-3" lat="30.307506" lon="-97.754561" changeset="false"><tag k="addr:street" v="West 34th Street"/><tag k="addr:housenumber" v="1808"/><tag k="addr:postcode" v="78703"/></node><node id="-4" lat="30.303827" lon="-97.757801" changeset="false"><tag k="addr:street" v="West 30th Street"/><tag k="addr:housenumber" v="1909"/><tag k="addr:postcode" v="78703"/></node><node id="-5" lat="30.301272" lon="-97.757603" changeset="false"><tag k="addr:street" v="Oakmont Boulevard"/><tag k="addr:housenumber" v="2807"/><tag k="addr:postcode" v="78703"/></node><node id="-6" lat="30.308219" lon="-97.754595" changeset="false"><tag k="addr:street" v="Oakmont Boulevard"/><tag k="addr:housenumber" v="3408"/><tag k="addr:postcode" v="78703"/></node><node id="-7" lat="30.308104" lon="-97.756228" changeset="false"><tag k="addr:street" v="Happy Hollow Lane"/><tag k="addr:housenumber" v="3402"/><tag k="addr:postcode" v="78703"/></node><node id="-8" lat="30.306868" lon="-97.753073" changeset="false"><tag k="addr:street" v="West 34th Street"/><tag k="addr:housenumber" v="1703"/><tag k="addr:postcode" v="78703"/></node><node id="-9" lat="30.307703" lon="-97.7522" changeset="false"><tag k="addr:street" v="West 35th Street"/><tag k="addr:housenumber" v="1707"/><tag k="addr:postcode" v="78703"/></node><node id="-10" lat="30.307057" lon="-97.756786" changeset="false"><tag k="addr:street" v="Funston Street"/><tag k="addr:housenumber" v="3301"/><tag k="addr:postcode" v="78703"/></node><node id="-11" lat="30.307654" lon="-97.752051" changeset="false"><tag k="addr:street" v="West 35th Street"/><tag k="addr:housenumber" v="1701"/><tag k="addr:postcode" v="78703"/></node><node id="-12" lat="30.302264" lon="-97.755504" changeset="false"><tag k="addr:street" v="West 29th Street"/><tag k="addr:housenumber" v="1704"/><tag k="addr:postcode" v="78703"/></node><node id="-13" lat="30.308424" lon="-97.755586" changeset="false"><tag k="addr:street" v="Happy Hollow Lane"/><tag k="addr:housenumber" v="3408"/><tag k="addr:postcode" v="78703"/></node><node id="-14" lat="30.307545" lon="-97.757023" changeset="false"><tag k="addr:street" v="Funston Street"/><tag k="addr:housenumber" v="3304"/><tag k="addr:postcode" v="78703"/></node><node id="-15" lat="30.306938" lon="-97.754969" changeset="false"><tag k="addr:street" v="Oakmont Boulevard"/><tag k="addr:housenumber" v="3307"/><tag k="addr:postcode" v="78703"/></node><node id="-16" lat="30.307983" lon="-97.752738" changeset="false"><tag k="addr:street" v="West 35th Street"/><tag k="addr:housenumber" v="1719"/><tag k="addr:postcode" v="78703"/></node><node id="-17" lat="30.304116" lon="-97.757881" changeset="false"><tag k="addr:street" v="Funston Street"/><tag k="addr:housenumber" v="3000"/><tag k="addr:postcode" v="78703"/></node><node id="-18" lat="30.303784" lon="-97.757745" changeset="false"><tag k="addr:street" v="West 30th Street"/><tag k="addr:housenumber" v="1907"/><tag k="addr:postcode" v="78703"/></node><node id="-19" lat="30.307725" lon="-97.752326" changeset="false"><tag k="addr:street" v="West 35th Street"/><tag k="addr:housenumber" v="1715"/><tag k="addr:postcode" v="78703"/></node><node id="-20" lat="30.30469" lon="-97.757328" changeset="false"><tag k="addr:street" v="Funston Street"/><tag k="addr:housenumber" v="3101"/><tag k="addr:postcode" v="78703"/></node><node id="-21" lat="30.306735" lon="-97.752743" changeset="false"><tag k="addr:street" v="West 34th Street"/><tag k="addr:housenumber" v="1705"/><tag k="addr:postcode" v="78703"/></node><node id="-22" lat="30.30601" lon="-97.755002" changeset="false"><tag k="addr:street" v="Beverly Road"/><tag k="addr:housenumber" v="3214"/><tag k="addr:postcode" v="78703"/></node><node id="-23" lat="30.307563" lon="-97.754515" changeset="false"><tag k="addr:street" v="West 34th Street"/><tag k="addr:housenumber" v="1806"/><tag k="addr:postcode" v="78703"/></node><node id="-24" lat="30.301436" lon="-97.755612" changeset="false"><tag k="addr:street" v="Jefferson Street"/><tag k="addr:housenumber" v="2814"/><tag k="addr:postcode" v="78703"/></node><node id="-25" lat="30.301305" lon="-97.755697" changeset="false"><tag k="addr:street" v="Mohle Drive"/><tag k="addr:housenumber" v="1700"/><tag k="addr:postcode" v="78703"/></node><node id="-26" lat="30.300919" lon="-97.75592" changeset="false"><tag k="addr:street" v="Jefferson Street"/><tag k="addr:housenumber" v="2808"/><tag k="addr:postcode" v="78703"/></node><node id="-27" lat="30.300966" lon="-97.755945" changeset="false"><tag k="addr:street" v="Mohle Drive"/><tag k="addr:housenumber" v="1701"/><tag k="addr:postcode" v="78703"/></node><node id="-28" lat="30.30262" lon="-97.757896" changeset="false"><tag k="addr:street" v="Oakmont Boulevard"/><tag k="addr:housenumber" v="2800"/><tag k="addr:postcode" v="78703"/></node><node id="-29" lat="30.302802" lon="-97.757806" changeset="false"><tag k="addr:street" v="Oakmont Boulevard"/><tag k="addr:housenumber" v="2802"/><tag k="addr:postcode" v="78703"/></node></osm>