<?xml version="1.0" encoding="UTF-8"?><osm version="0.6" generator="github.com/aaronlidman/osm-and-geojson"><node id="-1" lat="30.159212" lon="-97.825088" changeset="false"><tag k="addr:street" v="Garbacz Drive"/><tag k="addr:housenumber" v="10717"/><tag k="coa:place_id" v="1162993"/></node><node id="-2" lat="30.162276" lon="-97.826216" changeset="false"><tag k="addr:street" v="Geoffs Drive"/><tag k="addr:housenumber" v="1517"/><tag k="coa:place_id" v="1162933"/></node><node id="-3" lat="30.168447" lon="-97.837642" changeset="false"><tag k="addr:street" v="Lynnbrook Drive"/><tag k="addr:housenumber" v="2604"/><tag k="coa:place_id" v="3069570"/></node><node id="-4" lat="30.166382" lon="-97.836405" changeset="false"><tag k="addr:street" v="Lynnbrook Drive"/><tag k="addr:housenumber" v="2404"/><tag k="coa:place_id" v="3069635"/></node><node id="-5" lat="30.159858" lon="-97.82732" changeset="false"><tag k="addr:street" v="Razil Court"/><tag k="addr:housenumber" v="10708"/><tag k="coa:place_id" v="1135573"/></node><node id="-6" lat="30.171502" lon="-97.830976" changeset="false"><tag k="addr:street" v="Old Manchaca Road"/><tag k="addr:housenumber" v="10302"/><tag k="coa:place_id" v="790118"/></node><node id="-7" lat="30.17086" lon="-97.836244" changeset="false"><tag k="addr:street" v="Bolton Street"/><tag k="addr:housenumber" v="2601"/><tag k="coa:place_id" v="3119408"/></node><node id="-8" lat="30.16222" lon="-97.829835" changeset="false"><tag k="addr:street" v="True Cove"/><tag k="addr:housenumber" v="1809"/><tag k="coa:place_id" v="1126613"/></node><node id="-9" lat="30.173337" lon="-97.825296" changeset="false"><tag k="addr:street" v="West Slaughter Lane"/><tag k="addr:housenumber" v="2101"/><tag k="coa:place_id" v="3032527"/></node><node id="-10" lat="30.173708" lon="-97.84092" changeset="false"><tag k="addr:street" v="Brantley Bend"/><tag k="addr:housenumber" v="10225"/><tag k="coa:place_id" v="976143"/></node><node id="-11" lat="30.171804" lon="-97.82882" changeset="false"><tag k="addr:street" v="Oak Valley Road"/><tag k="addr:housenumber" v="2210"/><tag k="coa:place_id" v="3090391"/></node><node id="-12" lat="30.167481" lon="-97.83708" changeset="false"><tag k="addr:street" v="Lynnbrook Drive"/><tag k="addr:housenumber" v="2512"/><tag k="coa:place_id" v="3069638"/></node><node id="-13" lat="30.172955" lon="-97.831095" changeset="false"><tag k="addr:street" v="Old Manchaca Road"/><tag k="addr:housenumber" v="10200"/><tag k="coa:place_id" v="3036562"/></node><node id="-14" lat="30.159449" lon="-97.825064" changeset="false"><tag k="addr:street" v="Garbacz Drive"/><tag k="addr:housenumber" v="10709"/><tag k="coa:place_id" v="1162991"/></node><node id="-15" lat="30.161044" lon="-97.824526" changeset="false"><tag k="addr:street" v="Garbacz Drive"/><tag k="addr:housenumber" v="10501"/><tag k="coa:place_id" v="1162969"/></node><node id="-16" lat="30.172815" lon="-97.839262" changeset="false"><tag k="addr:street" v="Blake Street"/><tag k="addr:housenumber" v="2812"/><tag k="coa:place_id" v="3085769"/></node><node id="-17" lat="30.165911" lon="-97.835781" changeset="false"><tag k="addr:street" v="Hendon Street"/><tag k="addr:housenumber" v="10701"/><tag k="coa:place_id" v="3119509"/></node><node id="-18" lat="30.171569" lon="-97.82347" changeset="false"><tag k="addr:street" v="Manchaca Road,1100"/><tag k="addr:housenumber" v="9943"/><tag k="coa:place_id" v="509404"/></node><node id="-19" lat="30.158476" lon="-97.826091" changeset="false"><tag k="addr:street" v="Marshitahs Way"/><tag k="addr:housenumber" v="10744"/><tag k="coa:place_id" v="1135699"/></node><node id="-20" lat="30.175535" lon="-97.8393" changeset="false"><tag k="addr:street" v="Alcott Cove"/><tag k="addr:housenumber" v="10103"/><tag k="coa:place_id" v="146470"/></node><node id="-21" lat="30.175206" lon="-97.840019" changeset="false"><tag k="addr:street" v="Alcott Cove"/><tag k="addr:housenumber" v="10108"/><tag k="coa:place_id" v="132370"/></node><node id="-22" lat="30.164468" lon="-97.831125" changeset="false"><tag k="addr:street" v="Manchaca Road,1100"/><tag k="addr:housenumber" v="10630"/><tag k="coa:place_id" v="5000968"/></node><node id="-23" lat="30.167939" lon="-97.833691" changeset="false"><tag k="addr:street" v="Sanders Street"/><tag k="addr:housenumber" v="2511"/><tag k="coa:place_id" v="110285"/></node><node id="-24" lat="30.175034" lon="-97.838418" changeset="false"><tag k="addr:street" v="Brantley Bend"/><tag k="addr:housenumber" v="10107"/><tag k="coa:place_id" v="309748"/></node><node id="-25" lat="30.167023" lon="-97.826476" changeset="false"><tag k="addr:street" v="Manchaca Road,1100"/><tag k="addr:housenumber" v="10335"/><tag k="coa:place_id" v="790694"/></node><node id="-26" lat="30.168472" lon="-97.833328" changeset="false"><tag k="addr:street" v="Sanders Street"/><tag k="addr:housenumber" v="2506"/><tag k="coa:place_id" v="1048508"/></node><node id="-27" lat="30.173061" lon="-97.830464" changeset="false"><tag k="addr:street" v="Riddle Road"/><tag k="addr:housenumber" v="2311"/><tag k="coa:place_id" v="255067"/></node><node id="-28" lat="30.172388" lon="-97.829519" changeset="false"><tag k="addr:street" v="Allred Drive"/><tag k="addr:housenumber" v="2303"/><tag k="coa:place_id" v="1143222"/></node><node id="-29" lat="30.164475" lon="-97.828575" changeset="false"><tag k="addr:street" v="Manchaca Road,1100"/><tag k="addr:housenumber" v="10601"/><tag k="coa:place_id" v="1120719"/></node><node id="-30" lat="30.158847" lon="-97.826224" changeset="false"><tag k="addr:street" v="Marshitahs Way"/><tag k="addr:housenumber" v="10732"/><tag k="coa:place_id" v="1135697"/></node><node id="-31" lat="30.160813" lon="-97.826519" changeset="false"><tag k="addr:street" v="Razil Court"/><tag k="addr:housenumber" v="10605"/><tag k="coa:place_id" v="1135068"/></node><node id="-32" lat="30.161832" lon="-97.829176" changeset="false"><tag k="addr:street" v="Old Manchaca Road"/><tag k="addr:housenumber" v="10812"/><tag k="coa:place_id" v="1136048"/></node><node id="-33" lat="30.173476" lon="-97.824327" changeset="false"><tag k="addr:street" v="Manchaca Road,1100"/><tag k="addr:housenumber" v="9912"/><tag k="coa:place_id" v="556096"/></node><node id="-34" lat="30.170172" lon="-97.831923" changeset="false"><tag k="addr:street" v="Drew Lane"/><tag k="addr:housenumber" v="2414"/><tag k="coa:place_id" v="790838"/></node><node id="-35" lat="30.165888" lon="-97.830317" changeset="false"><tag k="addr:street" v="Old Manchaca Road"/><tag k="addr:housenumber" v="10519"/><tag k="coa:place_id" v="1158152"/></node><node id="-36" lat="30.160953" lon="-97.827422" changeset="false"><tag k="addr:street" v="Curameng Cove"/><tag k="addr:housenumber" v="1516"/><tag k="coa:place_id" v="1135575"/></node><node id="-37" lat="30.167868" lon="-97.831019" changeset="false"><tag k="addr:street" v="Sanders Street"/><tag k="addr:housenumber" v="2403"/><tag k="coa:place_id" v="110274"/></node><node id="-38" lat="30.171747" lon="-97.827871" changeset="false"><tag k="addr:street" v="Oak Valley Road"/><tag k="addr:housenumber" v="2112"/><tag k="coa:place_id" v="489790"/></node><node id="-39" lat="30.160721" lon="-97.824645" changeset="false"><tag k="addr:street" v="Garbacz Drive"/><tag k="addr:housenumber" v="10513"/><tag k="coa:place_id" v="1162972"/></node><node id="-40" lat="30.173368" lon="-97.826735" changeset="false"><tag k="addr:street" v="West Slaughter Lane"/><tag k="addr:housenumber" v="2107"/><tag k="coa:place_id" v="790328"/></node><node id="-41" lat="30.170244" lon="-97.831123" changeset="false"><tag k="addr:street" v="Drew Lane"/><tag k="addr:housenumber" v="2404"/><tag k="coa:place_id" v="3100060"/></node><node id="-42" lat="30.163527" lon="-97.8295" changeset="false"><tag k="addr:street" v="Old Manchaca Road"/><tag k="addr:housenumber" v="10707"/><tag k="coa:place_id" v="790868"/></node><node id="-43" lat="30.168082" lon="-97.826608" changeset="false"><tag k="addr:street" v="Manchaca Road,1100"/><tag k="addr:housenumber" v="10300"/><tag k="coa:place_id" v="790154"/></node><node id="-44" lat="30.173602" lon="-97.841148" changeset="false"><tag k="addr:street" v="Brantley Bend"/><tag k="addr:housenumber" v="10227"/><tag k="coa:place_id" v="982905"/></node><node id="-45" lat="30.160534" lon="-97.827443" changeset="false"><tag k="addr:street" v="Curameng Cove"/><tag k="addr:housenumber" v="1508"/><tag k="coa:place_id" v="1152587"/></node><node id="-46" lat="30.161611" lon="-97.827771" changeset="false"><tag k="addr:street" v="Old Manchaca Road"/><tag k="addr:housenumber" v="10900"/><tag k="coa:place_id" v="1159463"/></node><node id="-47" lat="30.170952" lon="-97.83316" changeset="false"><tag k="addr:street" v="Wommack Road"/><tag k="addr:housenumber" v="10400"/><tag k="coa:place_id" v="790802"/></node><node id="-48" lat="30.174234" lon="-97.835864" changeset="false"><tag k="addr:street" v="Alcott Lane"/><tag k="addr:housenumber" v="2612"/><tag k="coa:place_id" v="254255"/></node><node id="-49" lat="30.17299" lon="-97.827795" changeset="false"><tag k="addr:street" v="Allred Drive"/><tag k="addr:housenumber" v="2202"/><tag k="coa:place_id" v="1143219"/></node><node id="-50" lat="30.158955" lon="-97.826267" changeset="false"><tag k="addr:street" v="Marshitahs Way"/><tag k="addr:housenumber" v="10728"/><tag k="coa:place_id" v="1135696"/></node><node id="-51" lat="30.168506" lon="-97.831271" changeset="false"><tag k="addr:street" v="Sanders Street"/><tag k="addr:housenumber" v="2404"/><tag k="coa:place_id" v="790988"/></node><node id="-52" lat="30.174232" lon="-97.836612" changeset="false"><tag k="addr:street" v="Alcott Lane"/><tag k="addr:housenumber" v="2620"/><tag k="coa:place_id" v="254264"/></node><node id="-53" lat="30.17058" lon="-97.832689" changeset="false"><tag k="addr:street" v="Wommack Road"/><tag k="addr:housenumber" v="10405"/><tag k="coa:place_id" v="3427654"/></node><node id="-54" lat="30.175361" lon="-97.839929" changeset="false"><tag k="addr:street" v="Alcott Cove"/><tag k="addr:housenumber" v="10106"/><tag k="coa:place_id" v="102280"/></node><node id="-55" lat="30.159558" lon="-97.82503" changeset="false"><tag k="addr:street" v="Garbacz Drive"/><tag k="addr:housenumber" v="10705"/><tag k="coa:place_id" v="1162990"/></node><node id="-56" lat="30.16559" lon="-97.828971" changeset="false"><tag k="addr:street" v="Manchaca Road,1100"/><tag k="addr:housenumber" v="10524"/><tag k="coa:place_id" v="444556"/></node><node id="-57" lat="30.165171" lon="-97.829702" changeset="false"><tag k="addr:street" v="Manchaca Road,1100"/><tag k="addr:housenumber" v="10614 1/2"/><tag k="coa:place_id" v="3110491"/></node><node id="-58" lat="30.164747" lon="-97.831855" changeset="false"><tag k="addr:street" v="Lynnbrook Drive"/><tag k="addr:housenumber" v="2121"/><tag k="coa:place_id" v="553143"/></node><node id="-59" lat="30.160086" lon="-97.824844" changeset="false"><tag k="addr:street" v="Garbacz Drive"/><tag k="addr:housenumber" v="10613"/><tag k="coa:place_id" v="1162977"/></node><node id="-60" lat="30.159034" lon="-97.825154" changeset="false"><tag k="addr:street" v="Garbacz Drive"/><tag k="addr:housenumber" v="10721"/><tag k="coa:place_id" v="1162994"/></node><node id="-61" lat="30.166212" lon="-97.835208" changeset="false"><tag k="addr:street" v="Lynnbrook Drive"/><tag k="addr:housenumber" v="2312"/><tag k="coa:place_id" v="127707"/></node><node id="-62" lat="30.17047" lon="-97.830362" changeset="false"><tag k="addr:street" v="Old Manchaca Road"/><tag k="addr:housenumber" v="10317"/><tag k="coa:place_id" v="3040488"/></node><node id="-63" lat="30.161565" lon="-97.828484" changeset="false"><tag k="addr:street" v="Old Manchaca Road"/><tag k="addr:housenumber" v="10828"/><tag k="coa:place_id" v="1136052"/></node><node id="-64" lat="30.161454" lon="-97.82439" changeset="false"><tag k="addr:street" v="Garbacz Drive"/><tag k="addr:housenumber" v="10413"/><tag k="coa:place_id" v="1162952"/></node><node id="-65" lat="30.161572" lon="-97.828701" changeset="false"><tag k="addr:street" v="Old Manchaca Road"/><tag k="addr:housenumber" v="10824"/><tag k="coa:place_id" v="1136051"/></node><node id="-66" lat="30.168429" lon="-97.832816" changeset="false"><tag k="addr:street" v="Sanders Street"/><tag k="addr:housenumber" v="2502"/><tag k="coa:place_id" v="791012"/></node><node id="-67" lat="30.162957" lon="-97.830664" changeset="false"><tag k="addr:street" v="Manchaca Road,1100"/><tag k="addr:housenumber" v="10731"/><tag k="coa:place_id" v="790862"/></node><node id="-68" lat="30.173271" lon="-97.823356" changeset="false"><tag k="addr:street" v="Manchaca Road,1100"/><tag k="addr:housenumber" v="9909"/><tag k="coa:place_id" v="661480"/></node><node id="-69" lat="30.172017" lon="-97.831665" changeset="false"><tag k="addr:street" v="Gail Road"/><tag k="addr:housenumber" v="10303"/><tag k="coa:place_id" v="232641"/></node><node id="-70" lat="30.172557" lon="-97.840488" changeset="false"><tag k="addr:street" v="Lindshire Lane"/><tag k="addr:housenumber" v="10399"/><tag k="coa:place_id" v="209893"/></node><node id="-71" lat="30.166605" lon="-97.830247" changeset="false"><tag k="addr:street" v="Old Manchaca Road"/><tag k="addr:housenumber" v="10509"/><tag k="coa:place_id" v="338638"/></node><node id="-72" lat="30.163109" lon="-97.826679" changeset="false"><tag k="addr:street" v="Manchaca Road,1100"/><tag k="addr:housenumber" v="10605"/><tag k="coa:place_id" v="3031759"/></node><node id="-73" lat="30.168731" lon="-97.838573" changeset="false"><tag k="addr:street" v="Lynnbrook Drive"/><tag k="addr:housenumber" v="2624"/><tag k="coa:place_id" v="3069569"/></node><node id="-74" lat="30.158212" lon="-97.825767" changeset="false"><tag k="addr:street" v="Marshitahs Way"/><tag k="addr:housenumber" v="10752"/><tag k="coa:place_id" v="3029371"/></node><node id="-75" lat="30.170983" lon="-97.837042" changeset="false"><tag k="addr:street" v="Bolton Street"/><tag k="addr:housenumber" v="2614 1/2"/><tag k="coa:place_id" v="3082871"/></node><node id="-76" lat="30.160933" lon="-97.82457" changeset="false"><tag k="addr:street" v="Garbacz Drive"/><tag k="addr:housenumber" v="10505"/><tag k="coa:place_id" v="1162970"/></node><node id="-77" lat="30.17265" lon="-97.822548" changeset="false"><tag k="addr:street" v="West Slaughter Lane"/><tag k="addr:housenumber" v="1807"/><tag k="coa:place_id" v="410938"/></node><node id="-78" lat="30.167753" lon="-97.836322" changeset="false"><tag k="addr:street" v="Bess Lane"/><tag k="addr:housenumber" v="2617 1/2"/><tag k="coa:place_id" v="3082870"/></node><node id="-79" lat="30.159347" lon="-97.825103" changeset="false"><tag k="addr:street" v="Garbacz Drive"/><tag k="addr:housenumber" v="10713"/><tag k="coa:place_id" v="1162992"/></node><node id="-80" lat="30.15898" lon="-97.825362" changeset="false"><tag k="addr:street" v="Garbacz Drive"/><tag k="addr:housenumber" v="10725"/><tag k="coa:place_id" v="1162995"/></node><node id="-81" lat="30.168402" lon="-97.826394" changeset="false"><tag k="addr:street" v="Manchaca Road,1100"/><tag k="addr:housenumber" v="10230"/><tag k="coa:place_id" v="790112"/></node><node id="-82" lat="30.168491" lon="-97.832038" changeset="false"><tag k="addr:street" v="Sanders Street"/><tag k="addr:housenumber" v="2410"/><tag k="coa:place_id" v="675466"/></node><node id="-83" lat="30.1588" lon="-97.825619" changeset="false"><tag k="addr:street" v="Marshitahs Way"/><tag k="addr:housenumber" v="10737"/><tag k="coa:place_id" v="1135701"/></node><node id="-84" lat="30.169782" lon="-97.835076" changeset="false"><tag k="addr:street" v="Drew Lane"/><tag k="addr:housenumber" v="2607"/><tag k="coa:place_id" v="988490"/></node><node id="-85" lat="30.162619" lon="-97.824803" changeset="false"><tag k="addr:street" v="Garbacz Drive"/><tag k="addr:housenumber" v="10324"/><tag k="coa:place_id" v="1162918"/></node><node id="-86" lat="30.162529" lon="-97.824062" changeset="false"><tag k="addr:street" v="Garbacz Drive"/><tag k="addr:housenumber" v="10321"/><tag k="coa:place_id" v="1162910"/></node><node id="-87" lat="30.167895" lon="-97.825936" changeset="false"><tag k="addr:street" v="Manchaca Road,1100"/><tag k="addr:housenumber" v="10301"/><tag k="coa:place_id" v="3155882"/></node><node id="-88" lat="30.171659" lon="-97.827591" changeset="false"><tag k="addr:street" v="Oak Valley Road"/><tag k="addr:housenumber" v="2108"/><tag k="coa:place_id" v="3219547"/></node><node id="-89" lat="30.169153" lon="-97.829557" changeset="false"><tag k="addr:street" v="Old Manchaca Road"/><tag k="addr:housenumber" v="10335"/><tag k="coa:place_id" v="5081876"/></node><node id="-90" lat="30.159665" lon="-97.824991" changeset="false"><tag k="addr:street" v="Garbacz Drive"/><tag k="addr:housenumber" v="10701"/><tag k="coa:place_id" v="1162996"/></node><node id="-91" lat="30.168652" lon="-97.836314" changeset="false"><tag k="addr:street" v="Hendon Street"/><tag k="addr:housenumber" v="10500"/><tag k="coa:place_id" v="3117308"/></node><node id="-92" lat="30.168657" lon="-97.837983" changeset="false"><tag k="addr:street" v="Lynnbrook Drive"/><tag k="addr:housenumber" v="2612"/><tag k="coa:place_id" v="3069566"/></node><node id="-93" lat="30.166537" lon="-97.830793" changeset="false"><tag k="addr:street" v="Old Manchaca Road"/><tag k="addr:housenumber" v="10500"/><tag k="coa:place_id" v="1162059"/></node><node id="-94" lat="30.172161" lon="-97.837962" changeset="false"><tag k="addr:street" v="Alfred Street"/><tag k="addr:housenumber" v="10301"/><tag k="coa:place_id" v="3083920"/></node><node id="-95" lat="30.173327" lon="-97.828453" changeset="false"><tag k="addr:street" v="Riddle Road"/><tag k="addr:housenumber" v="2207"/><tag k="coa:place_id" v="1143215"/></node><node id="-96" lat="30.169664" lon="-97.824822" changeset="false"><tag k="addr:street" v="Manchaca Road,1100"/><tag k="addr:housenumber" v="10037"/><tag k="coa:place_id" v="1156547"/></node><node id="-97" lat="30.175545" lon="-97.840376" changeset="false"><tag k="addr:street" v="Lindshire Lane"/><tag k="addr:housenumber" v="10201"/><tag k="coa:place_id" v="146488"/></node><node id="-98" lat="30.168423" lon="-97.830983" changeset="false"><tag k="addr:street" v="Sanders Street"/><tag k="addr:housenumber" v="2402"/><tag k="coa:place_id" v="790994"/></node><node id="-99" lat="30.161134" lon="-97.824479" changeset="false"><tag k="addr:street" v="Garbacz Drive"/><tag k="addr:housenumber" v="10425"/><tag k="coa:place_id" v="1162955"/></node><node id="-100" lat="30.173698" lon="-97.84015" changeset="false"><tag k="addr:street" v="Brantley Bend"/><tag k="addr:housenumber" v="10217"/><tag k="coa:place_id" v="94138"/></node><node id="-101" lat="30.159545" lon="-97.825706" changeset="false"><tag k="addr:street" v="Stonethrow Way"/><tag k="addr:housenumber" v="1402"/><tag k="coa:place_id" v="1162998"/></node><node id="-102" lat="30.174054" lon="-97.838522" changeset="false"><tag k="addr:street" v="Alcott Lane"/><tag k="addr:housenumber" v="2703"/><tag k="coa:place_id" v="254279"/></node><node id="-103" lat="30.169396" lon="-97.830926" changeset="false"><tag k="addr:street" v="Old Manchaca Road"/><tag k="addr:housenumber" v="10330"/><tag k="coa:place_id" v="338170"/></node><node id="-104" lat="30.167544" lon="-97.830359" changeset="false"><tag k="addr:street" v="Old Manchaca Road"/><tag k="addr:housenumber" v="10421"/><tag k="coa:place_id" v="204253"/></node><node id="-105" lat="30.170112" lon="-97.834228" changeset="false"><tag k="addr:street" v="Drew Lane"/><tag k="addr:housenumber" v="2524 1/2"/><tag k="coa:place_id" v="210831"/></node><node id="-106" lat="30.167816" lon="-97.833563" changeset="false"><tag k="addr:street" v="Sanders Street"/><tag k="addr:housenumber" v="2509"/><tag k="coa:place_id" v="110284"/></node><node id="-107" lat="30.16051" lon="-97.824715" changeset="false"><tag k="addr:street" v="Garbacz Drive"/><tag k="addr:housenumber" v="10521"/><tag k="coa:place_id" v="1162974"/></node><node id="-108" lat="30.161664" lon="-97.824318" changeset="false"><tag k="addr:street" v="Garbacz Drive"/><tag k="addr:housenumber" v="10405"/><tag k="coa:place_id" v="1162963"/></node><node id="-109" lat="30.168718" lon="-97.838369" changeset="false"><tag k="addr:street" v="Lynnbrook Drive"/><tag k="addr:housenumber" v="2620"/><tag k="coa:place_id" v="3069568"/></node><node id="-110" lat="30.162836" lon="-97.823947" changeset="false"><tag k="addr:street" v="Garbacz Drive"/><tag k="addr:housenumber" v="10309"/><tag k="coa:place_id" v="1162907"/></node><node id="-111" lat="30.162831" lon="-97.824742" changeset="false"><tag k="addr:street" v="Garbacz Drive"/><tag k="addr:housenumber" v="10316"/><tag k="coa:place_id" v="1162916"/></node><node id="-112" lat="30.162741" lon="-97.823993" changeset="false"><tag k="addr:street" v="Garbacz Drive"/><tag k="addr:housenumber" v="10313"/><tag k="coa:place_id" v="1162906"/></node><node id="-113" lat="30.162416" lon="-97.824085" changeset="false"><tag k="addr:street" v="Garbacz Drive"/><tag k="addr:housenumber" v="10325"/><tag k="coa:place_id" v="1162911"/></node><node id="-114" lat="30.162361" lon="-97.825118" changeset="false"><tag k="addr:street" v="Geoffs Drive"/><tag k="addr:housenumber" v="1412"/><tag k="coa:place_id" v="1162921"/></node><node id="-115" lat="30.158234" lon="-97.826071" changeset="false"><tag k="addr:street" v="Marshitahs Way"/><tag k="addr:housenumber" v="10748"/><tag k="coa:place_id" v="1135700"/></node><node id="-116" lat="30.175379" lon="-97.839354" changeset="false"><tag k="addr:street" v="Alcott Cove"/><tag k="addr:housenumber" v="10105"/><tag k="coa:place_id" v="121426"/></node><node id="-117" lat="30.161243" lon="-97.82444" changeset="false"><tag k="addr:street" v="Garbacz Drive"/><tag k="addr:housenumber" v="10421"/><tag k="coa:place_id" v="1162954"/></node><node id="-118" lat="30.168696" lon="-97.838166" changeset="false"><tag k="addr:street" v="Lynnbrook Drive"/><tag k="addr:housenumber" v="2616"/><tag k="coa:place_id" v="3069567"/></node><node id="-119" lat="30.176365" lon="-97.839505" changeset="false"><tag k="addr:street" v="Hunnicut Court"/><tag k="addr:housenumber" v="2807"/><tag k="coa:place_id" v="95578"/></node><node id="-120" lat="30.162314" lon="-97.824115" changeset="false"><tag k="addr:street" v="Garbacz Drive"/><tag k="addr:housenumber" v="10329"/><tag k="coa:place_id" v="1162904"/></node><node id="-121" lat="30.173367" lon="-97.826959" changeset="false"><tag k="addr:street" v="West Slaughter Lane"/><tag k="addr:housenumber" v="2109"/><tag k="coa:place_id" v="790334"/></node><node id="-122" lat="30.171189" lon="-97.824896" changeset="false"><tag k="addr:street" v="Manchaca Road,1100"/><tag k="addr:housenumber" v="10010"/><tag k="coa:place_id" v="285574"/></node><node id="-123" lat="30.16681" lon="-97.835686" changeset="false"><tag k="addr:street" v="Hendon Street"/><tag k="addr:housenumber" v="10617"/><tag k="coa:place_id" v="3069613"/></node><node id="-124" lat="30.174893" lon="-97.840635" changeset="false"><tag k="addr:street" v="Lindshire Lane"/><tag k="addr:housenumber" v="10209"/><tag k="coa:place_id" v="966807"/></node><node id="-125" lat="30.17571" lon="-97.838675" changeset="false"><tag k="addr:street" v="Brantley Bend"/><tag k="addr:housenumber" v="10100"/><tag k="coa:place_id" v="71271"/></node><node id="-126" lat="30.174607" lon="-97.836407" changeset="false"><tag k="addr:street" v="Gwendolyn Lane"/><tag k="addr:housenumber" v="2623"/><tag k="coa:place_id" v="254526"/></node><node id="-127" lat="30.177156" lon="-97.837363" changeset="false"><tag k="addr:street" v="West Slaughter Lane"/><tag k="addr:housenumber" v="2717"/><tag k="coa:place_id" v="1141470"/></node><node id="-128" lat="30.170347" lon="-97.824317" changeset="false"><tag k="addr:street" v="Manchaca Road,1100"/><tag k="addr:housenumber" v="10035"/><tag k="coa:place_id" v="711490"/></node><node id="-129" lat="30.170237" lon="-97.830785" changeset="false"><tag k="addr:street" v="Old Manchaca Road"/><tag k="addr:housenumber" v="10318"/><tag k="coa:place_id" v="3070286"/></node><node id="-130" lat="30.171888" lon="-97.829707" changeset="false"><tag k="addr:street" v="Oak Valley Road"/><tag k="addr:housenumber" v="2304"/><tag k="coa:place_id" v="790712"/></node><node id="-131" lat="30.17173" lon="-97.830973" changeset="false"><tag k="addr:street" v="Old Manchaca Road"/><tag k="addr:housenumber" v="10300"/><tag k="coa:place_id" v="790682"/></node><node id="-132" lat="30.173052" lon="-97.825931" changeset="false"><tag k="addr:street" v="Allred Drive"/><tag k="addr:housenumber" v="2102"/><tag k="coa:place_id" v="1143218"/></node><node id="-133" lat="30.160404" lon="-97.824745" changeset="false"><tag k="addr:street" v="Garbacz Drive"/><tag k="addr:housenumber" v="10601"/><tag k="coa:place_id" v="1162981"/></node><node id="-134" lat="30.172342" lon="-97.823175" changeset="false"><tag k="addr:street" v="Manchaca Road,1100"/><tag k="addr:housenumber" v="9929"/><tag k="coa:place_id" v="101573"/></node><node id="-135" lat="30.161012" lon="-97.826687" changeset="false"><tag k="addr:street" v="Razil Court"/><tag k="addr:housenumber" v="10600"/><tag k="coa:place_id" v="1135048"/></node><node id="-136" lat="30.166983" lon="-97.837419" changeset="false"><tag k="addr:street" v="Lynnbrook Drive"/><tag k="addr:housenumber" v="2503 1/2"/><tag k="coa:place_id" v="3143401"/></node><node id="-137" lat="30.165956" lon="-97.836283" changeset="false"><tag k="addr:street" v="Hendon Street"/><tag k="addr:housenumber" v="10700"/><tag k="coa:place_id" v="3094223"/></node><node id="-138" lat="30.168468" lon="-97.832293" changeset="false"><tag k="addr:street" v="Sanders Street"/><tag k="addr:housenumber" v="2412"/><tag k="coa:place_id" v="1011674"/></node><node id="-139" lat="30.162208" lon="-97.830034" changeset="false"><tag k="addr:street" v="True Cove"/><tag k="addr:housenumber" v="1813"/><tag k="coa:place_id" v="1126614"/></node><node id="-140" lat="30.160297" lon="-97.824781" changeset="false"><tag k="addr:street" v="Garbacz Drive"/><tag k="addr:housenumber" v="10605"/><tag k="coa:place_id" v="1162989"/></node><node id="-141" lat="30.166444" lon="-97.832412" changeset="false"><tag k="addr:street" v="Lynnbrook Drive"/><tag k="addr:housenumber" v="2118"/><tag k="coa:place_id" v="339430"/></node><node id="-142" lat="30.169039" lon="-97.82602" changeset="false"><tag k="addr:street" v="Manchaca Road,1100"/><tag k="addr:housenumber" v="10212"/><tag k="coa:place_id" v="790160"/></node><node id="-143" lat="30.159879" lon="-97.824921" changeset="false"><tag k="addr:street" v="Garbacz Drive"/><tag k="addr:housenumber" v="10621"/><tag k="coa:place_id" v="1162979"/></node><node id="-144" lat="30.15973" lon="-97.82683" changeset="false"><tag k="addr:street" v="Razil Court"/><tag k="addr:housenumber" v="10705"/><tag k="coa:place_id" v="1135571"/></node><node id="-145" lat="30.173454" lon="-97.825931" changeset="false"><tag k="addr:street" v="West Slaughter Lane"/><tag k="addr:housenumber" v="2103"/><tag k="coa:place_id" v="790310"/></node><node id="-146" lat="30.169597" lon="-97.829994" changeset="false"><tag k="addr:street" v="Old Manchaca Road"/><tag k="addr:housenumber" v="10331"/><tag k="coa:place_id" v="790688"/></node><node id="-147" lat="30.172151" lon="-97.832296" changeset="false"><tag k="addr:street" v="Gail Road"/><tag k="addr:housenumber" v="10300"/><tag k="coa:place_id" v="790406"/></node><node id="-148" lat="30.17517" lon="-97.839454" changeset="false"><tag k="addr:street" v="Alcott Cove"/><tag k="addr:housenumber" v="10107"/><tag k="coa:place_id" v="1025175"/></node><node id="-149" lat="30.17571" lon="-97.839749" changeset="false"><tag k="addr:street" v="Alcott Cove"/><tag k="addr:housenumber" v="10102"/><tag k="coa:place_id" v="1018851"/></node><node id="-150" lat="30.159072" lon="-97.825811" changeset="false"><tag k="addr:street" v="Stonethrow Way"/><tag k="addr:housenumber" v="1405"/><tag k="coa:place_id" v="3048608"/></node><node id="-151" lat="30.16195" lon="-97.829311" changeset="false"><tag k="addr:street" v="Old Manchaca Road"/><tag k="addr:housenumber" v="10808"/><tag k="coa:place_id" v="1136047"/></node><node id="-152" lat="30.167721" lon="-97.832337" changeset="false"><tag k="addr:street" v="Sanders Street"/><tag k="addr:housenumber" v="2413"/><tag k="coa:place_id" v="791006"/></node><node id="-153" lat="30.163047" lon="-97.824678" changeset="false"><tag k="addr:street" v="Garbacz Drive"/><tag k="addr:housenumber" v="10308"/><tag k="coa:place_id" v="1162914"/></node><node id="-154" lat="30.159777" lon="-97.824963" changeset="false"><tag k="addr:street" v="Garbacz Drive"/><tag k="addr:housenumber" v="10625"/><tag k="coa:place_id" v="1162980"/></node><node id="-155" lat="30.17072" lon="-97.826051" changeset="false"><tag k="addr:street" v="Manchaca Road,1100"/><tag k="addr:housenumber" v="10030"/><tag k="coa:place_id" v="790322"/></node><node id="-156" lat="30.175627" lon="-97.838083" changeset="false"><tag k="addr:street" v="Brantley Bend"/><tag k="addr:housenumber" v="10007"/><tag k="coa:place_id" v="399838"/></node><node id="-157" lat="30.166955" lon="-97.836866" changeset="false"><tag k="addr:street" v="Lynnbrook Drive"/><tag k="addr:housenumber" v="2420"/><tag k="coa:place_id" v="3069634"/></node><node id="-158" lat="30.17291" lon="-97.825304" changeset="false"><tag k="addr:street" v="Allred Drive"/><tag k="addr:housenumber" v="2014 1/2"/><tag k="coa:place_id" v="3255108"/></node><node id="-159" lat="30.168318" lon="-97.831764" changeset="false"><tag k="addr:street" v="Sanders Street"/><tag k="addr:housenumber" v="2408"/><tag k="coa:place_id" v="790982"/></node><node id="-160" lat="30.16178" lon="-97.824292" changeset="false"><tag k="addr:street" v="Garbacz Drive"/><tag k="addr:housenumber" v="10401"/><tag k="coa:place_id" v="1162956"/></node><node id="-161" lat="30.1659" lon="-97.828358" changeset="false"><tag k="addr:street" v="Manchaca Road,1100"/><tag k="addr:housenumber" v="10516"/><tag k="coa:place_id" v="3392523"/></node><node id="-162" lat="30.162635" lon="-97.824028" changeset="false"><tag k="addr:street" v="Garbacz Drive"/><tag k="addr:housenumber" v="10317"/><tag k="coa:place_id" v="1162905"/></node><node id="-163" lat="30.162736" lon="-97.830185" changeset="false"><tag k="addr:street" v="True Cove"/><tag k="addr:housenumber" v="1812"/><tag k="coa:place_id" v="1126609"/></node><node id="-164" lat="30.171683" lon="-97.83046" changeset="false"><tag k="addr:street" v="Old Manchaca Road"/><tag k="addr:housenumber" v="10303"/><tag k="coa:place_id" v="224538"/></node><node id="-165" lat="30.163702" lon="-97.82995" changeset="false"><tag k="addr:street" v="Manchaca Road,1100"/><tag k="addr:housenumber" v="10701"/><tag k="coa:place_id" v="5085731"/></node><node id="-166" lat="30.167441" lon="-97.839355" changeset="false"><tag k="addr:street" v="Lynnbrook Drive"/><tag k="addr:housenumber" v="2715"/><tag k="coa:place_id" v="3291796"/></node><node id="-167" lat="30.175752" lon="-97.839404" changeset="false"><tag k="addr:street" v="Alcott Cove"/><tag k="addr:housenumber" v="10101"/><tag k="coa:place_id" v="95944"/></node><node id="-168" lat="30.163749" lon="-97.831626" changeset="false"><tag k="addr:street" v="Manchaca Road,1100"/><tag k="addr:housenumber" v="10704"/><tag k="coa:place_id" v="786537"/></node><node id="-169" lat="30.17787" lon="-97.838727" changeset="false"><tag k="addr:street" v="West Slaughter Lane"/><tag k="addr:housenumber" v="2809"/><tag k="coa:place_id" v="255027"/></node><node id="-170" lat="30.175416" lon="-97.83883" changeset="false"><tag k="addr:street" v="Brantley Bend"/><tag k="addr:housenumber" v="10104"/><tag k="coa:place_id" v="71269"/></node><node id="-171" lat="30.175877" lon="-97.839636" changeset="false"><tag k="addr:street" v="Alcott Cove"/><tag k="addr:housenumber" v="10100"/><tag k="coa:place_id" v="966795"/></node><node id="-172" lat="30.162079" lon="-97.826174" changeset="false"><tag k="addr:street" v="Geoffs Drive"/><tag k="addr:housenumber" v="1513"/><tag k="coa:place_id" v="1162932"/></node><node id="-173" lat="30.160669" lon="-97.826601" changeset="false"><tag k="addr:street" v="Razil Court"/><tag k="addr:housenumber" v="10609"/><tag k="coa:place_id" v="1135069"/></node><node id="-174" lat="30.160621" lon="-97.824679" changeset="false"><tag k="addr:street" v="Garbacz Drive"/><tag k="addr:housenumber" v="10517"/><tag k="coa:place_id" v="1162973"/></node><node id="-175" lat="30.168702" lon="-97.830146" changeset="false"><tag k="addr:street" v="Old Manchaca Road"/><tag k="addr:housenumber" v="10355"/><tag k="coa:place_id" v="3392524"/></node><node id="-176" lat="30.172401" lon="-97.828084" changeset="false"><tag k="addr:street" v="Allred Drive"/><tag k="addr:housenumber" v="2205"/><tag k="coa:place_id" v="237650"/></node><node id="-177" lat="30.162725" lon="-97.824773" changeset="false"><tag k="addr:street" v="Garbacz Drive"/><tag k="addr:housenumber" v="10320"/><tag k="coa:place_id" v="1162917"/></node><node id="-178" lat="30.17433" lon="-97.840523" changeset="false"><tag k="addr:street" v="Brantley Cove"/><tag k="addr:housenumber" v="10202"/><tag k="coa:place_id" v="938331"/></node><node id="-179" lat="30.159981" lon="-97.82488" changeset="false"><tag k="addr:street" v="Garbacz Drive"/><tag k="addr:housenumber" v="10617"/><tag k="coa:place_id" v="1162978"/></node><node id="-180" lat="30.167715" lon="-97.832029" changeset="false"><tag k="addr:street" v="Sanders Street"/><tag k="addr:housenumber" v="2411"/><tag k="coa:place_id" v="995444"/></node><node id="-181" lat="30.175555" lon="-97.838766" changeset="false"><tag k="addr:street" v="Brantley Bend"/><tag k="addr:housenumber" v="10102"/><tag k="coa:place_id" v="125161"/></node><node id="-182" lat="30.163251" lon="-97.824613" changeset="false"><tag k="addr:street" v="Garbacz Drive"/><tag k="addr:housenumber" v="10300"/><tag k="coa:place_id" v="1162912"/></node><node id="-183" lat="30.170602" lon="-97.824103" changeset="false"><tag k="addr:street" v="Manchaca Road,1100"/><tag k="addr:housenumber" v="10025"/><tag k="coa:place_id" v="256479"/></node><node id="-184" lat="30.165419" lon="-97.833483" changeset="false"><tag k="addr:street" v="Lynnbrook Drive"/><tag k="addr:housenumber" v="2309"/><tag k="coa:place_id" v="791132"/></node><node id="-185" lat="30.160826" lon="-97.824607" changeset="false"><tag k="addr:street" v="Garbacz Drive"/><tag k="addr:housenumber" v="10509"/><tag k="coa:place_id" v="1162971"/></node><node id="-186" lat="30.160523" lon="-97.827995" changeset="false"><tag k="addr:street" v="Curameng Cove"/><tag k="addr:housenumber" v="1517"/><tag k="coa:place_id" v="3043755"/></node><node id="-187" lat="30.16472" lon="-97.829539" changeset="false"><tag k="addr:street" v="Manchaca Road,1100"/><tag k="addr:housenumber" v="10614"/><tag k="coa:place_id" v="332307"/></node><node id="-188" lat="30.161345" lon="-97.824427" changeset="false"><tag k="addr:street" v="Garbacz Drive"/><tag k="addr:housenumber" v="10417"/><tag k="coa:place_id" v="1162953"/></node><node id="-189" lat="30.17342" lon="-97.83334" changeset="false"><tag k="addr:street" v="Wommack Road"/><tag k="addr:housenumber" v="10202"/><tag k="coa:place_id" v="790490"/></node><node id="-190" lat="30.170248" lon="-97.835498" changeset="false"><tag k="addr:street" v="Drew Lane"/><tag k="addr:housenumber" v="2610"/><tag k="coa:place_id" v="790778"/></node><node id="-191" lat="30.158623" lon="-97.826124" changeset="false"><tag k="addr:street" v="Marshitahs Way"/><tag k="addr:housenumber" v="10740"/><tag k="coa:place_id" v="1135704"/></node><node id="-192" lat="30.173686" lon="-97.839349" changeset="false"><tag k="addr:street" v="Brantley Bend"/><tag k="addr:housenumber" v="10209"/><tag k="coa:place_id" v="988059"/></node><node id="-193" lat="30.1737" lon="-97.840537" changeset="false"><tag k="addr:street" v="Brantley Bend"/><tag k="addr:housenumber" v="10221"/><tag k="coa:place_id" v="995907"/></node><node id="-194" lat="30.167115" lon="-97.827639" changeset="false"><tag k="addr:street" v="Manchaca Road,1100"/><tag k="addr:housenumber" v="10400"/><tag k="coa:place_id" v="790136"/></node><node id="-195" lat="30.176009" lon="-97.836655" changeset="false"><tag k="addr:street" v="West Slaughter Lane"/><tag k="addr:housenumber" v="2715"/><tag k="coa:place_id" v="150163"/></node><node id="-196" lat="30.162302" lon="-97.830236" changeset="false"><tag k="addr:street" v="True Cove"/><tag k="addr:housenumber" v="1817"/><tag k="coa:place_id" v="1126615"/></node><node id="-197" lat="30.168796" lon="-97.826296" changeset="false"><tag k="addr:street" v="Manchaca Road,1100"/><tag k="addr:housenumber" v="10220"/><tag k="coa:place_id" v="80826"/></node><node id="-198" lat="30.163312" lon="-97.831879" changeset="false"><tag k="addr:street" v="Manchaca Road,1100"/><tag k="addr:housenumber" v="10708"/><tag k="coa:place_id" v="1143190"/></node><node id="-199" lat="30.172951" lon="-97.827651" changeset="false"><tag k="addr:street" v="Allred Drive"/><tag k="addr:housenumber" v="2200"/><tag k="coa:place_id" v="425247"/></node><node id="-200" lat="30.167354" lon="-97.837028" changeset="false"><tag k="addr:street" v="Lynnbrook Drive"/><tag k="addr:housenumber" v="2508"/><tag k="coa:place_id" v="3069637"/></node><node id="-201" lat="30.168484" lon="-97.831533" changeset="false"><tag k="addr:street" v="Sanders Street"/><tag k="addr:housenumber" v="2406"/><tag k="coa:place_id" v="791000"/></node><node id="-202" lat="30.168475" lon="-97.836356" changeset="false"><tag k="addr:street" v="Hendon Street"/><tag k="addr:housenumber" v="10504"/><tag k="coa:place_id" v="3069562"/></node><node id="-203" lat="30.170291" lon="-97.835135" changeset="false"><tag k="addr:street" v="Drew Lane"/><tag k="addr:housenumber" v="2600"/><tag k="coa:place_id" v="225503"/></node><node id="-204" lat="30.166522" lon="-97.826828" changeset="false"><tag k="addr:street" v="Manchaca Road,1100"/><tag k="addr:housenumber" v="10415"/><tag k="coa:place_id" v="790706"/></node><node id="-205" lat="30.171853" lon="-97.83225" changeset="false"><tag k="addr:street" v="Gail Road"/><tag k="addr:housenumber" v="10302"/><tag k="coa:place_id" v="1143224"/></node><node id="-206" lat="30.162099" lon="-97.824184" changeset="false"><tag k="addr:street" v="Garbacz Drive"/><tag k="addr:housenumber" v="10337"/><tag k="coa:place_id" v="1162902"/></node><node id="-207" lat="30.174669" lon="-97.835198" changeset="false"><tag k="addr:street" v="Gwendolyn Lane"/><tag k="addr:housenumber" v="2606"/><tag k="coa:place_id" v="254511"/></node><node id="-208" lat="30.161996" lon="-97.824226" changeset="false"><tag k="addr:street" v="Garbacz Drive"/><tag k="addr:housenumber" v="10341"/><tag k="coa:place_id" v="1162901"/></node><node id="-209" lat="30.161976" lon="-97.825813" changeset="false"><tag k="addr:street" v="Geoffs Drive"/><tag k="addr:housenumber" v="1505"/><tag k="coa:place_id" v="1162930"/></node><node id="-210" lat="30.167516" lon="-97.834351" changeset="false"><tag k="addr:street" v="Margra Lane"/><tag k="addr:housenumber" v="10502"/><tag k="coa:place_id" v="110269"/></node><node id="-211" lat="30.173769" lon="-97.837586" changeset="false"><tag k="addr:street" v="Alcott Lane"/><tag k="addr:housenumber" v="2633"/><tag k="coa:place_id" v="254274"/></node><node id="-212" lat="30.162937" lon="-97.824716" changeset="false"><tag k="addr:street" v="Garbacz Drive"/><tag k="addr:housenumber" v="10312"/><tag k="coa:place_id" v="1162915"/></node><node id="-213" lat="30.16251" lon="-97.824842" changeset="false"><tag k="addr:street" v="Garbacz Drive"/><tag k="addr:housenumber" v="10328"/><tag k="coa:place_id" v="1162919"/></node><node id="-214" lat="30.169887" lon="-97.832687" changeset="false"><tag k="addr:street" v="Drew Lane"/><tag k="addr:housenumber" v="2501"/><tag k="coa:place_id" v="255197"/></node><node id="-215" lat="30.164745" lon="-97.835964" changeset="false"><tag k="addr:street" v="Hendon Street"/><tag k="addr:housenumber" v="10725"/><tag k="coa:place_id" v="3069645"/></node><node id="-216" lat="30.168216" lon="-97.833385" changeset="false"><tag k="addr:street" v="Sanders Street"/><tag k="addr:housenumber" v="2500"/><tag k="coa:place_id" v="110279"/></node><node id="-217" lat="30.173188" lon="-97.829997" changeset="false"><tag k="addr:street" v="Riddle Road"/><tag k="addr:housenumber" v="2315"/><tag k="coa:place_id" v="790076"/></node><node id="-218" lat="30.166067" lon="-97.833995" changeset="false"><tag k="addr:street" v="Lynnbrook Drive"/><tag k="addr:housenumber" v="2212"/><tag k="coa:place_id" v="3089826"/></node><node id="-219" lat="30.160188" lon="-97.824805" changeset="false"><tag k="addr:street" v="Garbacz Drive"/><tag k="addr:housenumber" v="10609"/><tag k="coa:place_id" v="1162976"/></node><node id="-220" lat="30.169971" lon="-97.830297" changeset="false"><tag k="addr:street" v="Old Manchaca Road"/><tag k="addr:housenumber" v="10319"/><tag k="coa:place_id" v="164371"/></node><node id="-221" lat="30.177793" lon="-97.838549" changeset="false"><tag k="addr:street" v="West Slaughter Lane"/><tag k="addr:housenumber" v="2807"/><tag k="coa:place_id" v="255025"/></node><node id="-222" lat="30.16189" lon="-97.824245" changeset="false"><tag k="addr:street" v="Garbacz Drive"/><tag k="addr:housenumber" v="10345"/><tag k="coa:place_id" v="1162900"/></node><node id="-223" lat="30.172747" lon="-97.82454" changeset="false"><tag k="addr:street" v="Manchaca Road,1100"/><tag k="addr:housenumber" v="9924"/><tag k="coa:place_id" v="119619"/></node><node id="-224" lat="30.165918" lon="-97.827398" changeset="false"><tag k="addr:street" v="Manchaca Road,1100"/><tag k="addr:housenumber" v="10421 1/2"/><tag k="coa:place_id" v="3204404"/></node><node id="-225" lat="30.173365" lon="-97.826453" changeset="false"><tag k="addr:street" v="West Slaughter Lane"/><tag k="addr:housenumber" v="2105"/><tag k="coa:place_id" v="790316"/></node><node id="-226" lat="30.172655" lon="-97.831094" changeset="false"><tag k="addr:street" v="Old Manchaca Road"/><tag k="addr:housenumber" v="10202"/><tag k="coa:place_id" v="586197"/></node><node id="-227" lat="30.161654" lon="-97.826138" changeset="false"><tag k="addr:street" v="Old Manchaca Road"/><tag k="addr:housenumber" v="10931"/><tag k="coa:place_id" v="1135669"/></node><node id="-228" lat="30.161566" lon="-97.824352" changeset="false"><tag k="addr:street" v="Garbacz Drive"/><tag k="addr:housenumber" v="10409"/><tag k="coa:place_id" v="1162951"/></node><node id="-229" lat="30.162205" lon="-97.824154" changeset="false"><tag k="addr:street" v="Garbacz Drive"/><tag k="addr:housenumber" v="10333"/><tag k="coa:place_id" v="1162903"/></node><node id="-230" lat="30.16228" lon="-97.829682" changeset="false"><tag k="addr:street" v="True Cove"/><tag k="addr:housenumber" v="1805"/><tag k="coa:place_id" v="1126612"/></node><node id="-231" lat="30.166351" lon="-97.828104" changeset="false"><tag k="addr:street" v="Manchaca Road,1100"/><tag k="addr:housenumber" v="10422"/><tag k="coa:place_id" v="3502362"/></node><node id="-232" lat="30.166405" lon="-97.827918" changeset="false"><tag k="addr:street" v="Manchaca Road,1100"/><tag k="addr:housenumber" v="10420"/><tag k="coa:place_id" v="790142"/></node><node id="-233" lat="30.169601" lon="-97.833972" changeset="false"><tag k="addr:street" v="Margra Lane"/><tag k="addr:housenumber" v="10403"/><tag k="coa:place_id" v="791048"/></node><node id="-234" lat="30.169533" lon="-97.834056" changeset="false"><tag k="addr:street" v="Margra Lane"/><tag k="addr:housenumber" v="10407"/><tag k="coa:place_id" v="110268"/></node></osm>