<?xml version="1.0" encoding="UTF-8"?><osm version="0.6" generator="github.com/aaronlidman/osm-and-geojson"><node id="-1" lat="30.203897" lon="-97.918075" changeset="false"><tag k="addr:street" v="La Plata Loop"/><tag k="addr:housenumber" v="8325"/><tag k="addr:postcode" v="78737"/></node><node id="-2" lat="30.225255" lon="-97.913542" changeset="false"><tag k="addr:street" v="Crest View Road"/><tag k="addr:housenumber" v="8803"/><tag k="addr:postcode" v="78737"/></node><node id="-3" lat="30.19127" lon="-97.936631" changeset="false"><tag k="addr:street" v="Trailmaster Drive"/><tag k="addr:housenumber" v="12200"/><tag k="addr:postcode" v="78737"/></node><node id="-4" lat="30.213842" lon="-97.897481" changeset="false"><tag k="addr:street" v="Ranch to Market Road 1826"/><tag k="addr:housenumber" v="9400"/><tag k="addr:postcode" v="78737"/></node><node id="-5" lat="30.212567" lon="-97.915542" changeset="false"><tag k="addr:street" v="Silver Mountain Cove"/><tag k="addr:housenumber" v="8415"/><tag k="addr:postcode" v="78737"/></node><node id="-6" lat="30.219223" lon="-97.899471" changeset="false"><tag k="addr:street" v="Granada Hills Drive"/><tag k="addr:housenumber" v="9111"/><tag k="addr:postcode" v="78737"/></node><node id="-7" lat="30.218628" lon="-97.912294" changeset="false"><tag k="addr:street" v="El Dorado Drive"/><tag k="addr:housenumber" v="7720"/><tag k="addr:postcode" v="78737"/></node><node id="-8" lat="30.202092" lon="-97.9388" changeset="false"><tag k="addr:street" v="Morningsun Drive"/><tag k="addr:housenumber" v="11502"/><tag k="addr:postcode" v="78737"/></node><node id="-9" lat="30.226537" lon="-97.93328" changeset="false"><tag k="addr:street" v="Peakridge Drive"/><tag k="addr:housenumber" v="9901"/><tag k="addr:postcode" v="78737"/></node><node id="-10" lat="30.221331" lon="-97.911585" changeset="false"><tag k="addr:street" v="El Rey Boulevard"/><tag k="addr:housenumber" v="9434"/><tag k="addr:postcode" v="78737"/></node><node id="-11" lat="30.203401" lon="-97.932522" changeset="false"><tag k="addr:street" v="Zyle Road"/><tag k="addr:housenumber" v="9009"/><tag k="addr:postcode" v="78737"/></node><node id="-12" lat="30.203897" lon="-97.916928" changeset="false"><tag k="addr:street" v="La Plata Loop"/><tag k="addr:housenumber" v="8321"/><tag k="addr:postcode" v="78737"/></node><node id="-13" lat="30.212465" lon="-97.920032" changeset="false"><tag k="addr:street" v="Young Lane"/><tag k="addr:housenumber" v="8701"/><tag k="addr:postcode" v="78737"/></node><node id="-14" lat="30.223999" lon="-97.93369" changeset="false"><tag k="addr:street" v="Derecho Bend"/><tag k="addr:housenumber" v="9817"/><tag k="addr:postcode" v="78737"/></node><node id="-15" lat="30.205041" lon="-97.934493" changeset="false"><tag k="addr:street" v="Zyle Road"/><tag k="addr:housenumber" v="9201"/><tag k="addr:postcode" v="78737"/></node><node id="-16" lat="30.203988" lon="-97.925194" changeset="false"><tag k="addr:street" v="Blazyk Drive"/><tag k="addr:housenumber" v="8615"/><tag k="addr:postcode" v="78737"/></node><node id="-17" lat="30.217036" lon="-97.901308" changeset="false"><tag k="addr:street" v="Granada Hills Drive"/><tag k="addr:housenumber" v="9210"/><tag k="addr:postcode" v="78737"/></node><node id="-18" lat="30.216579" lon="-97.903576" changeset="false"><tag k="addr:street" v="El Dorado Drive"/><tag k="addr:housenumber" v="7918"/><tag k="addr:postcode" v="78737"/></node><node id="-19" lat="30.215924" lon="-97.900809" changeset="false"><tag k="addr:street" v="Granada Hills Drive"/><tag k="addr:housenumber" v="9305"/><tag k="addr:postcode" v="78737"/></node><node id="-20" lat="30.215318" lon="-97.8972" changeset="false"><tag k="addr:street" v="Gallant Fox Road"/><tag k="addr:housenumber" v="9207"/><tag k="addr:postcode" v="78737"/></node><node id="-21" lat="30.222969" lon="-97.937831" changeset="false"><tag k="addr:street" v="Clemente Circle"/><tag k="addr:housenumber" v="10200"/><tag k="addr:postcode" v="78737"/></node><node id="-22" lat="30.21551" lon="-97.90436" changeset="false"><tag k="addr:street" v="El Dorado Drive"/><tag k="addr:housenumber" v="7902"/><tag k="addr:postcode" v="78737"/></node><node id="-23" lat="30.207256" lon="-97.936168" changeset="false"><tag k="addr:street" v="Morningstar Circle"/><tag k="addr:housenumber" v="11203"/><tag k="addr:postcode" v="78737"/></node><node id="-24" lat="30.206813" lon="-97.937768" changeset="false"><tag k="addr:street" v="Morningstar Circle"/><tag k="addr:housenumber" v="11210"/><tag k="addr:postcode" v="78737"/></node><node id="-25" lat="30.206607" lon="-97.934709" changeset="false"><tag k="addr:street" v="Zyle Road"/><tag k="addr:housenumber" v="9300"/><tag k="addr:postcode" v="78737"/></node><node id="-26" lat="30.206575" lon="-97.937701" changeset="false"><tag k="addr:street" v="Zyle Road"/><tag k="addr:housenumber" v="9400"/><tag k="addr:postcode" v="78737"/></node><node id="-27" lat="30.220833" lon="-97.920566" changeset="false"><tag k="addr:street" v="Honeycomb Drive"/><tag k="addr:housenumber" v="9001"/><tag k="addr:postcode" v="78737"/></node><node id="-28" lat="30.22811" lon="-97.915622" changeset="false"><tag k="addr:street" v="West View Road"/><tag k="addr:housenumber" v="9000"/><tag k="addr:postcode" v="78737"/></node><node id="-29" lat="30.228514" lon="-97.91267" changeset="false"><tag k="addr:street" v="Feather Hill Road"/><tag k="addr:housenumber" v="8802"/><tag k="addr:postcode" v="78737"/></node><node id="-30" lat="30.222015" lon="-97.901217" changeset="false"><tag k="addr:street" v="El Rey Boulevard"/><tag k="addr:housenumber" v="9001"/><tag k="addr:postcode" v="78737"/></node><node id="-31" lat="30.216831" lon="-97.907004" changeset="false"><tag k="addr:street" v="San Diego Road"/><tag k="addr:housenumber" v="9516"/><tag k="addr:postcode" v="78737"/></node><node id="-32" lat="30.213472" lon="-97.90667" changeset="false"><tag k="addr:street" v="El Dorado Drive"/><tag k="addr:housenumber" v="7838"/><tag k="addr:postcode" v="78737"/></node><node id="-33" lat="30.210497" lon="-97.912848" changeset="false"><tag k="addr:street" v="Silver Mountain Drive"/><tag k="addr:housenumber" v="10201"/><tag k="addr:postcode" v="78737"/></node><node id="-34" lat="30.218908" lon="-97.900555" changeset="false"><tag k="addr:street" v="Granada Hills Drive"/><tag k="addr:housenumber" v="9118"/><tag k="addr:postcode" v="78737"/></node><node id="-35" lat="30.22093" lon="-97.912313" changeset="false"><tag k="addr:street" v="El Rey Boulevard"/><tag k="addr:housenumber" v="9437"/><tag k="addr:postcode" v="78737"/></node><node id="-36" lat="30.206643" lon="-97.913493" changeset="false"><tag k="addr:street" v="Lewis Mountain Drive"/><tag k="addr:housenumber" v="8105"/><tag k="addr:postcode" v="78737"/></node><node id="-37" lat="30.206635" lon="-97.916605" changeset="false"><tag k="addr:street" v="La Plata Loop"/><tag k="addr:housenumber" v="8303"/><tag k="addr:postcode" v="78737"/></node><node id="-38" lat="30.215599" lon="-97.902075" changeset="false"><tag k="addr:street" v="Granada Hills Drive"/><tag k="addr:housenumber" v="9402"/><tag k="addr:postcode" v="78737"/></node><node id="-39" lat="30.215494" lon="-97.910287" changeset="false"><tag k="addr:street" v="El Dorado Drive"/><tag k="addr:housenumber" v="7760"/><tag k="addr:postcode" v="78737"/></node><node id="-40" lat="30.192339" lon="-97.934099" changeset="false"><tag k="addr:street" v="Appaloosa Run"/><tag k="addr:housenumber" v="8702"/><tag k="addr:postcode" v="78737"/></node><node id="-41" lat="30.222036" lon="-97.934585" changeset="false"><tag k="addr:street" v="Derecho Bend"/><tag k="addr:housenumber" v="9601"/><tag k="addr:postcode" v="78737"/></node><node id="-42" lat="30.219912" lon="-97.922206" changeset="false"><tag k="addr:street" v="Ramble Three Street"/><tag k="addr:housenumber" v="9901"/><tag k="addr:postcode" v="78737"/></node><node id="-43" lat="30.212822" lon="-97.912347" changeset="false"><tag k="addr:street" v="Silver Mountain Drive"/><tag k="addr:housenumber" v="10019"/><tag k="addr:postcode" v="78737"/></node><node id="-44" lat="30.202954" lon="-97.929974" changeset="false"><tag k="addr:street" v="Zyle Road"/><tag k="addr:housenumber" v="8900"/><tag k="addr:postcode" v="78737"/></node><node id="-45" lat="30.211133" lon="-97.914055" changeset="false"><tag k="addr:street" v="Young Lane"/><tag k="addr:housenumber" v="8316"/><tag k="addr:postcode" v="78737"/></node><node id="-46" lat="30.21024" lon="-97.914077" changeset="false"><tag k="addr:street" v="Young Lane"/><tag k="addr:housenumber" v="8309"/><tag k="addr:postcode" v="78737"/></node><node id="-47" lat="30.218603" lon="-97.903428" changeset="false"><tag k="addr:street" v="El Dorado Drive"/><tag k="addr:housenumber" v="7935"/><tag k="addr:postcode" v="78737"/></node><node id="-48" lat="30.21783" lon="-97.899537" changeset="false"><tag k="addr:street" v="Granada Hills Drive"/><tag k="addr:housenumber" v="9127"/><tag k="addr:postcode" v="78737"/></node><node id="-49" lat="30.217039" lon="-97.912048" changeset="false"><tag k="addr:street" v="El Dorado Drive"/><tag k="addr:housenumber" v="7736"/><tag k="addr:postcode" v="78737"/></node><node id="-50" lat="30.223955" lon="-97.938111" changeset="false"><tag k="addr:street" v="Clemente Circle"/><tag k="addr:housenumber" v="10129"/><tag k="addr:postcode" v="78737"/></node><node id="-51" lat="30.226366" lon="-97.931932" changeset="false"><tag k="addr:street" v="Peakridge Drive"/><tag k="addr:housenumber" v="9800"/><tag k="addr:postcode" v="78737"/></node><node id="-52" lat="30.229729" lon="-97.928053" changeset="false"><tag k="addr:street" v="Ledgestone Terrace"/><tag k="addr:housenumber" v="9304"/><tag k="addr:postcode" v="78737"/></node><node id="-53" lat="30.213983" lon="-97.899707" changeset="false"><tag k="addr:street" v="Bella Vista Trail"/><tag k="addr:housenumber" v="7615"/><tag k="addr:postcode" v="78737"/></node><node id="-54" lat="30.204793" lon="-97.937675" changeset="false"><tag k="addr:street" v="Zyle Road"/><tag k="addr:housenumber" v="9409"/><tag k="addr:postcode" v="78737"/></node><node id="-55" lat="30.227047" lon="-97.913662" changeset="false"><tag k="addr:street" v="Feather Hill Road"/><tag k="addr:housenumber" v="9000"/><tag k="addr:postcode" v="78737"/></node><node id="-56" lat="30.225849" lon="-97.917103" changeset="false"><tag k="addr:street" v="West View Road"/><tag k="addr:housenumber" v="9102"/><tag k="addr:postcode" v="78737"/></node><node id="-57" lat="30.214785" lon="-97.897352" changeset="false"><tag k="addr:street" v="Gallant Fox Road"/><tag k="addr:housenumber" v="9212"/><tag k="addr:postcode" v="78737"/></node><node id="-58" lat="30.215006" lon="-97.914508" changeset="false"><tag k="addr:street" v="Kali Cove"/><tag k="addr:housenumber" v="8416"/><tag k="addr:postcode" v="78737"/></node><node id="-59" lat="30.214763" lon="-97.907785" changeset="false"><tag k="addr:street" v="El Dorado Drive"/><tag k="addr:housenumber" v="7821"/><tag k="addr:postcode" v="78737"/></node><node id="-60" lat="30.219371" lon="-97.926464" changeset="false"><tag k="addr:street" v="Sandstone Street"/><tag k="addr:housenumber" v="9248"/><tag k="addr:postcode" v="78737"/></node><node id="-61" lat="30.23036" lon="-97.91945" changeset="false"><tag k="addr:street" v="Butler Circle"/><tag k="addr:housenumber" v="8906"/><tag k="addr:postcode" v="78737"/></node><node id="-62" lat="30.215992" lon="-97.906278" changeset="false"><tag k="addr:street" v="El Dorado Drive"/><tag k="addr:housenumber" v="7859"/><tag k="addr:postcode" v="78737"/></node><node id="-63" lat="30.213877" lon="-97.89861" changeset="false"><tag k="addr:street" v="Bella Vista Trail"/><tag k="addr:housenumber" v="7601"/><tag k="addr:postcode" v="78737"/></node><node id="-64" lat="30.224293" lon="-97.931563" changeset="false"><tag k="addr:street" v="Ledgestone Terrace"/><tag k="addr:housenumber" v="9800"/><tag k="addr:postcode" v="78737"/></node><node id="-65" lat="30.225686" lon="-97.918268" changeset="false"><tag k="addr:street" v="Tara Lane"/><tag k="addr:housenumber" v="9208"/><tag k="addr:postcode" v="78737"/></node><node id="-66" lat="30.205013" lon="-97.929254" changeset="false"><tag k="addr:street" v="Blazyk Drive"/><tag k="addr:housenumber" v="8904"/><tag k="addr:postcode" v="78737"/></node><node id="-67" lat="30.226226" lon="-97.918547" changeset="false"><tag k="addr:street" v="Tara Lane"/><tag k="addr:housenumber" v="9204"/><tag k="addr:postcode" v="78737"/></node><node id="-68" lat="30.222548" lon="-97.93648" changeset="false"><tag k="addr:street" v="Derecho Drive"/><tag k="addr:housenumber" v="10108"/><tag k="addr:postcode" v="78737"/></node><node id="-69" lat="30.204698" lon="-97.916813" changeset="false"><tag k="addr:street" v="La Plata Loop"/><tag k="addr:housenumber" v="8316"/><tag k="addr:postcode" v="78737"/></node><node id="-70" lat="30.231652" lon="-97.919529" changeset="false"><tag k="addr:street" v="Tara Lane"/><tag k="addr:housenumber" v="8808"/><tag k="addr:postcode" v="78737"/></node><node id="-71" lat="30.225193" lon="-97.92933" changeset="false"><tag k="addr:street" v="Flintrock Circle"/><tag k="addr:housenumber" v="9603"/><tag k="addr:postcode" v="78737"/></node><node id="-72" lat="30.219675" lon="-97.923111" changeset="false"><tag k="addr:street" v="Ramble Three Street"/><tag k="addr:housenumber" v="9909"/><tag k="addr:postcode" v="78737"/></node><node id="-73" lat="30.200318" lon="-97.927689" changeset="false"><tag k="addr:street" v="Zyle Lane"/><tag k="addr:housenumber" v="11305"/><tag k="addr:postcode" v="78737"/></node><node id="-74" lat="30.203" lon="-97.924803" changeset="false"><tag k="addr:street" v="Swelfling Terrace"/><tag k="addr:housenumber" v="11006"/><tag k="addr:postcode" v="78737"/></node><node id="-75" lat="30.202865" lon="-97.936814" changeset="false"><tag k="addr:street" v="Zyle Road"/><tag k="addr:housenumber" v="9431"/><tag k="addr:postcode" v="78737"/></node><node id="-76" lat="30.191168" lon="-97.92798" changeset="false"><tag k="addr:street" v="Sharl Cove"/><tag k="addr:housenumber" v="8317"/><tag k="addr:postcode" v="78737"/></node><node id="-77" lat="30.18822" lon="-97.930634" changeset="false"><tag k="addr:street" v="Appaloosa Run"/><tag k="addr:housenumber" v="8404"/><tag k="addr:postcode" v="78737"/></node><node id="-78" lat="30.192105" lon="-97.927506" changeset="false"><tag k="addr:street" v="Sharl Cove"/><tag k="addr:housenumber" v="8318"/><tag k="addr:postcode" v="78737"/></node><node id="-79" lat="30.200425" lon="-97.928565" changeset="false"><tag k="addr:street" v="Zyle Lane"/><tag k="addr:housenumber" v="11306"/><tag k="addr:postcode" v="78737"/></node><node id="-80" lat="30.198861" lon="-97.923929" changeset="false"><tag k="addr:street" v="Zyle Road"/><tag k="addr:housenumber" v="8403"/><tag k="addr:postcode" v="78737"/></node><node id="-81" lat="30.205643" lon="-97.933447" changeset="false"><tag k="addr:street" v="Zyle Road"/><tag k="addr:housenumber" v="9114"/><tag k="addr:postcode" v="78737"/></node><node id="-82" lat="30.216492" lon="-97.91019" changeset="false"><tag k="addr:street" v="El Dorado Drive"/><tag k="addr:housenumber" v="7741"/><tag k="addr:postcode" v="78737"/></node><node id="-83" lat="30.216215" lon="-97.90995" changeset="false"><tag k="addr:street" v="El Dorado Drive"/><tag k="addr:housenumber" v="7745"/><tag k="addr:postcode" v="78737"/></node><node id="-84" lat="30.221742" lon="-97.936763" changeset="false"><tag k="addr:street" v="Derecho Drive"/><tag k="addr:housenumber" v="10208"/><tag k="addr:postcode" v="78737"/></node><node id="-85" lat="30.220767" lon="-97.902862" changeset="false"><tag k="addr:street" v="El Dorado Drive"/><tag k="addr:housenumber" v="8013"/><tag k="addr:postcode" v="78737"/></node><node id="-86" lat="30.219086" lon="-97.9067" changeset="false"><tag k="addr:street" v="El Rey Boulevard"/><tag k="addr:housenumber" v="9301"/><tag k="addr:postcode" v="78737"/></node><node id="-87" lat="30.223925" lon="-97.942221" changeset="false"><tag k="addr:street" v="Oliver Drive"/><tag k="addr:housenumber" v="10229"/><tag k="addr:postcode" v="78737"/></node><node id="-88" lat="30.216734" lon="-97.937931" changeset="false"><tag k="addr:street" v="Derecho Drive"/><tag k="addr:housenumber" v="10601"/><tag k="addr:postcode" v="78737"/></node><node id="-89" lat="30.229398" lon="-97.92791" changeset="false"><tag k="addr:street" v="Ledgestone Terrace"/><tag k="addr:housenumber" v="9306"/><tag k="addr:postcode" v="78737"/></node><node id="-90" lat="30.206804" lon="-97.920297" changeset="false"><tag k="addr:street" v="La Plata Loop"/><tag k="addr:housenumber" v="8429"/><tag k="addr:postcode" v="78737"/></node><node id="-91" lat="30.214662" lon="-97.912602" changeset="false"><tag k="addr:street" v="Silver Mountain Drive"/><tag k="addr:housenumber" v="9901"/><tag k="addr:postcode" v="78737"/></node><node id="-92" lat="30.20054" lon="-97.927531" changeset="false"><tag k="addr:street" v="Zyle Road"/><tag k="addr:housenumber" v="8701"/><tag k="addr:postcode" v="78737"/></node><node id="-93" lat="30.222089" lon="-97.911073" changeset="false"><tag k="addr:street" v="San Diego Road"/><tag k="addr:housenumber" v="9102"/><tag k="addr:postcode" v="78737"/></node><node id="-94" lat="30.205277" lon="-97.913864" changeset="false"><tag k="addr:street" v="La Plata Cove"/><tag k="addr:housenumber" v="10600"/><tag k="addr:postcode" v="78737"/></node><node id="-95" lat="30.217616" lon="-97.900974" changeset="false"><tag k="addr:street" v="Granada Hills Drive"/><tag k="addr:housenumber" v="9202"/><tag k="addr:postcode" v="78737"/></node><node id="-96" lat="30.217357" lon="-97.910562" changeset="false"><tag k="addr:street" v="El Dorado Drive"/><tag k="addr:housenumber" v="7729"/><tag k="addr:postcode" v="78737"/></node><node id="-97" lat="30.211973" lon="-97.914215" changeset="false"><tag k="addr:street" v="Silver Mountain Cove"/><tag k="addr:housenumber" v="8317"/><tag k="addr:postcode" v="78737"/></node><node id="-98" lat="30.205868" lon="-97.935632" changeset="false"><tag k="addr:street" v="Zyle Road"/><tag k="addr:housenumber" v="9303"/><tag k="addr:postcode" v="78737"/></node><node id="-99" lat="30.193626" lon="-97.924577" changeset="false"><tag k="addr:street" v="Ranch to Market Road 1826"/><tag k="addr:housenumber" v="11700"/><tag k="addr:postcode" v="78737"/></node><node id="-100" lat="30.220418" lon="-97.894373" changeset="false"><tag k="addr:street" v="Gallant Fox Road"/><tag k="addr:housenumber" v="8801"/><tag k="addr:postcode" v="78737"/></node><node id="-101" lat="30.212969" lon="-97.916002" changeset="false"><tag k="addr:street" v="Silver Mountain Cove"/><tag k="addr:housenumber" v="8419"/><tag k="addr:postcode" v="78737"/></node><node id="-102" lat="30.202952" lon="-97.923962" changeset="false"><tag k="addr:street" v="Swelfling Terrace"/><tag k="addr:housenumber" v="11001"/><tag k="addr:postcode" v="78737"/></node><node id="-103" lat="30.219722" lon="-97.903873" changeset="false"><tag k="addr:street" v="El Rey Boulevard"/><tag k="addr:housenumber" v="9103"/><tag k="addr:postcode" v="78737"/></node><node id="-104" lat="30.206326" lon="-97.91287" changeset="false"><tag k="addr:street" v="Lewis Mountain Drive"/><tag k="addr:housenumber" v="8015"/><tag k="addr:postcode" v="78737"/></node><node id="-105" lat="30.216816" lon="-97.907811" changeset="false"><tag k="addr:street" v="San Diego Road"/><tag k="addr:housenumber" v="9512"/><tag k="addr:postcode" v="78737"/></node><node id="-106" lat="30.216785" lon="-97.910396" changeset="false"><tag k="addr:street" v="El Dorado Drive"/><tag k="addr:housenumber" v="7737"/><tag k="addr:postcode" v="78737"/></node><node id="-107" lat="30.216566" lon="-97.900155" changeset="false"><tag k="addr:street" v="Granada Hills Drive"/><tag k="addr:housenumber" v="9211"/><tag k="addr:postcode" v="78737"/></node><node id="-108" lat="30.212863" lon="-97.920527" changeset="false"><tag k="addr:street" v="Young Lane"/><tag k="addr:housenumber" v="8719"/><tag k="addr:postcode" v="78737"/></node><node id="-109" lat="30.208481" lon="-97.916909" changeset="false"><tag k="addr:street" v="Lewis Mountain Drive"/><tag k="addr:housenumber" v="8318"/><tag k="addr:postcode" v="78737"/></node><node id="-110" lat="30.2035" lon="-97.93048" changeset="false"><tag k="addr:street" v="Zyle Road"/><tag k="addr:housenumber" v="8904"/><tag k="addr:postcode" v="78737"/></node><node id="-111" lat="30.22913" lon="-97.915017" changeset="false"><tag k="addr:street" v="West View Road"/><tag k="addr:housenumber" v="8900"/><tag k="addr:postcode" v="78737"/></node><node id="-112" lat="30.223807" lon="-97.928992" changeset="false"><tag k="addr:street" v="Ledgestone Terrace"/><tag k="addr:housenumber" v="9913"/><tag k="addr:postcode" v="78737"/></node><node id="-113" lat="30.223028" lon="-97.931155" changeset="false"><tag k="addr:street" v="Ledgestone Terrace"/><tag k="addr:housenumber" v="9912"/><tag k="addr:postcode" v="78737"/></node><node id="-114" lat="30.219981" lon="-97.894585" changeset="false"><tag k="addr:street" v="Gallant Fox Road"/><tag k="addr:housenumber" v="8807"/><tag k="addr:postcode" v="78737"/></node><node id="-115" lat="30.222524" lon="-97.9277" changeset="false"><tag k="addr:street" v="Honeycomb Drive"/><tag k="addr:housenumber" v="9408"/><tag k="addr:postcode" v="78737"/></node><node id="-116" lat="30.223442" lon="-97.925168" changeset="false"><tag k="addr:street" v="Flintrock Circle"/><tag k="addr:housenumber" v="9401"/><tag k="addr:postcode" v="78737"/></node><node id="-117" lat="30.215153" lon="-97.897894" changeset="false"><tag k="addr:street" v="Gallant Fox Road"/><tag k="addr:housenumber" v="9208"/><tag k="addr:postcode" v="78737"/></node><node id="-118" lat="30.205109" lon="-97.918353" changeset="false"><tag k="addr:street" v="La Plata Loop"/><tag k="addr:housenumber" v="8324"/><tag k="addr:postcode" v="78737"/></node><node id="-119" lat="30.194815" lon="-97.924097" changeset="false"><tag k="addr:street" v="Ranch to Market Road 1826"/><tag k="addr:housenumber" v="11608"/><tag k="addr:postcode" v="78737"/></node><node id="-120" lat="30.211044" lon="-97.918402" changeset="false"><tag k="addr:street" v="Young Lane"/><tag k="addr:housenumber" v="8517"/><tag k="addr:postcode" v="78737"/></node><node id="-121" lat="30.226903" lon="-97.931525" changeset="false"><tag k="addr:street" v="Flintrock Circle"/><tag k="addr:housenumber" v="9801"/><tag k="addr:postcode" v="78737"/></node><node id="-122" lat="30.219698" lon="-97.93786" changeset="false"><tag k="addr:street" v="Derecho Drive"/><tag k="addr:housenumber" v="10408"/><tag k="addr:postcode" v="78737"/></node><node id="-123" lat="30.213053" lon="-97.913881" changeset="false"><tag k="addr:street" v="Silver Mountain Cove"/><tag k="addr:housenumber" v="8318"/><tag k="addr:postcode" v="78737"/></node><node id="-124" lat="30.211113" lon="-97.91856" changeset="false"><tag k="addr:street" v="Young Lane"/><tag k="addr:housenumber" v="8601"/><tag k="addr:postcode" v="78737"/></node><node id="-125" lat="30.220187" lon="-97.90357" changeset="false"><tag k="addr:street" v="El Rey Boulevard"/><tag k="addr:housenumber" v="9101"/><tag k="addr:postcode" v="78737"/></node><node id="-126" lat="30.217093" lon="-97.910428" changeset="false"><tag k="addr:street" v="El Dorado Drive"/><tag k="addr:housenumber" v="7733"/><tag k="addr:postcode" v="78737"/></node><node id="-127" lat="30.210565" lon="-97.916842" changeset="false"><tag k="addr:street" v="Young Lane"/><tag k="addr:housenumber" v="8501"/><tag k="addr:postcode" v="78737"/></node><node id="-128" lat="30.192702" lon="-97.925302" changeset="false"><tag k="addr:street" v="Ranch to Market Road 1826"/><tag k="addr:housenumber" v="11720"/><tag k="addr:postcode" v="78737"/></node><node id="-129" lat="30.227714" lon="-97.936547" changeset="false"><tag k="addr:street" v="Derecho Drive"/><tag k="addr:housenumber" v="9805"/><tag k="addr:postcode" v="78737"/></node><node id="-130" lat="30.225144" lon="-97.930935" changeset="false"><tag k="addr:street" v="Ledgestone Terrace"/><tag k="addr:housenumber" v="9720"/><tag k="addr:postcode" v="78737"/></node><node id="-131" lat="30.19913" lon="-97.921417" changeset="false"><tag k="addr:street" v="Ranch to Market Road 1826"/><tag k="addr:housenumber" v="11204"/><tag k="addr:postcode" v="78737"/></node><node id="-132" lat="30.223928" lon="-97.926098" changeset="false"><tag k="addr:street" v="Flintrock Circle"/><tag k="addr:housenumber" v="9405"/><tag k="addr:postcode" v="78737"/></node><node id="-133" lat="30.222501" lon="-97.926483" changeset="false"><tag k="addr:street" v="Honeycomb Drive"/><tag k="addr:housenumber" v="9402"/><tag k="addr:postcode" v="78737"/></node><node id="-134" lat="30.226839" lon="-97.915739" changeset="false"><tag k="addr:street" v="West View Road"/><tag k="addr:housenumber" v="9103"/><tag k="addr:postcode" v="78737"/></node><node id="-135" lat="30.214493" lon="-97.901524" changeset="false"><tag k="addr:street" v="Granada Hills Drive"/><tag k="addr:housenumber" v="9409"/><tag k="addr:postcode" v="78737"/></node><node id="-136" lat="30.214418" lon="-97.907096" changeset="false"><tag k="addr:street" v="El Dorado Drive"/><tag k="addr:housenumber" v="7829"/><tag k="addr:postcode" v="78737"/></node><node id="-137" lat="30.214218" lon="-97.905436" changeset="false"><tag k="addr:street" v="El Dorado Drive"/><tag k="addr:housenumber" v="7850"/><tag k="addr:postcode" v="78737"/></node><node id="-138" lat="30.190324" lon="-97.927683" changeset="false"><tag k="addr:street" v="Ranch to Market Road 1826"/><tag k="addr:housenumber" v="11918"/><tag k="addr:postcode" v="78737"/></node><node id="-139" lat="30.201863" lon="-97.930737" changeset="false"><tag k="addr:street" v="Zyle Road"/><tag k="addr:housenumber" v="8821"/><tag k="addr:postcode" v="78737"/></node><node id="-140" lat="30.202173" lon="-97.92206" changeset="false"><tag k="addr:street" v="Blazyk Drive"/><tag k="addr:housenumber" v="8411"/><tag k="addr:postcode" v="78737"/></node><node id="-141" lat="30.219266" lon="-97.909391" changeset="false"><tag k="addr:street" v="El Rey Boulevard"/><tag k="addr:housenumber" v="9403"/><tag k="addr:postcode" v="78737"/></node><node id="-142" lat="30.219068" lon="-97.907242" changeset="false"><tag k="addr:street" v="El Rey Boulevard"/><tag k="addr:housenumber" v="9303"/><tag k="addr:postcode" v="78737"/></node><node id="-143" lat="30.223565" lon="-97.913805" changeset="false"><tag k="addr:street" v="San Diego Road"/><tag k="addr:housenumber" v="9002"/><tag k="addr:postcode" v="78737"/></node><node id="-144" lat="30.217902" lon="-97.908251" changeset="false"><tag k="addr:street" v="San Diego Road"/><tag k="addr:housenumber" v="9505"/><tag k="addr:postcode" v="78737"/></node><node id="-145" lat="30.185465" lon="-97.931104" changeset="false"><tag k="addr:street" v="Appaloosa Run"/><tag k="addr:housenumber" v="8303"/><tag k="addr:postcode" v="78737"/></node><node id="-146" lat="30.20604" lon="-97.920775" changeset="false"><tag k="addr:street" v="La Plata Loop"/><tag k="addr:housenumber" v="8421"/><tag k="addr:postcode" v="78737"/></node><node id="-147" lat="30.218446" lon="-97.908058" changeset="false"><tag k="addr:street" v="San Diego Road"/><tag k="addr:housenumber" v="9405"/><tag k="addr:postcode" v="78737"/></node><node id="-148" lat="30.221747" lon="-97.914246" changeset="false"><tag k="addr:street" v="El Rey Boulevard"/><tag k="addr:housenumber" v="9451"/><tag k="addr:postcode" v="78737"/></node><node id="-149" lat="30.224331" lon="-97.934522" changeset="false"><tag k="addr:street" v="Derecho Bend"/><tag k="addr:housenumber" v="9909"/><tag k="addr:postcode" v="78737"/></node><node id="-150" lat="30.223672" lon="-97.936982" changeset="false"><tag k="addr:street" v="Clemente Circle"/><tag k="addr:housenumber" v="10217"/><tag k="addr:postcode" v="78737"/></node><node id="-151" lat="30.204031" lon="-97.931346" changeset="false"><tag k="addr:street" v="Zyle Road"/><tag k="addr:housenumber" v="9004"/><tag k="addr:postcode" v="78737"/></node><node id="-152" lat="30.217604" lon="-97.910789" changeset="false"><tag k="addr:street" v="El Dorado Drive"/><tag k="addr:housenumber" v="7725"/><tag k="addr:postcode" v="78737"/></node><node id="-153" lat="30.217415" lon="-97.912168" changeset="false"><tag k="addr:street" v="El Dorado Drive"/><tag k="addr:housenumber" v="7732"/><tag k="addr:postcode" v="78737"/></node><node id="-154" lat="30.217201" lon="-97.905045" changeset="false"><tag k="addr:street" v="El Dorado Drive"/><tag k="addr:housenumber" v="7919"/><tag k="addr:postcode" v="78737"/></node><node id="-155" lat="30.216641" lon="-97.905419" changeset="false"><tag k="addr:street" v="El Dorado Drive"/><tag k="addr:housenumber" v="7911"/><tag k="addr:postcode" v="78737"/></node><node id="-156" lat="30.203719" lon="-97.932895" changeset="false"><tag k="addr:street" v="Zyle Road"/><tag k="addr:housenumber" v="9103"/><tag k="addr:postcode" v="78737"/></node><node id="-157" lat="30.218201" lon="-97.912277" changeset="false"><tag k="addr:street" v="El Dorado Drive"/><tag k="addr:housenumber" v="7724"/><tag k="addr:postcode" v="78737"/></node><node id="-158" lat="30.218273" lon="-97.904451" changeset="false"><tag k="addr:street" v="San Juan Pass"/><tag k="addr:housenumber" v="9303"/><tag k="addr:postcode" v="78737"/></node><node id="-159" lat="30.229035" lon="-97.91234" changeset="false"><tag k="addr:street" v="Feather Hill Road"/><tag k="addr:housenumber" v="8800"/><tag k="addr:postcode" v="78737"/></node><node id="-160" lat="30.190367" lon="-97.931026" changeset="false"><tag k="addr:street" v="Appaloosa Run"/><tag k="addr:housenumber" v="8504"/><tag k="addr:postcode" v="78737"/></node><node id="-161" lat="30.200043" lon="-97.927837" changeset="false"><tag k="addr:street" v="Zyle Lane"/><tag k="addr:housenumber" v="11307"/><tag k="addr:postcode" v="78737"/></node><node id="-162" lat="30.207475" lon="-97.916762" changeset="false"><tag k="addr:street" v="Lewis Mountain Drive"/><tag k="addr:housenumber" v="8314"/><tag k="addr:postcode" v="78737"/></node><node id="-163" lat="30.205706" lon="-97.911973" changeset="false"><tag k="addr:street" v="Lewis Mountain Drive"/><tag k="addr:housenumber" v="8001"/><tag k="addr:postcode" v="78737"/></node><node id="-164" lat="30.211571" lon="-97.917696" changeset="false"><tag k="addr:street" v="Young Lane"/><tag k="addr:housenumber" v="8512"/><tag k="addr:postcode" v="78737"/></node><node id="-165" lat="30.203384" lon="-97.922259" changeset="false"><tag k="addr:street" v="Blazyk Drive"/><tag k="addr:housenumber" v="8422"/><tag k="addr:postcode" v="78737"/></node><node id="-166" lat="30.215254" lon="-97.901023" changeset="false"><tag k="addr:street" v="Granada Hills Drive"/><tag k="addr:housenumber" v="9403"/><tag k="addr:postcode" v="78737"/></node><node id="-167" lat="30.206052" lon="-97.912512" changeset="false"><tag k="addr:street" v="Lewis Mountain Drive"/><tag k="addr:housenumber" v="8007"/><tag k="addr:postcode" v="78737"/></node><node id="-168" lat="30.207411" lon="-97.919652" changeset="false"><tag k="addr:street" v="Lewis Mountain Drive"/><tag k="addr:housenumber" v="8503"/><tag k="addr:postcode" v="78737"/></node><node id="-169" lat="30.201967" lon="-97.937032" changeset="false"><tag k="addr:street" v="Zyle Road"/><tag k="addr:housenumber" v="9434"/><tag k="addr:postcode" v="78737"/></node><node id="-170" lat="30.22661" lon="-97.918763" changeset="false"><tag k="addr:street" v="Tara Lane"/><tag k="addr:housenumber" v="9200"/><tag k="addr:postcode" v="78737"/></node><node id="-171" lat="30.194283" lon="-97.930861" changeset="false"><tag k="addr:street" v="Jess Drive"/><tag k="addr:housenumber" v="11803"/><tag k="addr:postcode" v="78737"/></node><node id="-172" lat="30.213434" lon="-97.921912" changeset="false"><tag k="addr:street" v="Young Lane"/><tag k="addr:housenumber" v="8815"/><tag k="addr:postcode" v="78737"/></node><node id="-173" lat="30.185273" lon="-97.930243" changeset="false"><tag k="addr:street" v="Appaloosa Run"/><tag k="addr:housenumber" v="8211"/><tag k="addr:postcode" v="78737"/></node><node id="-174" lat="30.196275" lon="-97.922852" changeset="false"><tag k="addr:street" v="Ranch to Market Road 1826"/><tag k="addr:housenumber" v="11410"/><tag k="addr:postcode" v="78737"/></node><node id="-175" lat="30.212374" lon="-97.915076" changeset="false"><tag k="addr:street" v="Silver Mountain Cove"/><tag k="addr:housenumber" v="8409"/><tag k="addr:postcode" v="78737"/></node><node id="-176" lat="30.228999" lon="-97.916842" changeset="false"><tag k="addr:street" v="Tara Lane"/><tag k="addr:housenumber" v="9001"/><tag k="addr:postcode" v="78737"/></node><node id="-177" lat="30.207157" lon="-97.918718" changeset="false"><tag k="addr:street" v="La Plata Loop"/><tag k="addr:housenumber" v="8422"/><tag k="addr:postcode" v="78737"/></node><node id="-178" lat="30.206224" lon="-97.936551" changeset="false"><tag k="addr:street" v="Zyle Road"/><tag k="addr:housenumber" v="9309"/><tag k="addr:postcode" v="78737"/></node><node id="-179" lat="30.205567" lon="-97.937584" changeset="false"><tag k="addr:street" v="Zyle Road"/><tag k="addr:housenumber" v="9405"/><tag k="addr:postcode" v="78737"/></node><node id="-180" lat="30.204462" lon="-97.919779" changeset="false"><tag k="addr:street" v="La Plata Loop"/><tag k="addr:housenumber" v="8402"/><tag k="addr:postcode" v="78737"/></node><node id="-181" lat="30.220348" lon="-97.914156" changeset="false"><tag k="addr:street" v="Vera Cruz Road"/><tag k="addr:housenumber" v="9504"/><tag k="addr:postcode" v="78737"/></node><node id="-182" lat="30.217337" lon="-97.897437" changeset="false"><tag k="addr:street" v="Gallant Fox Road"/><tag k="addr:housenumber" v="9008"/><tag k="addr:postcode" v="78737"/></node><node id="-183" lat="30.219905" lon="-97.914296" changeset="false"><tag k="addr:street" v="Vera Cruz Road"/><tag k="addr:housenumber" v="9508"/><tag k="addr:postcode" v="78737"/></node><node id="-184" lat="30.220663" lon="-97.914074" changeset="false"><tag k="addr:street" v="Vera Cruz Road"/><tag k="addr:housenumber" v="9500"/><tag k="addr:postcode" v="78737"/></node><node id="-185" lat="30.221687" lon="-97.901157" changeset="false"><tag k="addr:street" v="Espanola Trail"/><tag k="addr:housenumber" v="7903"/><tag k="addr:postcode" v="78737"/></node><node id="-186" lat="30.226664" lon="-97.932466" changeset="false"><tag k="addr:street" v="Peakridge Drive"/><tag k="addr:housenumber" v="9808"/><tag k="addr:postcode" v="78737"/></node><node id="-187" lat="30.214048" lon="-97.923371" changeset="false"><tag k="addr:street" v="Young Lane"/><tag k="addr:housenumber" v="8909"/><tag k="addr:postcode" v="78737"/></node><node id="-188" lat="30.221747" lon="-97.910437" changeset="false"><tag k="addr:street" v="San Diego Road"/><tag k="addr:housenumber" v="9106"/><tag k="addr:postcode" v="78737"/></node><node id="-189" lat="30.216667" lon="-97.911897" changeset="false"><tag k="addr:street" v="El Dorado Drive"/><tag k="addr:housenumber" v="7740"/><tag k="addr:postcode" v="78737"/></node><node id="-190" lat="30.20811" lon="-97.936679" changeset="false"><tag k="addr:street" v="Morningstar Circle"/><tag k="addr:housenumber" v="11200"/><tag k="addr:postcode" v="78737"/></node><node id="-191" lat="30.213817" lon="-97.915752" changeset="false"><tag k="addr:street" v="Silver Mountain Cove"/><tag k="addr:housenumber" v="8420"/><tag k="addr:postcode" v="78737"/></node><node id="-192" lat="30.200907" lon="-97.928287" changeset="false"><tag k="addr:street" v="Zyle Road"/><tag k="addr:housenumber" v="8705"/><tag k="addr:postcode" v="78737"/></node><node id="-193" lat="30.22355" lon="-97.935376" changeset="false"><tag k="addr:street" v="Derecho Bend"/><tag k="addr:housenumber" v="9916"/><tag k="addr:postcode" v="78737"/></node><node id="-194" lat="30.219621" lon="-97.911605" changeset="false"><tag k="addr:street" v="El Dorado Drive"/><tag k="addr:housenumber" v="7708"/><tag k="addr:postcode" v="78737"/></node><node id="-195" lat="30.215358" lon="-97.904925" changeset="false"><tag k="addr:street" v="El Dorado Drive"/><tag k="addr:housenumber" v="7866"/><tag k="addr:postcode" v="78737"/></node><node id="-196" lat="30.231208" lon="-97.9186" changeset="false"><tag k="addr:street" v="Butler Circle"/><tag k="addr:housenumber" v="8900"/><tag k="addr:postcode" v="78737"/></node><node id="-197" lat="30.207317" lon="-97.937488" changeset="false"><tag k="addr:street" v="Morningstar Circle"/><tag k="addr:housenumber" v="11208"/><tag k="addr:postcode" v="78737"/></node><node id="-198" lat="30.219737" lon="-97.917961" changeset="false"><tag k="addr:street" v="Honeycomb Drive"/><tag k="addr:housenumber" v="8818"/><tag k="addr:postcode" v="78737"/></node><node id="-199" lat="30.207583" lon="-97.915349" changeset="false"><tag k="addr:street" v="Lewis Mountain Drive"/><tag k="addr:housenumber" v="8302"/><tag k="addr:postcode" v="78737"/></node><node id="-200" lat="30.205616" lon="-97.915141" changeset="false"><tag k="addr:street" v="La Plata Cove"/><tag k="addr:housenumber" v="10612"/><tag k="addr:postcode" v="78737"/></node><node id="-201" lat="30.199997" lon="-97.920429" changeset="false"><tag k="addr:street" v="Blazyk Drive"/><tag k="addr:housenumber" v="8301"/><tag k="addr:postcode" v="78737"/></node><node id="-202" lat="30.219511" lon="-97.92705" changeset="false"><tag k="addr:street" v="Sandstone Street"/><tag k="addr:housenumber" v="9300"/><tag k="addr:postcode" v="78737"/></node><node id="-203" lat="30.219384" lon="-97.902982" changeset="false"><tag k="addr:street" v="El Dorado Drive"/><tag k="addr:housenumber" v="8003"/><tag k="addr:postcode" v="78737"/></node><node id="-204" lat="30.213822" lon="-97.912591" changeset="false"><tag k="addr:street" v="Silver Mountain Drive"/><tag k="addr:housenumber" v="10001"/><tag k="addr:postcode" v="78737"/></node><node id="-205" lat="30.219515" lon="-97.913302" changeset="false"><tag k="addr:street" v="Vera Cruz Road"/><tag k="addr:housenumber" v="9507"/><tag k="addr:postcode" v="78737"/></node><node id="-206" lat="30.219828" lon="-97.902774" changeset="false"><tag k="addr:street" v="El Dorado Drive"/><tag k="addr:housenumber" v="8007"/><tag k="addr:postcode" v="78737"/></node><node id="-207" lat="30.226872" lon="-97.936229" changeset="false"><tag k="addr:street" v="Derecho Drive"/><tag k="addr:housenumber" v="9925"/><tag k="addr:postcode" v="78737"/></node><node id="-208" lat="30.214986" lon="-97.904895" changeset="false"><tag k="addr:street" v="El Dorado Drive"/><tag k="addr:housenumber" v="7862"/><tag k="addr:postcode" v="78737"/></node><node id="-209" lat="30.21448" lon="-97.906167" changeset="false"><tag k="addr:street" v="El Dorado Drive"/><tag k="addr:housenumber" v="7843"/><tag k="addr:postcode" v="78737"/></node><node id="-210" lat="30.224545" lon="-97.939059" changeset="false"><tag k="addr:street" v="Clemente Circle"/><tag k="addr:housenumber" v="10106"/><tag k="addr:postcode" v="78737"/></node><node id="-211" lat="30.204894" lon="-97.92139" changeset="false"><tag k="addr:street" v="La Plata Loop"/><tag k="addr:housenumber" v="8411"/><tag k="addr:postcode" v="78737"/></node><node id="-212" lat="30.190533" lon="-97.936512" changeset="false"><tag k="addr:street" v="Trailmaster Drive"/><tag k="addr:housenumber" v="12206"/><tag k="addr:postcode" v="78737"/></node><node id="-213" lat="30.202509" lon="-97.928959" changeset="false"><tag k="addr:street" v="Zyle Road"/><tag k="addr:housenumber" v="8804"/><tag k="addr:postcode" v="78737"/></node><node id="-214" lat="30.220474" lon="-97.900004" changeset="false"><tag k="addr:street" v="Espanola Trail"/><tag k="addr:housenumber" v="7801"/><tag k="addr:postcode" v="78737"/></node><node id="-215" lat="30.220824" lon="-97.910629" changeset="false"><tag k="addr:street" v="El Rey Boulevard"/><tag k="addr:housenumber" v="9420"/><tag k="addr:postcode" v="78737"/></node><node id="-216" lat="30.212972" lon="-97.913386" changeset="false"><tag k="addr:street" v="Silver Mountain Cove"/><tag k="addr:housenumber" v="8310"/><tag k="addr:postcode" v="78737"/></node><node id="-217" lat="30.217881" lon="-97.902374" changeset="false"><tag k="addr:street" v="El Dorado Drive"/><tag k="addr:housenumber" v="7932"/><tag k="addr:postcode" v="78737"/></node><node id="-218" lat="30.217357" lon="-97.901131" changeset="false"><tag k="addr:street" v="Granada Hills Drive"/><tag k="addr:housenumber" v="9206"/><tag k="addr:postcode" v="78737"/></node><node id="-219" lat="30.191686" lon="-97.934776" changeset="false"><tag k="addr:street" v="Appaloosa Run"/><tag k="addr:housenumber" v="8709"/><tag k="addr:postcode" v="78737"/></node><node id="-220" lat="30.213898" lon="-97.907825" changeset="false"><tag k="addr:street" v="El Dorado Drive"/><tag k="addr:housenumber" v="7824"/><tag k="addr:postcode" v="78737"/></node><node id="-221" lat="30.218723" lon="-97.898451" changeset="false"><tag k="addr:street" v="Adobe Trail"/><tag k="addr:housenumber" v="7801"/><tag k="addr:postcode" v="78737"/></node><node id="-222" lat="30.218647" lon="-97.904437" changeset="false"><tag k="addr:street" v="San Juan Pass"/><tag k="addr:housenumber" v="9301"/><tag k="addr:postcode" v="78737"/></node><node id="-223" lat="30.209773" lon="-97.903762" changeset="false"><tag k="addr:street" v="Ranch to Market Road 1826"/><tag k="addr:housenumber" v="9930"/><tag k="addr:postcode" v="78737"/></node><node id="-224" lat="30.224733" lon="-97.936347" changeset="false"><tag k="addr:street" v="Clemente Circle"/><tag k="addr:housenumber" v="10001"/><tag k="addr:postcode" v="78737"/></node><node id="-225" lat="30.227581" lon="-97.916013" changeset="false"><tag k="addr:street" v="West View Road"/><tag k="addr:housenumber" v="9002"/><tag k="addr:postcode" v="78737"/></node><node id="-226" lat="30.204608" lon="-97.915823" changeset="false"><tag k="addr:street" v="La Plata Loop"/><tag k="addr:housenumber" v="8315"/><tag k="addr:postcode" v="78737"/></node><node id="-227" lat="30.213729" lon="-97.922651" changeset="false"><tag k="addr:street" v="Young Lane"/><tag k="addr:housenumber" v="8901"/><tag k="addr:postcode" v="78737"/></node><node id="-228" lat="30.217647" lon="-97.952208" changeset="false"><tag k="addr:street" v="Spring Valley Road"/><tag k="addr:housenumber" v="10617"/><tag k="addr:postcode" v="78737"/></node><node id="-229" lat="30.217041" lon="-97.95369" changeset="false"><tag k="addr:street" v="Friar Villa Drive"/><tag k="addr:housenumber" v="11109"/><tag k="addr:postcode" v="78737"/></node><node id="-230" lat="30.21868" lon="-97.895362" changeset="false"><tag k="addr:street" v="Gallant Fox Road"/><tag k="addr:housenumber" v="8905"/><tag k="addr:postcode" v="78737"/></node><node id="-231" lat="30.221311" lon="-97.909463" changeset="false"><tag k="addr:street" v="San Diego Road"/><tag k="addr:housenumber" v="9200"/><tag k="addr:postcode" v="78737"/></node><node id="-232" lat="30.216031" lon="-97.903833" changeset="false"><tag k="addr:street" v="El Dorado Drive"/><tag k="addr:housenumber" v="7910"/><tag k="addr:postcode" v="78737"/></node><node id="-233" lat="30.200901" lon="-97.946963" changeset="false"><tag k="addr:street" v="Jim Bridger Drive"/><tag k="addr:housenumber" v="11913"/><tag k="addr:postcode" v="78737"/></node><node id="-234" lat="30.224252" lon="-97.927191" changeset="false"><tag k="addr:street" v="Flintrock Circle"/><tag k="addr:housenumber" v="9503"/><tag k="addr:postcode" v="78737"/></node><node id="-235" lat="30.222445" lon="-97.925955" changeset="false"><tag k="addr:street" v="Honeycomb Drive"/><tag k="addr:housenumber" v="9310"/><tag k="addr:postcode" v="78737"/></node><node id="-236" lat="30.229667" lon="-97.916375" changeset="false"><tag k="addr:street" v="Tara Lane"/><tag k="addr:housenumber" v="8907"/><tag k="addr:postcode" v="78737"/></node><node id="-237" lat="30.224606" lon="-97.938463" changeset="false"><tag k="addr:street" v="Clemente Circle"/><tag k="addr:housenumber" v="10035"/><tag k="addr:postcode" v="78737"/></node><node id="-238" lat="30.204914" lon="-97.918825" changeset="false"><tag k="addr:street" v="La Plata Loop"/><tag k="addr:housenumber" v="8328"/><tag k="addr:postcode" v="78737"/></node><node id="-239" lat="30.203384" lon="-97.937322" changeset="false"><tag k="addr:street" v="Zyle Road"/><tag k="addr:housenumber" v="9425"/><tag k="addr:postcode" v="78737"/></node><node id="-240" lat="30.22474" lon="-97.931244" changeset="false"><tag k="addr:street" v="Ledgestone Terrace"/><tag k="addr:housenumber" v="9724"/><tag k="addr:postcode" v="78737"/></node><node id="-241" lat="30.197497" lon="-97.923905" changeset="false"><tag k="addr:street" v="Ranch to Market Road 1826"/><tag k="addr:housenumber" v="11408"/><tag k="addr:postcode" v="78737"/></node><node id="-242" lat="30.22325" lon="-97.929629" changeset="false"><tag k="addr:street" v="Ledgestone Terrace"/><tag k="addr:housenumber" v="9920"/><tag k="addr:postcode" v="78737"/></node><node id="-243" lat="30.214386" lon="-97.899193" changeset="false"><tag k="addr:street" v="Bella Vista Trail"/><tag k="addr:housenumber" v="7611"/><tag k="addr:postcode" v="78737"/></node><node id="-244" lat="30.216065" lon="-97.909587" changeset="false"><tag k="addr:street" v="El Dorado Drive"/><tag k="addr:housenumber" v="7749"/><tag k="addr:postcode" v="78737"/></node><node id="-245" lat="30.223243" lon="-97.93329" changeset="false"><tag k="addr:street" v="Derecho Bend"/><tag k="addr:housenumber" v="9800"/><tag k="addr:postcode" v="78737"/></node><node id="-246" lat="30.200374" lon="-97.92476" changeset="false"><tag k="addr:street" v="Zyle Road"/><tag k="addr:housenumber" v="8502"/><tag k="addr:postcode" v="78737"/></node><node id="-247" lat="30.217368" lon="-97.896415" changeset="false"><tag k="addr:street" v="Gallant Fox Road"/><tag k="addr:housenumber" v="9005 1/2"/><tag k="addr:postcode" v="78737"/></node><node id="-248" lat="30.219046" lon="-97.917696" changeset="false"><tag k="addr:street" v="Honeycomb Drive"/><tag k="addr:housenumber" v="8811"/><tag k="addr:postcode" v="78737"/></node><node id="-249" lat="30.190596" lon="-97.933107" changeset="false"><tag k="addr:street" v="Appaloosa Run"/><tag k="addr:housenumber" v="8603"/><tag k="addr:postcode" v="78737"/></node><node id="-250" lat="30.191891" lon="-97.933673" changeset="false"><tag k="addr:street" v="Jess Drive"/><tag k="addr:housenumber" v="12006"/><tag k="addr:postcode" v="78737"/></node><node id="-251" lat="30.213536" lon="-97.906139" changeset="false"><tag k="addr:street" v="El Dorado Drive"/><tag k="addr:housenumber" v="7842"/><tag k="addr:postcode" v="78737"/></node><node id="-252" lat="30.191727" lon="-97.928597" changeset="false"><tag k="addr:street" v="Sharl Cove"/><tag k="addr:housenumber" v="8323"/><tag k="addr:postcode" v="78737"/></node><node id="-253" lat="30.197308" lon="-97.949239" changeset="false"><tag k="addr:street" v="Davy Crockett Drive"/><tag k="addr:housenumber" v="10114"/><tag k="addr:postcode" v="78737"/></node><node id="-254" lat="30.203036" lon="-97.932136" changeset="false"><tag k="addr:street" v="Zyle Road"/><tag k="addr:housenumber" v="9007"/><tag k="addr:postcode" v="78737"/></node><node id="-255" lat="30.192973" lon="-97.935278" changeset="false"><tag k="addr:street" v="Appaloosa Run"/><tag k="addr:housenumber" v="8800"/><tag k="addr:postcode" v="78737"/></node><node id="-256" lat="30.204522" lon="-97.91818" changeset="false"><tag k="addr:street" v="La Plata Loop"/><tag k="addr:housenumber" v="8324 1/2"/><tag k="addr:postcode" v="78737"/></node><node id="-257" lat="30.205838" lon="-97.916894" changeset="false"><tag k="addr:street" v="La Plata Loop"/><tag k="addr:housenumber" v="8308"/><tag k="addr:postcode" v="78737"/></node><node id="-258" lat="30.213013" lon="-97.921238" changeset="false"><tag k="addr:street" v="Young Lane"/><tag k="addr:housenumber" v="8801"/><tag k="addr:postcode" v="78737"/></node><node id="-259" lat="30.206343" lon="-97.938219" changeset="false"><tag k="addr:street" v="Zyle Road"/><tag k="addr:housenumber" v="9404"/><tag k="addr:postcode" v="78737"/></node><node id="-260" lat="30.218227" lon="-97.916084" changeset="false"><tag k="addr:street" v="Honeycomb Drive"/><tag k="addr:housenumber" v="8801"/><tag k="addr:postcode" v="78737"/></node><node id="-261" lat="30.205948" lon="-97.93386" changeset="false"><tag k="addr:street" v="Zyle Road"/><tag k="addr:housenumber" v="9202"/><tag k="addr:postcode" v="78737"/></node><node id="-262" lat="30.201275" lon="-97.926355" changeset="false"><tag k="addr:street" v="Zyle Road"/><tag k="addr:housenumber" v="8604"/><tag k="addr:postcode" v="78737"/></node><node id="-263" lat="30.201028" lon="-97.929174" changeset="false"><tag k="addr:street" v="Zyle Road"/><tag k="addr:housenumber" v="8709"/><tag k="addr:postcode" v="78737"/></node><node id="-264" lat="30.216853" lon="-97.903276" changeset="false"><tag k="addr:street" v="El Dorado Drive"/><tag k="addr:housenumber" v="7922"/><tag k="addr:postcode" v="78737"/></node><node id="-265" lat="30.216489" lon="-97.901614" changeset="false"><tag k="addr:street" v="Granada Hills Drive"/><tag k="addr:housenumber" v="9306"/><tag k="addr:postcode" v="78737"/></node><node id="-266" lat="30.216332" lon="-97.905484" changeset="false"><tag k="addr:street" v="El Dorado Drive"/><tag k="addr:housenumber" v="7907"/><tag k="addr:postcode" v="78737"/></node><node id="-267" lat="30.21584" lon="-97.901891" changeset="false"><tag k="addr:street" v="Granada Hills Drive"/><tag k="addr:housenumber" v="9314"/><tag k="addr:postcode" v="78737"/></node><node id="-268" lat="30.215592" lon="-97.911289" changeset="false"><tag k="addr:street" v="El Dorado Drive"/><tag k="addr:housenumber" v="7752"/><tag k="addr:postcode" v="78737"/></node><node id="-269" lat="30.215326" lon="-97.902212" changeset="false"><tag k="addr:street" v="Granada Hills Drive"/><tag k="addr:housenumber" v="9406"/><tag k="addr:postcode" v="78737"/></node><node id="-270" lat="30.203682" lon="-97.923321" changeset="false"><tag k="addr:street" v="Blazyk Drive"/><tag k="addr:housenumber" v="8510"/><tag k="addr:postcode" v="78737"/></node><node id="-271" lat="30.197554" lon="-97.922417" changeset="false"><tag k="addr:street" v="Ranch to Market Road 1826"/><tag k="addr:housenumber" v="11310"/><tag k="addr:postcode" v="78737"/></node><node id="-272" lat="30.207707" lon="-97.920033" changeset="false"><tag k="addr:street" v="Lewis Mountain Drive"/><tag k="addr:housenumber" v="8507"/><tag k="addr:postcode" v="78737"/></node><node id="-273" lat="30.227988" lon="-97.916853" changeset="false"><tag k="addr:street" v="Tara Lane"/><tag k="addr:housenumber" v="9101"/><tag k="addr:postcode" v="78737"/></node><node id="-274" lat="30.214727" lon="-97.915031" changeset="false"><tag k="addr:street" v="Kali Cove"/><tag k="addr:housenumber" v="8419"/><tag k="addr:postcode" v="78737"/></node><node id="-275" lat="30.210129" lon="-97.914477" changeset="false"><tag k="addr:street" v="Young Lane"/><tag k="addr:housenumber" v="8311"/><tag k="addr:postcode" v="78737"/></node><node id="-276" lat="30.209678" lon="-97.902494" changeset="false"><tag k="addr:street" v="Ranch to Market Road 1826"/><tag k="addr:housenumber" v="9920"/><tag k="addr:postcode" v="78737"/></node><node id="-277" lat="30.207731" lon="-97.91455" changeset="false"><tag k="addr:street" v="Lewis Mountain Drive"/><tag k="addr:housenumber" v="8206"/><tag k="addr:postcode" v="78737"/></node><node id="-278" lat="30.217847" lon="-97.897362" changeset="false"><tag k="addr:street" v="Gallant Fox Road"/><tag k="addr:housenumber" v="9004"/><tag k="addr:postcode" v="78737"/></node><node id="-279" lat="30.214718" lon="-97.905987" changeset="false"><tag k="addr:street" v="El Dorado Drive"/><tag k="addr:housenumber" v="7847"/><tag k="addr:postcode" v="78737"/></node><node id="-280" lat="30.21938" lon="-97.904253" changeset="false"><tag k="addr:street" v="San Juan Pass"/><tag k="addr:housenumber" v="9201"/><tag k="addr:postcode" v="78737"/></node><node id="-281" lat="30.211254" lon="-97.898911" changeset="false"><tag k="addr:street" v="Ranch to Market Road 1826"/><tag k="addr:housenumber" v="9610"/><tag k="addr:postcode" v="78737"/></node><node id="-282" lat="30.217167" lon="-97.899811" changeset="false"><tag k="addr:street" v="Granada Hills Drive"/><tag k="addr:housenumber" v="9203"/><tag k="addr:postcode" v="78737"/></node><node id="-283" lat="30.216345" lon="-97.900582" changeset="false"><tag k="addr:street" v="Granada Hills Drive"/><tag k="addr:housenumber" v="9303"/><tag k="addr:postcode" v="78737"/></node><node id="-284" lat="30.204881" lon="-97.913983" changeset="false"><tag k="addr:street" v="La Plata Cove"/><tag k="addr:housenumber" v="10601"/><tag k="addr:postcode" v="78737"/></node><node id="-285" lat="30.194037" lon="-97.924769" changeset="false"><tag k="addr:street" v="Ranch to Market Road 1826"/><tag k="addr:housenumber" v="11612"/><tag k="addr:postcode" v="78737"/></node><node id="-286" lat="30.202335" lon="-97.931407" changeset="false"><tag k="addr:street" v="Midmorning Drive"/><tag k="addr:housenumber" v="11301"/><tag k="addr:postcode" v="78737"/></node><node id="-287" lat="30.20111" lon="-97.921385" changeset="false"><tag k="addr:street" v="Aldenburgh Court"/><tag k="addr:housenumber" v="11101"/><tag k="addr:postcode" v="78737"/></node><node id="-288" lat="30.202502" lon="-97.925197" changeset="false"><tag k="addr:street" v="Swelfling Terrace"/><tag k="addr:housenumber" v="11012"/><tag k="addr:postcode" v="78737"/></node><node id="-289" lat="30.2134" lon="-97.91597" changeset="false"><tag k="addr:street" v="Silver Mountain Cove"/><tag k="addr:housenumber" v="8424"/><tag k="addr:postcode" v="78737"/></node><node id="-290" lat="30.211699" lon="-97.898818" changeset="false"><tag k="addr:street" v="Ranch to Market Road 1826"/><tag k="addr:housenumber" v="9604"/><tag k="addr:postcode" v="78737"/></node><node id="-291" lat="30.200865" lon="-97.925474" changeset="false"><tag k="addr:street" v="Zyle Road"/><tag k="addr:housenumber" v="8504"/><tag k="addr:postcode" v="78737"/></node><node id="-292" lat="30.199558" lon="-97.925611" changeset="false"><tag k="addr:street" v="Zyle Road"/><tag k="addr:housenumber" v="8509"/><tag k="addr:postcode" v="78737"/></node><node id="-293" lat="30.23211" lon="-97.918378" changeset="false"><tag k="addr:street" v="Tara Lane"/><tag k="addr:housenumber" v="8805"/><tag k="addr:postcode" v="78737"/></node><node id="-294" lat="30.204178" lon="-97.924643" changeset="false"><tag k="addr:street" v="Blazyk Drive"/><tag k="addr:housenumber" v="8620"/><tag k="addr:postcode" v="78737"/></node><node id="-295" lat="30.204056" lon="-97.933269" changeset="false"><tag k="addr:street" v="Zyle Road"/><tag k="addr:housenumber" v="9105"/><tag k="addr:postcode" v="78737"/></node><node id="-296" lat="30.215017" lon="-97.908803" changeset="false"><tag k="addr:street" v="El Dorado Drive"/><tag k="addr:housenumber" v="7809"/><tag k="addr:postcode" v="78737"/></node><node id="-297" lat="30.226581" lon="-97.930875" changeset="false"><tag k="addr:street" v="Flintrock Circle"/><tag k="addr:housenumber" v="9713"/><tag k="addr:postcode" v="78737"/></node><node id="-298" lat="30.224424" lon="-97.939578" changeset="false"><tag k="addr:street" v="Clemente Circle"/><tag k="addr:housenumber" v="10118"/><tag k="addr:postcode" v="78737"/></node><node id="-299" lat="30.223202" lon="-97.93836" changeset="false"><tag k="addr:street" v="Clemente Circle"/><tag k="addr:housenumber" v="10132"/><tag k="addr:postcode" v="78737"/></node><node id="-300" lat="30.21141" lon="-97.916708" changeset="false"><tag k="addr:street" v="Young Lane"/><tag k="addr:housenumber" v="8500"/><tag k="addr:postcode" v="78737"/></node><node id="-301" lat="30.222862" lon="-97.930665" changeset="false"><tag k="addr:street" v="Ledgestone Terrace"/><tag k="addr:housenumber" v="9916"/><tag k="addr:postcode" v="78737"/></node><node id="-302" lat="30.222267" lon="-97.933146" changeset="false"><tag k="addr:street" v="Derecho Bend"/><tag k="addr:housenumber" v="9709"/><tag k="addr:postcode" v="78737"/></node><node id="-303" lat="30.221093" lon="-97.900606" changeset="false"><tag k="addr:street" v="Espanola Trail"/><tag k="addr:housenumber" v="7805"/><tag k="addr:postcode" v="78737"/></node><node id="-304" lat="30.214267" lon="-97.906823" changeset="false"><tag k="addr:street" v="El Dorado Drive"/><tag k="addr:housenumber" v="7835"/><tag k="addr:postcode" v="78737"/></node><node id="-305" lat="30.21517" lon="-97.912967" changeset="false"><tag k="addr:street" v="Silver Mountain Drive"/><tag k="addr:housenumber" v="9890"/><tag k="addr:postcode" v="78737"/></node><node id="-306" lat="30.213765" lon="-97.905771" changeset="false"><tag k="addr:street" v="El Dorado Drive"/><tag k="addr:housenumber" v="7846"/><tag k="addr:postcode" v="78737"/></node><node id="-307" lat="30.218268" lon="-97.89698" changeset="false"><tag k="addr:street" v="Adobe Trail"/><tag k="addr:housenumber" v="7701"/><tag k="addr:postcode" v="78737"/></node><node id="-308" lat="30.207811" lon="-97.93717" changeset="false"><tag k="addr:street" v="Morningstar Circle"/><tag k="addr:housenumber" v="11204"/><tag k="addr:postcode" v="78737"/></node><node id="-309" lat="30.20552" lon="-97.935116" changeset="false"><tag k="addr:street" v="Zyle Road"/><tag k="addr:housenumber" v="9207"/><tag k="addr:postcode" v="78737"/></node><node id="-310" lat="30.213453" lon="-97.899587" changeset="false"><tag k="addr:street" v="Bella Vista Trail"/><tag k="addr:housenumber" v="7612"/><tag k="addr:postcode" v="78737"/></node><node id="-311" lat="30.220878" lon="-97.937386" changeset="false"><tag k="addr:street" v="Derecho Drive"/><tag k="addr:housenumber" v="10308"/><tag k="addr:postcode" v="78737"/></node><node id="-312" lat="30.218334" lon="-97.938471" changeset="false"><tag k="addr:street" v="Derecho Drive"/><tag k="addr:housenumber" v="10508"/><tag k="addr:postcode" v="78737"/></node><node id="-313" lat="30.225137" lon="-97.942384" changeset="false"><tag k="addr:street" v="Oliver Drive"/><tag k="addr:housenumber" v="10205"/><tag k="addr:postcode" v="78737"/></node><node id="-314" lat="30.191463" lon="-97.931694" changeset="false"><tag k="addr:street" v="Appaloosa Run"/><tag k="addr:housenumber" v="8510"/><tag k="addr:postcode" v="78737"/></node><node id="-315" lat="30.227628" lon="-97.919046" changeset="false"><tag k="addr:street" v="Tara Lane"/><tag k="addr:housenumber" v="9104"/><tag k="addr:postcode" v="78737"/></node><node id="-316" lat="30.184522" lon="-97.929158" changeset="false"><tag k="addr:street" v="Ranch to Market Road 1826"/><tag k="addr:housenumber" v="12316"/><tag k="addr:postcode" v="78737"/></node><node id="-317" lat="30.223371" lon="-97.932709" changeset="false"><tag k="addr:street" v="Derecho Bend"/><tag k="addr:housenumber" v="9733"/><tag k="addr:postcode" v="78737"/></node><node id="-318" lat="30.231659" lon="-97.916577" changeset="false"><tag k="addr:street" v="Scarlet Circle"/><tag k="addr:housenumber" v="8750"/><tag k="addr:postcode" v="78737"/></node><node id="-319" lat="30.206036" lon="-97.916889" changeset="false"><tag k="addr:street" v="La Plata Loop"/><tag k="addr:housenumber" v="8306"/><tag k="addr:postcode" v="78737"/></node><node id="-320" lat="30.229966" lon="-97.927502" changeset="false"><tag k="addr:street" v="Ledgestone Terrace"/><tag k="addr:housenumber" v="9300"/><tag k="addr:postcode" v="78737"/></node><node id="-321" lat="30.231738" lon="-97.917782" changeset="false"><tag k="addr:street" v="Tara Lane"/><tag k="addr:housenumber" v="8809"/><tag k="addr:postcode" v="78737"/></node><node id="-322" lat="30.232049" lon="-97.919832" changeset="false"><tag k="addr:street" v="Tara Lane"/><tag k="addr:housenumber" v="8804"/><tag k="addr:postcode" v="78737"/></node><node id="-323" lat="30.217927" lon="-97.953114" changeset="false"><tag k="addr:street" v="Friar Villa Drive"/><tag k="addr:housenumber" v="11007"/><tag k="addr:postcode" v="78737"/></node><node id="-324" lat="30.21629" lon="-97.911722" changeset="false"><tag k="addr:street" v="El Dorado Drive"/><tag k="addr:housenumber" v="7744"/><tag k="addr:postcode" v="78737"/></node><node id="-325" lat="30.213461" lon="-97.90713" changeset="false"><tag k="addr:street" v="El Dorado Drive"/><tag k="addr:housenumber" v="7834"/><tag k="addr:postcode" v="78737"/></node><node id="-326" lat="30.230145" lon="-97.918836" changeset="false"><tag k="addr:street" v="Butler Circle"/><tag k="addr:housenumber" v="8905"/><tag k="addr:postcode" v="78737"/></node><node id="-327" lat="30.218146" lon="-97.90224" changeset="false"><tag k="addr:street" v="El Dorado Drive"/><tag k="addr:housenumber" v="7934"/><tag k="addr:postcode" v="78737"/></node><node id="-328" lat="30.203749" lon="-97.930984" changeset="false"><tag k="addr:street" v="Zyle Road"/><tag k="addr:housenumber" v="9000"/><tag k="addr:postcode" v="78737"/></node><node id="-329" lat="30.199528" lon="-97.928533" changeset="false"><tag k="addr:street" v="Zyle Lane"/><tag k="addr:housenumber" v="11309"/><tag k="addr:postcode" v="78737"/></node><node id="-330" lat="30.228686" lon="-97.927041" changeset="false"><tag k="addr:street" v="Ledgestone Terrace"/><tag k="addr:housenumber" v="9401"/><tag k="addr:postcode" v="78737"/></node><node id="-331" lat="30.205024" lon="-97.920102" changeset="false"><tag k="addr:street" v="La Plata Loop"/><tag k="addr:housenumber" v="8406"/><tag k="addr:postcode" v="78737"/></node><node id="-332" lat="30.22954" lon="-97.914303" changeset="false"><tag k="addr:street" v="West View Road"/><tag k="addr:housenumber" v="8804"/><tag k="addr:postcode" v="78737"/></node><node id="-333" lat="30.204684" lon="-97.917554" changeset="false"><tag k="addr:street" v="La Plata Loop"/><tag k="addr:housenumber" v="8320"/><tag k="addr:postcode" v="78737"/></node><node id="-334" lat="30.204665" lon="-97.919295" changeset="false"><tag k="addr:street" v="La Plata Loop"/><tag k="addr:housenumber" v="8332"/><tag k="addr:postcode" v="78737"/></node><node id="-335" lat="30.22406" lon="-97.938467" changeset="false"><tag k="addr:street" v="Clemente Circle"/><tag k="addr:housenumber" v="10123"/><tag k="addr:postcode" v="78737"/></node><node id="-336" lat="30.217824" lon="-97.896186" changeset="false"><tag k="addr:street" v="Gallant Fox Road"/><tag k="addr:housenumber" v="9001"/><tag k="addr:postcode" v="78737"/></node><node id="-337" lat="30.217766" lon="-97.903821" changeset="false"><tag k="addr:street" v="El Dorado Drive"/><tag k="addr:housenumber" v="7929"/><tag k="addr:postcode" v="78737"/></node><node id="-338" lat="30.217813" lon="-97.907157" changeset="false"><tag k="addr:street" v="San Diego Road"/><tag k="addr:housenumber" v="9515"/><tag k="addr:postcode" v="78737"/></node><node id="-339" lat="30.217827" lon="-97.9123" changeset="false"><tag k="addr:street" v="El Dorado Drive"/><tag k="addr:housenumber" v="7728"/><tag k="addr:postcode" v="78737"/></node><node id="-340" lat="30.216994" lon="-97.897817" changeset="false"><tag k="addr:street" v="Gallant Fox Road"/><tag k="addr:housenumber" v="9100"/><tag k="addr:postcode" v="78737"/></node><node id="-341" lat="30.216723" lon="-97.896261" changeset="false"><tag k="addr:street" v="Gallant Fox Road"/><tag k="addr:housenumber" v="9009"/><tag k="addr:postcode" v="78737"/></node><node id="-342" lat="30.21689" lon="-97.908267" changeset="false"><tag k="addr:street" v="San Diego Road"/><tag k="addr:housenumber" v="9510"/><tag k="addr:postcode" v="78737"/></node><node id="-343" lat="30.22599" lon="-97.914181" changeset="false"><tag k="addr:street" v="Feather Hill Road"/><tag k="addr:housenumber" v="9100"/><tag k="addr:postcode" v="78737"/></node><node id="-344" lat="30.192124" lon="-97.930729" changeset="false"><tag k="addr:street" v="Appaloosa Run"/><tag k="addr:housenumber" v="8508"/><tag k="addr:postcode" v="78737"/></node><node id="-345" lat="30.219529" lon="-97.914049" changeset="false"><tag k="addr:street" v="Vera Cruz Road"/><tag k="addr:housenumber" v="9510"/><tag k="addr:postcode" v="78737"/></node><node id="-346" lat="30.226892" lon="-97.942362" changeset="false"><tag k="addr:street" v="Oliver Drive"/><tag k="addr:housenumber" v="10100"/><tag k="addr:postcode" v="78737"/></node><node id="-347" lat="30.210375" lon="-97.915712" changeset="false"><tag k="addr:street" v="Young Lane"/><tag k="addr:housenumber" v="8405"/><tag k="addr:postcode" v="78737"/></node><node id="-348" lat="30.224217" lon="-97.93416" changeset="false"><tag k="addr:street" v="Derecho Bend"/><tag k="addr:housenumber" v="9901"/><tag k="addr:postcode" v="78737"/></node><node id="-349" lat="30.221432" lon="-97.902078" changeset="false"><tag k="addr:street" v="El Dorado Drive"/><tag k="addr:housenumber" v="8016"/><tag k="addr:postcode" v="78737"/></node><node id="-350" lat="30.199087" lon="-97.949701" changeset="false"><tag k="addr:street" v="Jim Bridger Drive"/><tag k="addr:housenumber" v="12010"/><tag k="addr:postcode" v="78737"/></node><node id="-351" lat="30.194778" lon="-97.940248" changeset="false"><tag k="addr:street" v="Appaloosa Run"/><tag k="addr:housenumber" v="8924"/><tag k="addr:postcode" v="78737"/></node><node id="-352" lat="30.229197" lon="-97.918516" changeset="false"><tag k="addr:street" v="Tara Lane"/><tag k="addr:housenumber" v="9000"/><tag k="addr:postcode" v="78737"/></node><node id="-353" lat="30.226204" lon="-97.930256" changeset="false"><tag k="addr:street" v="Flintrock Circle"/><tag k="addr:housenumber" v="9701"/><tag k="addr:postcode" v="78737"/></node><node id="-354" lat="30.232482" lon="-97.919548" changeset="false"><tag k="addr:street" v="Tara Lane"/><tag k="addr:housenumber" v="8800"/><tag k="addr:postcode" v="78737"/></node><node id="-355" lat="30.21677" lon="-97.901499" changeset="false"><tag k="addr:street" v="Granada Hills Drive"/><tag k="addr:housenumber" v="9302"/><tag k="addr:postcode" v="78737"/></node><node id="-356" lat="30.226974" lon="-97.916068" changeset="false"><tag k="addr:street" v="West View Road"/><tag k="addr:housenumber" v="9100"/><tag k="addr:postcode" v="78737"/></node><node id="-357" lat="30.194241" lon="-97.93964" changeset="false"><tag k="addr:street" v="Appaloosa Run"/><tag k="addr:housenumber" v="8922"/><tag k="addr:postcode" v="78737"/></node><node id="-358" lat="30.225409" lon="-97.926998" changeset="false"><tag k="addr:street" v="Flintrock Circle"/><tag k="addr:housenumber" v="9504"/><tag k="addr:postcode" v="78737"/></node><node id="-359" lat="30.224391" lon="-97.927749" changeset="false"><tag k="addr:street" v="Flintrock Circle"/><tag k="addr:housenumber" v="9507"/><tag k="addr:postcode" v="78737"/></node><node id="-360" lat="30.227962" lon="-97.932211" changeset="false"><tag k="addr:street" v="Flintrock Circle"/><tag k="addr:housenumber" v="9820"/><tag k="addr:postcode" v="78737"/></node><node id="-361" lat="30.219615" lon="-97.900517" changeset="false"><tag k="addr:street" v="Granada Hills Drive"/><tag k="addr:housenumber" v="9110"/><tag k="addr:postcode" v="78737"/></node><node id="-362" lat="30.218562" lon="-97.898075" changeset="false"><tag k="addr:street" v="Adobe Trail"/><tag k="addr:housenumber" v="7707"/><tag k="addr:postcode" v="78737"/></node><node id="-363" lat="30.214252" lon="-97.906495" changeset="false"><tag k="addr:street" v="El Dorado Drive"/><tag k="addr:housenumber" v="7839"/><tag k="addr:postcode" v="78737"/></node><node id="-364" lat="30.205731" lon="-97.921001" changeset="false"><tag k="addr:street" v="La Plata Loop"/><tag k="addr:housenumber" v="8417"/><tag k="addr:postcode" v="78737"/></node><node id="-365" lat="30.223794" lon="-97.916345" changeset="false"><tag k="addr:street" v="El Rey Boulevard"/><tag k="addr:housenumber" v="9479"/><tag k="addr:postcode" v="78737"/></node><node id="-366" lat="30.19836" lon="-97.923021" changeset="false"><tag k="addr:street" v="Zyle Road"/><tag k="addr:housenumber" v="8305"/><tag k="addr:postcode" v="78737"/></node><node id="-367" lat="30.226244" lon="-97.93662" changeset="false"><tag k="addr:street" v="Derecho Drive"/><tag k="addr:housenumber" v="9931"/><tag k="addr:postcode" v="78737"/></node><node id="-368" lat="30.19237" lon="-97.93663" changeset="false"><tag k="addr:street" v="Trailmaster Drive"/><tag k="addr:housenumber" v="12100"/><tag k="addr:postcode" v="78737"/></node><node id="-369" lat="30.199249" lon="-97.924837" changeset="false"><tag k="addr:street" v="Zyle Road"/><tag k="addr:housenumber" v="8405"/><tag k="addr:postcode" v="78737"/></node><node id="-370" lat="30.226671" lon="-97.918012" changeset="false"><tag k="addr:street" v="Tara Lane"/><tag k="addr:housenumber" v="9203"/><tag k="addr:postcode" v="78737"/></node><node id="-371" lat="30.204989" lon="-97.939967" changeset="false"><tag k="addr:street" v="Morninghill Drive"/><tag k="addr:housenumber" v="9406"/><tag k="addr:postcode" v="78737"/></node><node id="-372" lat="30.208322" lon="-97.92011" changeset="false"><tag k="addr:street" v="Lewis Mountain Drive"/><tag k="addr:housenumber" v="8509"/><tag k="addr:postcode" v="78737"/></node><node id="-373" lat="30.232364" lon="-97.918666" changeset="false"><tag k="addr:street" v="Tara Lane"/><tag k="addr:housenumber" v="8803"/><tag k="addr:postcode" v="78737"/></node><node id="-374" lat="30.222602" lon="-97.922947" changeset="false"><tag k="addr:street" v="Honeycomb Drive"/><tag k="addr:housenumber" v="9200"/><tag k="addr:postcode" v="78737"/></node><node id="-375" lat="30.197207" lon="-97.941962" changeset="false"><tag k="addr:street" v="Appaloosa Run"/><tag k="addr:housenumber" v="8934"/><tag k="addr:postcode" v="78737"/></node><node id="-376" lat="30.207449" lon="-97.916421" changeset="false"><tag k="addr:street" v="Lewis Mountain Drive"/><tag k="addr:housenumber" v="8310"/><tag k="addr:postcode" v="78737"/></node><node id="-377" lat="30.222453" lon="-97.913897" changeset="false"><tag k="addr:street" v="El Rey Boulevard"/><tag k="addr:housenumber" v="9450"/><tag k="addr:postcode" v="78737"/></node><node id="-378" lat="30.225632" lon="-97.927689" changeset="false"><tag k="addr:street" v="Flintrock Circle"/><tag k="addr:housenumber" v="9506"/><tag k="addr:postcode" v="78737"/></node><node id="-379" lat="30.21468" lon="-97.905115" changeset="false"><tag k="addr:street" v="El Dorado Drive"/><tag k="addr:housenumber" v="7858"/><tag k="addr:postcode" v="78737"/></node><node id="-380" lat="30.218159" lon="-97.900639" changeset="false"><tag k="addr:street" v="Granada Hills Drive"/><tag k="addr:housenumber" v="9126"/><tag k="addr:postcode" v="78737"/></node><node id="-381" lat="30.215676" lon="-97.906325" changeset="false"><tag k="addr:street" v="El Dorado Drive"/><tag k="addr:housenumber" v="7855"/><tag k="addr:postcode" v="78737"/></node><node id="-382" lat="30.23065" lon="-97.916798" changeset="false"><tag k="addr:street" v="Scarlet Circle"/><tag k="addr:housenumber" v="8805"/><tag k="addr:postcode" v="78737"/></node><node id="-383" lat="30.223644" lon="-97.912597" changeset="false"><tag k="addr:street" v="San Diego Road"/><tag k="addr:housenumber" v="9007"/><tag k="addr:postcode" v="78737"/></node><node id="-384" lat="30.226825" lon="-97.914282" changeset="false"><tag k="addr:street" v="Feather Hill Road"/><tag k="addr:housenumber" v="9002"/><tag k="addr:postcode" v="78737"/></node><node id="-385" lat="30.204327" lon="-97.931734" changeset="false"><tag k="addr:street" v="Zyle Road"/><tag k="addr:housenumber" v="9008"/><tag k="addr:postcode" v="78737"/></node><node id="-386" lat="30.229517" lon="-97.913383" changeset="false"><tag k="addr:street" v="West View Road"/><tag k="addr:housenumber" v="8801"/><tag k="addr:postcode" v="78737"/></node><node id="-387" lat="30.218281" lon="-97.905481" changeset="false"><tag k="addr:street" v="San Juan Pass"/><tag k="addr:housenumber" v="9304"/><tag k="addr:postcode" v="78737"/></node><node id="-388" lat="30.21586" lon="-97.900485" changeset="false"><tag k="addr:street" v="Granada Hills Drive"/><tag k="addr:housenumber" v="9301"/><tag k="addr:postcode" v="78737"/></node><node id="-389" lat="30.227514" lon="-97.913317" changeset="false"><tag k="addr:street" v="Feather Hill Road"/><tag k="addr:housenumber" v="8902"/><tag k="addr:postcode" v="78737"/></node><node id="-390" lat="30.214294" lon="-97.947682" changeset="false"><tag k="addr:street" v="Spring Valley Road"/><tag k="addr:housenumber" v="10401"/><tag k="addr:postcode" v="78737"/></node><node id="-391" lat="30.22356" lon="-97.936465" changeset="false"><tag k="addr:street" v="Clemente Circle"/><tag k="addr:housenumber" v="10233"/><tag k="addr:postcode" v="78737"/></node><node id="-392" lat="30.223183" lon="-97.931639" changeset="false"><tag k="addr:street" v="Ledgestone Terrace"/><tag k="addr:housenumber" v="9908"/><tag k="addr:postcode" v="78737"/></node><node id="-393" lat="30.222794" lon="-97.93524" changeset="false"><tag k="addr:street" v="Derecho Bend"/><tag k="addr:housenumber" v="9508"/><tag k="addr:postcode" v="78737"/></node><node id="-394" lat="30.222668" lon="-97.934816" changeset="false"><tag k="addr:street" v="Derecho Bend"/><tag k="addr:housenumber" v="9516"/><tag k="addr:postcode" v="78737"/></node><node id="-395" lat="30.221119" lon="-97.919666" changeset="false"><tag k="addr:street" v="Honeycomb Drive"/><tag k="addr:housenumber" v="8922"/><tag k="addr:postcode" v="78737"/></node><node id="-396" lat="30.203881" lon="-97.938162" changeset="false"><tag k="addr:street" v="Zyle Road"/><tag k="addr:housenumber" v="9419"/><tag k="addr:postcode" v="78737"/></node><node id="-397" lat="30.217777" lon="-97.907594" changeset="false"><tag k="addr:street" v="San Diego Road"/><tag k="addr:housenumber" v="9513"/><tag k="addr:postcode" v="78737"/></node><node id="-398" lat="30.203422" lon="-97.9193" changeset="false"><tag k="addr:street" v="La Plata Loop"/><tag k="addr:housenumber" v="8339"/><tag k="addr:postcode" v="78737"/></node><node id="-399" lat="30.227365" lon="-97.933121" changeset="false"><tag k="addr:street" v="Peakridge Drive"/><tag k="addr:housenumber" v="9913"/><tag k="addr:postcode" v="78737"/></node><node id="-400" lat="30.213386" lon="-97.897784" changeset="false"><tag k="addr:street" v="Bella Vista Trail"/><tag k="addr:housenumber" v="7501"/><tag k="addr:postcode" v="78737"/></node><node id="-401" lat="30.225111" lon="-97.926296" changeset="false"><tag k="addr:street" v="Flintrock Circle"/><tag k="addr:housenumber" v="9500"/><tag k="addr:postcode" v="78737"/></node><node id="-402" lat="30.204832" lon="-97.928931" changeset="false"><tag k="addr:street" v="Blazyk Drive"/><tag k="addr:housenumber" v="8900"/><tag k="addr:postcode" v="78737"/></node><node id="-403" lat="30.21922" lon="-97.900578" changeset="false"><tag k="addr:street" v="Granada Hills Drive"/><tag k="addr:housenumber" v="9114"/><tag k="addr:postcode" v="78737"/></node><node id="-404" lat="30.216785" lon="-97.907499" changeset="false"><tag k="addr:street" v="San Diego Road"/><tag k="addr:housenumber" v="9514"/><tag k="addr:postcode" v="78737"/></node><node id="-405" lat="30.225636" lon="-97.930388" changeset="false"><tag k="addr:street" v="Peakridge Drive"/><tag k="addr:housenumber" v="9700"/><tag k="addr:postcode" v="78737"/></node><node id="-406" lat="30.188677" lon="-97.932651" changeset="false"><tag k="addr:street" v="Appaloosa Run"/><tag k="addr:housenumber" v="8409"/><tag k="addr:postcode" v="78737"/></node><node id="-407" lat="30.215155" lon="-97.91002" changeset="false"><tag k="addr:street" v="El Dorado Drive"/><tag k="addr:housenumber" v="7764"/><tag k="addr:postcode" v="78737"/></node><node id="-408" lat="30.224728" lon="-97.936883" changeset="false"><tag k="addr:street" v="Clemente Circle"/><tag k="addr:housenumber" v="10007"/><tag k="addr:postcode" v="78737"/></node><node id="-409" lat="30.20348" lon="-97.918145" changeset="false"><tag k="addr:street" v="La Plata Loop"/><tag k="addr:housenumber" v="8333"/><tag k="addr:postcode" v="78737"/></node><node id="-410" lat="30.207011" lon="-97.915883" changeset="false"><tag k="addr:street" v="Lewis Mountain Drive"/><tag k="addr:housenumber" v="8307"/><tag k="addr:postcode" v="78737"/></node><node id="-411" lat="30.214788" lon="-97.922121" changeset="false"><tag k="addr:street" v="Young Lane"/><tag k="addr:housenumber" v="8900"/><tag k="addr:postcode" v="78737"/></node><node id="-412" lat="30.227079" lon="-97.933341" changeset="false"><tag k="addr:street" v="Peakridge Drive"/><tag k="addr:housenumber" v="9909"/><tag k="addr:postcode" v="78737"/></node><node id="-413" lat="30.201913" lon="-97.931954" changeset="false"><tag k="addr:street" v="Midmorning Drive"/><tag k="addr:housenumber" v="11305"/><tag k="addr:postcode" v="78737"/></node><node id="-414" lat="30.201872" lon="-97.932261" changeset="false"><tag k="addr:street" v="Midmorning Drive"/><tag k="addr:housenumber" v="11309"/><tag k="addr:postcode" v="78737"/></node><node id="-415" lat="30.192018" lon="-97.926383" changeset="false"><tag k="addr:street" v="Ranch to Market Road 1826"/><tag k="addr:housenumber" v="11810"/><tag k="addr:postcode" v="78737"/></node><node id="-416" lat="30.224112" lon="-97.931721" changeset="false"><tag k="addr:street" v="Ledgestone Terrace"/><tag k="addr:housenumber" v="9904"/><tag k="addr:postcode" v="78737"/></node><node id="-417" lat="30.221945" lon="-97.920882" changeset="false"><tag k="addr:street" v="Honeycomb Drive"/><tag k="addr:housenumber" v="9000"/><tag k="addr:postcode" v="78737"/></node><node id="-418" lat="30.221742" lon="-97.923275" changeset="false"><tag k="addr:street" v="Honeycomb Drive"/><tag k="addr:housenumber" v="9201"/><tag k="addr:postcode" v="78737"/></node><node id="-419" lat="30.202731" lon="-97.931868" changeset="false"><tag k="addr:street" v="Zyle Road"/><tag k="addr:housenumber" v="9001"/><tag k="addr:postcode" v="78737"/></node><node id="-420" lat="30.204882" lon="-97.932459" changeset="false"><tag k="addr:street" v="Zyle Road"/><tag k="addr:housenumber" v="9104"/><tag k="addr:postcode" v="78737"/></node><node id="-421" lat="30.204463" lon="-97.921585" changeset="false"><tag k="addr:street" v="La Plata Loop"/><tag k="addr:housenumber" v="8409"/><tag k="addr:postcode" v="78737"/></node><node id="-422" lat="30.217127" lon="-97.902903" changeset="false"><tag k="addr:street" v="El Dorado Drive"/><tag k="addr:housenumber" v="7926"/><tag k="addr:postcode" v="78737"/></node><node id="-423" lat="30.216016" lon="-97.905659" changeset="false"><tag k="addr:street" v="El Dorado Drive"/><tag k="addr:housenumber" v="7903"/><tag k="addr:postcode" v="78737"/></node><node id="-424" lat="30.215629" lon="-97.900978" changeset="false"><tag k="addr:street" v="Granada Hills Drive"/><tag k="addr:housenumber" v="9311"/><tag k="addr:postcode" v="78737"/></node><node id="-425" lat="30.219803" lon="-97.910339" changeset="false"><tag k="addr:street" v="El Rey Boulevard"/><tag k="addr:housenumber" v="9413"/><tag k="addr:postcode" v="78737"/></node><node id="-426" lat="30.223046" lon="-97.914416" changeset="false"><tag k="addr:street" v="El Rey Boulevard"/><tag k="addr:housenumber" v="9462"/><tag k="addr:postcode" v="78737"/></node><node id="-427" lat="30.217805" lon="-97.907901" changeset="false"><tag k="addr:street" v="San Diego Road"/><tag k="addr:housenumber" v="9509"/><tag k="addr:postcode" v="78737"/></node><node id="-428" lat="30.199573" lon="-97.922884" changeset="false"><tag k="addr:street" v="Zyle Road"/><tag k="addr:housenumber" v="8400"/><tag k="addr:postcode" v="78737"/></node><node id="-429" lat="30.203469" lon="-97.922849" changeset="false"><tag k="addr:street" v="Blazyk Drive"/><tag k="addr:housenumber" v="8500"/><tag k="addr:postcode" v="78737"/></node><node id="-430" lat="30.22399" lon="-97.939793" changeset="false"><tag k="addr:street" v="Clemente Circle"/><tag k="addr:housenumber" v="10120"/><tag k="addr:postcode" v="78737"/></node><node id="-431" lat="30.206563" lon="-97.91757" changeset="false"><tag k="addr:street" v="La Plata Loop"/><tag k="addr:housenumber" v="8302"/><tag k="addr:postcode" v="78737"/></node><node id="-432" lat="30.218358" lon="-97.928633" changeset="false"><tag k="addr:street" v="Sandstone Street"/><tag k="addr:housenumber" v="9309"/><tag k="addr:postcode" v="78737"/></node><node id="-433" lat="30.208201" lon="-97.910685" changeset="false"><tag k="addr:street" v="Ranch to Market Road 1826"/><tag k="addr:housenumber" v="10214"/><tag k="addr:postcode" v="78737"/></node><node id="-434" lat="30.218673" lon="-97.905529" changeset="false"><tag k="addr:street" v="San Juan Pass"/><tag k="addr:housenumber" v="9302"/><tag k="addr:postcode" v="78737"/></node><node id="-435" lat="30.203616" lon="-97.937522" changeset="false"><tag k="addr:street" v="Zyle Road"/><tag k="addr:housenumber" v="9421"/><tag k="addr:postcode" v="78737"/></node><node id="-436" lat="30.201082" lon="-97.920493" changeset="false"><tag k="addr:street" v="Blazyk Drive"/><tag k="addr:housenumber" v="8316"/><tag k="addr:postcode" v="78737"/></node><node id="-437" lat="30.204225" lon="-97.916414" changeset="false"><tag k="addr:street" v="La Plata Loop"/><tag k="addr:housenumber" v="8317"/><tag k="addr:postcode" v="78737"/></node><node id="-438" lat="30.205929" lon="-97.916052" changeset="false"><tag k="addr:street" v="La Plata Loop"/><tag k="addr:housenumber" v="8309"/><tag k="addr:postcode" v="78737"/></node><node id="-439" lat="30.216003" lon="-97.911498" changeset="false"><tag k="addr:street" v="El Dorado Drive"/><tag k="addr:housenumber" v="7748"/><tag k="addr:postcode" v="78737"/></node><node id="-440" lat="30.218308" lon="-97.903545" changeset="false"><tag k="addr:street" v="El Dorado Drive"/><tag k="addr:housenumber" v="7933"/><tag k="addr:postcode" v="78737"/></node><node id="-441" lat="30.219275" lon="-97.906115" changeset="false"><tag k="addr:street" v="El Rey Boulevard"/><tag k="addr:housenumber" v="9205"/><tag k="addr:postcode" v="78737"/></node><node id="-442" lat="30.217907" lon="-97.910714" changeset="false"><tag k="addr:street" v="El Dorado Drive"/><tag k="addr:housenumber" v="7721"/><tag k="addr:postcode" v="78737"/></node><node id="-443" lat="30.216338" lon="-97.896533" changeset="false"><tag k="addr:street" v="Gallant Fox Road"/><tag k="addr:housenumber" v="9101"/><tag k="addr:postcode" v="78737"/></node><node id="-444" lat="30.22447" lon="-97.939113" changeset="false"><tag k="addr:street" v="Clemente Circle"/><tag k="addr:housenumber" v="10110"/><tag k="addr:postcode" v="78737"/></node><node id="-445" lat="30.212129" lon="-97.914654" changeset="false"><tag k="addr:street" v="Silver Mountain Cove"/><tag k="addr:housenumber" v="8403"/><tag k="addr:postcode" v="78737"/></node><node id="-446" lat="30.212354" lon="-97.912119" changeset="false"><tag k="addr:street" v="Silver Mountain Drive"/><tag k="addr:housenumber" v="10025"/><tag k="addr:postcode" v="78737"/></node><node id="-447" lat="30.18665" lon="-97.93114" changeset="false"><tag k="addr:street" v="Appaloosa Run"/><tag k="addr:housenumber" v="8305"/><tag k="addr:postcode" v="78737"/></node><node id="-448" lat="30.21126" lon="-97.915803" changeset="false"><tag k="addr:street" v="Young Lane"/><tag k="addr:housenumber" v="8410"/><tag k="addr:postcode" v="78737"/></node><node id="-449" lat="30.21891" lon="-97.904261" changeset="false"><tag k="addr:street" v="San Juan Pass"/><tag k="addr:housenumber" v="9205"/><tag k="addr:postcode" v="78737"/></node><node id="-450" lat="30.195737" lon="-97.923208" changeset="false"><tag k="addr:street" v="Ranch to Market Road 1826"/><tag k="addr:housenumber" v="11500"/><tag k="addr:postcode" v="78737"/></node><node id="-451" lat="30.217124" lon="-97.906647" changeset="false"><tag k="addr:street" v="San Diego Road"/><tag k="addr:housenumber" v="9518"/><tag k="addr:postcode" v="78737"/></node><node id="-452" lat="30.202097" lon="-97.928091" changeset="false"><tag k="addr:street" v="Zyle Road"/><tag k="addr:housenumber" v="8702"/><tag k="addr:postcode" v="78737"/></node><node id="-453" lat="30.200207" lon="-97.924293" changeset="false"><tag k="addr:street" v="Zyle Road"/><tag k="addr:housenumber" v="8500"/><tag k="addr:postcode" v="78737"/></node><node id="-454" lat="30.217684" lon="-97.906455" changeset="false"><tag k="addr:street" v="San Diego Road"/><tag k="addr:housenumber" v="9519"/><tag k="addr:postcode" v="78737"/></node><node id="-455" lat="30.228022" lon="-97.912979" changeset="false"><tag k="addr:street" v="Feather Hill Road"/><tag k="addr:housenumber" v="8900"/><tag k="addr:postcode" v="78737"/></node><node id="-456" lat="30.227481" lon="-97.914626" changeset="false"><tag k="addr:street" v="West View Road"/><tag k="addr:housenumber" v="9001"/><tag k="addr:postcode" v="78737"/></node><node id="-457" lat="30.230217" lon="-97.935071" changeset="false"><tag k="addr:street" v="Derecho Drive"/><tag k="addr:housenumber" v="9600"/><tag k="addr:postcode" v="78737"/></node><node id="-458" lat="30.218114" lon="-97.926859" changeset="false"><tag k="addr:street" v="Sandstone Street"/><tag k="addr:housenumber" v="9223"/><tag k="addr:postcode" v="78737"/></node><node id="-459" lat="30.217755" lon="-97.954547" changeset="false"><tag k="addr:street" v="Friar Villa Drive"/><tag k="addr:housenumber" v="11014"/><tag k="addr:postcode" v="78737"/></node><node id="-460" lat="30.214616" lon="-97.907424" changeset="false"><tag k="addr:street" v="El Dorado Drive"/><tag k="addr:housenumber" v="7825"/><tag k="addr:postcode" v="78737"/></node><node id="-461" lat="30.221467" lon="-97.913655" changeset="false"><tag k="addr:street" v="El Rey Boulevard"/><tag k="addr:housenumber" v="9447"/><tag k="addr:postcode" v="78737"/></node><node id="-462" lat="30.220442" lon="-97.910078" changeset="false"><tag k="addr:street" v="El Rey Boulevard"/><tag k="addr:housenumber" v="9412"/><tag k="addr:postcode" v="78737"/></node><node id="-463" lat="30.218509" lon="-97.900661" changeset="false"><tag k="addr:street" v="Granada Hills Drive"/><tag k="addr:housenumber" v="9122"/><tag k="addr:postcode" v="78737"/></node><node id="-464" lat="30.198679" lon="-97.921693" changeset="false"><tag k="addr:street" v="Zyle Road"/><tag k="addr:housenumber" v="8300"/><tag k="addr:postcode" v="78737"/></node><node id="-465" lat="30.228542" lon="-97.915203" changeset="false"><tag k="addr:street" v="West View Road"/><tag k="addr:housenumber" v="8902"/><tag k="addr:postcode" v="78737"/></node><node id="-466" lat="30.19078" lon="-97.933692" changeset="false"><tag k="addr:street" v="Appaloosa Run"/><tag k="addr:housenumber" v="8607"/><tag k="addr:postcode" v="78737"/></node><node id="-467" lat="30.192064" lon="-97.932344" changeset="false"><tag k="addr:street" v="Jess Drive"/><tag k="addr:housenumber" v="12003"/><tag k="addr:postcode" v="78737"/></node><node id="-468" lat="30.191783" lon="-97.93674" changeset="false"><tag k="addr:street" v="Trailmaster Drive"/><tag k="addr:housenumber" v="12104"/><tag k="addr:postcode" v="78737"/></node><node id="-469" lat="30.190582" lon="-97.934597" changeset="false"><tag k="addr:street" v="Appaloosa Run"/><tag k="addr:housenumber" v="8703"/><tag k="addr:postcode" v="78737"/></node><node id="-470" lat="30.22551" lon="-97.93561" changeset="false"><tag k="addr:street" v="Derecho Drive"/><tag k="addr:housenumber" v="9953"/><tag k="addr:postcode" v="78737"/></node><node id="-471" lat="30.204725" lon="-97.914879" changeset="false"><tag k="addr:street" v="La Plata Cove"/><tag k="addr:housenumber" v="10609"/><tag k="addr:postcode" v="78737"/></node><node id="-472" lat="30.211784" lon="-97.918146" changeset="false"><tag k="addr:street" v="Young Lane"/><tag k="addr:housenumber" v="8600"/><tag k="addr:postcode" v="78737"/></node><node id="-473" lat="30.204628" lon="-97.915328" changeset="false"><tag k="addr:street" v="La Plata Cove"/><tag k="addr:housenumber" v="10613"/><tag k="addr:postcode" v="78737"/></node><node id="-474" lat="30.221416" lon="-97.900832" changeset="false"><tag k="addr:street" v="Espanola Trail"/><tag k="addr:housenumber" v="7901"/><tag k="addr:postcode" v="78737"/></node><node id="-475" lat="30.218191" lon="-97.899441" changeset="false"><tag k="addr:street" v="Granada Hills Drive"/><tag k="addr:housenumber" v="9123"/><tag k="addr:postcode" v="78737"/></node><node id="-476" lat="30.227708" lon="-97.932936" changeset="false"><tag k="addr:street" v="Peakridge Drive"/><tag k="addr:housenumber" v="9917"/><tag k="addr:postcode" v="78737"/></node><node id="-477" lat="30.217439" lon="-97.902675" changeset="false"><tag k="addr:street" v="El Dorado Drive"/><tag k="addr:housenumber" v="7928"/><tag k="addr:postcode" v="78737"/></node><node id="-478" lat="30.208859" lon="-97.912078" changeset="false"><tag k="addr:street" v="Young Lane"/><tag k="addr:housenumber" v="8200"/><tag k="addr:postcode" v="78737"/></node><node id="-479" lat="30.187177" lon="-97.931907" changeset="false"><tag k="addr:street" v="Appaloosa Run"/><tag k="addr:housenumber" v="8307"/><tag k="addr:postcode" v="78737"/></node><node id="-480" lat="30.220642" lon="-97.921835" changeset="false"><tag k="addr:street" v="Ramble Three Street"/><tag k="addr:housenumber" v="9805"/><tag k="addr:postcode" v="78737"/></node><node id="-481" lat="30.228515" lon="-97.916659" changeset="false"><tag k="addr:street" v="Tara Lane"/><tag k="addr:housenumber" v="9005"/><tag k="addr:postcode" v="78737"/></node><node id="-482" lat="30.227953" lon="-97.914297" changeset="false"><tag k="addr:street" v="West View Road"/><tag k="addr:housenumber" v="8903"/><tag k="addr:postcode" v="78737"/></node><node id="-483" lat="30.224838" lon="-97.939375" changeset="false"><tag k="addr:street" v="Clemente Circle"/><tag k="addr:housenumber" v="10114"/><tag k="addr:postcode" v="78737"/></node><node id="-484" lat="30.225509" lon="-97.931783" changeset="false"><tag k="addr:street" v="Peakridge Drive"/><tag k="addr:housenumber" v="9717"/><tag k="addr:postcode" v="78737"/></node><node id="-485" lat="30.226814" lon="-97.933422" changeset="false"><tag k="addr:street" v="Peakridge Drive"/><tag k="addr:housenumber" v="9905"/><tag k="addr:postcode" v="78737"/></node><node id="-486" lat="30.192456" lon="-97.925989" changeset="false"><tag k="addr:street" v="Ranch to Market Road 1826"/><tag k="addr:housenumber" v="11800"/><tag k="addr:postcode" v="78737"/></node><node id="-487" lat="30.192139" lon="-97.928137" changeset="false"><tag k="addr:street" v="Sharl Cove"/><tag k="addr:housenumber" v="8322"/><tag k="addr:postcode" v="78737"/></node><node id="-488" lat="30.201752" lon="-97.933025" changeset="false"><tag k="addr:street" v="Midmorning Drive"/><tag k="addr:housenumber" v="11308"/><tag k="addr:postcode" v="78737"/></node><node id="-489" lat="30.199964" lon="-97.928905" changeset="false"><tag k="addr:street" v="Zyle Lane"/><tag k="addr:housenumber" v="11308"/><tag k="addr:postcode" v="78737"/></node><node id="-490" lat="30.224635" lon="-97.925286" changeset="false"><tag k="addr:street" v="Flintrock Circle"/><tag k="addr:housenumber" v="9400"/><tag k="addr:postcode" v="78737"/></node><node id="-491" lat="30.201921" lon="-97.922699" changeset="false"><tag k="addr:street" v="Aldenburgh Court"/><tag k="addr:housenumber" v="11108"/><tag k="addr:postcode" v="78737"/></node><node id="-492" lat="30.201694" lon="-97.923354" changeset="false"><tag k="addr:street" v="Aldenburgh Court"/><tag k="addr:housenumber" v="11114"/><tag k="addr:postcode" v="78737"/></node><node id="-493" lat="30.206389" lon="-97.920471" changeset="false"><tag k="addr:street" v="La Plata Loop"/><tag k="addr:housenumber" v="8425"/><tag k="addr:postcode" v="78737"/></node><node id="-494" lat="30.20411" lon="-97.928528" changeset="false"><tag k="addr:street" v="Blazyk Drive"/><tag k="addr:housenumber" v="8809"/><tag k="addr:postcode" v="78737"/></node><node id="-495" lat="30.217429" lon="-97.908957" changeset="false"><tag k="addr:street" v="San Diego Road"/><tag k="addr:housenumber" v="9506"/><tag k="addr:postcode" v="78737"/></node><node id="-496" lat="30.216326" lon="-97.90374" changeset="false"><tag k="addr:street" v="El Dorado Drive"/><tag k="addr:housenumber" v="7914"/><tag k="addr:postcode" v="78737"/></node><node id="-497" lat="30.216175" lon="-97.901739" changeset="false"><tag k="addr:street" v="Granada Hills Drive"/><tag k="addr:housenumber" v="9310"/><tag k="addr:postcode" v="78737"/></node><node id="-498" lat="30.203462" lon="-97.918957" changeset="false"><tag k="addr:street" v="La Plata Loop"/><tag k="addr:housenumber" v="8335"/><tag k="addr:postcode" v="78737"/></node><node id="-499" lat="30.211805" lon="-97.911844" changeset="false"><tag k="addr:street" v="Silver Mountain Drive"/><tag k="addr:housenumber" v="10027"/><tag k="addr:postcode" v="78737"/></node><node id="-500" lat="30.211627" lon="-97.916888" changeset="false"><tag k="addr:street" v="Young Lane"/><tag k="addr:housenumber" v="8504"/><tag k="addr:postcode" v="78737"/></node><node id="-501" lat="30.201994" lon="-97.920609" changeset="false"><tag k="addr:street" v="Blazyk Drive"/><tag k="addr:housenumber" v="8400"/><tag k="addr:postcode" v="78737"/></node><node id="-502" lat="30.195344" lon="-97.932308" changeset="false"><tag k="addr:street" v="Jess Drive"/><tag k="addr:housenumber" v="11800"/><tag k="addr:postcode" v="78737"/></node><node id="-503" lat="30.219024" lon="-97.912031" changeset="false"><tag k="addr:street" v="El Dorado Drive"/><tag k="addr:housenumber" v="7716"/><tag k="addr:postcode" v="78737"/></node><node id="-504" lat="30.217695" lon="-97.902578" changeset="false"><tag k="addr:street" v="El Dorado Drive"/><tag k="addr:housenumber" v="7930"/><tag k="addr:postcode" v="78737"/></node><node id="-505" lat="30.217634" lon="-97.90424" changeset="false"><tag k="addr:street" v="El Dorado Drive"/><tag k="addr:housenumber" v="7927"/><tag k="addr:postcode" v="78737"/></node><node id="-506" lat="30.219389" lon="-97.905435" changeset="false"><tag k="addr:street" v="San Juan Pass"/><tag k="addr:housenumber" v="9200"/><tag k="addr:postcode" v="78737"/></node><node id="-507" lat="30.223645" lon="-97.939242" changeset="false"><tag k="addr:street" v="Clemente Circle"/><tag k="addr:housenumber" v="10124"/><tag k="addr:postcode" v="78737"/></node><node id="-508" lat="30.21845" lon="-97.953889" changeset="false"><tag k="addr:street" v="Friar Villa Drive"/><tag k="addr:housenumber" v="11004"/><tag k="addr:postcode" v="78737"/></node><node id="-509" lat="30.224508" lon="-97.939086" changeset="false"><tag k="addr:street" v="Clemente Circle"/><tag k="addr:housenumber" v="10108"/><tag k="addr:postcode" v="78737"/></node><node id="-510" lat="30.230299" lon="-97.917456" changeset="false"><tag k="addr:street" v="Tara Lane"/><tag k="addr:housenumber" v="8900"/><tag k="addr:postcode" v="78737"/></node><node id="-511" lat="30.229483" lon="-97.935629" changeset="false"><tag k="addr:street" v="Derecho Drive"/><tag k="addr:housenumber" v="9606"/><tag k="addr:postcode" v="78737"/></node><node id="-512" lat="30.19804" lon="-97.922075" changeset="false"><tag k="addr:street" v="Zyle Road"/><tag k="addr:housenumber" v="8301"/><tag k="addr:postcode" v="78737"/></node><node id="-513" lat="30.206886" lon="-97.915276" changeset="false"><tag k="addr:street" v="Lewis Mountain Drive"/><tag k="addr:housenumber" v="8303"/><tag k="addr:postcode" v="78737"/></node><node id="-514" lat="30.212793" lon="-97.918623" changeset="false"><tag k="addr:street" v="Young Lane"/><tag k="addr:housenumber" v="8624"/><tag k="addr:postcode" v="78737"/></node><node id="-515" lat="30.21885" lon="-97.902102" changeset="false"><tag k="addr:street" v="El Dorado Drive"/><tag k="addr:housenumber" v="8002"/><tag k="addr:postcode" v="78737"/></node><node id="-516" lat="30.228499" lon="-97.913914" changeset="false"><tag k="addr:street" v="West View Road"/><tag k="addr:housenumber" v="8901"/><tag k="addr:postcode" v="78737"/></node><node id="-517" lat="30.216453" lon="-97.896755" changeset="false"><tag k="addr:street" v="Gallant Fox Road"/><tag k="addr:housenumber" v="9101 1/2"/><tag k="addr:postcode" v="78737"/></node><node id="-518" lat="30.220636" lon="-97.910309" changeset="false"><tag k="addr:street" v="El Rey Boulevard"/><tag k="addr:housenumber" v="9418"/><tag k="addr:postcode" v="78737"/></node><node id="-519" lat="30.217491" lon="-97.904862" changeset="false"><tag k="addr:street" v="El Dorado Drive"/><tag k="addr:housenumber" v="7923"/><tag k="addr:postcode" v="78737"/></node><node id="-520" lat="30.22631" lon="-97.928914" changeset="false"><tag k="addr:street" v="Flintrock Circle"/><tag k="addr:housenumber" v="9604"/><tag k="addr:postcode" v="78737"/></node><node id="-521" lat="30.203026" lon="-97.921791" changeset="false"><tag k="addr:street" v="Blazyk Drive"/><tag k="addr:housenumber" v="8416"/><tag k="addr:postcode" v="78737"/></node><node id="-522" lat="30.212737" lon="-97.898091" changeset="false"><tag k="addr:street" v="Bella Vista Trail"/><tag k="addr:housenumber" v="7500"/><tag k="addr:postcode" v="78737"/></node><node id="-523" lat="30.22109" lon="-97.914106" changeset="false"><tag k="addr:street" v="Vera Cruz Road"/><tag k="addr:housenumber" v="9410"/><tag k="addr:postcode" v="78737"/></node><node id="-524" lat="30.214414" lon="-97.905314" changeset="false"><tag k="addr:street" v="El Dorado Drive"/><tag k="addr:housenumber" v="7854"/><tag k="addr:postcode" v="78737"/></node><node id="-525" lat="30.215098" lon="-97.901472" changeset="false"><tag k="addr:street" v="Granada Hills Drive"/><tag k="addr:housenumber" v="9407"/><tag k="addr:postcode" v="78737"/></node><node id="-526" lat="30.226227" lon="-97.933093" changeset="false"><tag k="addr:street" v="Peakridge Drive"/><tag k="addr:housenumber" v="9813"/><tag k="addr:postcode" v="78737"/></node><node id="-527" lat="30.191819" lon="-97.935719" changeset="false"><tag k="addr:street" v="Trailmaster Drive"/><tag k="addr:housenumber" v="12105"/><tag k="addr:postcode" v="78737"/></node><node id="-528" lat="30.219585" lon="-97.909985" changeset="false"><tag k="addr:street" v="El Rey Boulevard"/><tag k="addr:housenumber" v="9407"/><tag k="addr:postcode" v="78737"/></node><node id="-529" lat="30.231185" lon="-97.915624" changeset="false"><tag k="addr:street" v="Scarlet Circle"/><tag k="addr:housenumber" v="8801"/><tag k="addr:postcode" v="78737"/></node><node id="-530" lat="30.210728" lon="-97.917743" changeset="false"><tag k="addr:street" v="Young Lane"/><tag k="addr:housenumber" v="8509"/><tag k="addr:postcode" v="78737"/></node><node id="-531" lat="30.207779" lon="-97.936164" changeset="false"><tag k="addr:street" v="Morningstar Circle"/><tag k="addr:housenumber" v="11201"/><tag k="addr:postcode" v="78737"/></node><node id="-532" lat="30.206687" lon="-97.918899" changeset="false"><tag k="addr:street" v="La Plata Loop"/><tag k="addr:housenumber" v="8418"/><tag k="addr:postcode" v="78737"/></node><node id="-533" lat="30.219863" lon="-97.908698" changeset="false"><tag k="addr:street" v="San Diego Road"/><tag k="addr:housenumber" v="9302"/><tag k="addr:postcode" v="78737"/></node><node id="-534" lat="30.216031" lon="-97.898058" changeset="false"><tag k="addr:street" v="Gallant Fox Road"/><tag k="addr:housenumber" v="9200"/><tag k="addr:postcode" v="78737"/></node><node id="-535" lat="30.224781" lon="-97.912363" changeset="false"><tag k="addr:street" v="Crest View Road"/><tag k="addr:housenumber" v="8703"/><tag k="addr:postcode" v="78737"/></node><node id="-536" lat="30.224125" lon="-97.910728" changeset="false"><tag k="addr:street" v="Crest View Road"/><tag k="addr:housenumber" v="8601"/><tag k="addr:postcode" v="78737"/></node><node id="-537" lat="30.191291" lon="-97.92836" changeset="false"><tag k="addr:street" v="Sharl Cove"/><tag k="addr:housenumber" v="8321"/><tag k="addr:postcode" v="78737"/></node><node id="-538" lat="30.214974" lon="-97.914111" changeset="false"><tag k="addr:street" v="Kali Cove"/><tag k="addr:housenumber" v="8412"/><tag k="addr:postcode" v="78737"/></node><node id="-539" lat="30.219657" lon="-97.894995" changeset="false"><tag k="addr:street" v="Gallant Fox Road"/><tag k="addr:housenumber" v="8809"/><tag k="addr:postcode" v="78737"/></node><node id="-540" lat="30.223017" lon="-97.911341" changeset="false"><tag k="addr:street" v="San Diego Road"/><tag k="addr:housenumber" v="9015 1/2"/><tag k="addr:postcode" v="78737"/></node><node id="-541" lat="30.22309" lon="-97.911318" changeset="false"><tag k="addr:street" v="San Diego Road"/><tag k="addr:housenumber" v="9015"/><tag k="addr:postcode" v="78737"/></node><node id="-542" lat="30.221574" lon="-97.912032" changeset="false"><tag k="addr:street" v="El Rey Boulevard"/><tag k="addr:housenumber" v="9436"/><tag k="addr:postcode" v="78737"/></node><node id="-543" lat="30.22148" lon="-97.912019" changeset="false"><tag k="addr:street" v="El Rey Boulevard"/><tag k="addr:housenumber" v="9436 1/2"/><tag k="addr:postcode" v="78737"/></node><node id="-544" lat="30.212972" lon="-97.89903" changeset="false"><tag k="addr:street" v="Bella Vista Trail"/><tag k="addr:housenumber" v="7600"/><tag k="addr:postcode" v="78737"/></node><node id="-545" lat="30.212909" lon="-97.899037" changeset="false"><tag k="addr:street" v="Bella Vista Trail"/><tag k="addr:housenumber" v="7604"/><tag k="addr:postcode" v="78737"/></node></osm>