<?xml version="1.0" encoding="UTF-8"?><osm version="0.6" generator="github.com/aaronlidman/osm-and-geojson"><node id="-1" lat="30.210227" lon="-97.667025" changeset="false"><tag k="addr:street" v="Presidential Boulevard"/><tag k="addr:housenumber" v="2900"/></node><node id="-2" lat="30.196195" lon="-97.66155" changeset="false"><tag k="addr:street" v="Emma Browning Avenue"/><tag k="addr:housenumber" v="3219"/></node><node id="-3" lat="30.20328" lon="-97.669573" changeset="false"><tag k="addr:street" v="Presidential Boulevard"/><tag k="addr:housenumber" v="3324"/></node><node id="-4" lat="30.191494" lon="-97.668579" changeset="false"><tag k="addr:street" v="Outlaw Country Drive"/><tag k="addr:housenumber" v="3710"/></node><node id="-5" lat="30.190831" lon="-97.667801" changeset="false"><tag k="addr:street" v="Bergstrom Drive"/><tag k="addr:housenumber" v="3721"/></node><node id="-6" lat="30.195684" lon="-97.66772" changeset="false"><tag k="addr:street" v="Survival Road"/><tag k="addr:housenumber" v="3504"/></node><node id="-7" lat="30.207641" lon="-97.671224" changeset="false"><tag k="addr:street" v="Presidential Boulevard"/><tag k="addr:housenumber" v="3010"/></node><node id="-8" lat="30.191359" lon="-97.665395" changeset="false"><tag k="addr:street" v="Bergstrom Drive"/><tag k="addr:housenumber" v="3603"/></node><node id="-9" lat="30.209737" lon="-97.668699" changeset="false"><tag k="addr:street" v="Presidential Boulevard"/><tag k="addr:housenumber" v="2901"/></node><node id="-10" lat="30.17409" lon="-97.672686" changeset="false"><tag k="addr:street" v="Burleson Road"/><tag k="addr:housenumber" v="9406"/></node><node id="-11" lat="30.212591" lon="-97.671812" changeset="false"><tag k="addr:street" v="Rental Car Lane"/><tag k="addr:housenumber" v="9201"/></node><node id="-12" lat="30.186705" lon="-97.671902" changeset="false"><tag k="addr:street" v="Bergstrom Drive"/><tag k="addr:housenumber" v="4011"/></node><node id="-13" lat="30.211776" lon="-97.67089" changeset="false"><tag k="addr:street" v="Rental Car Lane"/><tag k="addr:housenumber" v="9309"/></node><node id="-14" lat="30.177447" lon="-97.669439" changeset="false"><tag k="addr:street" v="Emma Browning Avenue"/><tag k="addr:housenumber" v="5106"/></node><node id="-15" lat="30.196676" lon="-97.661968" changeset="false"><tag k="addr:street" v="Emma Browning Avenue"/><tag k="addr:housenumber" v="3206"/></node><node id="-16" lat="30.173295" lon="-97.669916" changeset="false"><tag k="addr:street" v="Burleson Road"/><tag k="addr:housenumber" v="9614"/></node><node id="-17" lat="30.17841" lon="-97.68212" changeset="false"><tag k="addr:street" v="Burleson Road"/><tag k="addr:housenumber" v="8716"/></node><node id="-18" lat="30.19145" lon="-97.66952" changeset="false"><tag k="addr:street" v="Fighter Drive"/><tag k="addr:housenumber" v="3700"/></node><node id="-19" lat="30.189342" lon="-97.669234" changeset="false"><tag k="addr:street" v="Bergstrom Drive"/><tag k="addr:housenumber" v="3825"/></node><node id="-20" lat="30.205021" lon="-97.661287" changeset="false"><tag k="addr:street" v="Service Avenue"/><tag k="addr:housenumber" v="9919"/></node><node id="-21" lat="30.210161" lon="-97.668825" changeset="false"><tag k="addr:street" v="Spirit of Texas Drive"/><tag k="addr:housenumber" v="3001"/></node><node id="-22" lat="30.203476" lon="-97.669311" changeset="false"><tag k="addr:street" v="Presidential Boulevard"/><tag k="addr:housenumber" v="3325"/></node><node id="-23" lat="30.192934" lon="-97.667736" changeset="false"><tag k="addr:street" v="Hangar Drive"/><tag k="addr:housenumber" v="10115"/></node><node id="-24" lat="30.190914" lon="-97.667713" changeset="false"><tag k="addr:street" v="Bergstrom Drive"/><tag k="addr:housenumber" v="3715"/></node><node id="-25" lat="30.212494" lon="-97.671727" changeset="false"><tag k="addr:street" v="Rental Car Lane"/><tag k="addr:housenumber" v="9229"/></node><node id="-26" lat="30.196047" lon="-97.665495" changeset="false"><tag k="addr:street" v="Aircraft Lane"/><tag k="addr:housenumber" v="10104"/></node><node id="-27" lat="30.204328" lon="-97.671124" changeset="false"><tag k="addr:street" v="Spirit of Texas Drive"/><tag k="addr:housenumber" v="3401"/></node><node id="-28" lat="30.181157" lon="-97.665618" changeset="false"><tag k="addr:street" v="Emma Browning Avenue"/><tag k="addr:housenumber" v="4805"/></node><node id="-29" lat="30.204859" lon="-97.671936" changeset="false"><tag k="addr:street" v="Spirit of Texas Drive"/><tag k="addr:housenumber" v="3412"/></node><node id="-30" lat="30.192836" lon="-97.665594" changeset="false"><tag k="addr:street" v="Bergstrom Drive"/><tag k="addr:housenumber" v="3505"/></node><node id="-31" lat="30.192497" lon="-97.663383" changeset="false"><tag k="addr:street" v="Emma Browning Avenue"/><tag k="addr:housenumber" v="3450"/></node><node id="-32" lat="30.191326" lon="-97.662252" changeset="false"><tag k="addr:street" v="Emma Browning Avenue"/><tag k="addr:housenumber" v="4201"/></node><node id="-33" lat="30.191539" lon="-97.662387" changeset="false"><tag k="addr:street" v="Emma Browning Avenue"/><tag k="addr:housenumber" v="4101"/></node><node id="-34" lat="30.172307" lon="-97.66703" changeset="false"><tag k="addr:street" v="Burleson Road"/><tag k="addr:housenumber" v="10010"/></node><node id="-35" lat="30.21164" lon="-97.662158" changeset="false"><tag k="addr:street" v="Employee Avenue"/><tag k="addr:housenumber" v="2631"/></node><node id="-36" lat="30.212711" lon="-97.672203" changeset="false"><tag k="addr:street" v="Rental Car Lane"/><tag k="addr:housenumber" v="9221"/></node><node id="-37" lat="30.212723" lon="-97.671229" changeset="false"><tag k="addr:street" v="Rental Car Lane"/><tag k="addr:housenumber" v="9220"/></node><node id="-38" lat="30.195192" lon="-97.669516" changeset="false"><tag k="addr:street" v="Maintainers Drive"/><tag k="addr:housenumber" v="10108"/></node><node id="-39" lat="30.211985" lon="-97.670619" changeset="false"><tag k="addr:street" v="Rental Car Lane"/><tag k="addr:housenumber" v="9310"/></node><node id="-40" lat="30.210077" lon="-97.669504" changeset="false"><tag k="addr:street" v="Spirit of Texas Drive"/><tag k="addr:housenumber" v="3010"/></node><node id="-41" lat="30.208385" lon="-97.671186" changeset="false"><tag k="addr:street" v="Spirit of Texas Drive"/><tag k="addr:housenumber" v="3112"/></node><node id="-42" lat="30.217739" lon="-97.682202" changeset="false"><tag k="addr:street" v="East Riverside Drive"/><tag k="addr:housenumber" v="8501"/></node><node id="-43" lat="30.188428" lon="-97.669834" changeset="false"><tag k="addr:street" v="Bergstrom Drive"/><tag k="addr:housenumber" v="3809"/></node><node id="-44" lat="30.210281" lon="-97.668618" changeset="false"><tag k="addr:street" v="Rental Car Lane"/><tag k="addr:housenumber" v="9545"/></node><node id="-45" lat="30.21027" lon="-97.669231" changeset="false"><tag k="addr:street" v="Spirit of Texas Drive"/><tag k="addr:housenumber" v="3004"/></node><node id="-46" lat="30.21222" lon="-97.671351" changeset="false"><tag k="addr:street" v="Rental Car Lane"/><tag k="addr:housenumber" v="9301"/></node><node id="-47" lat="30.208327" lon="-97.671216" changeset="false"><tag k="addr:street" v="Spirit of Texas Drive"/><tag k="addr:housenumber" v="3116"/></node><node id="-48" lat="30.180949" lon="-97.64687" changeset="false"><tag k="addr:street" v="Pearce Lane"/><tag k="addr:housenumber" v="10800"/></node><node id="-49" lat="30.172875" lon="-97.669061" changeset="false"><tag k="addr:street" v="Burleson Road"/><tag k="addr:housenumber" v="9710"/></node><node id="-50" lat="30.209061" lon="-97.665054" changeset="false"><tag k="addr:street" v="Employee Avenue"/><tag k="addr:housenumber" v="2815"/></node><node id="-51" lat="30.172519" lon="-97.667551" changeset="false"><tag k="addr:street" v="Burleson Road"/><tag k="addr:housenumber" v="9818"/></node><node id="-52" lat="30.205166" lon="-97.671728" changeset="false"><tag k="addr:street" v="Spirit of Texas Drive"/><tag k="addr:housenumber" v="3324"/></node><node id="-53" lat="30.21139" lon="-97.66864" changeset="false"><tag k="addr:street" v="Rental Car Lane"/><tag k="addr:housenumber" v="9400"/></node><node id="-54" lat="30.211833" lon="-97.666841" changeset="false"><tag k="addr:street" v="Spirit of Texas Drive"/><tag k="addr:housenumber" v="2801"/></node><node id="-55" lat="30.209864" lon="-97.664559" changeset="false"><tag k="addr:street" v="Presidential Boulevard"/><tag k="addr:housenumber" v="2801"/></node><node id="-56" lat="30.181411" lon="-97.665526" changeset="false"><tag k="addr:street" v="Emma Browning Avenue"/><tag k="addr:housenumber" v="4801"/></node><node id="-57" lat="30.210899" lon="-97.667381" changeset="false"><tag k="addr:street" v="Spirit of Texas Drive"/><tag k="addr:housenumber" v="2901"/></node><node id="-58" lat="30.209329" lon="-97.665114" changeset="false"><tag k="addr:street" v="Employee Avenue"/><tag k="addr:housenumber" v="2900"/></node><node id="-59" lat="30.20798" lon="-97.665347" changeset="false"><tag k="addr:street" v="Employee Avenue"/><tag k="addr:housenumber" v="3024"/></node><node id="-60" lat="30.205512" lon="-97.661311" changeset="false"><tag k="addr:street" v="Service Avenue"/><tag k="addr:housenumber" v="9918"/></node><node id="-61" lat="30.18251" lon="-97.686413" changeset="false"><tag k="addr:street" v="Burleson Road"/><tag k="addr:housenumber" v="8318"/></node><node id="-62" lat="30.181759" lon="-97.685812" changeset="false"><tag k="addr:street" v="Burleson Road"/><tag k="addr:housenumber" v="8408"/></node><node id="-63" lat="30.185095" lon="-97.662451" changeset="false"><tag k="addr:street" v="Emma Browning Avenue"/><tag k="addr:housenumber" v="4335"/></node><node id="-64" lat="30.196584" lon="-97.666889" changeset="false"><tag k="addr:street" v="Aircraft Lane"/><tag k="addr:housenumber" v="10100"/></node><node id="-65" lat="30.196213" lon="-97.66153" changeset="false"><tag k="addr:street" v="Emma Browning Avenue"/><tag k="addr:housenumber" v="3217"/></node><node id="-66" lat="30.21476" lon="-97.666582" changeset="false"><tag k="addr:street" v="Cargo Avenue"/><tag k="addr:housenumber" v="9621"/></node><node id="-67" lat="30.211547" lon="-97.670549" changeset="false"><tag k="addr:street" v="Rental Car Lane"/><tag k="addr:housenumber" v="9311"/></node><node id="-68" lat="30.187336" lon="-97.669273" changeset="false"><tag k="addr:street" v="Bergstrom Drive"/><tag k="addr:housenumber" v="3823"/></node><node id="-69" lat="30.184672" lon="-97.664274" changeset="false"><tag k="addr:street" v="Emma Browning Avenue"/><tag k="addr:housenumber" v="4501"/></node><node id="-70" lat="30.190407" lon="-97.666161" changeset="false"><tag k="addr:street" v="Metal Road"/><tag k="addr:housenumber" v="10324"/></node><node id="-71" lat="30.190127" lon="-97.665414" changeset="false"><tag k="addr:street" v="Metal Road"/><tag k="addr:housenumber" v="10330"/></node><node id="-72" lat="30.210405" lon="-97.669049" changeset="false"><tag k="addr:street" v="Spirit of Texas Drive"/><tag k="addr:housenumber" v="3000"/></node><node id="-73" lat="30.192499" lon="-97.665688" changeset="false"><tag k="addr:street" v="Bergstrom Drive"/><tag k="addr:housenumber" v="3511"/></node><node id="-74" lat="30.172823" lon="-97.668395" changeset="false"><tag k="addr:street" v="Burleson Road"/><tag k="addr:housenumber" v="9712"/></node><node id="-75" lat="30.177255" lon="-97.668621" changeset="false"><tag k="addr:street" v="Emma Browning Avenue"/><tag k="addr:housenumber" v="5104"/></node><node id="-76" lat="30.203571" lon="-97.671005" changeset="false"><tag k="addr:street" v="Spirit of Texas Drive"/><tag k="addr:housenumber" v="3421"/></node><node id="-77" lat="30.217913" lon="-97.675824" changeset="false"><tag k="addr:street" v="Cargo Avenue"/><tag k="addr:housenumber" v="9201"/></node><node id="-78" lat="30.191484" lon="-97.666253" changeset="false"><tag k="addr:street" v="Bergstrom Drive"/><tag k="addr:housenumber" v="3609"/></node><node id="-79" lat="30.183149" lon="-97.662639" changeset="false"><tag k="addr:street" v="Emma Browning Avenue"/><tag k="addr:housenumber" v="4756"/></node><node id="-80" lat="30.212413" lon="-97.671199" changeset="false"><tag k="addr:street" v="Rental Car Lane"/><tag k="addr:housenumber" v="9300"/></node><node id="-81" lat="30.171259" lon="-97.664222" changeset="false"><tag k="addr:street" v="Burleson Road"/><tag k="addr:housenumber" v="10212"/></node><node id="-82" lat="30.212421" lon="-97.671604" changeset="false"><tag k="addr:street" v="Rental Car Lane"/><tag k="addr:housenumber" v="9219"/></node><node id="-83" lat="30.197624" lon="-97.670207" changeset="false"><tag k="addr:street" v="Aircraft Lane"/><tag k="addr:housenumber" v="10003"/></node><node id="-84" lat="30.19318" lon="-97.66348" changeset="false"><tag k="addr:street" v="Emma Browning Avenue"/><tag k="addr:housenumber" v="3415"/></node><node id="-85" lat="30.178033" lon="-97.668839" changeset="false"><tag k="addr:street" v="Emma Browning Avenue"/><tag k="addr:housenumber" v="5016"/></node><node id="-86" lat="30.178161" lon="-97.668228" changeset="false"><tag k="addr:street" v="Emma Browning Avenue"/><tag k="addr:housenumber" v="5006"/></node><node id="-87" lat="30.190077" lon="-97.665806" changeset="false"><tag k="addr:street" v="Metal Road"/><tag k="addr:housenumber" v="10332"/></node><node id="-88" lat="30.213593" lon="-97.665883" changeset="false"><tag k="addr:street" v="Spirit of Texas Drive"/><tag k="addr:housenumber" v="2714"/></node><node id="-89" lat="30.204355" lon="-97.671475" changeset="false"><tag k="addr:street" v="Spirit of Texas Drive"/><tag k="addr:housenumber" v="3400"/></node><node id="-90" lat="30.19175" lon="-97.669093" changeset="false"><tag k="addr:street" v="Outlaw Country Drive"/><tag k="addr:housenumber" v="3701"/></node><node id="-91" lat="30.186923" lon="-97.6721" changeset="false"><tag k="addr:street" v="Bergstrom Drive"/><tag k="addr:housenumber" v="4010"/></node><node id="-92" lat="30.209818" lon="-97.669878" changeset="false"><tag k="addr:street" v="Spirit of Texas Drive"/><tag k="addr:housenumber" v="3018"/></node><node id="-93" lat="30.197075" lon="-97.661074" changeset="false"><tag k="addr:street" v="Emma Browning Avenue"/><tag k="addr:housenumber" v="3200"/></node><node id="-94" lat="30.19691" lon="-97.660814" changeset="false"><tag k="addr:street" v="Emma Browning Avenue"/><tag k="addr:housenumber" v="3101"/></node><node id="-95" lat="30.193003" lon="-97.663809" changeset="false"><tag k="addr:street" v="Bergstrom Drive"/><tag k="addr:housenumber" v="3500"/></node><node id="-96" lat="30.188581" lon="-97.669716" changeset="false"><tag k="addr:street" v="Bergstrom Drive"/><tag k="addr:housenumber" v="3801"/></node><node id="-97" lat="30.171862" lon="-97.666187" changeset="false"><tag k="addr:street" v="Burleson Road"/><tag k="addr:housenumber" v="10014"/></node><node id="-98" lat="30.218294" lon="-97.680475" changeset="false"><tag k="addr:street" v="East Riverside Drive"/><tag k="addr:housenumber" v="8698"/></node><node id="-99" lat="30.182477" lon="-97.684245" changeset="false"><tag k="addr:street" v="Burleson Road"/><tag k="addr:housenumber" v="8500"/></node><node id="-100" lat="30.19565" lon="-97.669145" changeset="false"><tag k="addr:street" v="Maintainers Drive"/><tag k="addr:housenumber" v="10100"/></node><node id="-101" lat="30.174307" lon="-97.670336" changeset="false"><tag k="addr:street" v="Emma Browning Avenue"/><tag k="addr:housenumber" v="5308 1/2"/></node><node id="-102" lat="30.203361" lon="-97.665083" changeset="false"><tag k="addr:street" v="Presidential Boulevard"/><tag k="addr:housenumber" v="3605"/></node><node id="-103" lat="30.204724" lon="-97.666999" changeset="false"><tag k="addr:street" v="Presidential Boulevard"/><tag k="addr:housenumber" v="3819"/></node><node id="-104" lat="30.215161" lon="-97.666671" changeset="false"><tag k="addr:street" v="Cargo Avenue"/><tag k="addr:housenumber" v="9619"/></node><node id="-105" lat="30.212128" lon="-97.666993" changeset="false"><tag k="addr:street" v="Spirit of Texas Drive"/><tag k="addr:housenumber" v="2810"/></node><node id="-106" lat="30.202908" lon="-97.664913" changeset="false"><tag k="addr:street" v="Presidential Boulevard"/><tag k="addr:housenumber" v="3608"/></node><node id="-107" lat="30.212458" lon="-97.67165" changeset="false"><tag k="addr:street" v="Rental Car Lane"/><tag k="addr:housenumber" v="9215"/></node><node id="-108" lat="30.209812" lon="-97.669581" changeset="false"><tag k="addr:street" v="Rental Car Lane"/><tag k="addr:housenumber" v="9617"/></node><node id="-109" lat="30.208271" lon="-97.671243" changeset="false"><tag k="addr:street" v="Spirit of Texas Drive"/><tag k="addr:housenumber" v="3120"/></node><node id="-110" lat="30.206102" lon="-97.670962" changeset="false"><tag k="addr:street" v="Presidential Boulevard"/><tag k="addr:housenumber" v="3113"/></node><node id="-111" lat="30.196268" lon="-97.667522" changeset="false"><tag k="addr:street" v="Survival Road"/><tag k="addr:housenumber" v="3500"/></node><node id="-112" lat="30.193206" lon="-97.667953" changeset="false"><tag k="addr:street" v="Hangar Drive"/><tag k="addr:housenumber" v="10112"/></node><node id="-113" lat="30.210077" lon="-97.668387" changeset="false"><tag k="addr:street" v="Rental Car Lane"/><tag k="addr:housenumber" v="9538"/></node><node id="-114" lat="30.2106" lon="-97.66975" changeset="false"><tag k="addr:street" v="Rental Car Lane"/><tag k="addr:housenumber" v="9401"/></node><node id="-115" lat="30.197588" lon="-97.670277" changeset="false"><tag k="addr:street" v="Aircraft Lane"/><tag k="addr:housenumber" v="10001"/></node><node id="-116" lat="30.214339" lon="-97.666503" changeset="false"><tag k="addr:street" v="Cargo Avenue"/><tag k="addr:housenumber" v="9625 1/2"/></node><node id="-117" lat="30.187569" lon="-97.669554" changeset="false"><tag k="addr:street" v="Bergstrom Drive"/><tag k="addr:housenumber" v="3827"/></node><node id="-118" lat="30.186327" lon="-97.663249" changeset="false"><tag k="addr:street" v="Emma Browning Avenue"/><tag k="addr:housenumber" v="4321"/></node><node id="-119" lat="30.185443" lon="-97.66308" changeset="false"><tag k="addr:street" v="Emma Browning Avenue"/><tag k="addr:housenumber" v="4331"/></node><node id="-120" lat="30.17322" lon="-97.669757" changeset="false"><tag k="addr:street" v="Burleson Road"/><tag k="addr:housenumber" v="9616"/></node><node id="-121" lat="30.176938" lon="-97.672979" changeset="false"><tag k="addr:street" v="Emma Browning Avenue"/><tag k="addr:housenumber" v="5102 1/2"/></node><node id="-122" lat="30.196519" lon="-97.667289" changeset="false"><tag k="addr:street" v="Aircraft Lane"/><tag k="addr:housenumber" v="10101"/></node><node id="-123" lat="30.194655" lon="-97.669192" changeset="false"><tag k="addr:street" v="Maintainers Drive"/><tag k="addr:housenumber" v="10103"/></node><node id="-124" lat="30.211509" lon="-97.670503" changeset="false"><tag k="addr:street" v="Rental Car Lane"/><tag k="addr:housenumber" v="9315"/></node><node id="-125" lat="30.175494" lon="-97.676066" changeset="false"><tag k="addr:street" v="Burleson Road"/><tag k="addr:housenumber" v="9100"/></node><node id="-126" lat="30.170616" lon="-97.663462" changeset="false"><tag k="addr:street" v="Burleson Road"/><tag k="addr:housenumber" v="10200"/></node><node id="-127" lat="30.177329" lon="-97.670036" changeset="false"><tag k="addr:street" v="Emma Browning Avenue"/><tag k="addr:housenumber" v="5108"/></node><node id="-128" lat="30.190253" lon="-97.665776" changeset="false"><tag k="addr:street" v="Metal Road"/><tag k="addr:housenumber" v="10328"/></node><node id="-129" lat="30.180286" lon="-97.684183" changeset="false"><tag k="addr:street" v="Burleson Road"/><tag k="addr:housenumber" v="8510"/></node><node id="-130" lat="30.20401" lon="-97.662794" changeset="false"><tag k="addr:street" v="Service Avenue"/><tag k="addr:housenumber" v="9815"/></node><node id="-131" lat="30.192931" lon="-97.667949" changeset="false"><tag k="addr:street" v="Hangar Drive"/><tag k="addr:housenumber" v="10113"/></node><node id="-132" lat="30.185308" lon="-97.66287" changeset="false"><tag k="addr:street" v="Emma Browning Avenue"/><tag k="addr:housenumber" v="4331 1/2"/></node><node id="-133" lat="30.209096" lon="-97.667889" changeset="false"><tag k="addr:street" v="Presidential Boulevard"/><tag k="addr:housenumber" v="2951"/></node><node id="-134" lat="30.194832" lon="-97.669513" changeset="false"><tag k="addr:street" v="Maintainers Drive"/><tag k="addr:housenumber" v="10104"/></node><node id="-135" lat="30.20844" lon="-97.671157" changeset="false"><tag k="addr:street" v="Spirit of Texas Drive"/><tag k="addr:housenumber" v="3108"/></node><node id="-136" lat="30.180165" lon="-97.684044" changeset="false"><tag k="addr:street" v="Burleson Road"/><tag k="addr:housenumber" v="8524"/></node><node id="-137" lat="30.196231" lon="-97.66151" changeset="false"><tag k="addr:street" v="Emma Browning Avenue"/><tag k="addr:housenumber" v="3215"/></node><node id="-138" lat="30.192607" lon="-97.665795" changeset="false"><tag k="addr:street" v="Bergstrom Drive"/><tag k="addr:housenumber" v="3509"/></node><node id="-139" lat="30.19666" lon="-97.661986" changeset="false"><tag k="addr:street" v="Emma Browning Avenue"/><tag k="addr:housenumber" v="3208"/></node><node id="-140" lat="30.209948" lon="-97.669691" changeset="false"><tag k="addr:street" v="Spirit of Texas Drive"/><tag k="addr:housenumber" v="3014"/></node><node id="-141" lat="30.19515" lon="-97.669035" changeset="false"><tag k="addr:street" v="Maintainers Drive"/><tag k="addr:housenumber" v="10113"/></node><node id="-142" lat="30.183044" lon="-97.687285" changeset="false"><tag k="addr:street" v="Burleson Road"/><tag k="addr:housenumber" v="8300"/></node><node id="-143" lat="30.184318" lon="-97.663781" changeset="false"><tag k="addr:street" v="Emma Browning Avenue"/><tag k="addr:housenumber" v="4500"/></node><node id="-144" lat="30.177678" lon="-97.668583" changeset="false"><tag k="addr:street" v="Emma Browning Avenue"/><tag k="addr:housenumber" v="5100"/></node><node id="-145" lat="30.19701" lon="-97.660741" changeset="false"><tag k="addr:street" v="Emma Browning Avenue"/><tag k="addr:housenumber" v="3019"/></node><node id="-146" lat="30.193198" lon="-97.668591" changeset="false"><tag k="addr:street" v="Hangar Drive"/><tag k="addr:housenumber" v="10106"/></node><node id="-147" lat="30.193192" lon="-97.669225" changeset="false"><tag k="addr:street" v="Hangar Drive"/><tag k="addr:housenumber" v="10100"/></node><node id="-148" lat="30.193307" lon="-97.668889" changeset="false"><tag k="addr:street" v="Hangar Drive"/><tag k="addr:housenumber" v="10104"/></node></osm>