<?xml version="1.0" encoding="UTF-8"?><osm version="0.6" generator="github.com/aaronlidman/osm-and-geojson"><node id="-1" lat="30.390598" lon="-97.702929" changeset="false"><tag k="addr:street" v="Ptarmigan Drive"/><tag k="addr:housenumber" v="11307"/><tag k="coa:place_id" v="249297"/></node><node id="-2" lat="30.393187" lon="-97.698507" changeset="false"><tag k="addr:street" v="Bittern Hollow"/><tag k="addr:housenumber" v="11706"/><tag k="coa:place_id" v="76757"/></node><node id="-3" lat="30.394684" lon="-97.696935" changeset="false"><tag k="addr:street" v="Kathy Lynn Court"/><tag k="addr:housenumber" v="1601"/><tag k="coa:place_id" v="964725"/></node><node id="-4" lat="30.391846" lon="-97.701385" changeset="false"><tag k="addr:street" v="Ruffed Grouse Drive"/><tag k="addr:housenumber" v="11505"/><tag k="coa:place_id" v="712713"/></node><node id="-5" lat="30.390051" lon="-97.702091" changeset="false"><tag k="addr:street" v="West Braker Lane"/><tag k="addr:housenumber" v="1702"/><tag k="coa:place_id" v="424785"/></node><node id="-6" lat="30.392876" lon="-97.698629" changeset="false"><tag k="addr:street" v="Bittern Hollow"/><tag k="addr:housenumber" v="11702"/><tag k="coa:place_id" v="76756"/></node><node id="-7" lat="30.394797" lon="-97.697159" changeset="false"><tag k="addr:street" v="Kathy Lynn Court"/><tag k="addr:housenumber" v="1601 1/2"/><tag k="coa:place_id" v="5214363"/></node><node id="-8" lat="30.390473" lon="-97.702937" changeset="false"><tag k="addr:street" v="West Braker Lane"/><tag k="addr:housenumber" v="1712"/><tag k="coa:place_id" v="489435"/></node><node id="-9" lat="30.396657" lon="-97.69824" changeset="false"><tag k="addr:street" v="Woodwind Lane"/><tag k="addr:housenumber" v="1702"/><tag k="coa:place_id" v="862389"/></node><node id="-10" lat="30.390738" lon="-97.701549" changeset="false"><tag k="addr:street" v="Hidden Quail Drive"/><tag k="addr:housenumber" v="11401"/><tag k="coa:place_id" v="600315"/></node></osm>