<?xml version="1.0" encoding="UTF-8"?><osm version="0.6" generator="github.com/aaronlidman/osm-and-geojson"><node id="-1" lat="30.335856" lon="-97.79715" changeset="false"><tag k="addr:street" v="Westlake Drive"/><tag k="addr:housenumber" v="4155"/><tag k="coa:place_id" v="221967"/></node><node id="-2" lat="30.329286" lon="-97.784153" changeset="false"><tag k="addr:street" v="Rockcliff Road"/><tag k="addr:housenumber" v="1100"/><tag k="coa:place_id" v="130624"/></node><node id="-3" lat="30.334522" lon="-97.786458" changeset="false"><tag k="addr:street" v="Shadow Oak Lane"/><tag k="addr:housenumber" v="4307"/><tag k="coa:place_id" v="56442"/></node><node id="-4" lat="30.333864" lon="-97.791251" changeset="false"><tag k="addr:street" v="Green Falls Court"/><tag k="addr:housenumber" v="5206"/><tag k="coa:place_id" v="113303"/></node><node id="-5" lat="30.334644" lon="-97.793857" changeset="false"><tag k="addr:street" v="Ravine Ridge Trail"/><tag k="addr:housenumber" v="4103"/><tag k="coa:place_id" v="132093"/></node><node id="-6" lat="30.335754" lon="-97.80308" changeset="false"><tag k="addr:street" v="Long Champ Court"/><tag k="addr:housenumber" v="6010"/><tag k="coa:place_id" v="254488"/></node><node id="-7" lat="30.341041" lon="-97.798687" changeset="false"><tag k="addr:street" v="Long Champ Drive"/><tag k="addr:housenumber" v="4404"/><tag k="coa:place_id" v="77901"/></node><node id="-8" lat="30.334885" lon="-97.787011" changeset="false"><tag k="addr:street" v="Shadow Oak Lane"/><tag k="addr:housenumber" v="4316"/><tag k="coa:place_id" v="751516"/></node><node id="-9" lat="30.329103" lon="-97.783216" changeset="false"><tag k="addr:street" v="Lakeplace Lane"/><tag k="addr:housenumber" v="4000"/><tag k="coa:place_id" v="757474"/></node><node id="-10" lat="30.335108" lon="-97.787319" changeset="false"><tag k="addr:street" v="Shadow Oak Lane"/><tag k="addr:housenumber" v="4320"/><tag k="coa:place_id" v="743344"/></node><node id="-11" lat="30.336994" lon="-97.786295" changeset="false"><tag k="addr:street" v="Rockcliff Road"/><tag k="addr:housenumber" v="1430"/><tag k="coa:place_id" v="114229"/></node><node id="-12" lat="30.342781" lon="-97.798204" changeset="false"><tag k="addr:street" v="Long Champ Drive"/><tag k="addr:housenumber" v="4408 1/2"/><tag k="coa:place_id" v="1160292"/></node><node id="-13" lat="30.340864" lon="-97.798818" changeset="false"><tag k="addr:street" v="Long Champ Drive"/><tag k="addr:housenumber" v="4400"/><tag k="coa:place_id" v="625360"/></node><node id="-14" lat="30.348555" lon="-97.797258" changeset="false"><tag k="addr:street" v="Capital of Texas Highway"/><tag k="addr:housenumber" v="5019"/><tag k="coa:place_id" v="3178922"/></node><node id="-15" lat="30.334285" lon="-97.789087" changeset="false"><tag k="addr:street" v="Green Cliffs Road"/><tag k="addr:housenumber" v="4109"/><tag k="coa:place_id" v="113310"/></node><node id="-16" lat="30.329206" lon="-97.782715" changeset="false"><tag k="addr:street" v="Lakeplace Lane"/><tag k="addr:housenumber" v="4001"/><tag k="coa:place_id" v="59893"/></node><node id="-17" lat="30.340972" lon="-97.790923" changeset="false"><tag k="addr:street" v="Rockcliff Road"/><tag k="addr:housenumber" v="1808"/><tag k="coa:place_id" v="157094"/></node><node id="-18" lat="30.338718" lon="-97.789738" changeset="false"><tag k="addr:street" v="Maryanna Drive"/><tag k="addr:housenumber" v="5400"/><tag k="coa:place_id" v="60943"/></node><node id="-19" lat="30.321778" lon="-97.778391" changeset="false"><tag k="addr:street" v="Westlake Drive"/><tag k="addr:housenumber" v="3415"/><tag k="coa:place_id" v="156746"/></node><node id="-20" lat="30.339364" lon="-97.791687" changeset="false"><tag k="addr:street" v="Windy Cove"/><tag k="addr:housenumber" v="4400"/><tag k="coa:place_id" v="1148161"/></node><node id="-21" lat="30.334299" lon="-97.786589" changeset="false"><tag k="addr:street" v="Shadow Oak Lane"/><tag k="addr:housenumber" v="4305"/><tag k="coa:place_id" v="56443"/></node><node id="-22" lat="30.34274" lon="-97.791796" changeset="false"><tag k="addr:street" v="Laguna Lane"/><tag k="addr:housenumber" v="4711"/><tag k="coa:place_id" v="3071148"/></node><node id="-23" lat="30.342158" lon="-97.788886" changeset="false"><tag k="addr:street" v="Channel Road"/><tag k="addr:housenumber" v="1702"/><tag k="coa:place_id" v="241010"/></node><node id="-24" lat="30.333425" lon="-97.791605" changeset="false"><tag k="addr:street" v="Green Falls Court"/><tag k="addr:housenumber" v="5205"/><tag k="coa:place_id" v="113299"/></node><node id="-25" lat="30.331722" lon="-97.788228" changeset="false"><tag k="addr:street" v="Shadow Oak Lane"/><tag k="addr:housenumber" v="4005"/><tag k="coa:place_id" v="755596"/></node><node id="-26" lat="30.3479" lon="-97.797675" changeset="false"><tag k="addr:street" v="Capital of Texas Highway"/><tag k="addr:housenumber" v="4920"/><tag k="coa:place_id" v="227366"/></node><node id="-27" lat="30.336348" lon="-97.804176" changeset="false"><tag k="addr:street" v="Capital of Texas Highway"/><tag k="addr:housenumber" v="3801"/><tag k="coa:place_id" v="301768"/></node><node id="-28" lat="30.341068" lon="-97.791601" changeset="false"><tag k="addr:street" v="Rockcliff Road"/><tag k="addr:housenumber" v="4625"/><tag k="coa:place_id" v="3043422"/></node><node id="-29" lat="30.33525" lon="-97.79454" changeset="false"><tag k="addr:street" v="Ravine Ridge Cove"/><tag k="addr:housenumber" v="5501"/><tag k="coa:place_id" v="3029105"/></node><node id="-30" lat="30.336823" lon="-97.78793" changeset="false"><tag k="addr:street" v="Green Cliffs Road"/><tag k="addr:housenumber" v="4403"/><tag k="coa:place_id" v="113321"/></node><node id="-31" lat="30.331867" lon="-97.783511" changeset="false"><tag k="addr:street" v="Hidden Canyon Cove"/><tag k="addr:housenumber" v="4209"/><tag k="coa:place_id" v="683686"/></node><node id="-32" lat="30.331367" lon="-97.788644" changeset="false"><tag k="addr:street" v="Shadow Oak Lane"/><tag k="addr:housenumber" v="4003"/><tag k="coa:place_id" v="107388"/></node><node id="-33" lat="30.336439" lon="-97.789795" changeset="false"><tag k="addr:street" v="Park Hollow Lane"/><tag k="addr:housenumber" v="5301"/><tag k="coa:place_id" v="60938"/></node><node id="-34" lat="30.334468" lon="-97.801323" changeset="false"><tag k="addr:street" v="Westlake Drive"/><tag k="addr:housenumber" v="4231"/><tag k="coa:place_id" v="156926"/></node><node id="-35" lat="30.3336" lon="-97.799076" changeset="false"><tag k="addr:street" v="Westlake Drive"/><tag k="addr:housenumber" v="4187"/><tag k="coa:place_id" v="221963"/></node><node id="-36" lat="30.32979" lon="-97.782983" changeset="false"><tag k="addr:street" v="Lakeplace Lane"/><tag k="addr:housenumber" v="4102"/><tag k="coa:place_id" v="59897"/></node><node id="-37" lat="30.334736" lon="-97.786302" changeset="false"><tag k="addr:street" v="Shadow Oak Lane"/><tag k="addr:housenumber" v="4311"/><tag k="coa:place_id" v="56441"/></node><node id="-38" lat="30.320997" lon="-97.77782" changeset="false"><tag k="addr:street" v="Westlake Drive"/><tag k="addr:housenumber" v="3411"/><tag k="coa:place_id" v="156734"/></node><node id="-39" lat="30.343996" lon="-97.798842" changeset="false"><tag k="addr:street" v="Long Champ Drive"/><tag k="addr:housenumber" v="4486"/><tag k="coa:place_id" v="209581"/></node><node id="-40" lat="30.340781" lon="-97.790568" changeset="false"><tag k="addr:street" v="Rockcliff Road"/><tag k="addr:housenumber" v="1804"/><tag k="coa:place_id" v="193011"/></node><node id="-41" lat="30.332739" lon="-97.788485" changeset="false"><tag k="addr:street" v="Shadow Oak Lane"/><tag k="addr:housenumber" v="4100"/><tag k="coa:place_id" v="667924"/></node><node id="-42" lat="30.34393" lon="-97.798878" changeset="false"><tag k="addr:street" v="Long Champ Drive"/><tag k="addr:housenumber" v="4482"/><tag k="coa:place_id" v="209585"/></node><node id="-43" lat="30.336947" lon="-97.785864" changeset="false"><tag k="addr:street" v="Rockcliff Road"/><tag k="addr:housenumber" v="1410"/><tag k="coa:place_id" v="157166"/></node><node id="-44" lat="30.336053" lon="-97.784866" changeset="false"><tag k="addr:street" v="Rockcliff Road"/><tag k="addr:housenumber" v="1402"/><tag k="coa:place_id" v="157196"/></node><node id="-45" lat="30.320991" lon="-97.778352" changeset="false"><tag k="addr:street" v="Westlake Drive"/><tag k="addr:housenumber" v="3409"/><tag k="coa:place_id" v="156722"/></node><node id="-46" lat="30.330472" lon="-97.781811" changeset="false"><tag k="addr:street" v="Lakeplace Lane"/><tag k="addr:housenumber" v="4107"/><tag k="coa:place_id" v="118725"/></node><node id="-47" lat="30.329707" lon="-97.783184" changeset="false"><tag k="addr:street" v="Lakeplace Lane"/><tag k="addr:housenumber" v="4100"/><tag k="coa:place_id" v="699478"/></node><node id="-48" lat="30.333009" lon="-97.785722" changeset="false"><tag k="addr:street" v="Hidden Canyon Cove"/><tag k="addr:housenumber" v="4226"/><tag k="coa:place_id" v="596584"/></node><node id="-49" lat="30.335647" lon="-97.791895" changeset="false"><tag k="addr:street" v="Park Hollow Court"/><tag k="addr:housenumber" v="4212"/><tag k="coa:place_id" v="60962"/></node><node id="-50" lat="30.332662" lon="-97.783052" changeset="false"><tag k="addr:street" v="Rockcliff Road"/><tag k="addr:housenumber" v="1210"/><tag k="coa:place_id" v="156860"/></node><node id="-51" lat="30.343886" lon="-97.798859" changeset="false"><tag k="addr:street" v="Long Champ Drive"/><tag k="addr:housenumber" v="4480"/><tag k="coa:place_id" v="209586"/></node><node id="-52" lat="30.338824" lon="-97.791495" changeset="false"><tag k="addr:street" v="Rockcliff Road"/><tag k="addr:housenumber" v="4668"/><tag k="coa:place_id" v="301780"/></node><node id="-53" lat="30.333239" lon="-97.783216" changeset="false"><tag k="addr:street" v="Rockcliff Road"/><tag k="addr:housenumber" v="1230"/><tag k="coa:place_id" v="228059"/></node><node id="-54" lat="30.333781" lon="-97.785825" changeset="false"><tag k="addr:street" v="Hidden Canyon Cove"/><tag k="addr:housenumber" v="4235"/><tag k="coa:place_id" v="50527"/></node><node id="-55" lat="30.342282" lon="-97.801007" changeset="false"><tag k="addr:street" v="Capital of Texas Highway"/><tag k="addr:housenumber" v="4401"/><tag k="coa:place_id" v="3178382"/></node><node id="-56" lat="30.343598" lon="-97.799734" changeset="false"><tag k="addr:street" v="Capital of Texas Highway"/><tag k="addr:housenumber" v="4601"/><tag k="coa:place_id" v="525538"/></node><node id="-57" lat="30.331574" lon="-97.787319" changeset="false"><tag k="addr:street" v="Hidden Canyon Cove"/><tag k="addr:housenumber" v="4101"/><tag k="coa:place_id" v="553402"/></node><node id="-58" lat="30.338153" lon="-97.793409" changeset="false"><tag k="addr:street" v="Ravine Ridge Trail"/><tag k="addr:housenumber" v="4316"/><tag k="coa:place_id" v="130453"/></node><node id="-59" lat="30.328266" lon="-97.781859" changeset="false"><tag k="addr:street" v="Westlake Drive"/><tag k="addr:housenumber" v="3951"/><tag k="coa:place_id" v="156884"/></node><node id="-60" lat="30.324375" lon="-97.779211" changeset="false"><tag k="addr:street" v="Westlake Drive"/><tag k="addr:housenumber" v="3707"/><tag k="coa:place_id" v="156770"/></node><node id="-61" lat="30.334342" lon="-97.790001" changeset="false"><tag k="addr:street" v="Green Cliffs Road"/><tag k="addr:housenumber" v="4104"/><tag k="coa:place_id" v="110591"/></node><node id="-62" lat="30.335744" lon="-97.801773" changeset="false"><tag k="addr:street" v="Long Champ Court"/><tag k="addr:housenumber" v="6004"/><tag k="coa:place_id" v="139560"/></node><node id="-63" lat="30.344907" lon="-97.798928" changeset="false"><tag k="addr:street" v="Capital of Texas Highway"/><tag k="addr:housenumber" v="4809"/><tag k="coa:place_id" v="312658"/></node><node id="-64" lat="30.334886" lon="-97.78968" changeset="false"><tag k="addr:street" v="Green Cliffs Road"/><tag k="addr:housenumber" v="4200"/><tag k="coa:place_id" v="724660"/></node><node id="-65" lat="30.342068" lon="-97.79044" changeset="false"><tag k="addr:street" v="Channel Road"/><tag k="addr:housenumber" v="1711"/><tag k="coa:place_id" v="156956"/></node><node id="-66" lat="30.332341" lon="-97.783985" changeset="false"><tag k="addr:street" v="Hidden Canyon Cove"/><tag k="addr:housenumber" v="4213"/><tag k="coa:place_id" v="729526"/></node><node id="-67" lat="30.341787" lon="-97.788455" changeset="false"><tag k="addr:street" v="Rockcliff Road"/><tag k="addr:housenumber" v="1610"/><tag k="coa:place_id" v="466281"/></node><node id="-68" lat="30.339408" lon="-97.791391" changeset="false"><tag k="addr:street" v="Rockcliff Road"/><tag k="addr:housenumber" v="4662"/><tag k="coa:place_id" v="948201"/></node><node id="-69" lat="30.328266" lon="-97.78189" changeset="false"><tag k="addr:street" v="Westlake Drive"/><tag k="addr:housenumber" v="3953"/><tag k="coa:place_id" v="156890"/></node><node id="-70" lat="30.33558" lon="-97.790436" changeset="false"><tag k="addr:street" v="Park Hollow Lane"/><tag k="addr:housenumber" v="5309"/><tag k="coa:place_id" v="60940"/></node><node id="-71" lat="30.327536" lon="-97.782334" changeset="false"><tag k="addr:street" v="Westlake Drive"/><tag k="addr:housenumber" v="3909"/><tag k="coa:place_id" v="239078"/></node><node id="-72" lat="30.336208" lon="-97.801266" changeset="false"><tag k="addr:street" v="Belmont Park Drive"/><tag k="addr:housenumber" v="3910"/><tag k="coa:place_id" v="139561"/></node><node id="-73" lat="30.34495" lon="-97.798876" changeset="false"><tag k="addr:street" v="Capital of Texas Highway"/><tag k="addr:housenumber" v="4801"/><tag k="coa:place_id" v="330274"/></node><node id="-74" lat="30.333609" lon="-97.799075" changeset="false"><tag k="addr:street" v="Westlake Drive"/><tag k="addr:housenumber" v="4181"/><tag k="coa:place_id" v="1148173"/></node><node id="-75" lat="30.344012" lon="-97.798908" changeset="false"><tag k="addr:street" v="Long Champ Drive"/><tag k="addr:housenumber" v="4488"/><tag k="coa:place_id" v="209580"/></node><node id="-76" lat="30.338065" lon="-97.788861" changeset="false"><tag k="addr:street" v="Maryanna Drive"/><tag k="addr:housenumber" v="5300"/><tag k="coa:place_id" v="60946"/></node><node id="-77" lat="30.336875" lon="-97.794696" changeset="false"><tag k="addr:street" v="Ravine Ridge Trail"/><tag k="addr:housenumber" v="4208"/><tag k="coa:place_id" v="126841"/></node><node id="-78" lat="30.333063" lon="-97.787518" changeset="false"><tag k="addr:street" v="Shadow Oak Lane"/><tag k="addr:housenumber" v="4107"/><tag k="coa:place_id" v="652954"/></node><node id="-79" lat="30.332341" lon="-97.784525" changeset="false"><tag k="addr:street" v="Hidden Canyon Cove"/><tag k="addr:housenumber" v="4208"/><tag k="coa:place_id" v="710392"/></node><node id="-80" lat="30.335323" lon="-97.802885" changeset="false"><tag k="addr:street" v="Long Champ Court"/><tag k="addr:housenumber" v="6005"/><tag k="coa:place_id" v="140087"/></node><node id="-81" lat="30.335113" lon="-97.797833" changeset="false"><tag k="addr:street" v="Westlake Drive"/><tag k="addr:housenumber" v="4161"/><tag k="coa:place_id" v="221965"/></node><node id="-82" lat="30.338364" lon="-97.800361" changeset="false"><tag k="addr:street" v="Saratoga Cove"/><tag k="addr:housenumber" v="5909 1/2"/><tag k="coa:place_id" v="210127"/></node><node id="-83" lat="30.338173" lon="-97.802598" changeset="false"><tag k="addr:street" v="Long Champ Drive"/><tag k="addr:housenumber" v="4010"/><tag k="coa:place_id" v="441802"/></node><node id="-84" lat="30.336166" lon="-97.788785" changeset="false"><tag k="addr:street" v="Green Cliffs Road"/><tag k="addr:housenumber" v="4304"/><tag k="coa:place_id" v="113323"/></node><node id="-85" lat="30.335292" lon="-97.786468" changeset="false"><tag k="addr:street" v="Shadow Oak Lane"/><tag k="addr:housenumber" v="4315"/><tag k="coa:place_id" v="56439"/></node><node id="-86" lat="30.335291" lon="-97.788328" changeset="false"><tag k="addr:street" v="Green Cliffs Road"/><tag k="addr:housenumber" v="4301"/><tag k="coa:place_id" v="113315"/></node><node id="-87" lat="30.330919" lon="-97.78783" changeset="false"><tag k="addr:street" v="Westlake Drive"/><tag k="addr:housenumber" v="4021"/><tag k="coa:place_id" v="553408"/></node><node id="-88" lat="30.337451" lon="-97.794191" changeset="false"><tag k="addr:street" v="Ravine Ridge Trail"/><tag k="addr:housenumber" v="4304"/><tag k="coa:place_id" v="126844"/></node><node id="-89" lat="30.321099" lon="-97.778604" changeset="false"><tag k="addr:street" v="Westlake Drive"/><tag k="addr:housenumber" v="3407"/><tag k="coa:place_id" v="156740"/></node><node id="-90" lat="30.334285" lon="-97.792519" changeset="false"><tag k="addr:street" v="Rockcliff Road"/><tag k="addr:housenumber" v="4720"/><tag k="coa:place_id" v="3219532"/></node><node id="-91" lat="30.335734" lon="-97.794751" changeset="false"><tag k="addr:street" v="Ravine Ridge Cove"/><tag k="addr:housenumber" v="5500"/><tag k="coa:place_id" v="145889"/></node><node id="-92" lat="30.335686" lon="-97.793852" changeset="false"><tag k="addr:street" v="Ravine Ridge Trail"/><tag k="addr:housenumber" v="4111"/><tag k="coa:place_id" v="126852"/></node><node id="-93" lat="30.335069" lon="-97.795388" changeset="false"><tag k="addr:street" v="Westlake Drive"/><tag k="addr:housenumber" v="4133"/><tag k="coa:place_id" v="684262"/></node><node id="-94" lat="30.336014" lon="-97.791784" changeset="false"><tag k="addr:street" v="Park Hollow Lane"/><tag k="addr:housenumber" v="5407"/><tag k="coa:place_id" v="120301"/></node><node id="-95" lat="30.335338" lon="-97.787662" changeset="false"><tag k="addr:street" v="Shadow Oak Lane"/><tag k="addr:housenumber" v="4322"/><tag k="coa:place_id" v="737986"/></node><node id="-96" lat="30.332322" lon="-97.788015" changeset="false"><tag k="addr:street" v="Shadow Oak Lane"/><tag k="addr:housenumber" v="4101"/><tag k="coa:place_id" v="696520"/></node><node id="-97" lat="30.339422" lon="-97.798347" changeset="false"><tag k="addr:street" v="Churchill Downs Drive"/><tag k="addr:housenumber" v="4306"/><tag k="coa:place_id" v="312634"/></node><node id="-98" lat="30.33902" lon="-97.792017" changeset="false"><tag k="addr:street" v="Windy Cove"/><tag k="addr:housenumber" v="4404"/><tag k="coa:place_id" v="1148159"/></node><node id="-99" lat="30.342705" lon="-97.79038" changeset="false"><tag k="addr:street" v="Channel Road"/><tag k="addr:housenumber" v="1717"/><tag k="coa:place_id" v="3215085"/></node><node id="-100" lat="30.33023" lon="-97.787229" changeset="false"><tag k="addr:street" v="Westlake Drive"/><tag k="addr:housenumber" v="4011"/><tag k="coa:place_id" v="50539"/></node><node id="-101" lat="30.329423" lon="-97.785638" changeset="false"><tag k="addr:street" v="Westlake Drive"/><tag k="addr:housenumber" v="3987"/><tag k="coa:place_id" v="50534"/></node><node id="-102" lat="30.329604" lon="-97.786006" changeset="false"><tag k="addr:street" v="Westlake Drive"/><tag k="addr:housenumber" v="3993"/><tag k="coa:place_id" v="50535"/></node><node id="-103" lat="30.329959" lon="-97.786743" changeset="false"><tag k="addr:street" v="Westlake Drive"/><tag k="addr:housenumber" v="4005"/><tag k="coa:place_id" v="50538"/></node><node id="-104" lat="30.329218" lon="-97.785269" changeset="false"><tag k="addr:street" v="Westlake Drive"/><tag k="addr:housenumber" v="3981"/><tag k="coa:place_id" v="50533"/></node><node id="-105" lat="30.329007" lon="-97.784923" changeset="false"><tag k="addr:street" v="Westlake Drive"/><tag k="addr:housenumber" v="3975"/><tag k="coa:place_id" v="723394"/></node><node id="-106" lat="30.329782" lon="-97.786375" changeset="false"><tag k="addr:street" v="Westlake Drive"/><tag k="addr:housenumber" v="3999"/><tag k="coa:place_id" v="714472"/></node><node id="-107" lat="30.343976" lon="-97.798895" changeset="false"><tag k="addr:street" v="Long Champ Drive"/><tag k="addr:housenumber" v="4484"/><tag k="coa:place_id" v="209584"/></node><node id="-108" lat="30.335596" lon="-97.786921" changeset="false"><tag k="addr:street" v="Shadow Oak Lane"/><tag k="addr:housenumber" v="4319"/><tag k="coa:place_id" v="56437"/></node><node id="-109" lat="30.342965" lon="-97.789944" changeset="false"><tag k="addr:street" v="Channel Road"/><tag k="addr:housenumber" v="1740"/><tag k="coa:place_id" v="392302"/></node><node id="-110" lat="30.336656" lon="-97.785474" changeset="false"><tag k="addr:street" v="Rockcliff Road"/><tag k="addr:housenumber" v="1408"/><tag k="coa:place_id" v="157178"/></node><node id="-111" lat="30.332217" lon="-97.790168" changeset="false"><tag k="addr:street" v="Westlake Drive"/><tag k="addr:housenumber" v="4057"/><tag k="coa:place_id" v="537460"/></node><node id="-112" lat="30.331952" lon="-97.787654" changeset="false"><tag k="addr:street" v="Hidden Canyon Cove"/><tag k="addr:housenumber" v="4005"/><tag k="coa:place_id" v="113383"/></node><node id="-113" lat="30.331399" lon="-97.784053" changeset="false"><tag k="addr:street" v="Hidden Canyon Cove"/><tag k="addr:housenumber" v="4205"/><tag k="coa:place_id" v="50519"/></node><node id="-114" lat="30.331154" lon="-97.784968" changeset="false"><tag k="addr:street" v="Hidden Canyon Cove"/><tag k="addr:housenumber" v="4119"/><tag k="coa:place_id" v="727996"/></node><node id="-115" lat="30.340373" lon="-97.791655" changeset="false"><tag k="addr:street" v="Rockcliff Road"/><tag k="addr:housenumber" v="4646"/><tag k="coa:place_id" v="175158"/></node><node id="-116" lat="30.345991" lon="-97.798031" changeset="false"><tag k="addr:street" v="Capital of Texas Highway"/><tag k="addr:housenumber" v="4819"/><tag k="coa:place_id" v="143863"/></node><node id="-117" lat="30.344233" lon="-97.790998" changeset="false"><tag k="addr:street" v="Channel Road"/><tag k="addr:housenumber" v="1758"/><tag k="coa:place_id" v="157004"/></node><node id="-118" lat="30.338751" lon="-97.800154" changeset="false"><tag k="addr:street" v="Long Champ Drive"/><tag k="addr:housenumber" v="4202"/><tag k="coa:place_id" v="209797"/></node><node id="-119" lat="30.334602" lon="-97.803995" changeset="false"><tag k="addr:street" v="Long Champ Drive"/><tag k="addr:housenumber" v="3701"/><tag k="coa:place_id" v="140088"/></node><node id="-120" lat="30.337108" lon="-97.793644" changeset="false"><tag k="addr:street" v="Ravine Ridge Trail"/><tag k="addr:housenumber" v="4301"/><tag k="coa:place_id" v="133363"/></node><node id="-121" lat="30.333435" lon="-97.786976" changeset="false"><tag k="addr:street" v="Shadow Oak Lane"/><tag k="addr:housenumber" v="4201"/><tag k="coa:place_id" v="651886"/></node><node id="-122" lat="30.338124" lon="-97.793038" changeset="false"><tag k="addr:street" v="Ravine Ridge Trail"/><tag k="addr:housenumber" v="4320"/><tag k="coa:place_id" v="130457"/></node><node id="-123" lat="30.335414" lon="-97.791195" changeset="false"><tag k="addr:street" v="Park Hollow Court"/><tag k="addr:housenumber" v="4205"/><tag k="coa:place_id" v="60956"/></node><node id="-124" lat="30.336149" lon="-97.792296" changeset="false"><tag k="addr:street" v="Rockcliff Road"/><tag k="addr:housenumber" v="4696"/><tag k="coa:place_id" v="301774"/></node><node id="-125" lat="30.332592" lon="-97.785099" changeset="false"><tag k="addr:street" v="Hidden Canyon Cove"/><tag k="addr:housenumber" v="4222"/><tag k="coa:place_id" v="672826"/></node><node id="-126" lat="30.336176" lon="-97.79666" changeset="false"><tag k="addr:street" v="Westlake Drive"/><tag k="addr:housenumber" v="4153"/><tag k="coa:place_id" v="221969"/></node><node id="-127" lat="30.339289" lon="-97.787605" changeset="false"><tag k="addr:street" v="Rockcliff Road"/><tag k="addr:housenumber" v="1504"/><tag k="coa:place_id" v="157142"/></node><node id="-128" lat="30.339192" lon="-97.791852" changeset="false"><tag k="addr:street" v="Windy Cove"/><tag k="addr:housenumber" v="4402"/><tag k="coa:place_id" v="1148160"/></node><node id="-129" lat="30.343456" lon="-97.791339" changeset="false"><tag k="addr:street" v="Laguna Lane"/><tag k="addr:housenumber" v="4807"/><tag k="coa:place_id" v="122403"/></node><node id="-130" lat="30.333755" lon="-97.785503" changeset="false"><tag k="addr:street" v="Hidden Canyon Cove"/><tag k="addr:housenumber" v="4233"/><tag k="coa:place_id" v="50526"/></node><node id="-131" lat="30.33385" lon="-97.787639" changeset="false"><tag k="addr:street" v="Shadow Oak Lane"/><tag k="addr:housenumber" v="4202"/><tag k="coa:place_id" v="696994"/></node><node id="-132" lat="30.335528" lon="-97.802513" changeset="false"><tag k="addr:street" v="Long Champ Court"/><tag k="addr:housenumber" v="6000"/><tag k="coa:place_id" v="139559"/></node><node id="-133" lat="30.340787" lon="-97.792253" changeset="false"><tag k="addr:street" v="Rockcliff Road"/><tag k="addr:housenumber" v="4615"/><tag k="coa:place_id" v="1137227"/></node><node id="-134" lat="30.335775" lon="-97.787218" changeset="false"><tag k="addr:street" v="Shadow Oak Lane"/><tag k="addr:housenumber" v="4323"/><tag k="coa:place_id" v="56436"/></node><node id="-135" lat="30.332741" lon="-97.787185" changeset="false"><tag k="addr:street" v="Hidden Canyon Cove"/><tag k="addr:housenumber" v="4004"/><tag k="coa:place_id" v="113382"/></node><node id="-136" lat="30.332352" lon="-97.786867" changeset="false"><tag k="addr:street" v="Hidden Canyon Cove"/><tag k="addr:housenumber" v="4100"/><tag k="coa:place_id" v="50505"/></node><node id="-137" lat="30.337245" lon="-97.794499" changeset="false"><tag k="addr:street" v="Ravine Ridge Trail"/><tag k="addr:housenumber" v="4300"/><tag k="coa:place_id" v="126843"/></node><node id="-138" lat="30.33506" lon="-97.786255" changeset="false"><tag k="addr:street" v="Shadow Oak Lane"/><tag k="addr:housenumber" v="4313"/><tag k="coa:place_id" v="56440"/></node><node id="-139" lat="30.3397" lon="-97.791979" changeset="false"><tag k="addr:street" v="Rockcliff Road"/><tag k="addr:housenumber" v="4643"/><tag k="coa:place_id" v="1123187"/></node><node id="-140" lat="30.33302" lon="-97.791283" changeset="false"><tag k="addr:street" v="Green Falls Court"/><tag k="addr:housenumber" v="5201"/><tag k="coa:place_id" v="122085"/></node><node id="-141" lat="30.332734" lon="-97.784216" changeset="false"><tag k="addr:street" v="Hidden Canyon Cove"/><tag k="addr:housenumber" v="4217"/><tag k="coa:place_id" v="50522"/></node><node id="-142" lat="30.334873" lon="-97.790851" changeset="false"><tag k="addr:street" v="Park Hollow Court"/><tag k="addr:housenumber" v="4200"/><tag k="coa:place_id" v="60958"/></node><node id="-143" lat="30.338848" lon="-97.792182" changeset="false"><tag k="addr:street" v="Windy Cove"/><tag k="addr:housenumber" v="4406"/><tag k="coa:place_id" v="1148158"/></node><node id="-144" lat="30.335205" lon="-97.786779" changeset="false"><tag k="addr:street" v="Shadow Oak Lane"/><tag k="addr:housenumber" v="4317"/><tag k="coa:place_id" v="56438"/></node><node id="-145" lat="30.336664" lon="-97.791834" changeset="false"><tag k="addr:street" v="Park Hollow Lane"/><tag k="addr:housenumber" v="5404"/><tag k="coa:place_id" v="125838"/></node><node id="-146" lat="30.326616" lon="-97.780291" changeset="false"><tag k="addr:street" v="Westlake Drive"/><tag k="addr:housenumber" v="3823"/><tag k="coa:place_id" v="139423"/></node><node id="-147" lat="30.335399" lon="-97.79742" changeset="false"><tag k="addr:street" v="Westlake Drive"/><tag k="addr:housenumber" v="4157 1/2"/><tag k="coa:place_id" v="3263855"/></node><node id="-148" lat="30.335734" lon="-97.789046" changeset="false"><tag k="addr:street" v="Green Cliffs Road"/><tag k="addr:housenumber" v="4300"/><tag k="coa:place_id" v="113327"/></node><node id="-149" lat="30.341704" lon="-97.789408" changeset="false"><tag k="addr:street" v="Channel Road"/><tag k="addr:housenumber" v="1701"/><tag k="coa:place_id" v="643708"/></node><node id="-150" lat="30.341821" lon="-97.789486" changeset="false"><tag k="addr:street" v="Channel Road"/><tag k="addr:housenumber" v="1705"/><tag k="coa:place_id" v="156992"/></node><node id="-151" lat="30.34172" lon="-97.789447" changeset="false"><tag k="addr:street" v="Channel Road"/><tag k="addr:housenumber" v="1703"/><tag k="coa:place_id" v="156986"/></node></osm>