<?xml version="1.0" encoding="UTF-8"?><osm version="0.6" generator="github.com/aaronlidman/osm-and-geojson"><node id="-1" lat="30.435737" lon="-97.795442" changeset="false"><tag k="addr:street" v="Bing Cherry Lane"/><tag k="addr:housenumber" v="9415"/></node><node id="-2" lat="30.4289" lon="-97.794242" changeset="false"><tag k="addr:street" v="Marybank Drive"/><tag k="addr:housenumber" v="9101"/></node><node id="-3" lat="30.433753" lon="-97.794575" changeset="false"><tag k="addr:street" v="Sacahuista Court"/><tag k="addr:housenumber" v="11201"/></node><node id="-4" lat="30.433766" lon="-97.795819" changeset="false"><tag k="addr:street" v="Topridge Drive"/><tag k="addr:housenumber" v="9308"/></node><node id="-5" lat="30.4317" lon="-97.789952" changeset="false"><tag k="addr:street" v="Evening Primrose Path"/><tag k="addr:housenumber" v="9012"/></node><node id="-6" lat="30.42649" lon="-97.794215" changeset="false"><tag k="addr:street" v="Scottish Pastures Drive"/><tag k="addr:housenumber" v="8913"/></node><node id="-7" lat="30.43489" lon="-97.799404" changeset="false"><tag k="addr:street" v="Topridge Drive"/><tag k="addr:housenumber" v="9518"/></node><node id="-8" lat="30.426872" lon="-97.789466" changeset="false"><tag k="addr:street" v="Callanish Park Drive"/><tag k="addr:housenumber" v="10807"/></node><node id="-9" lat="30.430814" lon="-97.78981" changeset="false"><tag k="addr:street" v="Callanish Park Drive"/><tag k="addr:housenumber" v="11107"/></node><node id="-10" lat="30.42907" lon="-97.789056" changeset="false"><tag k="addr:street" v="Callanish Park Drive"/><tag k="addr:housenumber" v="10911"/></node><node id="-11" lat="30.432217" lon="-97.791316" changeset="false"><tag k="addr:street" v="Evening Primrose Path"/><tag k="addr:housenumber" v="9021"/></node><node id="-12" lat="30.424693" lon="-97.794857" changeset="false"><tag k="addr:street" v="Tweedsmuir Drive"/><tag k="addr:housenumber" v="10411"/></node><node id="-13" lat="30.427192" lon="-97.795468" changeset="false"><tag k="addr:street" v="Tweedsmuir Drive"/><tag k="addr:housenumber" v="10609"/></node><node id="-14" lat="30.427089" lon="-97.789324" changeset="false"><tag k="addr:street" v="Callanish Park Drive"/><tag k="addr:housenumber" v="10809"/></node><node id="-15" lat="30.432166" lon="-97.792276" changeset="false"><tag k="addr:street" v="Callanish Park Drive"/><tag k="addr:housenumber" v="11131"/></node><node id="-16" lat="30.435629" lon="-97.793346" changeset="false"><tag k="addr:street" v="Evening Primrose Path"/><tag k="addr:housenumber" v="9220"/></node><node id="-17" lat="30.436859" lon="-97.793937" changeset="false"><tag k="addr:street" v="Spring Lake Drive"/><tag k="addr:housenumber" v="9000"/></node><node id="-18" lat="30.428397" lon="-97.788853" changeset="false"><tag k="addr:street" v="Callanish Park Drive"/><tag k="addr:housenumber" v="10905"/></node><node id="-19" lat="30.425862" lon="-97.792072" changeset="false"><tag k="addr:street" v="Mc Farlie Cove"/><tag k="addr:housenumber" v="10607"/></node><node id="-20" lat="30.436442" lon="-97.799127" changeset="false"><tag k="addr:street" v="Spicewood Parkway"/><tag k="addr:housenumber" v="11105"/></node><node id="-21" lat="30.430665" lon="-97.789611" changeset="false"><tag k="addr:street" v="Callanish Park Drive"/><tag k="addr:housenumber" v="11105"/></node><node id="-22" lat="30.426807" lon="-97.794936" changeset="false"><tag k="addr:street" v="Scottish Pastures Drive"/><tag k="addr:housenumber" v="8914"/></node><node id="-23" lat="30.426619" lon="-97.793483" changeset="false"><tag k="addr:street" v="Loch Ness Cove"/><tag k="addr:housenumber" v="10700"/></node><node id="-24" lat="30.433395" lon="-97.792238" changeset="false"><tag k="addr:street" v="Topridge Drive"/><tag k="addr:housenumber" v="9101"/></node><node id="-25" lat="30.436759" lon="-97.793569" changeset="false"><tag k="addr:street" v="Spring Lake Drive"/><tag k="addr:housenumber" v="8914"/></node><node id="-26" lat="30.428049" lon="-97.791533" changeset="false"><tag k="addr:street" v="Marybank Drive"/><tag k="addr:housenumber" v="8902"/></node><node id="-27" lat="30.42792" lon="-97.789038" changeset="false"><tag k="addr:street" v="Callanish Park Drive"/><tag k="addr:housenumber" v="10901"/></node><node id="-28" lat="30.428243" lon="-97.793293" changeset="false"><tag k="addr:street" v="Low Bridge Lane"/><tag k="addr:housenumber" v="10802"/></node><node id="-29" lat="30.42646" lon="-97.790214" changeset="false"><tag k="addr:street" v="Scotsman Drive"/><tag k="addr:housenumber" v="8800"/></node><node id="-30" lat="30.429148" lon="-97.794705" changeset="false"><tag k="addr:street" v="Marybank Drive"/><tag k="addr:housenumber" v="9105"/></node><node id="-31" lat="30.429047" lon="-97.794465" changeset="false"><tag k="addr:street" v="Marybank Drive"/><tag k="addr:housenumber" v="9103"/></node><node id="-32" lat="30.432329" lon="-97.793058" changeset="false"><tag k="addr:street" v="Callanish Park Drive"/><tag k="addr:housenumber" v="11137"/></node><node id="-33" lat="30.424923" lon="-97.794938" changeset="false"><tag k="addr:street" v="Tweedsmuir Drive"/><tag k="addr:housenumber" v="10501"/></node><node id="-34" lat="30.427824" lon="-97.791975" changeset="false"><tag k="addr:street" v="Marybank Drive"/><tag k="addr:housenumber" v="8905"/></node><node id="-35" lat="30.425427" lon="-97.795657" changeset="false"><tag k="addr:street" v="Tweedsmuir Drive"/><tag k="addr:housenumber" v="10506"/></node><node id="-36" lat="30.437581" lon="-97.798324" changeset="false"><tag k="addr:street" v="Spicewood Parkway"/><tag k="addr:housenumber" v="11205"/></node><node id="-37" lat="30.434795" lon="-97.7904" changeset="false"><tag k="addr:street" v="Spring Lake Drive"/><tag k="addr:housenumber" v="8800"/></node><node id="-38" lat="30.427016" lon="-97.795355" changeset="false"><tag k="addr:street" v="Tweedsmuir Drive"/><tag k="addr:housenumber" v="10607"/></node><node id="-39" lat="30.435777" lon="-97.793602" changeset="false"><tag k="addr:street" v="Evening Primrose Path"/><tag k="addr:housenumber" v="9300"/></node><node id="-40" lat="30.435786" lon="-97.795704" changeset="false"><tag k="addr:street" v="Bing Cherry Lane"/><tag k="addr:housenumber" v="9419"/></node><node id="-41" lat="30.432441" lon="-97.790438" changeset="false"><tag k="addr:street" v="Evening Primrose Path"/><tag k="addr:housenumber" v="9020"/></node><node id="-42" lat="30.432173" lon="-97.790486" changeset="false"><tag k="addr:street" v="Evening Primrose Path"/><tag k="addr:housenumber" v="9016"/></node><node id="-43" lat="30.426221" lon="-97.790906" changeset="false"><tag k="addr:street" v="Scotsman Drive"/><tag k="addr:housenumber" v="8805"/></node><node id="-44" lat="30.432049" lon="-97.792045" changeset="false"><tag k="addr:street" v="Callanish Park Drive"/><tag k="addr:housenumber" v="11129"/></node><node id="-45" lat="30.437872" lon="-97.798163" changeset="false"><tag k="addr:street" v="Spicewood Parkway"/><tag k="addr:housenumber" v="11207"/></node><node id="-46" lat="30.431662" lon="-97.792868" changeset="false"><tag k="addr:street" v="Callanish Park Drive"/><tag k="addr:housenumber" v="11138"/></node><node id="-47" lat="30.427335" lon="-97.794126" changeset="false"><tag k="addr:street" v="Scottish Pastures Drive"/><tag k="addr:housenumber" v="8905"/></node><node id="-48" lat="30.424665" lon="-97.795939" changeset="false"><tag k="addr:street" v="Scotland Well Drive"/><tag k="addr:housenumber" v="10431"/></node><node id="-49" lat="30.432327" lon="-97.792454" changeset="false"><tag k="addr:street" v="Callanish Park Drive"/><tag k="addr:housenumber" v="11133"/></node><node id="-50" lat="30.431281" lon="-97.793642" changeset="false"><tag k="addr:street" v="Middlebie Drive"/><tag k="addr:housenumber" v="9107"/></node><node id="-51" lat="30.429262" lon="-97.791951" changeset="false"><tag k="addr:street" v="Tweed Berwick Drive"/><tag k="addr:housenumber" v="8910"/></node><node id="-52" lat="30.436105" lon="-97.792875" changeset="false"><tag k="addr:street" v="Spring Lake Drive"/><tag k="addr:housenumber" v="8908"/></node><node id="-53" lat="30.43053" lon="-97.791131" changeset="false"><tag k="addr:street" v="Middlebie Drive"/><tag k="addr:housenumber" v="9001"/></node><node id="-54" lat="30.425129" lon="-97.786166" changeset="false"><tag k="addr:street" v="Bay Laurel Trail"/><tag k="addr:housenumber" v="10724"/></node><node id="-55" lat="30.426026" lon="-97.789827" changeset="false"><tag k="addr:street" v="Callanish Park Drive"/><tag k="addr:housenumber" v="10707"/></node><node id="-56" lat="30.431196" lon="-97.793396" changeset="false"><tag k="addr:street" v="Middlebie Drive"/><tag k="addr:housenumber" v="9105"/></node><node id="-57" lat="30.435504" lon="-97.793152" changeset="false"><tag k="addr:street" v="Evening Primrose Path"/><tag k="addr:housenumber" v="9216"/></node><node id="-58" lat="30.435253" lon="-97.792721" changeset="false"><tag k="addr:street" v="Evening Primrose Path"/><tag k="addr:housenumber" v="9208"/></node><node id="-59" lat="30.427484" lon="-97.793987" changeset="false"><tag k="addr:street" v="Scottish Pastures Drive"/><tag k="addr:housenumber" v="8903"/></node><node id="-60" lat="30.435367" lon="-97.795673" changeset="false"><tag k="addr:street" v="Evening Primrose Path"/><tag k="addr:housenumber" v="9320"/></node><node id="-61" lat="30.428396" lon="-97.795206" changeset="false"><tag k="addr:street" v="Scotsman Drive"/><tag k="addr:housenumber" v="9105"/></node><node id="-62" lat="30.430451" lon="-97.792685" changeset="false"><tag k="addr:street" v="Westerkirk Drive"/><tag k="addr:housenumber" v="9006"/></node><node id="-63" lat="30.427553" lon="-97.795205" changeset="false"><tag k="addr:street" v="Scottish Pastures Cove"/><tag k="addr:housenumber" v="9105"/></node><node id="-64" lat="30.42616" lon="-97.790439" changeset="false"><tag k="addr:street" v="Scotsman Drive"/><tag k="addr:housenumber" v="8801"/></node><node id="-65" lat="30.425577" lon="-97.795029" changeset="false"><tag k="addr:street" v="Tweedsmuir Drive"/><tag k="addr:housenumber" v="10507"/></node><node id="-66" lat="30.425294" lon="-97.792273" changeset="false"><tag k="addr:street" v="Mc Farlie Cove"/><tag k="addr:housenumber" v="10601"/></node><node id="-67" lat="30.426011" lon="-97.795173" changeset="false"><tag k="addr:street" v="Tweedsmuir Drive"/><tag k="addr:housenumber" v="10511"/></node><node id="-68" lat="30.425356" lon="-97.794986" changeset="false"><tag k="addr:street" v="Tweedsmuir Drive"/><tag k="addr:housenumber" v="10505"/></node><node id="-69" lat="30.437664" lon="-97.796969" changeset="false"><tag k="addr:street" v="Spring Hollow Drive"/><tag k="addr:housenumber" v="9430"/></node><node id="-70" lat="30.424059" lon="-97.78744" changeset="false"><tag k="addr:street" v="Sweet Cherry Drive"/><tag k="addr:housenumber" v="8512"/></node><node id="-71" lat="30.430559" lon="-97.792903" changeset="false"><tag k="addr:street" v="Westerkirk Drive"/><tag k="addr:housenumber" v="9008"/></node><node id="-72" lat="30.436445" lon="-97.794553" changeset="false"><tag k="addr:street" v="Bing Cherry Lane"/><tag k="addr:housenumber" v="9406"/></node><node id="-73" lat="30.426538" lon="-97.793184" changeset="false"><tag k="addr:street" v="Loch Ness Cove"/><tag k="addr:housenumber" v="10701"/></node><node id="-74" lat="30.423919" lon="-97.78661" changeset="false"><tag k="addr:street" v="Bay Laurel Trail"/><tag k="addr:housenumber" v="10700"/></node><node id="-75" lat="30.429114" lon="-97.783437" changeset="false"><tag k="addr:street" v="Spicewood Springs Road"/><tag k="addr:housenumber" v="8471"/></node><node id="-76" lat="30.425801" lon="-97.789843" changeset="false"><tag k="addr:street" v="Callanish Park Drive"/><tag k="addr:housenumber" v="10705"/></node><node id="-77" lat="30.426072" lon="-97.794894" changeset="false"><tag k="addr:street" v="Scottish Pastures Drive"/><tag k="addr:housenumber" v="9005"/></node><node id="-78" lat="30.435978" lon="-97.794174" changeset="false"><tag k="addr:street" v="Evening Primrose Path"/><tag k="addr:housenumber" v="9308"/></node><node id="-79" lat="30.427952" lon="-97.794301" changeset="false"><tag k="addr:street" v="Scottish Pastures Drive"/><tag k="addr:housenumber" v="8900"/></node><node id="-80" lat="30.426687" lon="-97.794308" changeset="false"><tag k="addr:street" v="Scottish Pastures Drive"/><tag k="addr:housenumber" v="8911"/></node><node id="-81" lat="30.430788" lon="-97.79336" changeset="false"><tag k="addr:street" v="Westerkirk Drive"/><tag k="addr:housenumber" v="9102"/></node><node id="-82" lat="30.425496" lon="-97.79275" changeset="false"><tag k="addr:street" v="Mc Farlie Cove"/><tag k="addr:housenumber" v="10602"/></node><node id="-83" lat="30.43637" lon="-97.796493" changeset="false"><tag k="addr:street" v="Bing Cherry Lane"/><tag k="addr:housenumber" v="9432"/></node><node id="-84" lat="30.424271" lon="-97.79478" changeset="false"><tag k="addr:street" v="Tweedsmuir Drive"/><tag k="addr:housenumber" v="10407"/></node><node id="-85" lat="30.427666" lon="-97.789005" changeset="false"><tag k="addr:street" v="Callanish Park Drive"/><tag k="addr:housenumber" v="10815"/></node><node id="-86" lat="30.430393" lon="-97.789475" changeset="false"><tag k="addr:street" v="Callanish Park Drive"/><tag k="addr:housenumber" v="11103"/></node><node id="-87" lat="30.426341" lon="-97.791116" changeset="false"><tag k="addr:street" v="Scotsman Drive"/><tag k="addr:housenumber" v="8807"/></node><node id="-88" lat="30.426044" lon="-97.794625" changeset="false"><tag k="addr:street" v="Scottish Pastures Drive"/><tag k="addr:housenumber" v="9003"/></node><node id="-89" lat="30.423669" lon="-97.786826" changeset="false"><tag k="addr:street" v="Sweet Cherry Drive"/><tag k="addr:housenumber" v="8501"/></node><node id="-90" lat="30.434422" lon="-97.797116" changeset="false"><tag k="addr:street" v="Topridge Drive"/><tag k="addr:housenumber" v="9408"/></node><node id="-91" lat="30.429288" lon="-97.78911" changeset="false"><tag k="addr:street" v="Callanish Park Drive"/><tag k="addr:housenumber" v="11001"/></node><node id="-92" lat="30.42818" lon="-97.788833" changeset="false"><tag k="addr:street" v="Callanish Park Drive"/><tag k="addr:housenumber" v="10903"/></node><node id="-93" lat="30.437074" lon="-97.795936" changeset="false"><tag k="addr:street" v="Spring Hollow Drive"/><tag k="addr:housenumber" v="9438"/></node><node id="-94" lat="30.436714" lon="-97.798872" changeset="false"><tag k="addr:street" v="Spicewood Parkway"/><tag k="addr:housenumber" v="11107"/></node><node id="-95" lat="30.430731" lon="-97.791296" changeset="false"><tag k="addr:street" v="Middlebie Drive"/><tag k="addr:housenumber" v="9000"/></node><node id="-96" lat="30.429291" lon="-97.795651" changeset="false"><tag k="addr:street" v="Scotland Well Drive"/><tag k="addr:housenumber" v="10715"/></node><node id="-97" lat="30.43565" lon="-97.7908" changeset="false"><tag k="addr:street" v="Spring Lake Drive"/><tag k="addr:housenumber" v="8806"/></node><node id="-98" lat="30.437193" lon="-97.796241" changeset="false"><tag k="addr:street" v="Spring Hollow Drive"/><tag k="addr:housenumber" v="9436"/></node><node id="-99" lat="30.432605" lon="-97.793146" changeset="false"><tag k="addr:street" v="Topridge Drive"/><tag k="addr:housenumber" v="9111"/></node><node id="-100" lat="30.429706" lon="-97.789254" changeset="false"><tag k="addr:street" v="Callanish Park Drive"/><tag k="addr:housenumber" v="11005"/></node><node id="-101" lat="30.42846" lon="-97.794231" changeset="false"><tag k="addr:street" v="Scotsman Drive"/><tag k="addr:housenumber" v="9008"/></node><node id="-102" lat="30.424306" lon="-97.795325" changeset="false"><tag k="addr:street" v="Tweedsmuir Drive"/><tag k="addr:housenumber" v="10404"/></node><node id="-103" lat="30.432297" lon="-97.792789" changeset="false"><tag k="addr:street" v="Callanish Park Drive"/><tag k="addr:housenumber" v="11135"/></node><node id="-104" lat="30.427483" lon="-97.793258" changeset="false"><tag k="addr:street" v="Scotsman Drive"/><tag k="addr:housenumber" v="8909"/></node><node id="-105" lat="30.42709" lon="-97.794255" changeset="false"><tag k="addr:street" v="Scottish Pastures Drive"/><tag k="addr:housenumber" v="8907"/></node><node id="-106" lat="30.426861" lon="-97.790883" changeset="false"><tag k="addr:street" v="Scotsman Drive"/><tag k="addr:housenumber" v="8806"/></node><node id="-107" lat="30.428309" lon="-97.79191" changeset="false"><tag k="addr:street" v="Marybank Drive"/><tag k="addr:housenumber" v="8906"/></node><node id="-108" lat="30.426911" lon="-97.79114" changeset="false"><tag k="addr:street" v="Scotsman Drive"/><tag k="addr:housenumber" v="8808"/></node><node id="-109" lat="30.426433" lon="-97.78965" changeset="false"><tag k="addr:street" v="Callanish Park Drive"/><tag k="addr:housenumber" v="10803"/></node><node id="-110" lat="30.428621" lon="-97.788924" changeset="false"><tag k="addr:street" v="Callanish Park Drive"/><tag k="addr:housenumber" v="10907"/></node><node id="-111" lat="30.429496" lon="-97.789188" changeset="false"><tag k="addr:street" v="Callanish Park Drive"/><tag k="addr:housenumber" v="11003"/></node><node id="-112" lat="30.428872" lon="-97.788953" changeset="false"><tag k="addr:street" v="Callanish Park Drive"/><tag k="addr:housenumber" v="10909"/></node><node id="-113" lat="30.428089" lon="-97.794515" changeset="false"><tag k="addr:street" v="Scotsman Drive"/><tag k="addr:housenumber" v="9009"/></node><node id="-114" lat="30.42457" lon="-97.795455" changeset="false"><tag k="addr:street" v="Tweedsmuir Drive"/><tag k="addr:housenumber" v="10408"/></node><node id="-115" lat="30.435379" lon="-97.792952" changeset="false"><tag k="addr:street" v="Evening Primrose Path"/><tag k="addr:housenumber" v="9212"/></node><node id="-116" lat="30.435122" lon="-97.79249" changeset="false"><tag k="addr:street" v="Evening Primrose Path"/><tag k="addr:housenumber" v="9204"/></node><node id="-117" lat="30.436987" lon="-97.798616" changeset="false"><tag k="addr:street" v="Spicewood Parkway"/><tag k="addr:housenumber" v="11201"/></node><node id="-118" lat="30.427067" lon="-97.7936" changeset="false"><tag k="addr:street" v="Loch Ness Cove"/><tag k="addr:housenumber" v="10704"/></node><node id="-119" lat="30.425352" lon="-97.796048" changeset="false"><tag k="addr:street" v="Scotland Well Drive"/><tag k="addr:housenumber" v="10505"/></node><node id="-120" lat="30.424492" lon="-97.794824" changeset="false"><tag k="addr:street" v="Tweedsmuir Drive"/><tag k="addr:housenumber" v="10409"/></node><node id="-121" lat="30.426214" lon="-97.789736" changeset="false"><tag k="addr:street" v="Callanish Park Drive"/><tag k="addr:housenumber" v="10801"/></node><node id="-122" lat="30.435928" lon="-97.793855" changeset="false"><tag k="addr:street" v="Evening Primrose Path"/><tag k="addr:housenumber" v="9304"/></node><node id="-123" lat="30.424469" lon="-97.795887" changeset="false"><tag k="addr:street" v="Scotland Well Drive"/><tag k="addr:housenumber" v="10429"/></node><node id="-124" lat="30.428577" lon="-97.789738" changeset="false"><tag k="addr:street" v="Westerkirk Drive"/><tag k="addr:housenumber" v="8803"/></node><node id="-125" lat="30.436051" lon="-97.791984" changeset="false"><tag k="addr:street" v="Spring Lake Drive"/><tag k="addr:housenumber" v="8902"/></node><node id="-126" lat="30.434446" lon="-97.792109" changeset="false"><tag k="addr:street" v="Evening Primrose Path"/><tag k="addr:housenumber" v="9118"/></node><node id="-127" lat="30.436019" lon="-97.792194" changeset="false"><tag k="addr:street" v="Spring Lake Drive"/><tag k="addr:housenumber" v="8904"/></node><node id="-128" lat="30.428978" lon="-97.795153" changeset="false"><tag k="addr:street" v="Scotsman Drive"/><tag k="addr:housenumber" v="9106"/></node><node id="-129" lat="30.425135" lon="-97.794972" changeset="false"><tag k="addr:street" v="Tweedsmuir Drive"/><tag k="addr:housenumber" v="10503"/></node><node id="-130" lat="30.433777" lon="-97.794016" changeset="false"><tag k="addr:street" v="Limoncillo Court"/><tag k="addr:housenumber" v="11204"/></node><node id="-131" lat="30.428323" lon="-97.796083" changeset="false"><tag k="addr:street" v="Scotland Well Drive"/><tag k="addr:housenumber" v="10701"/></node><node id="-132" lat="30.431602" lon="-97.790527" changeset="false"><tag k="addr:street" v="Evening Primrose Path"/><tag k="addr:housenumber" v="9004"/></node><node id="-133" lat="30.437303" lon="-97.798479" changeset="false"><tag k="addr:street" v="Spicewood Parkway"/><tag k="addr:housenumber" v="11203"/></node><node id="-134" lat="30.429504" lon="-97.791983" changeset="false"><tag k="addr:street" v="Low Bridge Lane"/><tag k="addr:housenumber" v="10905"/></node><node id="-135" lat="30.427282" lon="-97.789226" changeset="false"><tag k="addr:street" v="Callanish Park Drive"/><tag k="addr:housenumber" v="10811"/></node><node id="-136" lat="30.425568" lon="-97.789882" changeset="false"><tag k="addr:street" v="Callanish Park Drive"/><tag k="addr:housenumber" v="10703"/></node><node id="-137" lat="30.4248" lon="-97.795526" changeset="false"><tag k="addr:street" v="Tweedsmuir Drive"/><tag k="addr:housenumber" v="10500"/></node><node id="-138" lat="30.426631" lon="-97.789546" changeset="false"><tag k="addr:street" v="Callanish Park Drive"/><tag k="addr:housenumber" v="10805"/></node><node id="-139" lat="30.43568" lon="-97.796476" changeset="false"><tag k="addr:street" v="Bing Cherry Lane"/><tag k="addr:housenumber" v="9431"/></node><node id="-140" lat="30.423986" lon="-97.795383" changeset="false"><tag k="addr:street" v="Tweedsmuir Drive"/><tag k="addr:housenumber" v="10402"/></node><node id="-141" lat="30.424902" lon="-97.795982" changeset="false"><tag k="addr:street" v="Scotland Well Drive"/><tag k="addr:housenumber" v="10501"/></node><node id="-142" lat="30.426784" lon="-97.795309" changeset="false"><tag k="addr:street" v="Tweedsmuir Drive"/><tag k="addr:housenumber" v="10605"/></node><node id="-143" lat="30.429903" lon="-97.789344" changeset="false"><tag k="addr:street" v="Callanish Park Drive"/><tag k="addr:housenumber" v="11007"/></node><node id="-144" lat="30.428462" lon="-97.791589" changeset="false"><tag k="addr:street" v="Tweed Berwick Drive"/><tag k="addr:housenumber" v="8905"/></node><node id="-145" lat="30.425589" lon="-97.796071" changeset="false"><tag k="addr:street" v="Scotland Well Drive"/><tag k="addr:housenumber" v="10507"/></node><node id="-146" lat="30.424891" lon="-97.785284" changeset="false"><tag k="addr:street" v="Bay Laurel Trail"/><tag k="addr:housenumber" v="10729"/></node><node id="-147" lat="30.427324" lon="-97.795643" changeset="false"><tag k="addr:street" v="Tweedsmuir Drive"/><tag k="addr:housenumber" v="10611"/></node><node id="-148" lat="30.422848" lon="-97.788765" changeset="false"><tag k="addr:street" v="Sweetness Lane"/><tag k="addr:housenumber" v="8513"/></node><node id="-149" lat="30.434156" lon="-97.796603" changeset="false"><tag k="addr:street" v="Topridge Drive"/><tag k="addr:housenumber" v="9404"/></node><node id="-150" lat="30.426013" lon="-97.794283" changeset="false"><tag k="addr:street" v="Scottish Pastures Drive"/><tag k="addr:housenumber" v="9001"/></node><node id="-151" lat="30.434673" lon="-97.792187" changeset="false"><tag k="addr:street" v="Evening Primrose Path"/><tag k="addr:housenumber" v="9122"/></node><node id="-152" lat="30.42767" lon="-97.794488" changeset="false"><tag k="addr:street" v="Scottish Pastures Cove"/><tag k="addr:housenumber" v="9100"/></node><node id="-153" lat="30.430204" lon="-97.789384" changeset="false"><tag k="addr:street" v="Callanish Park Drive"/><tag k="addr:housenumber" v="11101"/></node><node id="-154" lat="30.427487" lon="-97.789142" changeset="false"><tag k="addr:street" v="Callanish Park Drive"/><tag k="addr:housenumber" v="10813"/></node><node id="-155" lat="30.423766" lon="-97.794862" changeset="false"><tag k="addr:street" v="Tweedsmuir Drive"/><tag k="addr:housenumber" v="10403"/></node><node id="-156" lat="30.428436" lon="-97.793175" changeset="false"><tag k="addr:street" v="Low Bridge Lane"/><tag k="addr:housenumber" v="10804"/></node><node id="-157" lat="30.428398" lon="-97.792703" changeset="false"><tag k="addr:street" v="Low Bridge Lane"/><tag k="addr:housenumber" v="10809"/></node><node id="-158" lat="30.425326" lon="-97.792533" changeset="false"><tag k="addr:street" v="Mc Farlie Cove"/><tag k="addr:housenumber" v="10600"/></node><node id="-159" lat="30.436525" lon="-97.793338" changeset="false"><tag k="addr:street" v="Spring Lake Drive"/><tag k="addr:housenumber" v="8912"/></node><node id="-160" lat="30.434872" lon="-97.792332" changeset="false"><tag k="addr:street" v="Evening Primrose Path"/><tag k="addr:housenumber" v="9200"/></node><node id="-161" lat="30.425656" lon="-97.795699" changeset="false"><tag k="addr:street" v="Tweedsmuir Drive"/><tag k="addr:housenumber" v="10508"/></node><node id="-162" lat="30.436002" lon="-97.792543" changeset="false"><tag k="addr:street" v="Spring Lake Drive"/><tag k="addr:housenumber" v="8906"/></node><node id="-163" lat="30.428591" lon="-97.789498" changeset="false"><tag k="addr:street" v="Westerkirk Drive"/><tag k="addr:housenumber" v="8801"/></node><node id="-164" lat="30.430569" lon="-97.79466" changeset="false"><tag k="addr:street" v="Tweed Berwick Drive"/><tag k="addr:housenumber" v="9110"/></node><node id="-165" lat="30.430615" lon="-97.794727" changeset="false"><tag k="addr:street" v="Scotland Well Drive"/><tag k="addr:housenumber" v="10901"/></node></osm>