<?xml version="1.0" encoding="UTF-8"?><osm version="0.6" generator="github.com/aaronlidman/osm-and-geojson"><node id="-1" lat="30.38498" lon="-97.681259" changeset="false"><tag k="addr:street" v="West Caddo Street"/><tag k="addr:housenumber" v="304"/><tag k="coa:place_id" v="344972"/></node><node id="-2" lat="30.388617" lon="-97.681182" changeset="false"><tag k="addr:street" v="Little Oak Drive"/><tag k="addr:housenumber" v="603"/><tag k="coa:place_id" v="343724"/></node><node id="-3" lat="30.383026" lon="-97.674997" changeset="false"><tag k="addr:street" v="Pollyanna Avenue"/><tag k="addr:housenumber" v="11701"/><tag k="coa:place_id" v="417794"/></node><node id="-4" lat="30.382178" lon="-97.674803" changeset="false"><tag k="addr:street" v="Covington Drive East,1100"/><tag k="addr:housenumber" v="702"/><tag k="coa:place_id" v="3033487"/></node><node id="-5" lat="30.388286" lon="-97.678351" changeset="false"><tag k="addr:street" v="Rennalee Loop"/><tag k="addr:housenumber" v="11921"/><tag k="coa:place_id" v="139914"/></node><node id="-6" lat="30.387183" lon="-97.674083" changeset="false"><tag k="addr:street" v="Pollyanna Avenue"/><tag k="addr:housenumber" v="12005"/><tag k="coa:place_id" v="3052817"/></node><node id="-7" lat="30.387924" lon="-97.673435" changeset="false"><tag k="addr:street" v="North Interstate Highway 35 Service Road,1110"/><tag k="addr:housenumber" v="12100"/><tag k="coa:place_id" v="418394"/></node><node id="-8" lat="30.388875" lon="-97.678249" changeset="false"><tag k="addr:street" v="Cedarbrook Court"/><tag k="addr:housenumber" v="305"/><tag k="coa:place_id" v="344192"/></node><node id="-9" lat="30.385347" lon="-97.673796" changeset="false"><tag k="addr:street" v="North Interstate Highway 35 Service Road,1110"/><tag k="addr:housenumber" v="11902"/><tag k="coa:place_id" v="3033098"/></node><node id="-10" lat="30.389642" lon="-97.678494" changeset="false"><tag k="addr:street" v="Oakbrook Drive"/><tag k="addr:housenumber" v="11930"/><tag k="coa:place_id" v="257347"/></node><node id="-11" lat="30.388494" lon="-97.678457" changeset="false"><tag k="addr:street" v="Rennalee Loop"/><tag k="addr:housenumber" v="11923"/><tag k="coa:place_id" v="3083313"/></node><node id="-12" lat="30.38415" lon="-97.678801" changeset="false"><tag k="addr:street" v="Indianhead Drive"/><tag k="addr:housenumber" v="11702"/><tag k="coa:place_id" v="3087000"/></node><node id="-13" lat="30.388637" lon="-97.678689" changeset="false"><tag k="addr:street" v="Rennalee Loop"/><tag k="addr:housenumber" v="11925"/><tag k="coa:place_id" v="3083312"/></node><node id="-14" lat="30.388963" lon="-97.677578" changeset="false"><tag k="addr:street" v="Cedarbrook Court"/><tag k="addr:housenumber" v="302"/><tag k="coa:place_id" v="344174"/></node><node id="-15" lat="30.385953" lon="-97.683638" changeset="false"><tag k="addr:street" v="West Caddo Street"/><tag k="addr:housenumber" v="706"/><tag k="coa:place_id" v="204276"/></node><node id="-16" lat="30.385831" lon="-97.681571" changeset="false"><tag k="addr:street" v="Hornsby Street"/><tag k="addr:housenumber" v="11706"/><tag k="coa:place_id" v="3151990"/></node><node id="-17" lat="30.387304" lon="-97.682087" changeset="false"><tag k="addr:street" v="Tedford Street"/><tag k="addr:housenumber" v="11808"/><tag k="coa:place_id" v="216025"/></node><node id="-18" lat="30.391783" lon="-97.681526" changeset="false"><tag k="addr:street" v="North Lamar Boulevard"/><tag k="addr:housenumber" v="12005"/><tag k="coa:place_id" v="5110066"/></node><node id="-19" lat="30.386072" lon="-97.675743" changeset="false"><tag k="addr:street" v="Oakwood Drive"/><tag k="addr:housenumber" v="11907"/><tag k="coa:place_id" v="344840"/></node><node id="-20" lat="30.382623" lon="-97.675045" changeset="false"><tag k="addr:street" v="Meadow Lark Avenue"/><tag k="addr:housenumber" v="701"/><tag k="coa:place_id" v="417788"/></node><node id="-21" lat="30.391268" lon="-97.681836" changeset="false"><tag k="addr:street" v="North Lamar Boulevard"/><tag k="addr:housenumber" v="12001"/><tag k="coa:place_id" v="247096"/></node><node id="-22" lat="30.386762" lon="-97.680858" changeset="false"><tag k="addr:street" v="Hornsby Street"/><tag k="addr:housenumber" v="11806"/><tag k="coa:place_id" v="3655315"/></node><node id="-23" lat="30.384708" lon="-97.674055" changeset="false"><tag k="addr:street" v="North Interstate Highway 35 Service Road,1110"/><tag k="addr:housenumber" v="11804"/><tag k="coa:place_id" v="680607"/></node><node id="-24" lat="30.386176" lon="-97.684036" changeset="false"><tag k="addr:street" v="North Lamar Boulevard"/><tag k="addr:housenumber" v="11701"/><tag k="coa:place_id" v="580636"/></node><node id="-25" lat="30.386737" lon="-97.681647" changeset="false"><tag k="addr:street" v="Tedford Street"/><tag k="addr:housenumber" v="11805"/><tag k="coa:place_id" v="169103"/></node><node id="-26" lat="30.388056" lon="-97.678395" changeset="false"><tag k="addr:street" v="Rennalee Loop"/><tag k="addr:housenumber" v="11919"/><tag k="coa:place_id" v="139913"/></node><node id="-27" lat="30.388711" lon="-97.677636" changeset="false"><tag k="addr:street" v="Cedarbrook Court"/><tag k="addr:housenumber" v="300"/><tag k="coa:place_id" v="233213"/></node><node id="-28" lat="30.387098" lon="-97.673571" changeset="false"><tag k="addr:street" v="North Interstate Highway 35 Service Road,1110"/><tag k="addr:housenumber" v="12012"/><tag k="coa:place_id" v="3033094"/></node><node id="-29" lat="30.386559" lon="-97.673396" changeset="false"><tag k="addr:street" v="North Interstate Highway 35 Service Road,1110"/><tag k="addr:housenumber" v="12000"/><tag k="coa:place_id" v="418358"/></node><node id="-30" lat="30.387054" lon="-97.676654" changeset="false"><tag k="addr:street" v="Indianhead Drive"/><tag k="addr:housenumber" v="11906"/><tag k="coa:place_id" v="344636"/></node><node id="-31" lat="30.382953" lon="-97.678111" changeset="false"><tag k="addr:street" v="Covington Drive East,1100"/><tag k="addr:housenumber" v="200"/><tag k="coa:place_id" v="3033486"/></node><node id="-32" lat="30.382737" lon="-97.677356" changeset="false"><tag k="addr:street" v="Oakwood Drive"/><tag k="addr:housenumber" v="11601"/><tag k="coa:place_id" v="344912"/></node><node id="-33" lat="30.382692" lon="-97.67556" changeset="false"><tag k="addr:street" v="Meadow Lark Avenue"/><tag k="addr:housenumber" v="605"/><tag k="coa:place_id" v="418046"/></node><node id="-34" lat="30.386117" lon="-97.68068" changeset="false"><tag k="addr:street" v="Hornsby Street"/><tag k="addr:housenumber" v="11803"/><tag k="coa:place_id" v="344360"/></node><node id="-35" lat="30.383632" lon="-97.674361" changeset="false"><tag k="addr:street" v="North Interstate Highway 35 Service Road,1110"/><tag k="addr:housenumber" v="11720"/><tag k="coa:place_id" v="418322"/></node><node id="-36" lat="30.38769" lon="-97.673133" changeset="false"><tag k="addr:street" v="North Interstate Highway 35 Service Road,1110"/><tag k="addr:housenumber" v="12036"/><tag k="coa:place_id" v="3033093"/></node><node id="-37" lat="30.391471" lon="-97.681875" changeset="false"><tag k="addr:street" v="North Lamar Boulevard"/><tag k="addr:housenumber" v="12003 1/2"/><tag k="coa:place_id" v="3168422"/></node><node id="-38" lat="30.383852" lon="-97.674336" changeset="false"><tag k="addr:street" v="North Interstate Highway 35 Service Road,1110"/><tag k="addr:housenumber" v="11724"/><tag k="coa:place_id" v="3033101"/></node><node id="-39" lat="30.387082" lon="-97.680781" changeset="false"><tag k="addr:street" v="Hornsby Street"/><tag k="addr:housenumber" v="11900"/><tag k="coa:place_id" v="90906"/></node><node id="-40" lat="30.386011" lon="-97.681414" changeset="false"><tag k="addr:street" v="Hornsby Street"/><tag k="addr:housenumber" v="11708"/><tag k="coa:place_id" v="156777"/></node><node id="-41" lat="30.394057" lon="-97.680753" changeset="false"><tag k="addr:street" v="North Lamar Boulevard"/><tag k="addr:housenumber" v="12021"/><tag k="coa:place_id" v="225769"/></node><node id="-42" lat="30.385224" lon="-97.674484" changeset="false"><tag k="addr:street" v="Pollyanna Avenue"/><tag k="addr:housenumber" v="11901"/><tag k="coa:place_id" v="417842"/></node><node id="-43" lat="30.387835" lon="-97.683254" changeset="false"><tag k="addr:street" v="North Lamar Boulevard"/><tag k="addr:housenumber" v="11813 1/2"/><tag k="coa:place_id" v="3077012"/></node><node id="-44" lat="30.3865" lon="-97.67764" changeset="false"><tag k="addr:street" v="Indianhead Drive"/><tag k="addr:housenumber" v="11816"/><tag k="coa:place_id" v="344558"/></node><node id="-45" lat="30.387236" lon="-97.674669" changeset="false"><tag k="addr:street" v="Pollyanna Avenue"/><tag k="addr:housenumber" v="12006"/><tag k="coa:place_id" v="190985"/></node><node id="-46" lat="30.3852" lon="-97.679807" changeset="false"><tag k="addr:street" v="Hilltop Street"/><tag k="addr:housenumber" v="11706"/><tag k="coa:place_id" v="344456"/></node><node id="-47" lat="30.387835" lon="-97.678517" changeset="false"><tag k="addr:street" v="Rennalee Loop"/><tag k="addr:housenumber" v="11917"/><tag k="coa:place_id" v="3083309"/></node><node id="-48" lat="30.3867" lon="-97.675607" changeset="false"><tag k="addr:street" v="Oakwood Drive"/><tag k="addr:housenumber" v="12001"/><tag k="coa:place_id" v="344828"/></node><node id="-49" lat="30.38593" lon="-97.673756" changeset="false"><tag k="addr:street" v="North Interstate Highway 35 Service Road,1110"/><tag k="addr:housenumber" v="11920"/><tag k="coa:place_id" v="3033090"/></node><node id="-50" lat="30.386118" lon="-97.677916" changeset="false"><tag k="addr:street" v="Indianhead Drive"/><tag k="addr:housenumber" v="11812"/><tag k="coa:place_id" v="3087001"/></node><node id="-51" lat="30.3862" lon="-97.682602" changeset="false"><tag k="addr:street" v="Tedford Street"/><tag k="addr:housenumber" v="11704"/><tag k="coa:place_id" v="3093145"/></node><node id="-52" lat="30.386138" lon="-97.673731" changeset="false"><tag k="addr:street" v="North Interstate Highway 35 Service Road,1110"/><tag k="addr:housenumber" v="11930"/><tag k="coa:place_id" v="3033096"/></node><node id="-53" lat="30.387042" lon="-97.67899" changeset="false"><tag k="addr:street" v="Rennalee Loop"/><tag k="addr:housenumber" v="11909"/><tag k="coa:place_id" v="3083308"/></node><node id="-54" lat="30.386067" lon="-97.683904" changeset="false"><tag k="addr:street" v="West Caddo Street"/><tag k="addr:housenumber" v="710"/><tag k="coa:place_id" v="343550"/></node><node id="-55" lat="30.392086" lon="-97.681048" changeset="false"><tag k="addr:street" v="North Lamar Boulevard"/><tag k="addr:housenumber" v="12007"/><tag k="coa:place_id" v="3040174"/></node><node id="-56" lat="30.391329" lon="-97.681729" changeset="false"><tag k="addr:street" v="North Lamar Boulevard"/><tag k="addr:housenumber" v="12003"/><tag k="coa:place_id" v="374642"/></node><node id="-57" lat="30.387449" lon="-97.674606" changeset="false"><tag k="addr:street" v="Pollyanna Avenue"/><tag k="addr:housenumber" v="12008"/><tag k="coa:place_id" v="3074008"/></node><node id="-58" lat="30.389371" lon="-97.678178" changeset="false"><tag k="addr:street" v="Cedarbrook Court"/><tag k="addr:housenumber" v="308"/><tag k="coa:place_id" v="233214"/></node><node id="-59" lat="30.38385" lon="-97.678369" changeset="false"><tag k="addr:street" v="Indianhead Drive"/><tag k="addr:housenumber" v="11701"/><tag k="coa:place_id" v="344936"/></node><node id="-60" lat="30.383961" lon="-97.678305" changeset="false"><tag k="addr:street" v="Caddo Street East,1100"/><tag k="addr:housenumber" v="100"/><tag k="coa:place_id" v="344930"/></node></osm>