<?xml version="1.0" encoding="UTF-8"?><osm version="0.6" generator="github.com/aaronlidman/osm-and-geojson"><node id="-1" lat="30.156744" lon="-97.855205" changeset="false"><tag k="addr:street" v="Yandall Drive"/><tag k="addr:housenumber" v="2910"/><tag k="addr:postcode" v="78748"/></node><node id="-2" lat="30.151064" lon="-97.855863" changeset="false"><tag k="addr:street" v="Winding Brook Drive"/><tag k="addr:housenumber" v="2812"/><tag k="addr:postcode" v="78748"/></node><node id="-3" lat="30.160775" lon="-97.852555" changeset="false"><tag k="addr:street" v="Six Gun Trail"/><tag k="addr:housenumber" v="3005"/><tag k="addr:postcode" v="78748"/></node><node id="-4" lat="30.154884" lon="-97.856882" changeset="false"><tag k="addr:street" v="Warwick Way"/><tag k="addr:housenumber" v="3000"/><tag k="addr:postcode" v="78748"/></node><node id="-5" lat="30.157022" lon="-97.854495" changeset="false"><tag k="addr:street" v="Arbor Downs Road"/><tag k="addr:housenumber" v="11806"/><tag k="addr:postcode" v="78748"/></node><node id="-6" lat="30.154561" lon="-97.855267" changeset="false"><tag k="addr:street" v="Sussex Gardens Lane"/><tag k="addr:housenumber" v="2909"/><tag k="addr:postcode" v="78748"/></node><node id="-7" lat="30.159756" lon="-97.854005" changeset="false"><tag k="addr:street" v="Gun Fight Lane"/><tag k="addr:housenumber" v="11524"/><tag k="addr:postcode" v="78748"/></node><node id="-8" lat="30.157574" lon="-97.854481" changeset="false"><tag k="addr:street" v="Arbor Downs Road"/><tag k="addr:housenumber" v="11712"/><tag k="addr:postcode" v="78748"/></node><node id="-9" lat="30.160518" lon="-97.85421" changeset="false"><tag k="addr:street" v="Gun Fight Lane"/><tag k="addr:housenumber" v="11514"/><tag k="addr:postcode" v="78748"/></node><node id="-10" lat="30.153367" lon="-97.862623" changeset="false"><tag k="addr:street" v="Edwards Hollow Run"/><tag k="addr:housenumber" v="12305"/><tag k="addr:postcode" v="78739"/></node><node id="-11" lat="30.158311" lon="-97.85917" changeset="false"><tag k="addr:street" v="Sunland Drive"/><tag k="addr:housenumber" v="3213"/><tag k="addr:postcode" v="78748"/></node><node id="-12" lat="30.159856" lon="-97.852774" changeset="false"><tag k="addr:street" v="Shoot Out Court"/><tag k="addr:housenumber" v="3005"/><tag k="addr:postcode" v="78748"/></node><node id="-13" lat="30.159997" lon="-97.850968" changeset="false"><tag k="addr:street" v="Shotgun Lane"/><tag k="addr:housenumber" v="2909"/><tag k="addr:postcode" v="78748"/></node><node id="-14" lat="30.159603" lon="-97.851341" changeset="false"><tag k="addr:street" v="Gun Fight Lane"/><tag k="addr:housenumber" v="11549"/><tag k="addr:postcode" v="78748"/></node><node id="-15" lat="30.160202" lon="-97.858257" changeset="false"><tag k="addr:street" v="Twilight Trail"/><tag k="addr:housenumber" v="3204"/><tag k="addr:postcode" v="78748"/></node><node id="-16" lat="30.149078" lon="-97.858971" changeset="false"><tag k="addr:street" v="Tabor Oaks Drive"/><tag k="addr:housenumber" v="12500"/><tag k="addr:postcode" v="78739"/></node><node id="-17" lat="30.155597" lon="-97.862336" changeset="false"><tag k="addr:street" v="Edwards Hollow Run"/><tag k="addr:housenumber" v="12105"/><tag k="addr:postcode" v="78739"/></node><node id="-18" lat="30.154482" lon="-97.857577" changeset="false"><tag k="addr:street" v="Warwick Way"/><tag k="addr:housenumber" v="3016"/><tag k="addr:postcode" v="78748"/></node><node id="-19" lat="30.159988" lon="-97.850777" changeset="false"><tag k="addr:street" v="Shotgun Lane"/><tag k="addr:housenumber" v="2907"/><tag k="addr:postcode" v="78748"/></node><node id="-20" lat="30.158648" lon="-97.857935" changeset="false"><tag k="addr:street" v="Sunland Drive"/><tag k="addr:housenumber" v="3122"/><tag k="addr:postcode" v="78748"/></node><node id="-21" lat="30.149307" lon="-97.858957" changeset="false"><tag k="addr:street" v="Tabor Oaks Drive"/><tag k="addr:housenumber" v="12420 1/2"/><tag k="addr:postcode" v="78739"/></node><node id="-22" lat="30.155065" lon="-97.861326" changeset="false"><tag k="addr:street" v="Brodie Lane"/><tag k="addr:housenumber" v="12018"/><tag k="addr:postcode" v="78739"/></node><node id="-23" lat="30.155185" lon="-97.862466" changeset="false"><tag k="addr:street" v="Edwards Hollow Run"/><tag k="addr:housenumber" v="12201"/><tag k="addr:postcode" v="78739"/></node><node id="-24" lat="30.151759" lon="-97.854694" changeset="false"><tag k="addr:street" v="Barrel Bend"/><tag k="addr:housenumber" v="12240"/><tag k="addr:postcode" v="78748"/></node><node id="-25" lat="30.160207" lon="-97.859192" changeset="false"><tag k="addr:street" v="Twilight Trail"/><tag k="addr:housenumber" v="3208"/><tag k="addr:postcode" v="78748"/></node><node id="-26" lat="30.148042" lon="-97.858535" changeset="false"><tag k="addr:street" v="Cavern Mist Lane"/><tag k="addr:housenumber" v="2904 1/2"/><tag k="addr:postcode" v="78739"/></node><node id="-27" lat="30.157263" lon="-97.861596" changeset="false"><tag k="addr:street" v="Edwards Hollow Run"/><tag k="addr:housenumber" v="11909"/><tag k="addr:postcode" v="78739"/></node><node id="-28" lat="30.160862" lon="-97.854221" changeset="false"><tag k="addr:street" v="Gun Fight Lane"/><tag k="addr:housenumber" v="11510"/><tag k="addr:postcode" v="78748"/></node><node id="-29" lat="30.156276" lon="-97.855637" changeset="false"><tag k="addr:street" v="Yandall Drive"/><tag k="addr:housenumber" v="3001"/><tag k="addr:postcode" v="78748"/></node><node id="-30" lat="30.155904" lon="-97.858793" changeset="false"><tag k="addr:street" v="Yarbrough Drive"/><tag k="addr:housenumber" v="12014"/><tag k="addr:postcode" v="78748"/></node><node id="-31" lat="30.156508" lon="-97.862187" changeset="false"><tag k="addr:street" v="Edwards Hollow Run"/><tag k="addr:housenumber" v="12005"/><tag k="addr:postcode" v="78739"/></node><node id="-32" lat="30.154771" lon="-97.862494" changeset="false"><tag k="addr:street" v="Edwards Hollow Run"/><tag k="addr:housenumber" v="12205"/><tag k="addr:postcode" v="78739"/></node><node id="-33" lat="30.160001" lon="-97.851153" changeset="false"><tag k="addr:street" v="Shotgun Lane"/><tag k="addr:housenumber" v="2911"/><tag k="addr:postcode" v="78748"/></node><node id="-34" lat="30.15727" lon="-97.857068" changeset="false"><tag k="addr:street" v="Trawood Path"/><tag k="addr:housenumber" v="11809"/><tag k="addr:postcode" v="78748"/></node><node id="-35" lat="30.160186" lon="-97.857842" changeset="false"><tag k="addr:street" v="Twilight Trail"/><tag k="addr:housenumber" v="3202"/><tag k="addr:postcode" v="78748"/></node><node id="-36" lat="30.154351" lon="-97.862607" changeset="false"><tag k="addr:street" v="Edwards Hollow Run"/><tag k="addr:housenumber" v="12209"/><tag k="addr:postcode" v="78739"/></node><node id="-37" lat="30.160175" lon="-97.859667" changeset="false"><tag k="addr:street" v="Twilight Trail"/><tag k="addr:housenumber" v="3210"/><tag k="addr:postcode" v="78748"/></node><node id="-38" lat="30.15637" lon="-97.859172" changeset="false"><tag k="addr:street" v="Yarbrough Drive"/><tag k="addr:housenumber" v="12006"/><tag k="addr:postcode" v="78748"/></node><node id="-39" lat="30.157113" lon="-97.85861" changeset="false"><tag k="addr:street" v="Montwood Trail"/><tag k="addr:housenumber" v="3134"/><tag k="addr:postcode" v="78748"/></node><node id="-40" lat="30.153357" lon="-97.861509" changeset="false"><tag k="addr:street" v="Cascade Caverns Trail"/><tag k="addr:housenumber" v="12101"/><tag k="addr:postcode" v="78739"/></node><node id="-41" lat="30.161943" lon="-97.855429" changeset="false"><tag k="addr:street" v="Accomac Drive"/><tag k="addr:housenumber" v="3106"/><tag k="addr:postcode" v="78748"/></node><node id="-42" lat="30.157276" lon="-97.859088" changeset="false"><tag k="addr:street" v="Yarbrough Drive"/><tag k="addr:housenumber" v="11907"/><tag k="addr:postcode" v="78748"/></node><node id="-43" lat="30.16153" lon="-97.854084" changeset="false"><tag k="addr:street" v="Gun Fight Lane"/><tag k="addr:housenumber" v="11504"/><tag k="addr:postcode" v="78748"/></node><node id="-44" lat="30.15785" lon="-97.854496" changeset="false"><tag k="addr:street" v="Arbor Downs Road"/><tag k="addr:housenumber" v="11708"/><tag k="addr:postcode" v="78748"/></node><node id="-45" lat="30.153773" lon="-97.858738" changeset="false"><tag k="addr:street" v="Emerald Oaks Drive"/><tag k="addr:housenumber" v="12109"/><tag k="addr:postcode" v="78739"/></node><node id="-46" lat="30.153367" lon="-97.861974" changeset="false"><tag k="addr:street" v="Cascade Caverns Trail"/><tag k="addr:housenumber" v="12104"/><tag k="addr:postcode" v="78739"/></node><node id="-47" lat="30.15373" lon="-97.860207" changeset="false"><tag k="addr:street" v="Emerald Oaks Drive"/><tag k="addr:housenumber" v="12017"/><tag k="addr:postcode" v="78739"/></node><node id="-48" lat="30.156008" lon="-97.856305" changeset="false"><tag k="addr:street" v="Sussex Gardens Lane"/><tag k="addr:housenumber" v="2954"/><tag k="addr:postcode" v="78748"/></node><node id="-49" lat="30.157917" lon="-97.85756" changeset="false"><tag k="addr:street" v="Montwood Trail"/><tag k="addr:housenumber" v="3112"/><tag k="addr:postcode" v="78748"/></node><node id="-50" lat="30.155533" lon="-97.858408" changeset="false"><tag k="addr:street" v="Yandall Drive"/><tag k="addr:housenumber" v="3121"/><tag k="addr:postcode" v="78748"/></node><node id="-51" lat="30.161195" lon="-97.854219" changeset="false"><tag k="addr:street" v="Gun Fight Lane"/><tag k="addr:housenumber" v="11506"/><tag k="addr:postcode" v="78748"/></node><node id="-52" lat="30.152389" lon="-97.861894" changeset="false"><tag k="addr:street" v="Cascade Caverns Trail"/><tag k="addr:housenumber" v="12200"/><tag k="addr:postcode" v="78739"/></node><node id="-53" lat="30.154111" lon="-97.854167" changeset="false"><tag k="addr:street" v="Gatling Gun Lane"/><tag k="addr:housenumber" v="12006"/><tag k="addr:postcode" v="78748"/></node><node id="-54" lat="30.159601" lon="-97.851546" changeset="false"><tag k="addr:street" v="Gun Fight Lane"/><tag k="addr:housenumber" v="11547"/><tag k="addr:postcode" v="78748"/></node><node id="-55" lat="30.149327" lon="-97.859051" changeset="false"><tag k="addr:street" v="Tabor Oaks Drive"/><tag k="addr:housenumber" v="12420"/><tag k="addr:postcode" v="78739"/></node><node id="-56" lat="30.150841" lon="-97.857312" changeset="false"><tag k="addr:street" v="Emerald Oaks Drive"/><tag k="addr:housenumber" v="12400"/><tag k="addr:postcode" v="78739"/></node><node id="-57" lat="30.150895" lon="-97.857358" changeset="false"><tag k="addr:street" v="Emerald Oaks Drive"/><tag k="addr:housenumber" v="12400 1/2"/><tag k="addr:postcode" v="78739"/></node></osm>