<?xml version="1.0" encoding="UTF-8"?><osm version="0.6" generator="github.com/aaronlidman/osm-and-geojson"><node id="-1" lat="30.499131" lon="-97.791599" changeset="false"><tag k="addr:street" v="Staked Plains Loop"/><tag k="addr:housenumber" v="14716"/></node><node id="-2" lat="30.50166" lon="-97.787592" changeset="false"><tag k="addr:street" v="Crazy Well Drive"/><tag k="addr:housenumber" v="11116"/></node><node id="-3" lat="30.498817" lon="-97.79153" changeset="false"><tag k="addr:street" v="Misty White Drive"/><tag k="addr:housenumber" v="11501"/></node><node id="-4" lat="30.497066" lon="-97.790752" changeset="false"><tag k="addr:street" v="Staked Plains Loop"/><tag k="addr:housenumber" v="14605"/></node><node id="-5" lat="30.502435" lon="-97.787353" changeset="false"><tag k="addr:street" v="Crazy Well Drive"/><tag k="addr:housenumber" v="10912"/></node><node id="-6" lat="30.499618" lon="-97.794402" changeset="false"><tag k="addr:street" v="Springs Head Loop"/><tag k="addr:housenumber" v="11828"/></node><node id="-7" lat="30.501352" lon="-97.787309" changeset="false"><tag k="addr:street" v="Crazy Well Drive"/><tag k="addr:housenumber" v="11113"/></node><node id="-8" lat="30.501268" lon="-97.787613" changeset="false"><tag k="addr:street" v="Crazy Well Drive"/><tag k="addr:housenumber" v="11121"/></node><node id="-9" lat="30.499975" lon="-97.788751" changeset="false"><tag k="addr:street" v="Shallow Water Road"/><tag k="addr:housenumber" v="11204"/></node><node id="-10" lat="30.499911" lon="-97.790122" changeset="false"><tag k="addr:street" v="Mistletoe Heights Drive"/><tag k="addr:housenumber" v="14809"/></node><node id="-11" lat="30.499303" lon="-97.792093" changeset="false"><tag k="addr:street" v="Misty White Drive"/><tag k="addr:housenumber" v="11516"/></node><node id="-12" lat="30.49909" lon="-97.793677" changeset="false"><tag k="addr:street" v="Fletcher Hall Lane"/><tag k="addr:housenumber" v="11712"/></node><node id="-13" lat="30.498527" lon="-97.790614" changeset="false"><tag k="addr:street" v="Fletcher Hall Lane"/><tag k="addr:housenumber" v="11408"/></node><node id="-14" lat="30.49844" lon="-97.78817" changeset="false"><tag k="addr:street" v="Fletcher Hall Lane"/><tag k="addr:housenumber" v="11217"/></node><node id="-15" lat="30.500449" lon="-97.789809" changeset="false"><tag k="addr:street" v="Slingshot Road"/><tag k="addr:housenumber" v="14812"/></node><node id="-16" lat="30.500248" lon="-97.788416" changeset="false"><tag k="addr:street" v="Shallow Water Road"/><tag k="addr:housenumber" v="11116"/></node><node id="-17" lat="30.50021" lon="-97.790607" changeset="false"><tag k="addr:street" v="Mistletoe Heights Drive"/><tag k="addr:housenumber" v="14820"/></node><node id="-18" lat="30.497677" lon="-97.790292" changeset="false"><tag k="addr:street" v="Springs Edge Drive"/><tag k="addr:housenumber" v="14700"/></node><node id="-19" lat="30.501988" lon="-97.787329" changeset="false"><tag k="addr:street" v="Crazy Well Drive"/><tag k="addr:housenumber" v="11004"/></node><node id="-20" lat="30.499543" lon="-97.789007" changeset="false"><tag k="addr:street" v="Shallow Water Road"/><tag k="addr:housenumber" v="11213"/></node><node id="-21" lat="30.498953" lon="-97.792569" changeset="false"><tag k="addr:street" v="Misty White Drive"/><tag k="addr:housenumber" v="11521"/></node><node id="-22" lat="30.49842" lon="-97.788885" changeset="false"><tag k="addr:street" v="Fletcher Hall Lane"/><tag k="addr:housenumber" v="11301"/></node><node id="-23" lat="30.501736" lon="-97.791106" changeset="false"><tag k="addr:street" v="Dodge Cattle Cove"/><tag k="addr:housenumber" v="15112"/></node><node id="-24" lat="30.497651" lon="-97.788973" changeset="false"><tag k="addr:street" v="Conchos River Trail"/><tag k="addr:housenumber" v="11301"/></node><node id="-25" lat="30.503324" lon="-97.785604" changeset="false"><tag k="addr:street" v="Dodge Cattle Drive"/><tag k="addr:housenumber" v="10813"/></node><node id="-26" lat="30.502648" lon="-97.788417" changeset="false"><tag k="addr:street" v="Dodge Cattle Drive"/><tag k="addr:housenumber" v="11105"/></node><node id="-27" lat="30.487496" lon="-97.807527" changeset="false"><tag k="addr:street" v="North Bell Boulevard"/><tag k="addr:housenumber" v="1910"/></node><node id="-28" lat="30.498817" lon="-97.788453" changeset="false"><tag k="addr:street" v="Fletcher Hall Lane"/><tag k="addr:housenumber" v="11224"/></node><node id="-29" lat="30.498919" lon="-97.793276" changeset="false"><tag k="addr:street" v="Fletcher Hall Lane"/><tag k="addr:housenumber" v="11704"/></node><node id="-30" lat="30.496899" lon="-97.790784" changeset="false"><tag k="addr:street" v="Staked Plains Loop"/><tag k="addr:housenumber" v="14601"/></node><node id="-31" lat="30.500974" lon="-97.788245" changeset="false"><tag k="addr:street" v="Crazy Well Drive"/><tag k="addr:housenumber" v="11201"/></node><node id="-32" lat="30.500796" lon="-97.78901" changeset="false"><tag k="addr:street" v="Crazy Well Drive"/><tag k="addr:housenumber" v="11220"/></node><node id="-33" lat="30.498868" lon="-97.792364" changeset="false"><tag k="addr:street" v="Misty White Drive"/><tag k="addr:housenumber" v="11517"/></node><node id="-34" lat="30.501363" lon="-97.790333" changeset="false"><tag k="addr:street" v="Dodge Cattle Drive"/><tag k="addr:housenumber" v="11309"/></node><node id="-35" lat="30.498713" lon="-97.789502" changeset="false"><tag k="addr:street" v="Fletcher Hall Lane"/><tag k="addr:housenumber" v="11316"/></node><node id="-36" lat="30.501496" lon="-97.788893" changeset="false"><tag k="addr:street" v="Los Comancheros Road"/><tag k="addr:housenumber" v="11205"/></node><node id="-37" lat="30.497939" lon="-97.789519" changeset="false"><tag k="addr:street" v="Conchos River Trail"/><tag k="addr:housenumber" v="11312"/></node><node id="-38" lat="30.500555" lon="-97.790828" changeset="false"><tag k="addr:street" v="Mistletoe Heights Drive"/><tag k="addr:housenumber" v="14904"/></node><node id="-39" lat="30.498349" lon="-97.78934" changeset="false"><tag k="addr:street" v="Fletcher Hall Lane"/><tag k="addr:housenumber" v="11315"/></node><node id="-40" lat="30.492973" lon="-97.797527" changeset="false"><tag k="addr:street" v="Running Brush Lane"/><tag k="addr:housenumber" v="11312"/></node><node id="-41" lat="30.493706" lon="-97.795838" changeset="false"><tag k="addr:street" v="Boquillas Canyon Drive"/><tag k="addr:housenumber" v="15016"/></node><node id="-42" lat="30.494507" lon="-97.793383" changeset="false"><tag k="addr:street" v="Dog Leg Drive"/><tag k="addr:housenumber" v="11400"/></node><node id="-43" lat="30.500888" lon="-97.788898" changeset="false"><tag k="addr:street" v="Crazy Well Drive"/><tag k="addr:housenumber" v="11216"/></node><node id="-44" lat="30.500878" lon="-97.788368" changeset="false"><tag k="addr:street" v="Crazy Well Drive"/><tag k="addr:housenumber" v="11205"/></node><node id="-45" lat="30.499636" lon="-97.788021" changeset="false"><tag k="addr:street" v="Shallow Water Cove"/><tag k="addr:housenumber" v="14701"/></node><node id="-46" lat="30.500507" lon="-97.788768" changeset="false"><tag k="addr:street" v="Crazy Well Drive"/><tag k="addr:housenumber" v="11221"/></node><node id="-47" lat="30.500181" lon="-97.789736" changeset="false"><tag k="addr:street" v="Slingshot Road"/><tag k="addr:housenumber" v="14808"/></node><node id="-48" lat="30.50158" lon="-97.788786" changeset="false"><tag k="addr:street" v="Los Comancheros Road"/><tag k="addr:housenumber" v="11201"/></node><node id="-49" lat="30.497425" lon="-97.790752" changeset="false"><tag k="addr:street" v="Staked Plains Loop"/><tag k="addr:housenumber" v="14613"/></node><node id="-50" lat="30.502062" lon="-97.789463" changeset="false"><tag k="addr:street" v="Dodge Cattle Drive"/><tag k="addr:housenumber" v="11205"/></node><node id="-51" lat="30.501754" lon="-97.788485" changeset="false"><tag k="addr:street" v="Los Comancheros Road"/><tag k="addr:housenumber" v="11117"/></node><node id="-52" lat="30.496892" lon="-97.790469" changeset="false"><tag k="addr:street" v="Hattery Lane"/><tag k="addr:housenumber" v="11408"/></node><node id="-53" lat="30.499968" lon="-97.788194" changeset="false"><tag k="addr:street" v="Shallow Water Cove"/><tag k="addr:housenumber" v="14709"/></node><node id="-54" lat="30.497847" lon="-97.789782" changeset="false"><tag k="addr:street" v="Conchos River Trail"/><tag k="addr:housenumber" v="11320"/></node><node id="-55" lat="30.503307" lon="-97.785761" changeset="false"><tag k="addr:street" v="Dodge Cattle Drive"/><tag k="addr:housenumber" v="10817"/></node><node id="-56" lat="30.500675" lon="-97.789948" changeset="false"><tag k="addr:street" v="Slingshot Road"/><tag k="addr:housenumber" v="14820"/></node><node id="-57" lat="30.498535" lon="-97.792448" changeset="false"><tag k="addr:street" v="Fletcher Hall Lane"/><tag k="addr:housenumber" v="11604"/></node><node id="-58" lat="30.502332" lon="-97.78809" changeset="false"><tag k="addr:street" v="Los Comancheros Road"/><tag k="addr:housenumber" v="11100"/></node><node id="-59" lat="30.502039" lon="-97.787634" changeset="false"><tag k="addr:street" v="Los Comancheros Road"/><tag k="addr:housenumber" v="11009"/></node><node id="-60" lat="30.499233" lon="-97.794332" changeset="false"><tag k="addr:street" v="Staked Plains Loop"/><tag k="addr:housenumber" v="15115"/></node><node id="-61" lat="30.501724" lon="-97.789915" changeset="false"><tag k="addr:street" v="Dodge Cattle Drive"/><tag k="addr:housenumber" v="11221"/></node><node id="-62" lat="30.502354" lon="-97.78907" changeset="false"><tag k="addr:street" v="Dodge Cattle Drive"/><tag k="addr:housenumber" v="11125"/></node><node id="-63" lat="30.497693" lon="-97.788189" changeset="false"><tag k="addr:street" v="Conchos River Trail"/><tag k="addr:housenumber" v="11205"/></node><node id="-64" lat="30.498689" lon="-97.792792" changeset="false"><tag k="addr:street" v="Fletcher Hall Lane"/><tag k="addr:housenumber" v="11612"/></node><node id="-65" lat="30.501325" lon="-97.7891" changeset="false"><tag k="addr:street" v="Los Comancheros Road"/><tag k="addr:housenumber" v="11213"/></node><node id="-66" lat="30.502699" lon="-97.788278" changeset="false"><tag k="addr:street" v="Dodge Cattle Drive"/><tag k="addr:housenumber" v="11101"/></node><node id="-67" lat="30.502556" lon="-97.788698" changeset="false"><tag k="addr:street" v="Dodge Cattle Drive"/><tag k="addr:housenumber" v="11113"/></node><node id="-68" lat="30.499947" lon="-97.790532" changeset="false"><tag k="addr:street" v="Mistletoe Heights Drive"/><tag k="addr:housenumber" v="14812"/></node><node id="-69" lat="30.495268" lon="-97.788477" changeset="false"><tag k="addr:street" v="Avery Ranch Boulevard"/><tag k="addr:housenumber" v="14100"/></node><node id="-70" lat="30.500345" lon="-97.789012" changeset="false"><tag k="addr:street" v="Crazy Well Drive"/><tag k="addr:housenumber" v="11229"/></node><node id="-71" lat="30.500329" lon="-97.790671" changeset="false"><tag k="addr:street" v="Mistletoe Heights Drive"/><tag k="addr:housenumber" v="14824"/></node><node id="-72" lat="30.49568" lon="-97.798503" changeset="false"><tag k="addr:street" v="Running Brush Lane"/><tag k="addr:housenumber" v="11604"/></node><node id="-73" lat="30.501615" lon="-97.789996" changeset="false"><tag k="addr:street" v="Dodge Cattle Drive"/><tag k="addr:housenumber" v="11225"/></node><node id="-74" lat="30.501803" lon="-97.789798" changeset="false"><tag k="addr:street" v="Dodge Cattle Drive"/><tag k="addr:housenumber" v="11217"/></node><node id="-75" lat="30.50043" lon="-97.791284" changeset="false"><tag k="addr:street" v="Staked Plains Loop"/><tag k="addr:housenumber" v="14817"/></node><node id="-76" lat="30.501387" lon="-97.787017" changeset="false"><tag k="addr:street" v="Crazy Well Drive"/><tag k="addr:housenumber" v="11105"/></node><node id="-77" lat="30.497971" lon="-97.789378" changeset="false"><tag k="addr:street" v="Conchos River Trail"/><tag k="addr:housenumber" v="11308"/></node><node id="-78" lat="30.503126" lon="-97.786658" changeset="false"><tag k="addr:street" v="Dodge Cattle Drive"/><tag k="addr:housenumber" v="10913"/></node><node id="-79" lat="30.500801" lon="-97.787672" changeset="false"><tag k="addr:street" v="Shallow Water Road"/><tag k="addr:housenumber" v="11020"/></node><node id="-80" lat="30.49898" lon="-97.793491" changeset="false"><tag k="addr:street" v="Fletcher Hall Lane"/><tag k="addr:housenumber" v="11708"/></node><node id="-81" lat="30.498184" lon="-97.78788" changeset="false"><tag k="addr:street" v="Hattery Lane"/><tag k="addr:housenumber" v="11008"/></node><node id="-82" lat="30.502437" lon="-97.788956" changeset="false"><tag k="addr:street" v="Dodge Cattle Drive"/><tag k="addr:housenumber" v="11121"/></node><node id="-83" lat="30.499251" lon="-97.791914" changeset="false"><tag k="addr:street" v="Misty White Drive"/><tag k="addr:housenumber" v="11512"/></node><node id="-84" lat="30.499424" lon="-97.789614" changeset="false"><tag k="addr:street" v="Shallow Water Road"/><tag k="addr:housenumber" v="11305"/></node><node id="-85" lat="30.496312" lon="-97.795532" changeset="false"><tag k="addr:street" v="Gold Cave Drive"/><tag k="addr:housenumber" v="11509"/></node><node id="-86" lat="30.497634" lon="-97.789119" changeset="false"><tag k="addr:street" v="Conchos River Trail"/><tag k="addr:housenumber" v="11305"/></node><node id="-87" lat="30.498638" lon="-97.789757" changeset="false"><tag k="addr:street" v="Fletcher Hall Lane"/><tag k="addr:housenumber" v="11324"/></node><node id="-88" lat="30.499684" lon="-97.790503" changeset="false"><tag k="addr:street" v="Mistletoe Heights Drive"/><tag k="addr:housenumber" v="14804"/></node><node id="-89" lat="30.502943" lon="-97.787082" changeset="false"><tag k="addr:street" v="Dodge Cattle Drive"/><tag k="addr:housenumber" v="10925"/></node><node id="-90" lat="30.502767" lon="-97.787865" changeset="false"><tag k="addr:street" v="Dodge Cattle Drive"/><tag k="addr:housenumber" v="11013"/></node><node id="-91" lat="30.50056" lon="-97.789874" changeset="false"><tag k="addr:street" v="Slingshot Road"/><tag k="addr:housenumber" v="14816"/></node><node id="-92" lat="30.498622" lon="-97.794758" changeset="false"><tag k="addr:street" v="Staked Plains Loop"/><tag k="addr:housenumber" v="15215"/></node><node id="-93" lat="30.495565" lon="-97.792322" changeset="false"><tag k="addr:street" v="Staked Plains Drive"/><tag k="addr:housenumber" v="11328"/></node><node id="-94" lat="30.499341" lon="-97.792482" changeset="false"><tag k="addr:street" v="Stock Tank Cove"/><tag k="addr:housenumber" v="14601"/></node><node id="-95" lat="30.500153" lon="-97.787747" changeset="false"><tag k="addr:street" v="La Llorona Lane"/><tag k="addr:housenumber" v="14708"/></node><node id="-96" lat="30.500312" lon="-97.789163" changeset="false"><tag k="addr:street" v="Crazy Well Drive"/><tag k="addr:housenumber" v="11233"/></node><node id="-97" lat="30.500201" lon="-97.791748" changeset="false"><tag k="addr:street" v="Staked Plains Loop"/><tag k="addr:housenumber" v="14812"/></node><node id="-98" lat="30.501153" lon="-97.789308" changeset="false"><tag k="addr:street" v="Los Comancheros Road"/><tag k="addr:housenumber" v="11221"/></node><node id="-99" lat="30.494363" lon="-97.797065" changeset="false"><tag k="addr:street" v="Staked Plains Loop"/><tag k="addr:housenumber" v="15521"/></node><node id="-100" lat="30.493907" lon="-97.797396" changeset="false"><tag k="addr:street" v="Running Brush Lane"/><tag k="addr:housenumber" v="11421"/></node><node id="-101" lat="30.499844" lon="-97.79205" changeset="false"><tag k="addr:street" v="Stock Tank Cove"/><tag k="addr:housenumber" v="14613"/></node><node id="-102" lat="30.499811" lon="-97.792835" changeset="false"><tag k="addr:street" v="Stock Tank Cove"/><tag k="addr:housenumber" v="14608"/></node><node id="-103" lat="30.50004" lon="-97.788608" changeset="false"><tag k="addr:street" v="Shallow Water Road"/><tag k="addr:housenumber" v="11200"/></node><node id="-104" lat="30.500759" lon="-97.791035" changeset="false"><tag k="addr:street" v="Mistletoe Heights Drive"/><tag k="addr:housenumber" v="14912"/></node><node id="-105" lat="30.50118" lon="-97.787938" changeset="false"><tag k="addr:street" v="La Llorona Lane"/><tag k="addr:housenumber" v="14813"/></node><node id="-106" lat="30.496975" lon="-97.792868" changeset="false"><tag k="addr:street" v="Staked Plains Drive"/><tag k="addr:housenumber" v="11501"/></node><node id="-107" lat="30.498355" lon="-97.791893" changeset="false"><tag k="addr:street" v="Fletcher Hall Lane"/><tag k="addr:housenumber" v="11508"/></node><node id="-108" lat="30.498086" lon="-97.790918" changeset="false"><tag k="addr:street" v="Staked Plains Loop"/><tag k="addr:housenumber" v="14629"/></node><node id="-109" lat="30.498681" lon="-97.789632" changeset="false"><tag k="addr:street" v="Fletcher Hall Lane"/><tag k="addr:housenumber" v="11320"/></node><node id="-110" lat="30.503257" lon="-97.786212" changeset="false"><tag k="addr:street" v="Dodge Cattle Drive"/><tag k="addr:housenumber" v="10901"/></node><node id="-111" lat="30.502794" lon="-97.787713" changeset="false"><tag k="addr:street" v="Dodge Cattle Drive"/><tag k="addr:housenumber" v="11009"/></node><node id="-112" lat="30.497493" lon="-97.789854" changeset="false"><tag k="addr:street" v="Springs Edge Drive"/><tag k="addr:housenumber" v="14617"/></node><node id="-113" lat="30.500644" lon="-97.790934" changeset="false"><tag k="addr:street" v="Mistletoe Heights Drive"/><tag k="addr:housenumber" v="14908"/></node><node id="-114" lat="30.500547" lon="-97.787398" changeset="false"><tag k="addr:street" v="La Llorona Lane"/><tag k="addr:housenumber" v="14709"/></node><node id="-115" lat="30.500481" lon="-97.790184" changeset="false"><tag k="addr:street" v="Los Comancheros Road"/><tag k="addr:housenumber" v="11309"/></node><node id="-116" lat="30.500434" lon="-97.790326" changeset="false"><tag k="addr:street" v="Los Comancheros Road"/><tag k="addr:housenumber" v="11313"/></node><node id="-117" lat="30.500308" lon="-97.787815" changeset="false"><tag k="addr:street" v="La Llorona Lane"/><tag k="addr:housenumber" v="14712"/></node><node id="-118" lat="30.4976" lon="-97.789262" changeset="false"><tag k="addr:street" v="Conchos River Trail"/><tag k="addr:housenumber" v="11309"/></node><node id="-119" lat="30.499187" lon="-97.790609" changeset="false"><tag k="addr:street" v="Shallow Water Road"/><tag k="addr:housenumber" v="11409"/></node><node id="-120" lat="30.501368" lon="-97.787168" changeset="false"><tag k="addr:street" v="Crazy Well Drive"/><tag k="addr:housenumber" v="11109"/></node><node id="-121" lat="30.501274" lon="-97.79463" changeset="false"><tag k="addr:street" v="Springs Head Loop"/><tag k="addr:housenumber" v="12001"/></node><node id="-122" lat="30.498931" lon="-97.794543" changeset="false"><tag k="addr:street" v="Staked Plains Loop"/><tag k="addr:housenumber" v="15205"/></node><node id="-123" lat="30.499628" lon="-97.788546" changeset="false"><tag k="addr:street" v="Shallow Water Cove"/><tag k="addr:housenumber" v="14708"/></node><node id="-124" lat="30.50006" lon="-97.787614" changeset="false"><tag k="addr:street" v="La Llorona Lane"/><tag k="addr:housenumber" v="14704"/></node><node id="-125" lat="30.49954" lon="-97.788866" changeset="false"><tag k="addr:street" v="Shallow Water Road"/><tag k="addr:housenumber" v="11209"/></node><node id="-126" lat="30.499749" lon="-97.793226" changeset="false"><tag k="addr:street" v="Misty White Drive"/><tag k="addr:housenumber" v="11612"/></node><node id="-127" lat="30.499491" lon="-97.788196" changeset="false"><tag k="addr:street" v="Shallow Water Cove"/><tag k="addr:housenumber" v="14700"/></node><node id="-128" lat="30.498719" lon="-97.791058" changeset="false"><tag k="addr:street" v="Staked Plains Loop"/><tag k="addr:housenumber" v="14709"/></node><node id="-129" lat="30.500348" lon="-97.791921" changeset="false"><tag k="addr:street" v="Staked Plains Loop"/><tag k="addr:housenumber" v="14900"/></node><node id="-130" lat="30.497819" lon="-97.789951" changeset="false"><tag k="addr:street" v="Conchos River Trail"/><tag k="addr:housenumber" v="11324"/></node><node id="-131" lat="30.493027" lon="-97.797034" changeset="false"><tag k="addr:street" v="Boquillas Canyon Drive"/><tag k="addr:housenumber" v="14000"/></node><node id="-132" lat="30.496948" lon="-97.789755" changeset="false"><tag k="addr:street" v="Springs Edge Drive"/><tag k="addr:housenumber" v="14601"/></node><node id="-133" lat="30.503068" lon="-97.786793" changeset="false"><tag k="addr:street" v="Dodge Cattle Drive"/><tag k="addr:housenumber" v="10917"/></node><node id="-134" lat="30.502714" lon="-97.788129" changeset="false"><tag k="addr:street" v="Dodge Cattle Drive"/><tag k="addr:housenumber" v="11021"/></node><node id="-135" lat="30.499235" lon="-97.790758" changeset="false"><tag k="addr:street" v="Shallow Water Road"/><tag k="addr:housenumber" v="11413"/></node><node id="-136" lat="30.501446" lon="-97.790216" changeset="false"><tag k="addr:street" v="Dodge Cattle Drive"/><tag k="addr:housenumber" v="11305"/></node><node id="-137" lat="30.501249" lon="-97.788488" changeset="false"><tag k="addr:street" v="Crazy Well Drive"/><tag k="addr:housenumber" v="11200"/></node><node id="-138" lat="30.497597" lon="-97.790761" changeset="false"><tag k="addr:street" v="Staked Plains Loop"/><tag k="addr:housenumber" v="14617"/></node><node id="-139" lat="30.49941" lon="-97.794214" changeset="false"><tag k="addr:street" v="Staked Plains Loop"/><tag k="addr:housenumber" v="15109"/></node><node id="-140" lat="30.499092" lon="-97.794425" changeset="false"><tag k="addr:street" v="Staked Plains Loop"/><tag k="addr:housenumber" v="15201"/></node><node id="-141" lat="30.498604" lon="-97.792616" changeset="false"><tag k="addr:street" v="Fletcher Hall Lane"/><tag k="addr:housenumber" v="11608"/></node><node id="-142" lat="30.500455" lon="-97.788212" changeset="false"><tag k="addr:street" v="Shallow Water Road"/><tag k="addr:housenumber" v="11108"/></node><node id="-143" lat="30.500655" lon="-97.79306" changeset="false"><tag k="addr:street" v="Springs Head Loop"/><tag k="addr:housenumber" v="12045"/></node><node id="-144" lat="30.496321" lon="-97.793086" changeset="false"><tag k="addr:street" v="Showdown Lane"/><tag k="addr:housenumber" v="14417"/></node><node id="-145" lat="30.500029" lon="-97.79407" changeset="false"><tag k="addr:street" v="Springs Head Loop"/><tag k="addr:housenumber" v="11900"/></node><node id="-146" lat="30.498458" lon="-97.792271" changeset="false"><tag k="addr:street" v="Fletcher Hall Lane"/><tag k="addr:housenumber" v="11600"/></node><node id="-147" lat="30.502122" lon="-97.788642" changeset="false"><tag k="addr:street" v="Los Comancheros Road"/><tag k="addr:housenumber" v="11116"/></node><node id="-148" lat="30.502002" lon="-97.787791" changeset="false"><tag k="addr:street" v="Los Comancheros Road"/><tag k="addr:housenumber" v="11013"/></node><node id="-149" lat="30.501976" lon="-97.789567" changeset="false"><tag k="addr:street" v="Dodge Cattle Drive"/><tag k="addr:housenumber" v="11209"/></node><node id="-150" lat="30.50188" lon="-97.788216" changeset="false"><tag k="addr:street" v="Los Comancheros Road"/><tag k="addr:housenumber" v="11109"/></node><node id="-151" lat="30.499562" lon="-97.790484" changeset="false"><tag k="addr:street" v="Mistletoe Heights Drive"/><tag k="addr:housenumber" v="14800"/></node><node id="-152" lat="30.499532" lon="-97.789158" changeset="false"><tag k="addr:street" v="Shallow Water Road"/><tag k="addr:housenumber" v="11217"/></node><node id="-153" lat="30.499116" lon="-97.792932" changeset="false"><tag k="addr:street" v="Misty White Drive"/><tag k="addr:housenumber" v="11601"/></node><node id="-154" lat="30.499031" lon="-97.792765" changeset="false"><tag k="addr:street" v="Misty White Drive"/><tag k="addr:housenumber" v="11525"/></node><node id="-155" lat="30.497562" lon="-97.789404" changeset="false"><tag k="addr:street" v="Conchos River Trail"/><tag k="addr:housenumber" v="11313"/></node><node id="-156" lat="30.502816" lon="-97.787577" changeset="false"><tag k="addr:street" v="Dodge Cattle Drive"/><tag k="addr:housenumber" v="11005"/></node><node id="-157" lat="30.496396" lon="-97.795702" changeset="false"><tag k="addr:street" v="Gold Cave Drive"/><tag k="addr:housenumber" v="11513"/></node><node id="-158" lat="30.500044" lon="-97.791559" changeset="false"><tag k="addr:street" v="Staked Plains Loop"/><tag k="addr:housenumber" v="14808"/></node><node id="-159" lat="30.4999" lon="-97.789055" changeset="false"><tag k="addr:street" v="Shallow Water Road"/><tag k="addr:housenumber" v="11212"/></node><node id="-160" lat="30.497711" lon="-97.787868" changeset="false"><tag k="addr:street" v="Hattery Lane"/><tag k="addr:housenumber" v="11100"/></node><node id="-161" lat="30.498794" lon="-97.789035" changeset="false"><tag k="addr:street" v="Fletcher Hall Lane"/><tag k="addr:housenumber" v="11304"/></node><node id="-162" lat="30.498432" lon="-97.788311" changeset="false"><tag k="addr:street" v="Fletcher Hall Lane"/><tag k="addr:housenumber" v="11221"/></node><node id="-163" lat="30.501413" lon="-97.788994" changeset="false"><tag k="addr:street" v="Los Comancheros Road"/><tag k="addr:housenumber" v="11209"/></node><node id="-164" lat="30.49789" lon="-97.789656" changeset="false"><tag k="addr:street" v="Conchos River Trail"/><tag k="addr:housenumber" v="11316"/></node><node id="-165" lat="30.501241" lon="-97.789201" changeset="false"><tag k="addr:street" v="Los Comancheros Road"/><tag k="addr:housenumber" v="11217"/></node><node id="-166" lat="30.500464" lon="-97.793435" changeset="false"><tag k="addr:street" v="Staked Plains Loop"/><tag k="addr:housenumber" v="15001"/></node><node id="-167" lat="30.502847" lon="-97.787428" changeset="false"><tag k="addr:street" v="Dodge Cattle Drive"/><tag k="addr:housenumber" v="11001"/></node><node id="-168" lat="30.500151" lon="-97.788533" changeset="false"><tag k="addr:street" v="Shallow Water Road"/><tag k="addr:housenumber" v="11120"/></node><node id="-169" lat="30.498303" lon="-97.789509" changeset="false"><tag k="addr:street" v="Fletcher Hall Lane"/><tag k="addr:housenumber" v="11321"/></node><node id="-170" lat="30.492635" lon="-97.797438" changeset="false"><tag k="addr:street" v="Running Brush Lane"/><tag k="addr:housenumber" v="11304"/></node><node id="-171" lat="30.493363" lon="-97.795345" changeset="false"><tag k="addr:street" v="Boquillas Canyon Drive"/><tag k="addr:housenumber" v="15013"/></node><node id="-172" lat="30.50054" lon="-97.793953" changeset="false"><tag k="addr:street" v="Springs Head Loop"/><tag k="addr:housenumber" v="11912"/></node><node id="-173" lat="30.4931" lon="-97.797591" changeset="false"><tag k="addr:street" v="Running Brush Lane"/><tag k="addr:housenumber" v="11400"/></node><node id="-174" lat="30.497524" lon="-97.789561" changeset="false"><tag k="addr:street" v="Conchos River Trail"/><tag k="addr:housenumber" v="11317"/></node><node id="-175" lat="30.499943" lon="-97.791026" changeset="false"><tag k="addr:street" v="Staked Plains Loop"/><tag k="addr:housenumber" v="14805"/></node><node id="-176" lat="30.50059" lon="-97.788651" changeset="false"><tag k="addr:street" v="Crazy Well Drive"/><tag k="addr:housenumber" v="11217"/></node><node id="-177" lat="30.498387" lon="-97.789182" changeset="false"><tag k="addr:street" v="Fletcher Hall Lane"/><tag k="addr:housenumber" v="11309"/></node><node id="-178" lat="30.499386" lon="-97.789734" changeset="false"><tag k="addr:street" v="Shallow Water Road"/><tag k="addr:housenumber" v="11309"/></node><node id="-179" lat="30.499299" lon="-97.795963" changeset="false"><tag k="addr:street" v="Springs Head Loop"/><tag k="addr:housenumber" v="11729"/></node><node id="-180" lat="30.491034" lon="-97.800945" changeset="false"><tag k="addr:street" v="Avery Ranch Boulevard"/><tag k="addr:housenumber" v="13225"/></node><node id="-181" lat="30.503301" lon="-97.785904" changeset="false"><tag k="addr:street" v="Dodge Cattle Drive"/><tag k="addr:housenumber" v="10821"/></node><node id="-182" lat="30.499316" lon="-97.789871" changeset="false"><tag k="addr:street" v="Shallow Water Road"/><tag k="addr:housenumber" v="11313"/></node><node id="-183" lat="30.500789" lon="-97.788464" changeset="false"><tag k="addr:street" v="Crazy Well Drive"/><tag k="addr:housenumber" v="11209"/></node><node id="-184" lat="30.500692" lon="-97.78856" changeset="false"><tag k="addr:street" v="Crazy Well Drive"/><tag k="addr:housenumber" v="11213"/></node><node id="-185" lat="30.499531" lon="-97.789309" changeset="false"><tag k="addr:street" v="Shallow Water Road"/><tag k="addr:housenumber" v="11221"/></node><node id="-186" lat="30.497253" lon="-97.790742" changeset="false"><tag k="addr:street" v="Staked Plains Loop"/><tag k="addr:housenumber" v="14609"/></node><node id="-187" lat="30.501973" lon="-97.787933" changeset="false"><tag k="addr:street" v="Los Comancheros Road"/><tag k="addr:housenumber" v="11101"/></node><node id="-188" lat="30.501527" lon="-97.790102" changeset="false"><tag k="addr:street" v="Dodge Cattle Drive"/><tag k="addr:housenumber" v="11301"/></node><node id="-189" lat="30.501315" lon="-97.787451" changeset="false"><tag k="addr:street" v="Crazy Well Drive"/><tag k="addr:housenumber" v="11117"/></node><node id="-190" lat="30.496754" lon="-97.79646" changeset="false"><tag k="addr:street" v="Running Brush Cove"/><tag k="addr:housenumber" v="11713"/></node><node id="-191" lat="30.492826" lon="-97.797475" changeset="false"><tag k="addr:street" v="Running Brush Lane"/><tag k="addr:housenumber" v="11308"/></node><node id="-192" lat="30.495584" lon="-97.793717" changeset="false"><tag k="addr:street" v="Staked Plains Loop"/><tag k="addr:housenumber" v="14400 1/2"/></node><node id="-193" lat="30.498554" lon="-97.795612" changeset="false"><tag k="addr:street" v="Springs Head Loop"/><tag k="addr:housenumber" v="11709"/></node><node id="-194" lat="30.503286" lon="-97.786043" changeset="false"><tag k="addr:street" v="Dodge Cattle Drive"/><tag k="addr:housenumber" v="10825"/></node><node id="-195" lat="30.499652" lon="-97.795031" changeset="false"><tag k="addr:street" v="Springs Head Loop"/><tag k="addr:housenumber" v="11821"/></node><node id="-196" lat="30.50106" lon="-97.789399" changeset="false"><tag k="addr:street" v="Los Comancheros Road"/><tag k="addr:housenumber" v="11225"/></node><node id="-197" lat="30.500866" lon="-97.787535" changeset="false"><tag k="addr:street" v="Shallow Water Road"/><tag k="addr:housenumber" v="11016"/></node><node id="-198" lat="30.499498" lon="-97.789482" changeset="false"><tag k="addr:street" v="Shallow Water Road"/><tag k="addr:housenumber" v="11301"/></node><node id="-199" lat="30.497425" lon="-97.787894" changeset="false"><tag k="addr:street" v="Hattery Lane"/><tag k="addr:housenumber" v="11108"/></node><node id="-200" lat="30.497093" lon="-97.789454" changeset="false"><tag k="addr:street" v="Hattery Lane"/><tag k="addr:housenumber" v="11316"/></node><node id="-201" lat="30.49964" lon="-97.793031" changeset="false"><tag k="addr:street" v="Misty White Drive"/><tag k="addr:housenumber" v="11608"/></node><node id="-202" lat="30.496822" lon="-97.793685" changeset="false"><tag k="addr:street" v="Staked Plains Drive"/><tag k="addr:housenumber" v="11508"/></node><node id="-203" lat="30.498359" lon="-97.791702" changeset="false"><tag k="addr:street" v="Fletcher Hall Lane"/><tag k="addr:housenumber" v="11504"/></node><node id="-204" lat="30.500406" lon="-97.787298" changeset="false"><tag k="addr:street" v="La Llorona Lane"/><tag k="addr:housenumber" v="14705"/></node><node id="-205" lat="30.500283" lon="-97.78931" changeset="false"><tag k="addr:street" v="Crazy Well Drive"/><tag k="addr:housenumber" v="11237"/></node><node id="-206" lat="30.500171" lon="-97.790196" changeset="false"><tag k="addr:street" v="Mistletoe Heights Drive"/><tag k="addr:housenumber" v="14817"/></node><node id="-207" lat="30.498006" lon="-97.789216" changeset="false"><tag k="addr:street" v="Conchos River Trail"/><tag k="addr:housenumber" v="11304"/></node><node id="-208" lat="30.497686" lon="-97.788665" changeset="false"><tag k="addr:street" v="Conchos River Trail"/><tag k="addr:housenumber" v="11217"/></node><node id="-209" lat="30.50008" lon="-97.79057" changeset="false"><tag k="addr:street" v="Mistletoe Heights Drive"/><tag k="addr:housenumber" v="14816"/></node><node id="-210" lat="30.501712" lon="-97.787289" changeset="false"><tag k="addr:street" v="Crazy Well Drive"/><tag k="addr:housenumber" v="11012"/></node><node id="-211" lat="30.501272" lon="-97.790431" changeset="false"><tag k="addr:street" v="Dodge Cattle Drive"/><tag k="addr:housenumber" v="11313"/></node><node id="-212" lat="30.498533" lon="-97.79077" changeset="false"><tag k="addr:street" v="Fletcher Hall Lane"/><tag k="addr:housenumber" v="11412"/></node><node id="-213" lat="30.498432" lon="-97.788455" changeset="false"><tag k="addr:street" v="Fletcher Hall Lane"/><tag k="addr:housenumber" v="11225"/></node><node id="-214" lat="30.500049" lon="-97.790164" changeset="false"><tag k="addr:street" v="Mistletoe Heights Drive"/><tag k="addr:housenumber" v="14813"/></node><node id="-215" lat="30.502285" lon="-97.788226" changeset="false"><tag k="addr:street" v="Los Comancheros Road"/><tag k="addr:housenumber" v="11104"/></node><node id="-216" lat="30.502243" lon="-97.788363" changeset="false"><tag k="addr:street" v="Los Comancheros Road"/><tag k="addr:housenumber" v="11108"/></node><node id="-217" lat="30.502154" lon="-97.789346" changeset="false"><tag k="addr:street" v="Dodge Cattle Drive"/><tag k="addr:housenumber" v="11201"/></node><node id="-218" lat="30.499495" lon="-97.788399" changeset="false"><tag k="addr:street" v="Shallow Water Cove"/><tag k="addr:housenumber" v="14704"/></node><node id="-219" lat="30.499634" lon="-97.792102" changeset="false"><tag k="addr:street" v="Stock Tank Cove"/><tag k="addr:housenumber" v="14609"/></node><node id="-220" lat="30.501384" lon="-97.786881" changeset="false"><tag k="addr:street" v="Crazy Well Drive"/><tag k="addr:housenumber" v="11101"/></node><node id="-221" lat="30.503021" lon="-97.786929" changeset="false"><tag k="addr:street" v="Dodge Cattle Drive"/><tag k="addr:housenumber" v="10921"/></node><node id="-222" lat="30.502743" lon="-97.788006" changeset="false"><tag k="addr:street" v="Dodge Cattle Drive"/><tag k="addr:housenumber" v="11017"/></node><node id="-223" lat="30.500124" lon="-97.791058" changeset="false"><tag k="addr:street" v="Staked Plains Loop"/><tag k="addr:housenumber" v="14809"/></node><node id="-224" lat="30.495451" lon="-97.791746" changeset="false"><tag k="addr:street" v="Staked Plains Drive"/><tag k="addr:housenumber" v="11321 1/2"/></node><node id="-225" lat="30.496899" lon="-97.790124" changeset="false"><tag k="addr:street" v="Hattery Lane"/><tag k="addr:housenumber" v="11400"/></node><node id="-226" lat="30.500923" lon="-97.789634" changeset="false"><tag k="addr:street" v="Slingshot Road"/><tag k="addr:housenumber" v="14821"/></node><node id="-227" lat="30.498847" lon="-97.788184" changeset="false"><tag k="addr:street" v="Fletcher Hall Lane"/><tag k="addr:housenumber" v="11216"/></node><node id="-228" lat="30.49879" lon="-97.7892" changeset="false"><tag k="addr:street" v="Fletcher Hall Lane"/><tag k="addr:housenumber" v="11308"/></node><node id="-229" lat="30.498766" lon="-97.792979" changeset="false"><tag k="addr:street" v="Fletcher Hall Lane"/><tag k="addr:housenumber" v="11616"/></node><node id="-230" lat="30.498771" lon="-97.79466" changeset="false"><tag k="addr:street" v="Staked Plains Loop"/><tag k="addr:housenumber" v="15209"/></node><node id="-231" lat="30.497696" lon="-97.788344" changeset="false"><tag k="addr:street" v="Conchos River Trail"/><tag k="addr:housenumber" v="11209"/></node><node id="-232" lat="30.498171" lon="-97.789998" changeset="false"><tag k="addr:street" v="Fletcher Hall Lane"/><tag k="addr:housenumber" v="11333"/></node><node id="-233" lat="30.496336" lon="-97.791299" changeset="false"><tag k="addr:street" v="Staked Plains Loop"/><tag k="addr:housenumber" v="14515"/></node><node id="-234" lat="30.499274" lon="-97.790013" changeset="false"><tag k="addr:street" v="Shallow Water Road"/><tag k="addr:housenumber" v="11317"/></node><node id="-235" lat="30.497761" lon="-97.790823" changeset="false"><tag k="addr:street" v="Staked Plains Loop"/><tag k="addr:housenumber" v="14621"/></node><node id="-236" lat="30.499908" lon="-97.789226" changeset="false"><tag k="addr:street" v="Shallow Water Road"/><tag k="addr:housenumber" v="11216"/></node><node id="-237" lat="30.499212" lon="-97.790296" changeset="false"><tag k="addr:street" v="Shallow Water Road"/><tag k="addr:housenumber" v="11401"/></node><node id="-238" lat="30.498206" lon="-97.789829" changeset="false"><tag k="addr:street" v="Fletcher Hall Lane"/><tag k="addr:housenumber" v="11329"/></node><node id="-239" lat="30.501171" lon="-97.78862" changeset="false"><tag k="addr:street" v="Crazy Well Drive"/><tag k="addr:housenumber" v="11204"/></node><node id="-240" lat="30.501069" lon="-97.788711" changeset="false"><tag k="addr:street" v="Crazy Well Drive"/><tag k="addr:housenumber" v="11208"/></node><node id="-241" lat="30.501889" lon="-97.789692" changeset="false"><tag k="addr:street" v="Dodge Cattle Drive"/><tag k="addr:housenumber" v="11213"/></node><node id="-242" lat="30.499647" lon="-97.791539" changeset="false"><tag k="addr:street" v="Staked Plains Loop"/><tag k="addr:housenumber" v="14800"/></node><node id="-243" lat="30.498405" lon="-97.792075" changeset="false"><tag k="addr:street" v="Fletcher Hall Lane"/><tag k="addr:housenumber" v="11512"/></node><node id="-244" lat="30.501036" lon="-97.790779" changeset="false"><tag k="addr:street" v="Mistletoe Heights Drive"/><tag k="addr:housenumber" v="14913"/></node><node id="-245" lat="30.498254" lon="-97.789659" changeset="false"><tag k="addr:street" v="Fletcher Hall Lane"/><tag k="addr:housenumber" v="11325"/></node><node id="-246" lat="30.502584" lon="-97.787365" changeset="false"><tag k="addr:street" v="Crazy Well Drive"/><tag k="addr:housenumber" v="10908"/></node><node id="-247" lat="30.502123" lon="-97.78733" changeset="false"><tag k="addr:street" v="Crazy Well Drive"/><tag k="addr:housenumber" v="11000"/></node><node id="-248" lat="30.498469" lon="-97.787889" changeset="false"><tag k="addr:street" v="Hattery Lane"/><tag k="addr:housenumber" v="11000"/></node><node id="-249" lat="30.499496" lon="-97.792362" changeset="false"><tag k="addr:street" v="Stock Tank Cove"/><tag k="addr:housenumber" v="14605"/></node><node id="-250" lat="30.497683" lon="-97.788519" changeset="false"><tag k="addr:street" v="Conchos River Trail"/><tag k="addr:housenumber" v="11213"/></node><node id="-251" lat="30.501935" lon="-97.788069" changeset="false"><tag k="addr:street" v="Los Comancheros Road"/><tag k="addr:housenumber" v="11105"/></node><node id="-252" lat="30.501828" lon="-97.788353" changeset="false"><tag k="addr:street" v="Los Comancheros Road"/><tag k="addr:housenumber" v="11113"/></node><node id="-253" lat="30.500631" lon="-97.787979" changeset="false"><tag k="addr:street" v="Shallow Water Road"/><tag k="addr:housenumber" v="11100"/></node><node id="-254" lat="30.500539" lon="-97.78809" changeset="false"><tag k="addr:street" v="Shallow Water Road"/><tag k="addr:housenumber" v="11104"/></node><node id="-255" lat="30.500234" lon="-97.787266" changeset="false"><tag k="addr:street" v="La Llorona Lane"/><tag k="addr:housenumber" v="14701"/></node><node id="-256" lat="30.496582" lon="-97.79552" changeset="false"><tag k="addr:street" v="Staked Plains Loop"/><tag k="addr:housenumber" v="15320"/></node><node id="-257" lat="30.501253" lon="-97.793378" changeset="false"><tag k="addr:street" v="Springs Head Loop"/><tag k="addr:housenumber" v="12029"/></node><node id="-258" lat="30.498417" lon="-97.788736" changeset="false"><tag k="addr:street" v="Fletcher Hall Lane"/><tag k="addr:housenumber" v="11233"/></node><node id="-259" lat="30.50261" lon="-97.788561" changeset="false"><tag k="addr:street" v="Dodge Cattle Drive"/><tag k="addr:housenumber" v="11109"/></node><node id="-260" lat="30.499245" lon="-97.79016" changeset="false"><tag k="addr:street" v="Shallow Water Road"/><tag k="addr:housenumber" v="11321"/></node><node id="-261" lat="30.49881" lon="-97.78859" changeset="false"><tag k="addr:street" v="Fletcher Hall Lane"/><tag k="addr:housenumber" v="11228"/></node><node id="-262" lat="30.498189" lon="-97.790387" changeset="false"><tag k="addr:street" v="Springs Edge Drive"/><tag k="addr:housenumber" v="14716"/></node><node id="-263" lat="30.498834" lon="-97.793137" changeset="false"><tag k="addr:street" v="Fletcher Hall Lane"/><tag k="addr:housenumber" v="11700"/></node><node id="-264" lat="30.500415" lon="-97.78889" changeset="false"><tag k="addr:street" v="Crazy Well Drive"/><tag k="addr:housenumber" v="11225"/></node><node id="-265" lat="30.49998" lon="-97.792738" changeset="false"><tag k="addr:street" v="Stock Tank Cove"/><tag k="addr:housenumber" v="14612"/></node><node id="-266" lat="30.499735" lon="-97.789824" changeset="false"><tag k="addr:street" v="Shallow Water Road"/><tag k="addr:housenumber" v="11308"/></node><node id="-267" lat="30.499451" lon="-97.793656" changeset="false"><tag k="addr:street" v="Misty White Drive"/><tag k="addr:housenumber" v="11617"/></node><node id="-268" lat="30.497664" lon="-97.788817" changeset="false"><tag k="addr:street" v="Conchos River Trail"/><tag k="addr:housenumber" v="11221"/></node><node id="-269" lat="30.503231" lon="-97.786359" changeset="false"><tag k="addr:street" v="Dodge Cattle Drive"/><tag k="addr:housenumber" v="10905"/></node><node id="-270" lat="30.502505" lon="-97.78883" changeset="false"><tag k="addr:street" v="Dodge Cattle Drive"/><tag k="addr:housenumber" v="11117"/></node><node id="-271" lat="30.499566" lon="-97.795907" changeset="false"><tag k="addr:street" v="Springs Head Loop"/><tag k="addr:housenumber" v="11733"/></node><node id="-272" lat="30.499206" lon="-97.790452" changeset="false"><tag k="addr:street" v="Shallow Water Road"/><tag k="addr:housenumber" v="11405"/></node><node id="-273" lat="30.499295" lon="-97.791543" changeset="false"><tag k="addr:street" v="Staked Plains Loop"/><tag k="addr:housenumber" v="14720"/></node><node id="-274" lat="30.5012" lon="-97.790545" changeset="false"><tag k="addr:street" v="Dodge Cattle Drive"/><tag k="addr:housenumber" v="11317"/></node><node id="-275" lat="30.500941" lon="-97.787263" changeset="false"><tag k="addr:street" v="Shallow Water Road"/><tag k="addr:housenumber" v="11008"/></node><node id="-276" lat="30.499471" lon="-97.791554" changeset="false"><tag k="addr:street" v="Staked Plains Loop"/><tag k="addr:housenumber" v="14724"/></node><node id="-277" lat="30.497287" lon="-97.787917" changeset="false"><tag k="addr:street" v="Hattery Lane"/><tag k="addr:housenumber" v="11112"/></node><node id="-278" lat="30.497148" lon="-97.78934" changeset="false"><tag k="addr:street" v="Hattery Lane"/><tag k="addr:housenumber" v="11312"/></node><node id="-279" lat="30.496882" lon="-97.790309" changeset="false"><tag k="addr:street" v="Hattery Lane"/><tag k="addr:housenumber" v="11404"/></node><node id="-280" lat="30.50004" lon="-97.79219" changeset="false"><tag k="addr:street" v="Stock Tank Cove"/><tag k="addr:housenumber" v="14617"/></node><node id="-281" lat="30.501115" lon="-97.793271" changeset="false"><tag k="addr:street" v="Springs Head Loop"/><tag k="addr:housenumber" v="12033"/></node><node id="-282" lat="30.493444" lon="-97.794604" changeset="false"><tag k="addr:street" v="Avery Ranch Boulevard"/><tag k="addr:housenumber" v="13800 1/2"/></node><node id="-283" lat="30.49852" lon="-97.790438" changeset="false"><tag k="addr:street" v="Fletcher Hall Lane"/><tag k="addr:housenumber" v="11404"/></node><node id="-284" lat="30.498424" lon="-97.7886" changeset="false"><tag k="addr:street" v="Fletcher Hall Lane"/><tag k="addr:housenumber" v="11229"/></node><node id="-285" lat="30.498408" lon="-97.789021" changeset="false"><tag k="addr:street" v="Fletcher Hall Lane"/><tag k="addr:housenumber" v="11305"/></node><node id="-286" lat="30.500444" lon="-97.790759" changeset="false"><tag k="addr:street" v="Mistletoe Heights Drive"/><tag k="addr:housenumber" v="14900"/></node><node id="-287" lat="30.500344" lon="-97.788299" changeset="false"><tag k="addr:street" v="Shallow Water Road"/><tag k="addr:housenumber" v="11112"/></node><node id="-288" lat="30.494361" lon="-97.791829" changeset="false"><tag k="addr:street" v="Staked Plains Drive"/><tag k="addr:housenumber" v="11300"/></node><node id="-289" lat="30.503189" lon="-97.786511" changeset="false"><tag k="addr:street" v="Dodge Cattle Drive"/><tag k="addr:housenumber" v="10909"/></node><node id="-290" lat="30.501853" lon="-97.787306" changeset="false"><tag k="addr:street" v="Crazy Well Drive"/><tag k="addr:housenumber" v="11008"/></node><node id="-291" lat="30.500981" lon="-97.788802" changeset="false"><tag k="addr:street" v="Crazy Well Drive"/><tag k="addr:housenumber" v="11212"/></node><node id="-292" lat="30.495392" lon="-97.793486" changeset="false"><tag k="addr:street" v="Staked Plains Loop"/><tag k="addr:housenumber" v="14401"/></node></osm>