<?xml version="1.0" encoding="UTF-8"?><osm version="0.6" generator="github.com/aaronlidman/osm-and-geojson"><node id="-1" lat="30.349285" lon="-97.69904" changeset="false"><tag k="addr:street" v="Oertli Lane"/><tag k="addr:housenumber" v="308"/><tag k="coa:place_id" v="101252"/></node><node id="-2" lat="30.349501" lon="-97.696669" changeset="false"><tag k="addr:street" v="Barwood Park"/><tag k="addr:housenumber" v="600"/><tag k="coa:place_id" v="157744"/></node><node id="-3" lat="30.346079" lon="-97.696252" changeset="false"><tag k="addr:street" v="I 35 Frontage Road"/><tag k="addr:housenumber" v="8302"/><tag k="coa:place_id" v="255227"/></node><node id="-4" lat="30.349837" lon="-97.69736" changeset="false"><tag k="addr:street" v="Primrose Street"/><tag k="addr:housenumber" v="411"/><tag k="coa:place_id" v="893264"/></node><node id="-5" lat="30.349238" lon="-97.698883" changeset="false"><tag k="addr:street" v="Oertli Lane"/><tag k="addr:housenumber" v="402"/><tag k="coa:place_id" v="248559"/></node><node id="-6" lat="30.345285" lon="-97.698173" changeset="false"><tag k="addr:street" v="East Powell Lane"/><tag k="addr:housenumber" v="700"/><tag k="coa:place_id" v="135194"/></node><node id="-7" lat="30.349853" lon="-97.698951" changeset="false"><tag k="addr:street" v="East Walnut Drive"/><tag k="addr:housenumber" v="307"/><tag k="coa:place_id" v="893240"/></node><node id="-8" lat="30.352919" lon="-97.697309" changeset="false"><tag k="addr:street" v="Little Walnut Drive"/><tag k="addr:housenumber" v="206"/><tag k="coa:place_id" v="3267188"/></node><node id="-9" lat="30.352106" lon="-97.699401" changeset="false"><tag k="addr:street" v="Dungan Street"/><tag k="addr:housenumber" v="8606"/><tag k="coa:place_id" v="3427657"/></node><node id="-10" lat="30.34654" lon="-97.698935" changeset="false"><tag k="addr:street" v="East Powell Lane"/><tag k="addr:housenumber" v="500"/><tag k="coa:place_id" v="5106766"/></node><node id="-11" lat="30.352278" lon="-97.697984" changeset="false"><tag k="addr:street" v="Pecan Drive"/><tag k="addr:housenumber" v="208"/><tag k="coa:place_id" v="893522"/></node><node id="-12" lat="30.350549" lon="-97.700925" changeset="false"><tag k="addr:street" v="Georgian Drive"/><tag k="addr:housenumber" v="8409"/><tag k="coa:place_id" v="95267"/></node><node id="-13" lat="30.348626" lon="-97.698528" changeset="false"><tag k="addr:street" v="Oertli Lane"/><tag k="addr:housenumber" v="409"/><tag k="coa:place_id" v="101198"/></node><node id="-14" lat="30.349458" lon="-97.699451" changeset="false"><tag k="addr:street" v="Oertli Lane"/><tag k="addr:housenumber" v="302"/><tag k="coa:place_id" v="3093681"/></node><node id="-15" lat="30.348456" lon="-97.698297" changeset="false"><tag k="addr:street" v="Oertli Lane"/><tag k="addr:housenumber" v="413"/><tag k="coa:place_id" v="101204"/></node><node id="-16" lat="30.345627" lon="-97.698317" changeset="false"><tag k="addr:street" v="East Powell Lane"/><tag k="addr:housenumber" v="600"/><tag k="coa:place_id" v="135164"/></node><node id="-17" lat="30.349514" lon="-97.699615" changeset="false"><tag k="addr:street" v="Oertli Lane"/><tag k="addr:housenumber" v="300"/><tag k="coa:place_id" v="101264"/></node><node id="-18" lat="30.34999" lon="-97.69692" changeset="false"><tag k="addr:street" v="Rosemary Lane"/><tag k="addr:housenumber" v="8501"/><tag k="coa:place_id" v="893270"/></node><node id="-19" lat="30.349868" lon="-97.698475" changeset="false"><tag k="addr:street" v="Pecan Drive"/><tag k="addr:housenumber" v="324"/><tag k="coa:place_id" v="893492"/></node><node id="-20" lat="30.349529" lon="-97.701639" changeset="false"><tag k="addr:street" v="Georgian Drive"/><tag k="addr:housenumber" v="8305"/><tag k="coa:place_id" v="101102"/></node><node id="-21" lat="30.352401" lon="-97.698196" changeset="false"><tag k="addr:street" v="Pecan Drive"/><tag k="addr:housenumber" v="206"/><tag k="coa:place_id" v="893528"/></node><node id="-22" lat="30.350447" lon="-97.701036" changeset="false"><tag k="addr:street" v="Georgian Drive"/><tag k="addr:housenumber" v="8407"/><tag k="coa:place_id" v="893156"/></node><node id="-23" lat="30.348407" lon="-97.697825" changeset="false"><tag k="addr:street" v="Oertli Lane"/><tag k="addr:housenumber" v="505"/><tag k="coa:place_id" v="3374559"/></node><node id="-24" lat="30.351759" lon="-97.697715" changeset="false"><tag k="addr:street" v="Pecan Drive"/><tag k="addr:housenumber" v="302"/><tag k="coa:place_id" v="893510"/></node><node id="-25" lat="30.348719" lon="-97.694974" changeset="false"><tag k="addr:street" v="I 35 Frontage Road"/><tag k="addr:housenumber" v="8500"/><tag k="coa:place_id" v="182964"/></node><node id="-26" lat="30.348558" lon="-97.697667" changeset="false"><tag k="addr:street" v="Oertli Lane"/><tag k="addr:housenumber" v="504"/><tag k="coa:place_id" v="101216"/></node><node id="-27" lat="30.351071" lon="-97.697755" changeset="false"><tag k="addr:street" v="Pecan Drive"/><tag k="addr:housenumber" v="312"/><tag k="coa:place_id" v="540430"/></node><node id="-28" lat="30.348259" lon="-97.697389" changeset="false"><tag k="addr:street" v="Oertli Lane"/><tag k="addr:housenumber" v="511"/><tag k="coa:place_id" v="3374560"/></node><node id="-29" lat="30.348662" lon="-97.698663" changeset="false"><tag k="addr:street" v="Oertli Lane"/><tag k="addr:housenumber" v="407"/><tag k="coa:place_id" v="101192"/></node><node id="-30" lat="30.350204" lon="-97.699141" changeset="false"><tag k="addr:street" v="East Walnut Drive"/><tag k="addr:housenumber" v="301"/><tag k="coa:place_id" v="3032628"/></node><node id="-31" lat="30.353282" lon="-97.698217" changeset="false"><tag k="addr:street" v="Little Walnut Drive"/><tag k="addr:housenumber" v="8800"/><tag k="coa:place_id" v="893582"/></node><node id="-32" lat="30.350828" lon="-97.697574" changeset="false"><tag k="addr:street" v="Oak Plaza"/><tag k="addr:housenumber" v="401"/><tag k="coa:place_id" v="893384"/></node><node id="-33" lat="30.347782" lon="-97.698825" changeset="false"><tag k="addr:street" v="Sam Rayburn Drive"/><tag k="addr:housenumber" v="8225"/><tag k="coa:place_id" v="98552"/></node><node id="-34" lat="30.352769" lon="-97.698966" changeset="false"><tag k="addr:street" v="Georgian Drive"/><tag k="addr:housenumber" v="8611"/><tag k="coa:place_id" v="893540"/></node><node id="-35" lat="30.348187" lon="-97.695121" changeset="false"><tag k="addr:street" v="I 35 Frontage Road"/><tag k="addr:housenumber" v="8416"/><tag k="coa:place_id" v="199610"/></node><node id="-36" lat="30.350319" lon="-97.697843" changeset="false"><tag k="addr:street" v="Primrose Street"/><tag k="addr:housenumber" v="404"/><tag k="coa:place_id" v="3121778"/></node><node id="-37" lat="30.350163" lon="-97.698224" changeset="false"><tag k="addr:street" v="Primrose Street"/><tag k="addr:housenumber" v="401"/><tag k="coa:place_id" v="192391"/></node><node id="-38" lat="30.351051" lon="-97.700203" changeset="false"><tag k="addr:street" v="Dungan Street"/><tag k="addr:housenumber" v="8500"/><tag k="coa:place_id" v="893450"/></node><node id="-39" lat="30.351115" lon="-97.700341" changeset="false"><tag k="addr:street" v="East Walnut Drive"/><tag k="addr:housenumber" v="100"/><tag k="coa:place_id" v="893162"/></node><node id="-40" lat="30.350135" lon="-97.701287" changeset="false"><tag k="addr:street" v="Oertli Lane"/><tag k="addr:housenumber" v="100"/><tag k="coa:place_id" v="101276"/></node><node id="-41" lat="30.350269" lon="-97.701243" changeset="false"><tag k="addr:street" v="Georgian Drive"/><tag k="addr:housenumber" v="8405"/><tag k="coa:place_id" v="101324"/></node></osm>