<?xml version="1.0" encoding="UTF-8"?><osm version="0.6" generator="github.com/aaronlidman/osm-and-geojson"><node id="-1" lat="30.277067" lon="-97.622867" changeset="false"><tag k="addr:street" v="Southwick Drive"/><tag k="addr:housenumber" v="9606"/></node><node id="-2" lat="30.277197" lon="-97.623124" changeset="false"><tag k="addr:street" v="Southwick Drive"/><tag k="addr:housenumber" v="9604"/></node><node id="-3" lat="30.263983" lon="-97.608438" changeset="false"><tag k="addr:street" v="Farm-to-Market Road 973"/><tag k="addr:housenumber" v="5220"/></node><node id="-4" lat="30.274646" lon="-97.622404" changeset="false"><tag k="addr:street" v="Monarch Lane"/><tag k="addr:housenumber" v="9800"/></node><node id="-5" lat="30.273757" lon="-97.623048" changeset="false"><tag k="addr:street" v="Wayside Boulevard"/><tag k="addr:housenumber" v="9800"/></node><node id="-6" lat="30.27368" lon="-97.623821" changeset="false"><tag k="addr:street" v="Wayside Boulevard"/><tag k="addr:housenumber" v="9705"/></node><node id="-7" lat="30.278707" lon="-97.621335" changeset="false"><tag k="addr:street" v="Bitterwood Drive"/><tag k="addr:housenumber" v="5805"/></node><node id="-8" lat="30.277678" lon="-97.621164" changeset="false"><tag k="addr:street" v="Imperial Drive,1100"/><tag k="addr:housenumber" v="5800"/></node><node id="-9" lat="30.27731" lon="-97.621196" changeset="false"><tag k="addr:street" v="Imperial Drive,1100"/><tag k="addr:housenumber" v="5704"/></node><node id="-10" lat="30.277079" lon="-97.621207" changeset="false"><tag k="addr:street" v="Imperial Drive,1100"/><tag k="addr:housenumber" v="5702"/></node><node id="-11" lat="30.271333" lon="-97.62195" changeset="false"><tag k="addr:street" v="Imperial Drive,1100"/><tag k="addr:housenumber" v="5300"/></node><node id="-12" lat="30.270924" lon="-97.621635" changeset="false"><tag k="addr:street" v="Imperial Drive,1100"/><tag k="addr:housenumber" v="5215"/></node><node id="-13" lat="30.27578" lon="-97.61973" changeset="false"><tag k="addr:street" v="Blazewood Drive"/><tag k="addr:housenumber" v="5607"/></node><node id="-14" lat="30.275035" lon="-97.619712" changeset="false"><tag k="addr:street" v="Waywood Drive"/><tag k="addr:housenumber" v="5602"/></node><node id="-15" lat="30.268764" lon="-97.62416" changeset="false"><tag k="addr:street" v="Imperial Drive,1100"/><tag k="addr:housenumber" v="5006"/></node><node id="-16" lat="30.270133" lon="-97.604163" changeset="false"><tag k="addr:street" v="Farm-to-Market Road 973"/><tag k="addr:housenumber" v="5810"/></node><node id="-17" lat="30.273266" lon="-97.622073" changeset="false"><tag k="addr:street" v="Wayside Boulevard"/><tag k="addr:housenumber" v="9900"/></node><node id="-18" lat="30.275438" lon="-97.618803" changeset="false"><tag k="addr:street" v="Waywood Drive"/><tag k="addr:housenumber" v="5607"/></node><node id="-19" lat="30.274043" lon="-97.624851" changeset="false"><tag k="addr:street" v="Wayside Boulevard"/><tag k="addr:housenumber" v="9607"/></node><node id="-20" lat="30.265705" lon="-97.606525" changeset="false"><tag k="addr:street" v="Farm-to-Market Road 973"/><tag k="addr:housenumber" v="5420"/></node><node id="-21" lat="30.274171" lon="-97.625067" changeset="false"><tag k="addr:street" v="Wayside Boulevard"/><tag k="addr:housenumber" v="9605"/></node><node id="-22" lat="30.273966" lon="-97.624628" changeset="false"><tag k="addr:street" v="Wayside Boulevard"/><tag k="addr:housenumber" v="9609"/></node><node id="-23" lat="30.272088" lon="-97.602512" changeset="false"><tag k="addr:street" v="Farm-to-Market Road 973"/><tag k="addr:housenumber" v="6100"/></node><node id="-24" lat="30.273161" lon="-97.622941" changeset="false"><tag k="addr:street" v="Wayside Boulevard"/><tag k="addr:housenumber" v="9805"/></node><node id="-25" lat="30.272858" lon="-97.621252" changeset="false"><tag k="addr:street" v="Imperial Drive,1100"/><tag k="addr:housenumber" v="5406"/></node><node id="-26" lat="30.277514" lon="-97.617454" changeset="false"><tag k="addr:street" v="Waywood Drive"/><tag k="addr:housenumber" v="5901"/></node><node id="-27" lat="30.277358" lon="-97.612558" changeset="false"><tag k="addr:street" v="Blue Bluff Road"/><tag k="addr:housenumber" v="6016"/></node><node id="-28" lat="30.27663" lon="-97.617923" changeset="false"><tag k="addr:street" v="Waywood Drive"/><tag k="addr:housenumber" v="5803"/></node><node id="-29" lat="30.276262" lon="-97.618728" changeset="false"><tag k="addr:street" v="Waywood Drive"/><tag k="addr:housenumber" v="5704"/></node><node id="-30" lat="30.264547" lon="-97.607393" changeset="false"><tag k="addr:street" v="Farm-to-Market Road 973"/><tag k="addr:housenumber" v="5300"/></node><node id="-31" lat="30.282127" lon="-97.620181" changeset="false"><tag k="addr:street" v="Hog Eye Road"/><tag k="addr:housenumber" v="9401"/></node><node id="-32" lat="30.266341" lon="-97.616913" changeset="false"><tag k="addr:street" v="Blue Bluff Road"/><tag k="addr:housenumber" v="5101"/></node><node id="-33" lat="30.265472" lon="-97.606796" changeset="false"><tag k="addr:street" v="Farm-to-Market Road 973"/><tag k="addr:housenumber" v="5416"/></node><node id="-34" lat="30.276308" lon="-97.623651" changeset="false"><tag k="addr:street" v="Larchbrook Drive"/><tag k="addr:housenumber" v="5508"/></node><node id="-35" lat="30.276213" lon="-97.621239" changeset="false"><tag k="addr:street" v="Imperial Drive,1100"/><tag k="addr:housenumber" v="5616"/></node><node id="-36" lat="30.276169" lon="-97.621994" changeset="false"><tag k="addr:street" v="Bitterwood Drive"/><tag k="addr:housenumber" v="5603"/></node><node id="-37" lat="30.276388" lon="-97.621306" changeset="false"><tag k="addr:street" v="Imperial Drive,1100"/><tag k="addr:housenumber" v="5618"/></node><node id="-38" lat="30.275369" lon="-97.622014" changeset="false"><tag k="addr:street" v="Bitterwood Drive"/><tag k="addr:housenumber" v="5517"/></node><node id="-39" lat="30.270669" lon="-97.620115" changeset="false"><tag k="addr:street" v="Catherine Drive"/><tag k="addr:housenumber" v="10207"/></node><node id="-40" lat="30.269531" lon="-97.623301" changeset="false"><tag k="addr:street" v="Webbwood Way"/><tag k="addr:housenumber" v="10005"/></node><node id="-41" lat="30.283876" lon="-97.61836" changeset="false"><tag k="addr:street" v="Decker Lake Road"/><tag k="addr:housenumber" v="9611"/></node><node id="-42" lat="30.27842" lon="-97.611038" changeset="false"><tag k="addr:street" v="Blue Bluff Road"/><tag k="addr:housenumber" v="6201"/></node><node id="-43" lat="30.275361" lon="-97.62097" changeset="false"><tag k="addr:street" v="Imperial Drive,1100"/><tag k="addr:housenumber" v="5608"/></node><node id="-44" lat="30.277739" lon="-97.620527" changeset="false"><tag k="addr:street" v="Imperial Drive,1100"/><tag k="addr:housenumber" v="5801"/></node><node id="-45" lat="30.277589" lon="-97.619296" changeset="false"><tag k="addr:street" v="Blazewood Drive"/><tag k="addr:housenumber" v="5804"/></node><node id="-46" lat="30.282182" lon="-97.623304" changeset="false"><tag k="addr:street" v="Hog Eye Road"/><tag k="addr:housenumber" v="9301"/></node><node id="-47" lat="30.280598" lon="-97.629553" changeset="false"><tag k="addr:street" v="Southwick Drive"/><tag k="addr:housenumber" v="8817"/></node><node id="-48" lat="30.27806" lon="-97.627106" changeset="false"><tag k="addr:street" v="Southwick Drive"/><tag k="addr:housenumber" v="9201"/></node><node id="-49" lat="30.277951" lon="-97.626883" changeset="false"><tag k="addr:street" v="Southwick Drive"/><tag k="addr:housenumber" v="9209"/></node><node id="-50" lat="30.277895" lon="-97.626764" changeset="false"><tag k="addr:street" v="Southwick Drive"/><tag k="addr:housenumber" v="9213"/></node><node id="-51" lat="30.277474" lon="-97.625204" changeset="false"><tag k="addr:street" v="Southwick Drive"/><tag k="addr:housenumber" v="9408"/></node><node id="-52" lat="30.277331" lon="-97.624778" changeset="false"><tag k="addr:street" v="Southwick Drive"/><tag k="addr:housenumber" v="9500"/></node><node id="-53" lat="30.274678" lon="-97.621061" changeset="false"><tag k="addr:street" v="Bitterwood Drive"/><tag k="addr:housenumber" v="5507"/></node><node id="-54" lat="30.274419" lon="-97.623263" changeset="false"><tag k="addr:street" v="Monarch Lane"/><tag k="addr:housenumber" v="9707"/></node><node id="-55" lat="30.27431" lon="-97.621997" changeset="false"><tag k="addr:street" v="Monarch Lane"/><tag k="addr:housenumber" v="9804"/></node><node id="-56" lat="30.277199" lon="-97.615815" changeset="false"><tag k="addr:street" v="J M Holloway Lane"/><tag k="addr:housenumber" v="5900"/></node><node id="-57" lat="30.275081" lon="-97.622315" changeset="false"><tag k="addr:street" v="Bitterwood Drive"/><tag k="addr:housenumber" v="5516"/></node><node id="-58" lat="30.273571" lon="-97.602002" changeset="false"><tag k="addr:street" v="Farm-to-Market Road 973"/><tag k="addr:housenumber" v="6200"/></node><node id="-59" lat="30.273" lon="-97.620424" changeset="false"><tag k="addr:street" v="Imperial Drive,1100"/><tag k="addr:housenumber" v="5501"/></node><node id="-60" lat="30.262431" lon="-97.610345" changeset="false"><tag k="addr:street" v="Farm-to-Market Road 973"/><tag k="addr:housenumber" v="5110"/></node><node id="-61" lat="30.275668" lon="-97.622737" changeset="false"><tag k="addr:street" v="Bitterwood Drive"/><tag k="addr:housenumber" v="5522"/></node><node id="-62" lat="30.276857" lon="-97.621247" changeset="false"><tag k="addr:street" v="Imperial Drive,1100"/><tag k="addr:housenumber" v="5700"/></node><node id="-63" lat="30.276578" lon="-97.623503" changeset="false"><tag k="addr:street" v="Larchbrook Drive"/><tag k="addr:housenumber" v="5600"/></node><node id="-64" lat="30.276317" lon="-97.620149" changeset="false"><tag k="addr:street" v="Blazewood Drive"/><tag k="addr:housenumber" v="5700"/></node><node id="-65" lat="30.276888" lon="-97.6184" changeset="false"><tag k="addr:street" v="Waywood Drive"/><tag k="addr:housenumber" v="5802"/></node><node id="-66" lat="30.279214" lon="-97.62125" changeset="false"><tag k="addr:street" v="Colfax Drive"/><tag k="addr:housenumber" v="9610"/></node><node id="-67" lat="30.272248" lon="-97.620015" changeset="false"><tag k="addr:street" v="Wayside Boulevard"/><tag k="addr:housenumber" v="10008"/></node><node id="-68" lat="30.266812" lon="-97.625087" changeset="false"><tag k="addr:street" v="Imperial Drive,1100"/><tag k="addr:housenumber" v="4901 1/2"/></node><node id="-69" lat="30.278462" lon="-97.621417" changeset="false"><tag k="addr:street" v="Bitterwood Drive"/><tag k="addr:housenumber" v="5803"/></node><node id="-70" lat="30.276951" lon="-97.619714" changeset="false"><tag k="addr:street" v="Blazewood Drive"/><tag k="addr:housenumber" v="5706"/></node><node id="-71" lat="30.269769" lon="-97.622806" changeset="false"><tag k="addr:street" v="Imperial Drive,1100"/><tag k="addr:housenumber" v="5201"/></node><node id="-72" lat="30.286348" lon="-97.628577" changeset="false"><tag k="addr:street" v="Hog Eye Road"/><tag k="addr:housenumber" v="8800"/></node><node id="-73" lat="30.273359" lon="-97.623467" changeset="false"><tag k="addr:street" v="Wayside Boulevard"/><tag k="addr:housenumber" v="9801"/></node><node id="-74" lat="30.274156" lon="-97.621111" changeset="false"><tag k="addr:street" v="Monarch Lane"/><tag k="addr:housenumber" v="9817"/></node><node id="-75" lat="30.280634" lon="-97.633398" changeset="false"><tag k="addr:street" v="Decker Lane"/><tag k="addr:housenumber" v="5605"/></node><node id="-76" lat="30.275775" lon="-97.619088" changeset="false"><tag k="addr:street" v="Waywood Drive"/><tag k="addr:housenumber" v="5700"/></node><node id="-77" lat="30.275802" lon="-97.620503" changeset="false"><tag k="addr:street" v="Imperial Drive,1100"/><tag k="addr:housenumber" v="5609"/></node><node id="-78" lat="30.274948" lon="-97.622159" changeset="false"><tag k="addr:street" v="Bitterwood Drive"/><tag k="addr:housenumber" v="5514"/></node><node id="-79" lat="30.283936" lon="-97.62589" changeset="false"><tag k="addr:street" v="Hog Eye Road"/><tag k="addr:housenumber" v="9104"/></node><node id="-80" lat="30.269438" lon="-97.615739" changeset="false"><tag k="addr:street" v="Blue Bluff Road"/><tag k="addr:housenumber" v="5315"/></node><node id="-81" lat="30.277804" lon="-97.619196" changeset="false"><tag k="addr:street" v="Blazewood Drive"/><tag k="addr:housenumber" v="5806"/></node><node id="-82" lat="30.276482" lon="-97.618732" changeset="false"><tag k="addr:street" v="Waywood Drive"/><tag k="addr:housenumber" v="5706"/></node><node id="-83" lat="30.276127" lon="-97.61351" changeset="false"><tag k="addr:street" v="Blue Bluff Road"/><tag k="addr:housenumber" v="5900"/></node><node id="-84" lat="30.264616" lon="-97.60721" changeset="false"><tag k="addr:street" v="Farm-to-Market Road 973"/><tag k="addr:housenumber" v="5304"/></node><node id="-85" lat="30.267346" lon="-97.624224" changeset="false"><tag k="addr:street" v="Imperial Drive,1100"/><tag k="addr:housenumber" v="4907"/></node><node id="-86" lat="30.266863" lon="-97.625032" changeset="false"><tag k="addr:street" v="Imperial Drive,1100"/><tag k="addr:housenumber" v="4901"/></node><node id="-87" lat="30.277323" lon="-97.625532" changeset="false"><tag k="addr:street" v="Southwick Drive"/><tag k="addr:housenumber" v="9405"/></node><node id="-88" lat="30.277102" lon="-97.625097" changeset="false"><tag k="addr:street" v="Southwick Drive"/><tag k="addr:housenumber" v="9421"/></node><node id="-89" lat="30.277013" lon="-97.624608" changeset="false"><tag k="addr:street" v="Southwick Drive"/><tag k="addr:housenumber" v="9505"/></node><node id="-90" lat="30.277021" lon="-97.624357" changeset="false"><tag k="addr:street" v="Southwick Drive"/><tag k="addr:housenumber" v="9513"/></node><node id="-91" lat="30.28092" lon="-97.629039" changeset="false"><tag k="addr:street" v="Southwick Drive"/><tag k="addr:housenumber" v="8800"/></node><node id="-92" lat="30.277843" lon="-97.626654" changeset="false"><tag k="addr:street" v="Southwick Drive"/><tag k="addr:housenumber" v="9217"/></node><node id="-93" lat="30.279869" lon="-97.627855" changeset="false"><tag k="addr:street" v="Berryline Cove"/><tag k="addr:housenumber" v="9008"/></node><node id="-94" lat="30.279147" lon="-97.628974" changeset="false"><tag k="addr:street" v="Trace Creek Pass"/><tag k="addr:housenumber" v="5613"/></node><node id="-95" lat="30.280734" lon="-97.629555" changeset="false"><tag k="addr:street" v="Southwick Drive"/><tag k="addr:housenumber" v="8813"/></node><node id="-96" lat="30.280336" lon="-97.629488" changeset="false"><tag k="addr:street" v="Southwick Drive"/><tag k="addr:housenumber" v="8825"/></node><node id="-97" lat="30.280078" lon="-97.629428" changeset="false"><tag k="addr:street" v="Southwick Drive"/><tag k="addr:housenumber" v="8905"/></node><node id="-98" lat="30.27983" lon="-97.629346" changeset="false"><tag k="addr:street" v="Southwick Drive"/><tag k="addr:housenumber" v="8913"/></node><node id="-99" lat="30.279601" lon="-97.629269" changeset="false"><tag k="addr:street" v="Southwick Drive"/><tag k="addr:housenumber" v="8921"/></node><node id="-100" lat="30.281357" lon="-97.629314" changeset="false"><tag k="addr:street" v="Southwick Drive"/><tag k="addr:housenumber" v="8717"/></node><node id="-101" lat="30.277525" lon="-97.625313" changeset="false"><tag k="addr:street" v="Southwick Drive"/><tag k="addr:housenumber" v="9404"/></node><node id="-102" lat="30.27831" lon="-97.627709" changeset="false"><tag k="addr:street" v="Southwick Drive"/><tag k="addr:housenumber" v="9113"/></node><node id="-103" lat="30.278268" lon="-97.627567" changeset="false"><tag k="addr:street" v="Southwick Drive"/><tag k="addr:housenumber" v="9117"/></node><node id="-104" lat="30.274187" lon="-97.60943" changeset="false"><tag k="addr:street" v="Blue Bluff Road"/><tag k="addr:housenumber" v="6011"/></node><node id="-105" lat="30.278246" lon="-97.621514" changeset="false"><tag k="addr:street" v="Bitterwood Drive"/><tag k="addr:housenumber" v="5801"/></node><node id="-106" lat="30.275601" lon="-97.612606" changeset="false"><tag k="addr:street" v="Blue Bluff Road"/><tag k="addr:housenumber" v="5901"/></node><node id="-107" lat="30.274743" lon="-97.623757" changeset="false"><tag k="addr:street" v="Monarch Lane"/><tag k="addr:housenumber" v="9703"/></node><node id="-108" lat="30.276049" lon="-97.620234" changeset="false"><tag k="addr:street" v="Blazewood Drive"/><tag k="addr:housenumber" v="5606"/></node><node id="-109" lat="30.275457" lon="-97.624221" changeset="false"><tag k="addr:street" v="Larchbrook Drive"/><tag k="addr:housenumber" v="5500"/></node><node id="-110" lat="30.275176" lon="-97.601221" changeset="false"><tag k="addr:street" v="Farm-to-Market Road 973"/><tag k="addr:housenumber" v="6400 1/2"/></node><node id="-111" lat="30.280426" lon="-97.612973" changeset="false"><tag k="addr:street" v="J M Holloway Lane"/><tag k="addr:housenumber" v="6402"/></node><node id="-112" lat="30.279307" lon="-97.613172" changeset="false"><tag k="addr:street" v="J M Holloway Lane"/><tag k="addr:housenumber" v="6301"/></node><node id="-113" lat="30.273265" lon="-97.620996" changeset="false"><tag k="addr:street" v="Imperial Drive,1100"/><tag k="addr:housenumber" v="5500"/></node><node id="-114" lat="30.270862" lon="-97.620387" changeset="false"><tag k="addr:street" v="Catherine Drive"/><tag k="addr:housenumber" v="10201"/></node><node id="-115" lat="30.268587" lon="-97.624369" changeset="false"><tag k="addr:street" v="Imperial Drive,1100"/><tag k="addr:housenumber" v="5004"/></node><node id="-116" lat="30.268245" lon="-97.618225" changeset="false"><tag k="addr:street" v="Blue Bluff Road"/><tag k="addr:housenumber" v="5208"/></node><node id="-117" lat="30.267568" lon="-97.624036" changeset="false"><tag k="addr:street" v="Imperial Drive,1100"/><tag k="addr:housenumber" v="4909"/></node><node id="-118" lat="30.26714" lon="-97.624375" changeset="false"><tag k="addr:street" v="Imperial Drive,1100"/><tag k="addr:housenumber" v="4905"/></node><node id="-119" lat="30.266843" lon="-97.624393" changeset="false"><tag k="addr:street" v="Imperial Drive,1100"/><tag k="addr:housenumber" v="4903"/></node><node id="-120" lat="30.277381" lon="-97.618193" changeset="false"><tag k="addr:street" v="Colfax Drive"/><tag k="addr:housenumber" v="9905"/></node><node id="-121" lat="30.277321" lon="-97.622652" changeset="false"><tag k="addr:street" v="Bitterwood Drive"/><tag k="addr:housenumber" v="5612"/></node><node id="-122" lat="30.274196" lon="-97.623761" changeset="false"><tag k="addr:street" v="Wayside Boulevard"/><tag k="addr:housenumber" v="9702"/></node><node id="-123" lat="30.273766" lon="-97.624377" changeset="false"><tag k="addr:street" v="Wayside Boulevard"/><tag k="addr:housenumber" v="9701"/></node><node id="-124" lat="30.272163" lon="-97.602465" changeset="false"><tag k="addr:street" v="Farm-to-Market Road 973"/><tag k="addr:housenumber" v="6108"/></node><node id="-125" lat="30.2734" lon="-97.6201" changeset="false"><tag k="addr:street" v="Imperial Drive,1100"/><tag k="addr:housenumber" v="5505"/></node><node id="-126" lat="30.275793" lon="-97.621142" changeset="false"><tag k="addr:street" v="Imperial Drive,1100"/><tag k="addr:housenumber" v="5612"/></node><node id="-127" lat="30.272071" lon="-97.620703" changeset="false"><tag k="addr:street" v="Imperial Drive,1100"/><tag k="addr:housenumber" v="5405"/></node><node id="-128" lat="30.275509" lon="-97.600367" changeset="false"><tag k="addr:street" v="Farm-to-Market Road 973"/><tag k="addr:housenumber" v="6400"/></node><node id="-129" lat="30.278199" lon="-97.618909" changeset="false"><tag k="addr:street" v="Colfax Drive"/><tag k="addr:housenumber" v="9806"/></node><node id="-130" lat="30.275699" lon="-97.622011" changeset="false"><tag k="addr:street" v="Bitterwood Drive"/><tag k="addr:housenumber" v="5521"/></node><node id="-131" lat="30.271012" lon="-97.622536" changeset="false"><tag k="addr:street" v="Crown Court"/><tag k="addr:housenumber" v="10003"/></node><node id="-132" lat="30.269368" lon="-97.623214" changeset="false"><tag k="addr:street" v="Webbwood Way"/><tag k="addr:housenumber" v="10003"/></node><node id="-133" lat="30.267362" lon="-97.620314" changeset="false"><tag k="addr:street" v="Blue Bluff Road"/><tag k="addr:housenumber" v="5100"/></node><node id="-134" lat="30.280084" lon="-97.628933" changeset="false"><tag k="addr:street" v="Southwick Drive"/><tag k="addr:housenumber" v="8908"/></node><node id="-135" lat="30.279894" lon="-97.628816" changeset="false"><tag k="addr:street" v="Southwick Drive"/><tag k="addr:housenumber" v="8916"/></node><node id="-136" lat="30.280462" lon="-97.629501" changeset="false"><tag k="addr:street" v="Southwick Drive"/><tag k="addr:housenumber" v="8821"/></node><node id="-137" lat="30.279966" lon="-97.629387" changeset="false"><tag k="addr:street" v="Southwick Drive"/><tag k="addr:housenumber" v="8909"/></node><node id="-138" lat="30.279728" lon="-97.629304" changeset="false"><tag k="addr:street" v="Southwick Drive"/><tag k="addr:housenumber" v="8917"/></node><node id="-139" lat="30.280282" lon="-97.629013" changeset="false"><tag k="addr:street" v="Southwick Drive"/><tag k="addr:housenumber" v="8900"/></node><node id="-140" lat="30.277023" lon="-97.624484" changeset="false"><tag k="addr:street" v="Southwick Drive"/><tag k="addr:housenumber" v="9509"/></node><node id="-141" lat="30.284103" lon="-97.627051" changeset="false"><tag k="addr:street" v="Elfen Way"/><tag k="addr:housenumber" v="6036"/></node><node id="-142" lat="30.278952" lon="-97.622341" changeset="false"><tag k="addr:street" v="Colfax Drive"/><tag k="addr:housenumber" v="9601"/></node><node id="-143" lat="30.278321" lon="-97.621025" changeset="false"><tag k="addr:street" v="Imperial Drive,1100"/><tag k="addr:housenumber" v="5806"/></node><node id="-144" lat="30.275227" lon="-97.623737" changeset="false"><tag k="addr:street" v="Larchbrook Drive"/><tag k="addr:housenumber" v="5501"/></node><node id="-145" lat="30.273662" lon="-97.621802" changeset="false"><tag k="addr:street" v="Monarch Lane"/><tag k="addr:housenumber" v="9809"/></node><node id="-146" lat="30.277469" lon="-97.621174" changeset="false"><tag k="addr:street" v="Imperial Drive,1100"/><tag k="addr:housenumber" v="5706"/></node><node id="-147" lat="30.279212" lon="-97.621661" changeset="false"><tag k="addr:street" v="Colfax Drive"/><tag k="addr:housenumber" v="9606"/></node><node id="-148" lat="30.274416" lon="-97.613385" changeset="false"><tag k="addr:street" v="Blue Bluff Road"/><tag k="addr:housenumber" v="5805"/></node><node id="-149" lat="30.274446" lon="-97.622212" changeset="false"><tag k="addr:street" v="Monarch Lane"/><tag k="addr:housenumber" v="9802"/></node><node id="-150" lat="30.273883" lon="-97.621182" changeset="false"><tag k="addr:street" v="Monarch Lane"/><tag k="addr:housenumber" v="9815"/></node><node id="-151" lat="30.273765" lon="-97.620684" changeset="false"><tag k="addr:street" v="Imperial Drive,1100"/><tag k="addr:housenumber" v="5504"/></node><node id="-152" lat="30.273672" lon="-97.622785" changeset="false"><tag k="addr:street" v="Wayside Boulevard"/><tag k="addr:housenumber" v="9802"/></node><node id="-153" lat="30.270888" lon="-97.619559" changeset="false"><tag k="addr:street" v="Catherine Drive"/><tag k="addr:housenumber" v="10300"/></node><node id="-154" lat="30.269663" lon="-97.61797" changeset="false"><tag k="addr:street" v="Catherine Drive"/><tag k="addr:housenumber" v="10415"/></node><node id="-155" lat="30.269429" lon="-97.617479" changeset="false"><tag k="addr:street" v="Catherine Drive"/><tag k="addr:housenumber" v="10419"/></node><node id="-156" lat="30.269139" lon="-97.622604" changeset="false"><tag k="addr:street" v="Webbwood Way"/><tag k="addr:housenumber" v="10099"/></node><node id="-157" lat="30.276489" lon="-97.622943" changeset="false"><tag k="addr:street" v="Larchbrook Drive"/><tag k="addr:housenumber" v="5603"/></node><node id="-158" lat="30.27416" lon="-97.620388" changeset="false"><tag k="addr:street" v="Bitterwood Drive"/><tag k="addr:housenumber" v="5501"/></node><node id="-159" lat="30.277236" lon="-97.621977" changeset="false"><tag k="addr:street" v="Bitterwood Drive"/><tag k="addr:housenumber" v="5615"/></node><node id="-160" lat="30.274713" lon="-97.619867" changeset="false"><tag k="addr:street" v="Imperial Drive,1100"/><tag k="addr:housenumber" v="5601"/></node><node id="-161" lat="30.278787" lon="-97.614395" changeset="false"><tag k="addr:street" v="J M Holloway Lane"/><tag k="addr:housenumber" v="6212"/></node><node id="-162" lat="30.276591" lon="-97.621268" changeset="false"><tag k="addr:street" v="Imperial Drive,1100"/><tag k="addr:housenumber" v="5620"/></node><node id="-163" lat="30.271268" lon="-97.620068" changeset="false"><tag k="addr:street" v="Catherine Drive"/><tag k="addr:housenumber" v="10208"/></node><node id="-164" lat="30.270176" lon="-97.623059" changeset="false"><tag k="addr:street" v="Imperial Drive,1100"/><tag k="addr:housenumber" v="5202"/></node><node id="-165" lat="30.269598" lon="-97.622838" changeset="false"><tag k="addr:street" v="Webbwood Way"/><tag k="addr:housenumber" v="10010"/></node><node id="-166" lat="30.281357" lon="-97.612424" changeset="false"><tag k="addr:street" v="Decker Lake Road"/><tag k="addr:housenumber" v="10307"/></node><node id="-167" lat="30.278465" lon="-97.613568" changeset="false"><tag k="addr:street" v="J M Holloway Lane"/><tag k="addr:housenumber" v="6211"/></node><node id="-168" lat="30.278037" lon="-97.615292" changeset="false"><tag k="addr:street" v="J M Holloway Lane"/><tag k="addr:housenumber" v="5930"/></node><node id="-169" lat="30.278055" lon="-97.621685" changeset="false"><tag k="addr:street" v="Bitterwood Drive"/><tag k="addr:housenumber" v="5707"/></node><node id="-170" lat="30.277987" lon="-97.621221" changeset="false"><tag k="addr:street" v="Imperial Drive,1100"/><tag k="addr:housenumber" v="5802"/></node><node id="-171" lat="30.277987" lon="-97.622367" changeset="false"><tag k="addr:street" v="Bitterwood Drive"/><tag k="addr:housenumber" v="5704"/></node><node id="-172" lat="30.277031" lon="-97.624869" changeset="false"><tag k="addr:street" v="Southwick Drive"/><tag k="addr:housenumber" v="9429"/></node><node id="-173" lat="30.277581" lon="-97.626094" changeset="false"><tag k="addr:street" v="Southwick Drive"/><tag k="addr:housenumber" v="9309"/></node><node id="-174" lat="30.277584" lon="-97.625435" changeset="false"><tag k="addr:street" v="Southwick Drive"/><tag k="addr:housenumber" v="9400"/></node><node id="-175" lat="30.263017" lon="-97.609149" changeset="false"><tag k="addr:street" v="Farm-to-Market Road 973"/><tag k="addr:housenumber" v="5150"/></node><node id="-176" lat="30.278923" lon="-97.629774" changeset="false"><tag k="addr:street" v="Trace Creek Pass"/><tag k="addr:housenumber" v="5525"/></node><node id="-177" lat="30.274596" lon="-97.620327" changeset="false"><tag k="addr:street" v="Imperial Drive,1100"/><tag k="addr:housenumber" v="5512"/></node><node id="-178" lat="30.277879" lon="-97.618342" changeset="false"><tag k="addr:street" v="Colfax Drive"/><tag k="addr:housenumber" v="9902"/></node><node id="-179" lat="30.277581" lon="-97.61868" changeset="false"><tag k="addr:street" v="Colfax Drive"/><tag k="addr:housenumber" v="9903"/></node><node id="-180" lat="30.290052" lon="-97.628192" changeset="false"><tag k="addr:street" v="Decker Lane"/><tag k="addr:housenumber" v="6575"/></node><node id="-181" lat="30.280886" lon="-97.612676" changeset="false"><tag k="addr:street" v="J M Holloway Lane"/><tag k="addr:housenumber" v="6404"/></node><node id="-182" lat="30.270761" lon="-97.614697" changeset="false"><tag k="addr:street" v="Blue Bluff Road"/><tag k="addr:housenumber" v="5507"/></node><node id="-183" lat="30.274563" lon="-97.632795" changeset="false"><tag k="addr:street" v="Spiceland Circle"/><tag k="addr:housenumber" v="9012"/></node><node id="-184" lat="30.26846" lon="-97.62319" changeset="false"><tag k="addr:street" v="Imperial Court"/><tag k="addr:housenumber" v="10007"/></node><node id="-185" lat="30.275161" lon="-97.619541" changeset="false"><tag k="addr:street" v="Waywood Drive"/><tag k="addr:housenumber" v="5606"/></node><node id="-186" lat="30.277775" lon="-97.622505" changeset="false"><tag k="addr:street" v="Bitterwood Drive"/><tag k="addr:housenumber" v="5702"/></node><node id="-187" lat="30.272844" lon="-97.60206" changeset="false"><tag k="addr:street" v="Farm-to-Market Road 973"/><tag k="addr:housenumber" v="6180"/></node><node id="-188" lat="30.27271" lon="-97.60275" changeset="false"><tag k="addr:street" v="Farm-to-Market Road 973"/><tag k="addr:housenumber" v="6000"/></node><node id="-189" lat="30.275639" lon="-97.619853" changeset="false"><tag k="addr:street" v="Blazewood Drive"/><tag k="addr:housenumber" v="5605"/></node><node id="-190" lat="30.2757" lon="-97.623354" changeset="false"><tag k="addr:street" v="Larchbrook Drive"/><tag k="addr:housenumber" v="5505"/></node><node id="-191" lat="30.275168" lon="-97.618888" changeset="false"><tag k="addr:street" v="Waywood Drive"/><tag k="addr:housenumber" v="5605"/></node><node id="-192" lat="30.277048" lon="-97.621955" changeset="false"><tag k="addr:street" v="Bitterwood Drive"/><tag k="addr:housenumber" v="5613"/></node><node id="-193" lat="30.277818" lon="-97.61999" changeset="false"><tag k="addr:street" v="Royal Court"/><tag k="addr:housenumber" v="9804"/></node><node id="-194" lat="30.272165" lon="-97.621751" changeset="false"><tag k="addr:street" v="Queen Court"/><tag k="addr:housenumber" v="10002"/></node><node id="-195" lat="30.271603" lon="-97.614581" changeset="false"><tag k="addr:street" v="Blue Bluff Road"/><tag k="addr:housenumber" v="5511"/></node><node id="-196" lat="30.275412" lon="-97.61948" changeset="false"><tag k="addr:street" v="Waywood Drive"/><tag k="addr:housenumber" v="5610"/></node><node id="-197" lat="30.276222" lon="-97.623085" changeset="false"><tag k="addr:street" v="Larchbrook Drive"/><tag k="addr:housenumber" v="5601"/></node><node id="-198" lat="30.275243" lon="-97.622566" changeset="false"><tag k="addr:street" v="Bitterwood Drive"/><tag k="addr:housenumber" v="5518"/></node><node id="-199" lat="30.28303" lon="-97.616571" changeset="false"><tag k="addr:street" v="Decker Lake Road"/><tag k="addr:housenumber" v="9801"/></node><node id="-200" lat="30.268014" lon="-97.624471" changeset="false"><tag k="addr:street" v="Imperial Drive,1100"/><tag k="addr:housenumber" v="5000"/></node><node id="-201" lat="30.27659" lon="-97.620564" changeset="false"><tag k="addr:street" v="Imperial Drive,1100"/><tag k="addr:housenumber" v="5619"/></node><node id="-202" lat="30.276482" lon="-97.619384" changeset="false"><tag k="addr:street" v="Blazewood Drive"/><tag k="addr:housenumber" v="5705"/></node><node id="-203" lat="30.270711" lon="-97.621805" changeset="false"><tag k="addr:street" v="Imperial Drive,1100"/><tag k="addr:housenumber" v="5213"/></node><node id="-204" lat="30.269212" lon="-97.617611" changeset="false"><tag k="addr:street" v="Blue Bluff Road"/><tag k="addr:housenumber" v="5304"/></node><node id="-205" lat="30.277967" lon="-97.619474" changeset="false"><tag k="addr:street" v="Colfax Drive"/><tag k="addr:housenumber" v="9803"/></node><node id="-206" lat="30.275604" lon="-97.621019" changeset="false"><tag k="addr:street" v="Imperial Drive,1100"/><tag k="addr:housenumber" v="5610"/></node><node id="-207" lat="30.277684" lon="-97.626313" changeset="false"><tag k="addr:street" v="Southwick Drive"/><tag k="addr:housenumber" v="9301"/></node><node id="-208" lat="30.277065" lon="-97.624995" changeset="false"><tag k="addr:street" v="Southwick Drive"/><tag k="addr:housenumber" v="9425"/></node><node id="-209" lat="30.28672" lon="-97.630216" changeset="false"><tag k="addr:street" v="Decker Lane"/><tag k="addr:housenumber" v="6105"/></node><node id="-210" lat="30.277593" lon="-97.615618" changeset="false"><tag k="addr:street" v="J M Holloway Lane"/><tag k="addr:housenumber" v="5920"/></node><node id="-211" lat="30.26828" lon="-97.623797" changeset="false"><tag k="addr:street" v="Imperial Drive,1100"/><tag k="addr:housenumber" v="5005"/></node><node id="-212" lat="30.280552" lon="-97.629105" changeset="false"><tag k="addr:street" v="Southwick Drive"/><tag k="addr:housenumber" v="8816"/></node><node id="-213" lat="30.279237" lon="-97.614015" changeset="false"><tag k="addr:street" v="J M Holloway Lane"/><tag k="addr:housenumber" v="6216"/></node><node id="-214" lat="30.277409" lon="-97.605044" changeset="false"><tag k="addr:street" v="Decker Lake Road"/><tag k="addr:housenumber" v="11101"/></node><node id="-215" lat="30.279123" lon="-97.628499" changeset="false"><tag k="addr:street" v="Southwick Drive"/><tag k="addr:housenumber" v="9008"/></node><node id="-216" lat="30.263583" lon="-97.620437" changeset="false"><tag k="addr:street" v="Blue Bluff Road"/><tag k="addr:housenumber" v="4705"/></node><node id="-217" lat="30.277419" lon="-97.625091" changeset="false"><tag k="addr:street" v="Southwick Drive"/><tag k="addr:housenumber" v="9412"/></node><node id="-218" lat="30.264029" lon="-97.620191" changeset="false"><tag k="addr:street" v="Blue Bluff Road"/><tag k="addr:housenumber" v="4809"/></node><node id="-219" lat="30.272247" lon="-97.61469" changeset="false"><tag k="addr:street" v="Blue Bluff Road"/><tag k="addr:housenumber" v="5615"/></node><node id="-220" lat="30.280072" lon="-97.61152" changeset="false"><tag k="addr:street" v="Blue Bluff Road"/><tag k="addr:housenumber" v="6200"/></node><node id="-221" lat="30.278453" lon="-97.607529" changeset="false"><tag k="addr:street" v="Decker Lake Road"/><tag k="addr:housenumber" v="10809"/></node><node id="-222" lat="30.274822" lon="-97.620459" changeset="false"><tag k="addr:street" v="Imperial Drive,1100"/><tag k="addr:housenumber" v="5602"/></node><node id="-223" lat="30.276849" lon="-97.619041" changeset="false"><tag k="addr:street" v="Blazewood Drive"/><tag k="addr:housenumber" v="5801"/></node><node id="-224" lat="30.276493" lon="-97.620025" changeset="false"><tag k="addr:street" v="Blazewood Drive"/><tag k="addr:housenumber" v="5702"/></node><node id="-225" lat="30.27638" lon="-97.621987" changeset="false"><tag k="addr:street" v="Bitterwood Drive"/><tag k="addr:housenumber" v="5605"/></node><node id="-226" lat="30.271582" lon="-97.621765" changeset="false"><tag k="addr:street" v="Imperial Drive,1100"/><tag k="addr:housenumber" v="5302"/></node><node id="-227" lat="30.277015" lon="-97.624741" changeset="false"><tag k="addr:street" v="Southwick Drive"/><tag k="addr:housenumber" v="9501"/></node><node id="-228" lat="30.280764" lon="-97.629118" changeset="false"><tag k="addr:street" v="Southwick Drive"/><tag k="addr:housenumber" v="8808"/></node><node id="-229" lat="30.279231" lon="-97.628576" changeset="false"><tag k="addr:street" v="Southwick Drive"/><tag k="addr:housenumber" v="9004"/></node><node id="-230" lat="30.277023" lon="-97.624224" changeset="false"><tag k="addr:street" v="Southwick Drive"/><tag k="addr:housenumber" v="9517"/></node><node id="-231" lat="30.277024" lon="-97.624101" changeset="false"><tag k="addr:street" v="Southwick Drive"/><tag k="addr:housenumber" v="9521"/></node><node id="-232" lat="30.277637" lon="-97.626204" changeset="false"><tag k="addr:street" v="Southwick Drive"/><tag k="addr:housenumber" v="9305"/></node><node id="-233" lat="30.277375" lon="-97.624945" changeset="false"><tag k="addr:street" v="Southwick Drive"/><tag k="addr:housenumber" v="9420"/></node><node id="-234" lat="30.277322" lon="-97.624616" changeset="false"><tag k="addr:street" v="Southwick Drive"/><tag k="addr:housenumber" v="9504"/></node><node id="-235" lat="30.279765" lon="-97.62777" changeset="false"><tag k="addr:street" v="Berryline Cove"/><tag k="addr:housenumber" v="9012"/></node><node id="-236" lat="30.273958" lon="-97.614251" changeset="false"><tag k="addr:street" v="Blue Bluff Road"/><tag k="addr:housenumber" v="5720"/></node><node id="-237" lat="30.279918" lon="-97.614279" changeset="false"><tag k="addr:street" v="J M Holloway Lane"/><tag k="addr:housenumber" v="6306"/></node><node id="-238" lat="30.281714" lon="-97.629086" changeset="false"><tag k="addr:street" v="Southwick Drive"/><tag k="addr:housenumber" v="8705"/></node><node id="-239" lat="30.281264" lon="-97.629366" changeset="false"><tag k="addr:street" v="Southwick Drive"/><tag k="addr:housenumber" v="8721"/></node><node id="-240" lat="30.278191" lon="-97.627407" changeset="false"><tag k="addr:street" v="Southwick Drive"/><tag k="addr:housenumber" v="9121"/></node><node id="-241" lat="30.277792" lon="-97.62654" changeset="false"><tag k="addr:street" v="Southwick Drive"/><tag k="addr:housenumber" v="9221"/></node><node id="-242" lat="30.276268" lon="-97.615118" changeset="false"><tag k="addr:street" v="J M Holloway Lane"/><tag k="addr:housenumber" v="5815"/></node><node id="-243" lat="30.27393" lon="-97.633736" changeset="false"><tag k="addr:street" v="Tall Sky Trace"/><tag k="addr:housenumber" v="9008"/></node><node id="-244" lat="30.273187" lon="-97.63377" changeset="false"><tag k="addr:street" v="Tall Sky Trace"/><tag k="addr:housenumber" v="9101"/></node><node id="-245" lat="30.277638" lon="-97.632639" changeset="false"><tag k="addr:street" v="Sun Shower Bend"/><tag k="addr:housenumber" v="8925"/></node><node id="-246" lat="30.279096" lon="-97.629278" changeset="false"><tag k="addr:street" v="Trace Creek Pass"/><tag k="addr:housenumber" v="5605"/></node><node id="-247" lat="30.277532" lon="-97.625987" changeset="false"><tag k="addr:street" v="Southwick Drive"/><tag k="addr:housenumber" v="9313"/></node><node id="-248" lat="30.277481" lon="-97.625873" changeset="false"><tag k="addr:street" v="Southwick Drive"/><tag k="addr:housenumber" v="9317"/></node><node id="-249" lat="30.27732" lon="-97.624489" changeset="false"><tag k="addr:street" v="Southwick Drive"/><tag k="addr:housenumber" v="9508"/></node><node id="-250" lat="30.276009" lon="-97.611192" changeset="false"><tag k="addr:street" v="Blue Bluff Road"/><tag k="addr:housenumber" v="6007"/></node><node id="-251" lat="30.279826" lon="-97.628308" changeset="false"><tag k="addr:street" v="Berryline Cove"/><tag k="addr:housenumber" v="9001"/></node><node id="-252" lat="30.279371" lon="-97.627889" changeset="false"><tag k="addr:street" v="Berryline Cove"/><tag k="addr:housenumber" v="9021"/></node><node id="-253" lat="30.265489" lon="-97.619971" changeset="false"><tag k="addr:street" v="Blue Bluff Road"/><tag k="addr:housenumber" v="4910"/></node><node id="-254" lat="30.272833" lon="-97.633468" changeset="false"><tag k="addr:street" v="Tall Sky Trace"/><tag k="addr:housenumber" v="9113"/></node><node id="-255" lat="30.274059" lon="-97.633772" changeset="false"><tag k="addr:street" v="Tall Sky Trace"/><tag k="addr:housenumber" v="9004"/></node><node id="-256" lat="30.276338" lon="-97.616396" changeset="false"><tag k="addr:street" v="J M Holloway Lane"/><tag k="addr:housenumber" v="5808"/></node><node id="-257" lat="30.277262" lon="-97.625424" changeset="false"><tag k="addr:street" v="Southwick Drive"/><tag k="addr:housenumber" v="9409"/></node><node id="-258" lat="30.272739" lon="-97.633366" changeset="false"><tag k="addr:street" v="Tall Sky Trace"/><tag k="addr:housenumber" v="9117"/></node><node id="-259" lat="30.280214" lon="-97.629458" changeset="false"><tag k="addr:street" v="Southwick Drive"/><tag k="addr:housenumber" v="8901"/></node><node id="-260" lat="30.273739" lon="-97.634162" changeset="false"><tag k="addr:street" v="Tall Sky Trace"/><tag k="addr:housenumber" v="9001"/></node><node id="-261" lat="30.273598" lon="-97.634077" changeset="false"><tag k="addr:street" v="Tall Sky Trace"/><tag k="addr:housenumber" v="9009"/></node><node id="-262" lat="30.273496" lon="-97.633968" changeset="false"><tag k="addr:street" v="Tall Sky Trace"/><tag k="addr:housenumber" v="9013"/></node><node id="-263" lat="30.274119" lon="-97.633931" changeset="false"><tag k="addr:street" v="Tall Sky Trace"/><tag k="addr:housenumber" v="9000"/></node><node id="-264" lat="30.277483" lon="-97.611596" changeset="false"><tag k="addr:street" v="Blue Bluff Road"/><tag k="addr:housenumber" v="6029"/></node><node id="-265" lat="30.276707" lon="-97.618692" changeset="false"><tag k="addr:street" v="Waywood Drive"/><tag k="addr:housenumber" v="5800"/></node><node id="-266" lat="30.278611" lon="-97.631328" changeset="false"><tag k="addr:street" v="Trace Creek Pass"/><tag k="addr:housenumber" v="5504 1/2"/></node><node id="-267" lat="30.27765" lon="-97.621914" changeset="false"><tag k="addr:street" v="Bitterwood Drive"/><tag k="addr:housenumber" v="5703"/></node><node id="-268" lat="30.277211" lon="-97.625326" changeset="false"><tag k="addr:street" v="Southwick Drive"/><tag k="addr:housenumber" v="9413"/></node><node id="-269" lat="30.277156" lon="-97.625206" changeset="false"><tag k="addr:street" v="Southwick Drive"/><tag k="addr:housenumber" v="9417"/></node><node id="-270" lat="30.280409" lon="-97.629024" changeset="false"><tag k="addr:street" v="Southwick Drive"/><tag k="addr:housenumber" v="8824"/></node><node id="-271" lat="30.277739" lon="-97.62643" changeset="false"><tag k="addr:street" v="Southwick Drive"/><tag k="addr:housenumber" v="9225"/></node><node id="-272" lat="30.278138" lon="-97.606602" changeset="false"><tag k="addr:street" v="Decker Lake Road"/><tag k="addr:housenumber" v="10901"/></node><node id="-273" lat="30.279062" lon="-97.62841" changeset="false"><tag k="addr:street" v="Southwick Drive"/><tag k="addr:housenumber" v="9012"/></node><node id="-274" lat="30.265867" lon="-97.619571" changeset="false"><tag k="addr:street" v="Blue Bluff Road"/><tag k="addr:housenumber" v="5000"/></node><node id="-275" lat="30.277419" lon="-97.625761" changeset="false"><tag k="addr:street" v="Southwick Drive"/><tag k="addr:housenumber" v="9321"/></node><node id="-276" lat="30.277322" lon="-97.624366" changeset="false"><tag k="addr:street" v="Southwick Drive"/><tag k="addr:housenumber" v="9512"/></node><node id="-277" lat="30.273811" lon="-97.613928" changeset="false"><tag k="addr:street" v="Blue Bluff Road"/><tag k="addr:housenumber" v="5721"/></node><node id="-278" lat="30.280199" lon="-97.628962" changeset="false"><tag k="addr:street" v="Southwick Drive"/><tag k="addr:housenumber" v="8904"/></node><node id="-279" lat="30.268464" lon="-97.60479" changeset="false"><tag k="addr:street" v="Farm-to-Market Road 973"/><tag k="addr:housenumber" v="5714"/></node><node id="-280" lat="30.268371" lon="-97.623408" changeset="false"><tag k="addr:street" v="Imperial Court"/><tag k="addr:housenumber" v="10005"/></node><node id="-281" lat="30.273984" lon="-97.620796" changeset="false"><tag k="addr:street" v="Bitterwood Drive"/><tag k="addr:housenumber" v="5504"/></node><node id="-282" lat="30.276704" lon="-97.619865" changeset="false"><tag k="addr:street" v="Blazewood Drive"/><tag k="addr:housenumber" v="5704"/></node><node id="-283" lat="30.276488" lon="-97.618104" changeset="false"><tag k="addr:street" v="Waywood Drive"/><tag k="addr:housenumber" v="5801"/></node><node id="-284" lat="30.277573" lon="-97.61987" changeset="false"><tag k="addr:street" v="Royal Court"/><tag k="addr:housenumber" v="9806"/></node><node id="-285" lat="30.275951" lon="-97.623251" changeset="false"><tag k="addr:street" v="Larchbrook Drive"/><tag k="addr:housenumber" v="5507"/></node><node id="-286" lat="30.271478" lon="-97.622466" changeset="false"><tag k="addr:street" v="Crown Court"/><tag k="addr:housenumber" v="10000"/></node><node id="-287" lat="30.278004" lon="-97.626994" changeset="false"><tag k="addr:street" v="Southwick Drive"/><tag k="addr:housenumber" v="9205"/></node><node id="-288" lat="30.275139" lon="-97.621555" changeset="false"><tag k="addr:street" v="Bitterwood Drive"/><tag k="addr:housenumber" v="5513"/></node><node id="-289" lat="30.262376" lon="-97.609597" changeset="false"><tag k="addr:street" v="Farm-to-Market Road 973"/><tag k="addr:housenumber" v="5100"/></node><node id="-290" lat="30.274729" lon="-97.612981" changeset="false"><tag k="addr:street" v="Blue Bluff Road"/><tag k="addr:housenumber" v="5811"/></node><node id="-291" lat="30.275687" lon="-97.62404" changeset="false"><tag k="addr:street" v="Larchbrook Drive"/><tag k="addr:housenumber" v="5502"/></node><node id="-292" lat="30.275164" lon="-97.620787" changeset="false"><tag k="addr:street" v="Imperial Drive,1100"/><tag k="addr:housenumber" v="5606"/></node><node id="-293" lat="30.273597" lon="-97.619914" changeset="false"><tag k="addr:street" v="Imperial Drive,1100"/><tag k="addr:housenumber" v="5507"/></node><node id="-294" lat="30.270055" lon="-97.618657" changeset="false"><tag k="addr:street" v="Catherine Drive"/><tag k="addr:housenumber" v="10405"/></node><node id="-295" lat="30.274641" lon="-97.614412" changeset="false"><tag k="addr:street" v="J M Holloway Lane"/><tag k="addr:housenumber" v="5709"/></node><node id="-296" lat="30.272639" lon="-97.615501" changeset="false"><tag k="addr:street" v="Blue Bluff Road"/><tag k="addr:housenumber" v="5614"/></node><node id="-297" lat="30.272136" lon="-97.622079" changeset="false"><tag k="addr:street" v="Queen Court"/><tag k="addr:housenumber" v="10000"/></node><node id="-298" lat="30.275893" lon="-97.622716" changeset="false"><tag k="addr:street" v="Bitterwood Drive"/><tag k="addr:housenumber" v="5524"/></node><node id="-299" lat="30.273189" lon="-97.621828" changeset="false"><tag k="addr:street" v="Wayside Boulevard"/><tag k="addr:housenumber" v="9902"/></node><node id="-300" lat="30.273702" lon="-97.621609" changeset="false"><tag k="addr:street" v="Monarch Lane"/><tag k="addr:housenumber" v="9811"/></node><node id="-301" lat="30.277018" lon="-97.61425" changeset="false"><tag k="addr:street" v="J M Holloway Lane"/><tag k="addr:housenumber" v="5925"/></node><node id="-302" lat="30.270727" lon="-97.619134" changeset="false"><tag k="addr:street" v="Catherine Drive"/><tag k="addr:housenumber" v="10312"/></node><node id="-303" lat="30.274075" lon="-97.623517" changeset="false"><tag k="addr:street" v="Wayside Boulevard"/><tag k="addr:housenumber" v="9704"/></node><node id="-304" lat="30.273043" lon="-97.622712" changeset="false"><tag k="addr:street" v="Wayside Boulevard"/><tag k="addr:housenumber" v="9807"/></node><node id="-305" lat="30.278362" lon="-97.622155" changeset="false"><tag k="addr:street" v="Bitterwood Drive"/><tag k="addr:housenumber" v="5800"/></node><node id="-306" lat="30.278197" lon="-97.622302" changeset="false"><tag k="addr:street" v="Bitterwood Drive"/><tag k="addr:housenumber" v="5706"/></node><node id="-307" lat="30.278071" lon="-97.620497" changeset="false"><tag k="addr:street" v="Imperial Drive,1100"/><tag k="addr:housenumber" v="5805"/></node><node id="-308" lat="30.276034" lon="-97.619659" changeset="false"><tag k="addr:street" v="Blazewood Drive"/><tag k="addr:housenumber" v="5701"/></node><node id="-309" lat="30.276017" lon="-97.618995" changeset="false"><tag k="addr:street" v="Waywood Drive"/><tag k="addr:housenumber" v="5702"/></node><node id="-310" lat="30.271264" lon="-97.615986" changeset="false"><tag k="addr:street" v="Blue Bluff Road"/><tag k="addr:housenumber" v="5400"/></node><node id="-311" lat="30.276775" lon="-97.620482" changeset="false"><tag k="addr:street" v="Imperial Drive,1100"/><tag k="addr:housenumber" v="5701"/></node><node id="-312" lat="30.267588" lon="-97.624605" changeset="false"><tag k="addr:street" v="Imperial Drive,1100"/><tag k="addr:housenumber" v="4906"/></node><node id="-313" lat="30.273262" lon="-97.623175" changeset="false"><tag k="addr:street" v="Wayside Boulevard"/><tag k="addr:housenumber" v="9803"/></node><node id="-314" lat="30.275263" lon="-97.620109" changeset="false"><tag k="addr:street" v="Blazewood Drive"/><tag k="addr:housenumber" v="5601"/></node><node id="-315" lat="30.277401" lon="-97.617423" changeset="false"><tag k="addr:street" v="Colfax Drive"/><tag k="addr:housenumber" v="10000"/></node><node id="-316" lat="30.277244" lon="-97.620052" changeset="false"><tag k="addr:street" v="Royal Court"/><tag k="addr:housenumber" v="9805"/></node><node id="-317" lat="30.275176" lon="-97.623289" changeset="false"><tag k="addr:street" v="Monarch Lane"/><tag k="addr:housenumber" v="9704"/></node><node id="-318" lat="30.275576" lon="-97.612209" changeset="false"><tag k="addr:street" v="Blue Bluff Road"/><tag k="addr:housenumber" v="5909"/></node><node id="-319" lat="30.275612" lon="-97.618687" changeset="false"><tag k="addr:street" v="Waywood Drive"/><tag k="addr:housenumber" v="5701"/></node><node id="-320" lat="30.273042" lon="-97.620994" changeset="false"><tag k="addr:street" v="Imperial Drive,1100"/><tag k="addr:housenumber" v="5408"/></node><node id="-321" lat="30.277179" lon="-97.619568" changeset="false"><tag k="addr:street" v="Blazewood Drive"/><tag k="addr:housenumber" v="5800"/></node><node id="-322" lat="30.268896" lon="-97.618029" changeset="false"><tag k="addr:street" v="Blue Bluff Road"/><tag k="addr:housenumber" v="5300"/></node><node id="-323" lat="30.268504" lon="-97.61799" changeset="false"><tag k="addr:street" v="Blue Bluff Road"/><tag k="addr:housenumber" v="5212"/></node><node id="-324" lat="30.273874" lon="-97.619886" changeset="false"><tag k="addr:street" v="Imperial Drive,1100"/><tag k="addr:housenumber" v="5509"/></node><node id="-325" lat="30.276843" lon="-97.621993" changeset="false"><tag k="addr:street" v="Bitterwood Drive"/><tag k="addr:housenumber" v="5609"/></node><node id="-326" lat="30.276583" lon="-97.621957" changeset="false"><tag k="addr:street" v="Bitterwood Drive"/><tag k="addr:housenumber" v="5607"/></node><node id="-327" lat="30.261609" lon="-97.609421" changeset="false"><tag k="addr:street" v="Farm-to-Market Road 973"/><tag k="addr:housenumber" v="5050"/></node><node id="-328" lat="30.27477" lon="-97.621926" changeset="false"><tag k="addr:street" v="Bitterwood Drive"/><tag k="addr:housenumber" v="5512"/></node><node id="-329" lat="30.277364" lon="-97.625647" changeset="false"><tag k="addr:street" v="Southwick Drive"/><tag k="addr:housenumber" v="9401"/></node><node id="-330" lat="30.276073" lon="-97.618365" changeset="false"><tag k="addr:street" v="Waywood Drive"/><tag k="addr:housenumber" v="5705"/></node><node id="-331" lat="30.275998" lon="-97.621205" changeset="false"><tag k="addr:street" v="Imperial Drive,1100"/><tag k="addr:housenumber" v="5614"/></node><node id="-332" lat="30.280128" lon="-97.613227" changeset="false"><tag k="addr:street" v="J M Holloway Lane"/><tag k="addr:housenumber" v="6400"/></node><node id="-333" lat="30.278069" lon="-97.621072" changeset="false"><tag k="addr:street" v="Imperial Drive,1100"/><tag k="addr:housenumber" v="5804"/></node><node id="-334" lat="30.27462" lon="-97.633538" changeset="false"><tag k="addr:street" v="Spiceland Circle"/><tag k="addr:housenumber" v="9001"/></node><node id="-335" lat="30.288047" lon="-97.629179" changeset="false"><tag k="addr:street" v="Decker Lane"/><tag k="addr:housenumber" v="6403"/></node><node id="-336" lat="30.278071" lon="-97.618705" changeset="false"><tag k="addr:street" v="Colfax Drive"/><tag k="addr:housenumber" v="9808"/></node><node id="-337" lat="30.277371" lon="-97.619931" changeset="false"><tag k="addr:street" v="Royal Court"/><tag k="addr:housenumber" v="9807"/></node><node id="-338" lat="30.272814" lon="-97.622174" changeset="false"><tag k="addr:street" v="Wayside Boulevard"/><tag k="addr:housenumber" v="9903"/></node><node id="-339" lat="30.274595" lon="-97.621692" changeset="false"><tag k="addr:street" v="Bitterwood Drive"/><tag k="addr:housenumber" v="5510"/></node><node id="-340" lat="30.277066" lon="-97.616929" changeset="false"><tag k="addr:street" v="Colfax Drive"/><tag k="addr:housenumber" v="10008"/></node><node id="-341" lat="30.276317" lon="-97.618337" changeset="false"><tag k="addr:street" v="Waywood Drive"/><tag k="addr:housenumber" v="5707"/></node><node id="-342" lat="30.276256" lon="-97.619481" changeset="false"><tag k="addr:street" v="Blazewood Drive"/><tag k="addr:housenumber" v="5703"/></node><node id="-343" lat="30.263274" lon="-97.620357" changeset="false"><tag k="addr:street" v="Blue Bluff Road"/><tag k="addr:housenumber" v="4701"/></node><node id="-344" lat="30.271481" lon="-97.603552" changeset="false"><tag k="addr:street" v="Farm-to-Market Road 973"/><tag k="addr:housenumber" v="5906"/></node><node id="-345" lat="30.267782" lon="-97.623923" changeset="false"><tag k="addr:street" v="Imperial Drive,1100"/><tag k="addr:housenumber" v="5001"/></node></osm>