<?xml version="1.0" encoding="UTF-8"?><osm version="0.6" generator="github.com/aaronlidman/osm-and-geojson"><node id="-1" lat="30.259294" lon="-97.701442" changeset="false"><tag k="addr:street" v="Gunter Street"/><tag k="addr:housenumber" v="807"/><tag k="addr:postcode" v="78702"/></node><node id="-2" lat="30.261784" lon="-97.706754" changeset="false"><tag k="addr:street" v="Castro Street"/><tag k="addr:housenumber" v="2919"/><tag k="addr:postcode" v="78702"/></node><node id="-3" lat="30.263395" lon="-97.711822" changeset="false"><tag k="addr:street" v="Francisco Street"/><tag k="addr:housenumber" v="2515"/><tag k="addr:postcode" v="78702"/></node><node id="-4" lat="30.262338" lon="-97.7038" changeset="false"><tag k="addr:street" v="Lyons Road"/><tag k="addr:housenumber" v="3201"/><tag k="addr:postcode" v="78702"/></node><node id="-5" lat="30.261494" lon="-97.712079" changeset="false"><tag k="addr:street" v="Gonzales Street"/><tag k="addr:housenumber" v="2608"/><tag k="addr:postcode" v="78702"/></node><node id="-6" lat="30.261518" lon="-97.716603" changeset="false"><tag k="addr:street" v="East 7th Street"/><tag k="addr:housenumber" v="2214"/><tag k="addr:postcode" v="78702"/></node><node id="-7" lat="30.264377" lon="-97.71017" changeset="false"><tag k="addr:street" v="Lyons Road"/><tag k="addr:housenumber" v="2705"/><tag k="addr:postcode" v="78702"/></node><node id="-8" lat="30.262032" lon="-97.705436" changeset="false"><tag k="addr:street" v="Castro Street"/><tag k="addr:housenumber" v="3008"/><tag k="addr:postcode" v="78702"/></node><node id="-9" lat="30.262199" lon="-97.714174" changeset="false"><tag k="addr:street" v="Northwestern Avenue"/><tag k="addr:housenumber" v="726"/><tag k="addr:postcode" v="78702"/></node><node id="-10" lat="30.257643" lon="-97.700891" changeset="false"><tag k="addr:street" v="Springdale Road"/><tag k="addr:housenumber" v="732"/><tag k="addr:postcode" v="78702"/></node><node id="-11" lat="30.261144" lon="-97.704108" changeset="false"><tag k="addr:street" v="Tillery Street"/><tag k="addr:housenumber" v="705"/><tag k="addr:postcode" v="78702"/></node><node id="-12" lat="30.261774" lon="-97.708674" changeset="false"><tag k="addr:street" v="Prado Street"/><tag k="addr:housenumber" v="2805"/><tag k="addr:postcode" v="78702"/></node><node id="-13" lat="30.26256" lon="-97.714002" changeset="false"><tag k="addr:street" v="Northwestern Avenue"/><tag k="addr:housenumber" v="742"/><tag k="addr:postcode" v="78702"/></node><node id="-14" lat="30.262997" lon="-97.708675" changeset="false"><tag k="addr:street" v="Castro Street"/><tag k="addr:housenumber" v="2720"/><tag k="addr:postcode" v="78702"/></node><node id="-15" lat="30.262968" lon="-97.713916" changeset="false"><tag k="addr:street" v="Webberville Road"/><tag k="addr:housenumber" v="2501"/><tag k="addr:postcode" v="78702"/></node><node id="-16" lat="30.261077" lon="-97.713038" changeset="false"><tag k="addr:street" v="East 7th Street"/><tag k="addr:housenumber" v="2510"/><tag k="addr:postcode" v="78702"/></node><node id="-17" lat="30.261323" lon="-97.715195" changeset="false"><tag k="addr:street" v="Morelos Street"/><tag k="addr:housenumber" v="2318"/><tag k="addr:postcode" v="78702"/></node><node id="-18" lat="30.260569" lon="-97.708665" changeset="false"><tag k="addr:street" v="Garwood Street"/><tag k="addr:housenumber" v="2811"/><tag k="addr:postcode" v="78702"/></node><node id="-19" lat="30.262029" lon="-97.708352" changeset="false"><tag k="addr:street" v="Prado Street"/><tag k="addr:housenumber" v="2800"/><tag k="addr:postcode" v="78702"/></node><node id="-20" lat="30.261845" lon="-97.71458" changeset="false"><tag k="addr:street" v="Northwestern Avenue"/><tag k="addr:housenumber" v="718"/><tag k="addr:postcode" v="78702"/></node><node id="-21" lat="30.256976" lon="-97.702441" changeset="false"><tag k="addr:street" v="East 7th Street"/><tag k="addr:housenumber" v="3508"/><tag k="addr:postcode" v="78702"/></node><node id="-22" lat="30.262221" lon="-97.714385" changeset="false"><tag k="addr:street" v="Coronado Street"/><tag k="addr:housenumber" v="2322"/><tag k="addr:postcode" v="78702"/></node><node id="-23" lat="30.264151" lon="-97.710474" changeset="false"><tag k="addr:street" v="Zaragosa Street"/><tag k="addr:housenumber" v="2612"/><tag k="addr:postcode" v="78702"/></node><node id="-24" lat="30.260748" lon="-97.710435" changeset="false"><tag k="addr:street" v="Gonzales Street"/><tag k="addr:housenumber" v="2706"/><tag k="addr:postcode" v="78702"/></node><node id="-25" lat="30.26018" lon="-97.699213" changeset="false"><tag k="addr:street" v="Springdale Road"/><tag k="addr:housenumber" v="844"/><tag k="addr:postcode" v="78702"/></node><node id="-26" lat="30.262151" lon="-97.71566" changeset="false"><tag k="addr:street" v="Webberville Road"/><tag k="addr:housenumber" v="2301"/><tag k="addr:postcode" v="78702"/></node><node id="-27" lat="30.262846" lon="-97.714288" changeset="false"><tag k="addr:street" v="Webberville Road"/><tag k="addr:housenumber" v="2427"/><tag k="addr:postcode" v="78702"/></node><node id="-28" lat="30.262668" lon="-97.714633" changeset="false"><tag k="addr:street" v="Webberville Road"/><tag k="addr:housenumber" v="2407"/><tag k="addr:postcode" v="78702"/></node><node id="-29" lat="30.260016" lon="-97.706473" changeset="false"><tag k="addr:street" v="Garwood Street"/><tag k="addr:housenumber" v="3019"/><tag k="addr:postcode" v="78702"/></node><node id="-30" lat="30.259982" lon="-97.706352" changeset="false"><tag k="addr:street" v="Garwood Street"/><tag k="addr:housenumber" v="3023"/><tag k="addr:postcode" v="78702"/></node><node id="-31" lat="30.262821" lon="-97.714314" changeset="false"><tag k="addr:street" v="Webberville Road"/><tag k="addr:housenumber" v="2425"/><tag k="addr:postcode" v="78702"/></node><node id="-32" lat="30.262949" lon="-97.705774" changeset="false"><tag k="addr:street" v="Lyons Road"/><tag k="addr:housenumber" v="3001"/><tag k="addr:postcode" v="78702"/></node><node id="-33" lat="30.258219" lon="-97.704138" changeset="false"><tag k="addr:street" v="Gonzales Street"/><tag k="addr:housenumber" v="3301"/><tag k="addr:postcode" v="78702"/></node><node id="-34" lat="30.261194" lon="-97.705986" changeset="false"><tag k="addr:street" v="Prado Street"/><tag k="addr:housenumber" v="3012"/><tag k="addr:postcode" v="78702"/></node><node id="-35" lat="30.258933" lon="-97.699975" changeset="false"><tag k="addr:street" v="Springdale Road"/><tag k="addr:housenumber" v="812"/><tag k="addr:postcode" v="78702"/></node><node id="-36" lat="30.261246" lon="-97.713789" changeset="false"><tag k="addr:street" v="East 7th Street"/><tag k="addr:housenumber" v="2428"/><tag k="addr:postcode" v="78702"/></node><node id="-37" lat="30.261265" lon="-97.704221" changeset="false"><tag k="addr:street" v="Tillery Street"/><tag k="addr:housenumber" v="801"/><tag k="addr:postcode" v="78702"/></node><node id="-38" lat="30.26308" lon="-97.713779" changeset="false"><tag k="addr:street" v="Webberville Road"/><tag k="addr:housenumber" v="2505"/><tag k="addr:postcode" v="78702"/></node><node id="-39" lat="30.26206" lon="-97.714747" changeset="false"><tag k="addr:street" v="Coronado Street"/><tag k="addr:housenumber" v="2317"/><tag k="addr:postcode" v="78702"/></node><node id="-40" lat="30.260981" lon="-97.705413" changeset="false"><tag k="addr:street" v="Prado Street"/><tag k="addr:housenumber" v="3104"/><tag k="addr:postcode" v="78702"/></node><node id="-41" lat="30.262108" lon="-97.714983" changeset="false"><tag k="addr:street" v="Coronado Street"/><tag k="addr:housenumber" v="2307"/><tag k="addr:postcode" v="78702"/></node><node id="-42" lat="30.261956" lon="-97.707871" changeset="false"><tag k="addr:street" v="Prado Street"/><tag k="addr:housenumber" v="2812"/><tag k="addr:postcode" v="78702"/></node><node id="-43" lat="30.262454" lon="-97.708175" changeset="false"><tag k="addr:street" v="Castro Street"/><tag k="addr:housenumber" v="2801"/><tag k="addr:postcode" v="78702"/></node><node id="-44" lat="30.259963" lon="-97.708205" changeset="false"><tag k="addr:street" v="Gonzales Street"/><tag k="addr:housenumber" v="2902"/><tag k="addr:postcode" v="78702"/></node><node id="-45" lat="30.263345" lon="-97.708669" changeset="false"><tag k="addr:street" v="Maude Street"/><tag k="addr:housenumber" v="807"/><tag k="addr:postcode" v="78702"/></node><node id="-46" lat="30.261969" lon="-97.715985" changeset="false"><tag k="addr:street" v="Webberville Road"/><tag k="addr:housenumber" v="2237"/><tag k="addr:postcode" v="78702"/></node><node id="-47" lat="30.263972" lon="-97.709658" changeset="false"><tag k="addr:street" v="Zaragosa Street"/><tag k="addr:housenumber" v="2708"/><tag k="addr:postcode" v="78702"/></node><node id="-48" lat="30.263898" lon="-97.711687" changeset="false"><tag k="addr:street" v="Webberville Road"/><tag k="addr:housenumber" v="2701"/><tag k="addr:postcode" v="78702"/></node><node id="-49" lat="30.262246" lon="-97.714457" changeset="false"><tag k="addr:street" v="Coronado Street"/><tag k="addr:housenumber" v="2320"/><tag k="addr:postcode" v="78702"/></node><node id="-50" lat="30.262841" lon="-97.705431" changeset="false"><tag k="addr:street" v="Lyons Road"/><tag k="addr:housenumber" v="3007 1/2"/><tag k="addr:postcode" v="78702"/></node><node id="-51" lat="30.259193" lon="-97.703131" changeset="false"><tag k="addr:street" v="Cherico Street"/><tag k="addr:housenumber" v="744"/><tag k="addr:postcode" v="78702"/></node><node id="-52" lat="30.25949" lon="-97.706421" changeset="false"><tag k="addr:street" v="Gonzales Street"/><tag k="addr:housenumber" v="3018"/><tag k="addr:postcode" v="78702"/></node><node id="-53" lat="30.261106" lon="-97.706889" changeset="false"><tag k="addr:street" v="Prado Street"/><tag k="addr:housenumber" v="2921"/><tag k="addr:postcode" v="78702"/></node><node id="-54" lat="30.259979" lon="-97.699742" changeset="false"><tag k="addr:street" v="Springdale Road"/><tag k="addr:housenumber" v="842"/><tag k="addr:postcode" v="78702"/></node><node id="-55" lat="30.260012" lon="-97.708322" changeset="false"><tag k="addr:street" v="Gonzales Street"/><tag k="addr:housenumber" v="2900"/><tag k="addr:postcode" v="78702"/></node><node id="-56" lat="30.26227" lon="-97.714534" changeset="false"><tag k="addr:street" v="Coronado Street"/><tag k="addr:housenumber" v="2318"/><tag k="addr:postcode" v="78702"/></node><node id="-57" lat="30.259633" lon="-97.706633" changeset="false"><tag k="addr:street" v="Gonzales Street"/><tag k="addr:housenumber" v="3012"/><tag k="addr:postcode" v="78702"/></node><node id="-58" lat="30.257189" lon="-97.70322" changeset="false"><tag k="addr:street" v="Gunter Street"/><tag k="addr:housenumber" v="702"/><tag k="addr:postcode" v="78702"/></node><node id="-59" lat="30.261344" lon="-97.715241" changeset="false"><tag k="addr:street" v="Morelos Street"/><tag k="addr:housenumber" v="2314"/><tag k="addr:postcode" v="78702"/></node><node id="-60" lat="30.258993" lon="-97.699934" changeset="false"><tag k="addr:street" v="Springdale Road"/><tag k="addr:housenumber" v="814"/><tag k="addr:postcode" v="78702"/></node><node id="-61" lat="30.263832" lon="-97.708014" changeset="false"><tag k="addr:street" v="Lyons Road"/><tag k="addr:housenumber" v="2761"/><tag k="addr:postcode" v="78702"/></node><node id="-62" lat="30.263818" lon="-97.707975" changeset="false"><tag k="addr:street" v="Lyons Road"/><tag k="addr:housenumber" v="2763"/><tag k="addr:postcode" v="78702"/></node><node id="-63" lat="30.262151" lon="-97.715136" changeset="false"><tag k="addr:street" v="Coronado Street"/><tag k="addr:housenumber" v="2305"/><tag k="addr:postcode" v="78702"/></node><node id="-64" lat="30.26246" lon="-97.714115" changeset="false"><tag k="addr:street" v="Northwestern Avenue"/><tag k="addr:housenumber" v="740"/><tag k="addr:postcode" v="78702"/></node><node id="-65" lat="30.262875" lon="-97.714258" changeset="false"><tag k="addr:street" v="Webberville Road"/><tag k="addr:housenumber" v="2429"/><tag k="addr:postcode" v="78702"/></node><node id="-66" lat="30.263098" lon="-97.713392" changeset="false"><tag k="addr:street" v="Webberville Road"/><tag k="addr:housenumber" v="2509"/><tag k="addr:postcode" v="78702"/></node><node id="-67" lat="30.259705" lon="-97.707565" changeset="false"><tag k="addr:street" v="Ramos Street"/><tag k="addr:housenumber" v="680"/><tag k="addr:postcode" v="78702"/></node><node id="-68" lat="30.262487" lon="-97.714713" changeset="false"><tag k="addr:street" v="Coronado Street"/><tag k="addr:housenumber" v="2308"/><tag k="addr:postcode" v="78702"/></node><node id="-69" lat="30.262289" lon="-97.713301" changeset="false"><tag k="addr:street" v="Pedernales Street"/><tag k="addr:housenumber" v="730"/><tag k="addr:postcode" v="78702"/></node><node id="-70" lat="30.258188" lon="-97.703202" changeset="false"><tag k="addr:street" v="Gonzales Street"/><tag k="addr:housenumber" v="3402"/><tag k="addr:postcode" v="78702"/></node><node id="-71" lat="30.263611" lon="-97.712073" changeset="false"><tag k="addr:street" v="Francisco Street"/><tag k="addr:housenumber" v="2509"/><tag k="addr:postcode" v="78702"/></node><node id="-72" lat="30.263196" lon="-97.706522" changeset="false"><tag k="addr:street" v="Lyons Road"/><tag k="addr:housenumber" v="2909"/><tag k="addr:postcode" v="78702"/></node><node id="-73" lat="30.261074" lon="-97.712588" changeset="false"><tag k="addr:street" v="East 7th Street"/><tag k="addr:housenumber" v="2522"/><tag k="addr:postcode" v="78702"/></node><node id="-74" lat="30.262825" lon="-97.71005" changeset="false"><tag k="addr:street" v="Francisco Street"/><tag k="addr:housenumber" v="2705"/><tag k="addr:postcode" v="78702"/></node><node id="-75" lat="30.262819" lon="-97.70798" changeset="false"><tag k="addr:street" v="Castro Street"/><tag k="addr:housenumber" v="2800"/><tag k="addr:postcode" v="78702"/></node><node id="-76" lat="30.263666" lon="-97.707999" changeset="false"><tag k="addr:street" v="Lyons Road"/><tag k="addr:housenumber" v="2765"/><tag k="addr:postcode" v="78702"/></node><node id="-77" lat="30.26341" lon="-97.711866" changeset="false"><tag k="addr:street" v="Francisco Street"/><tag k="addr:housenumber" v="2513"/><tag k="addr:postcode" v="78702"/></node><node id="-78" lat="30.262187" lon="-97.714288" changeset="false"><tag k="addr:street" v="Coronado Street"/><tag k="addr:housenumber" v="2324"/><tag k="addr:postcode" v="78702"/></node><node id="-79" lat="30.260978" lon="-97.712496" changeset="false"><tag k="addr:street" v="East 7th Street"/><tag k="addr:housenumber" v="2600"/><tag k="addr:postcode" v="78702"/></node><node id="-80" lat="30.262701" lon="-97.714439" changeset="false"><tag k="addr:street" v="Webberville Road"/><tag k="addr:housenumber" v="2421"/><tag k="addr:postcode" v="78702"/></node><node id="-81" lat="30.262645" lon="-97.714526" changeset="false"><tag k="addr:street" v="Webberville Road"/><tag k="addr:housenumber" v="2409"/><tag k="addr:postcode" v="78702"/></node><node id="-82" lat="30.262748" lon="-97.714376" changeset="false"><tag k="addr:street" v="Webberville Road"/><tag k="addr:housenumber" v="2423"/><tag k="addr:postcode" v="78702"/></node><node id="-83" lat="30.259713" lon="-97.705535" changeset="false"><tag k="addr:street" v="Garwood Street"/><tag k="addr:housenumber" v="3119"/><tag k="addr:postcode" v="78702"/></node><node id="-84" lat="30.259751" lon="-97.705646" changeset="false"><tag k="addr:street" v="Garwood Street"/><tag k="addr:housenumber" v="3117"/><tag k="addr:postcode" v="78702"/></node><node id="-85" lat="30.259673" lon="-97.706805" changeset="false"><tag k="addr:street" v="Gonzales Street"/><tag k="addr:housenumber" v="3010"/><tag k="addr:postcode" v="78702"/></node><node id="-86" lat="30.259731" lon="-97.706964" changeset="false"><tag k="addr:street" v="Gonzales Street"/><tag k="addr:housenumber" v="3008"/><tag k="addr:postcode" v="78702"/></node><node id="-87" lat="30.261533" lon="-97.713297" changeset="false"><tag k="addr:street" v="Pedernales Street"/><tag k="addr:housenumber" v="713"/><tag k="addr:postcode" v="78702"/></node><node id="-88" lat="30.261625" lon="-97.713218" changeset="false"><tag k="addr:street" v="Gonzales Street"/><tag k="addr:housenumber" v="2501"/><tag k="addr:postcode" v="78702"/></node><node id="-89" lat="30.261598" lon="-97.716865" changeset="false"><tag k="addr:street" v="East 7th Street"/><tag k="addr:housenumber" v="2200"/><tag k="addr:postcode" v="78702"/></node><node id="-90" lat="30.26156" lon="-97.716718" changeset="false"><tag k="addr:street" v="East 7th Street"/><tag k="addr:housenumber" v="2206"/><tag k="addr:postcode" v="78702"/></node><node id="-91" lat="30.261322" lon="-97.713351" changeset="false"><tag k="addr:street" v="Pedernales Street"/><tag k="addr:housenumber" v="705"/><tag k="addr:postcode" v="78702"/></node><node id="-92" lat="30.261158" lon="-97.713395" changeset="false"><tag k="addr:street" v="East 7th Street"/><tag k="addr:housenumber" v="2500"/><tag k="addr:postcode" v="78702"/></node><node id="-93" lat="30.260837" lon="-97.711264" changeset="false"><tag k="addr:street" v="East 7th Street"/><tag k="addr:housenumber" v="2700"/><tag k="addr:postcode" v="78702"/></node><node id="-94" lat="30.260801" lon="-97.711069" changeset="false"><tag k="addr:street" v="Gonzales Street"/><tag k="addr:housenumber" v="2707 1/2"/><tag k="addr:postcode" v="78702"/></node></osm>