<?xml version="1.0" encoding="UTF-8"?><osm version="0.6" generator="github.com/aaronlidman/osm-and-geojson"><node id="-1" lat="30.252632" lon="-97.720268" changeset="false"><tag k="addr:street" v="Garden Street"/><tag k="addr:housenumber" v="2302"/><tag k="addr:postcode" v="78702"/></node><node id="-2" lat="30.25269" lon="-97.720385" changeset="false"><tag k="addr:street" v="Garden Street"/><tag k="addr:housenumber" v="2300"/><tag k="addr:postcode" v="78702"/></node><node id="-3" lat="30.252862" lon="-97.719152" changeset="false"><tag k="addr:street" v="Canterbury Street"/><tag k="addr:housenumber" v="2309"/><tag k="addr:postcode" v="78702"/></node><node id="-4" lat="30.252864" lon="-97.720312" changeset="false"><tag k="addr:street" v="Mildred Street"/><tag k="addr:housenumber" v="73"/><tag k="addr:postcode" v="78702"/></node><node id="-5" lat="30.253177" lon="-97.72" changeset="false"><tag k="addr:street" v="Canterbury Street"/><tag k="addr:housenumber" v="2303"/><tag k="addr:postcode" v="78702"/></node><node id="-6" lat="30.253243" lon="-97.720131" changeset="false"><tag k="addr:street" v="Canterbury Street"/><tag k="addr:housenumber" v="2301"/><tag k="addr:postcode" v="78702"/></node><node id="-7" lat="30.252255" lon="-97.718341" changeset="false"><tag k="addr:street" v="Canterbury Street"/><tag k="addr:housenumber" v="2401"/><tag k="addr:postcode" v="78702"/></node><node id="-8" lat="30.252099" lon="-97.717431" changeset="false"><tag k="addr:street" v="Julius Street"/><tag k="addr:housenumber" v="74"/><tag k="addr:postcode" v="78702"/></node><node id="-9" lat="30.252085" lon="-97.71704" changeset="false"><tag k="addr:street" v="Julius Street"/><tag k="addr:housenumber" v="77"/><tag k="addr:postcode" v="78702"/></node><node id="-10" lat="30.252207" lon="-97.717377" changeset="false"><tag k="addr:street" v="Julius Street"/><tag k="addr:housenumber" v="76"/><tag k="addr:postcode" v="78702"/></node><node id="-11" lat="30.252325" lon="-97.717322" changeset="false"><tag k="addr:street" v="Julius Street"/><tag k="addr:housenumber" v="78"/><tag k="addr:postcode" v="78702"/></node><node id="-12" lat="30.252202" lon="-97.716992" changeset="false"><tag k="addr:street" v="Julius Street"/><tag k="addr:housenumber" v="79"/><tag k="addr:postcode" v="78702"/></node><node id="-13" lat="30.251799" lon="-97.716626" changeset="false"><tag k="addr:street" v="San Saba Street"/><tag k="addr:housenumber" v="74"/><tag k="addr:postcode" v="78702"/></node><node id="-14" lat="30.251839" lon="-97.717533" changeset="false"><tag k="addr:street" v="Julius Street"/><tag k="addr:housenumber" v="70"/><tag k="addr:postcode" v="78702"/></node><node id="-15" lat="30.251851" lon="-97.717143" changeset="false"><tag k="addr:street" v="Julius Street"/><tag k="addr:housenumber" v="73"/><tag k="addr:postcode" v="78702"/></node><node id="-16" lat="30.251921" lon="-97.716571" changeset="false"><tag k="addr:street" v="San Saba Street"/><tag k="addr:housenumber" v="76"/><tag k="addr:postcode" v="78702"/></node><node id="-17" lat="30.252036" lon="-97.716518" changeset="false"><tag k="addr:street" v="San Saba Street"/><tag k="addr:housenumber" v="78"/><tag k="addr:postcode" v="78702"/></node><node id="-18" lat="30.251968" lon="-97.717094" changeset="false"><tag k="addr:street" v="Julius Street"/><tag k="addr:housenumber" v="75"/><tag k="addr:postcode" v="78702"/></node><node id="-19" lat="30.251968" lon="-97.717487" changeset="false"><tag k="addr:street" v="Julius Street"/><tag k="addr:housenumber" v="72"/><tag k="addr:postcode" v="78702"/></node><node id="-20" lat="30.251671" lon="-97.716666" changeset="false"><tag k="addr:street" v="San Saba Street"/><tag k="addr:housenumber" v="72"/><tag k="addr:postcode" v="78702"/></node><node id="-21" lat="30.251635" lon="-97.715485" changeset="false"><tag k="addr:street" v="Canterbury Street"/><tag k="addr:housenumber" v="2611"/><tag k="addr:postcode" v="78702"/></node><node id="-22" lat="30.251699" lon="-97.715643" changeset="false"><tag k="addr:street" v="Canterbury Street"/><tag k="addr:housenumber" v="2609"/><tag k="addr:postcode" v="78702"/></node><node id="-23" lat="30.25163" lon="-97.717249" changeset="false"><tag k="addr:street" v="Julius Street"/><tag k="addr:housenumber" v="71"/><tag k="addr:postcode" v="78702"/></node><node id="-24" lat="30.251833" lon="-97.716008" changeset="false"><tag k="addr:street" v="Canterbury Street"/><tag k="addr:housenumber" v="2603"/><tag k="addr:postcode" v="78702"/></node><node id="-25" lat="30.253395" lon="-97.72062" changeset="false"><tag k="addr:street" v="Canterbury Street"/><tag k="addr:housenumber" v="2213"/><tag k="addr:postcode" v="78702"/></node><node id="-26" lat="30.253542" lon="-97.721043" changeset="false"><tag k="addr:street" v="Canterbury Street"/><tag k="addr:housenumber" v="2207"/><tag k="addr:postcode" v="78702"/></node><node id="-27" lat="30.253453" lon="-97.720764" changeset="false"><tag k="addr:street" v="Canterbury Street"/><tag k="addr:housenumber" v="2211"/><tag k="addr:postcode" v="78702"/></node><node id="-28" lat="30.253597" lon="-97.7212" changeset="false"><tag k="addr:street" v="Canterbury Street"/><tag k="addr:housenumber" v="2205"/><tag k="addr:postcode" v="78702"/></node><node id="-29" lat="30.253489" lon="-97.720893" changeset="false"><tag k="addr:street" v="Canterbury Street"/><tag k="addr:housenumber" v="2209"/><tag k="addr:postcode" v="78702"/></node><node id="-30" lat="30.253702" lon="-97.721483" changeset="false"><tag k="addr:street" v="Canterbury Street"/><tag k="addr:housenumber" v="2201"/><tag k="addr:postcode" v="78702"/></node><node id="-31" lat="30.253638" lon="-97.721314" changeset="false"><tag k="addr:street" v="Canterbury Street"/><tag k="addr:housenumber" v="2203"/><tag k="addr:postcode" v="78702"/></node><node id="-32" lat="30.252851" lon="-97.720861" changeset="false"><tag k="addr:street" v="Garden Street"/><tag k="addr:housenumber" v="2212"/><tag k="addr:postcode" v="78702"/></node><node id="-33" lat="30.252892" lon="-97.720995" changeset="false"><tag k="addr:street" v="Garden Street"/><tag k="addr:housenumber" v="2210"/><tag k="addr:postcode" v="78702"/></node><node id="-34" lat="30.253005" lon="-97.72063" changeset="false"><tag k="addr:street" v="Mildred Street"/><tag k="addr:housenumber" v="72"/><tag k="addr:postcode" v="78702"/></node><node id="-35" lat="30.253082" lon="-97.721576" changeset="false"><tag k="addr:street" v="Garden Street"/><tag k="addr:housenumber" v="2202"/><tag k="addr:postcode" v="78702"/></node><node id="-36" lat="30.252933" lon="-97.721127" changeset="false"><tag k="addr:street" v="Garden Street"/><tag k="addr:housenumber" v="2208"/><tag k="addr:postcode" v="78702"/></node><node id="-37" lat="30.252986" lon="-97.721295" changeset="false"><tag k="addr:street" v="Garden Street"/><tag k="addr:housenumber" v="2206"/><tag k="addr:postcode" v="78702"/></node><node id="-38" lat="30.253038" lon="-97.721442" changeset="false"><tag k="addr:street" v="Garden Street"/><tag k="addr:housenumber" v="2204"/><tag k="addr:postcode" v="78702"/></node><node id="-39" lat="30.253346" lon="-97.720477" changeset="false"><tag k="addr:street" v="Canterbury Street"/><tag k="addr:housenumber" v="2215"/><tag k="addr:postcode" v="78702"/></node><node id="-40" lat="30.252324" lon="-97.720938" changeset="false"><tag k="addr:street" v="Mildred Street"/><tag k="addr:housenumber" v="68"/><tag k="addr:postcode" v="78702"/></node><node id="-41" lat="30.252345" lon="-97.720535" changeset="false"><tag k="addr:street" v="Mildred Street"/><tag k="addr:housenumber" v="69"/><tag k="addr:postcode" v="78702"/></node><node id="-42" lat="30.252475" lon="-97.720938" changeset="false"><tag k="addr:street" v="Garden Street"/><tag k="addr:housenumber" v="2217"/><tag k="addr:postcode" v="78702"/></node><node id="-43" lat="30.252454" lon="-97.72085" changeset="false"><tag k="addr:street" v="Garden Street"/><tag k="addr:housenumber" v="2219"/><tag k="addr:postcode" v="78702"/></node><node id="-44" lat="30.252521" lon="-97.721017" changeset="false"><tag k="addr:street" v="Garden Street"/><tag k="addr:housenumber" v="2215"/><tag k="addr:postcode" v="78702"/></node><node id="-45" lat="30.252632" lon="-97.721328" changeset="false"><tag k="addr:street" v="Garden Street"/><tag k="addr:housenumber" v="2209"/><tag k="addr:postcode" v="78702"/></node><node id="-46" lat="30.252673" lon="-97.721456" changeset="false"><tag k="addr:street" v="Garden Street"/><tag k="addr:housenumber" v="2207"/><tag k="addr:postcode" v="78702"/></node><node id="-47" lat="30.252703" lon="-97.721583" changeset="false"><tag k="addr:street" v="Garden Street"/><tag k="addr:housenumber" v="2205"/><tag k="addr:postcode" v="78702"/></node><node id="-48" lat="30.252565" lon="-97.721156" changeset="false"><tag k="addr:street" v="Garden Street"/><tag k="addr:housenumber" v="2211"/><tag k="addr:postcode" v="78702"/></node><node id="-49" lat="30.25179" lon="-97.720795" changeset="false"><tag k="addr:street" v="Holly Street"/><tag k="addr:housenumber" v="2300"/><tag k="addr:postcode" v="78702"/></node><node id="-50" lat="30.251661" lon="-97.721604" changeset="false"><tag k="addr:street" v="Holly Street"/><tag k="addr:housenumber" v="2213"/><tag k="addr:postcode" v="78702"/></node><node id="-51" lat="30.251774" lon="-97.720627" changeset="false"><tag k="addr:street" v="Holly Street"/><tag k="addr:housenumber" v="2304"/><tag k="addr:postcode" v="78702"/></node><node id="-52" lat="30.25188" lon="-97.72115" changeset="false"><tag k="addr:street" v="Holly Street"/><tag k="addr:housenumber" v="2214"/><tag k="addr:postcode" v="78702"/></node><node id="-53" lat="30.251935" lon="-97.721295" changeset="false"><tag k="addr:street" v="Holly Street"/><tag k="addr:housenumber" v="2212"/><tag k="addr:postcode" v="78702"/></node><node id="-54" lat="30.252043" lon="-97.72158" changeset="false"><tag k="addr:street" v="Holly Street"/><tag k="addr:housenumber" v="2208"/><tag k="addr:postcode" v="78702"/></node><node id="-55" lat="30.251983" lon="-97.721404" changeset="false"><tag k="addr:street" v="Holly Street"/><tag k="addr:housenumber" v="2210"/><tag k="addr:postcode" v="78702"/></node><node id="-56" lat="30.252178" lon="-97.720642" changeset="false"><tag k="addr:street" v="Mildred Street"/><tag k="addr:housenumber" v="67"/><tag k="addr:postcode" v="78702"/></node><node id="-57" lat="30.252248" lon="-97.720978" changeset="false"><tag k="addr:street" v="Mildred Street"/><tag k="addr:housenumber" v="66"/><tag k="addr:postcode" v="78702"/></node><node id="-58" lat="30.252484" lon="-97.723938" changeset="false"><tag k="addr:street" v="Holly Street"/><tag k="addr:housenumber" v="2015"/><tag k="addr:postcode" v="78702"/></node><node id="-59" lat="30.25275" lon="-97.721735" changeset="false"><tag k="addr:street" v="Garden Street"/><tag k="addr:housenumber" v="2203"/><tag k="addr:postcode" v="78702"/></node><node id="-60" lat="30.252765" lon="-97.724772" changeset="false"><tag k="addr:street" v="Holly Street"/><tag k="addr:housenumber" v="2003"/><tag k="addr:postcode" v="78702"/></node><node id="-61" lat="30.252674" lon="-97.72449" changeset="false"><tag k="addr:street" v="Holly Street"/><tag k="addr:housenumber" v="2007"/><tag k="addr:postcode" v="78702"/></node><node id="-62" lat="30.25257" lon="-97.724224" changeset="false"><tag k="addr:street" v="Holly Street"/><tag k="addr:housenumber" v="2011"/><tag k="addr:postcode" v="78702"/></node><node id="-63" lat="30.252794" lon="-97.724931" changeset="false"><tag k="addr:street" v="Holly Street"/><tag k="addr:housenumber" v="2001"/><tag k="addr:postcode" v="78702"/></node><node id="-64" lat="30.252531" lon="-97.724085" changeset="false"><tag k="addr:street" v="Holly Street"/><tag k="addr:housenumber" v="2013"/><tag k="addr:postcode" v="78702"/></node><node id="-65" lat="30.253143" lon="-97.721728" changeset="false"><tag k="addr:street" v="Garden Street"/><tag k="addr:housenumber" v="2200"/><tag k="addr:postcode" v="78702"/></node><node id="-66" lat="30.252128" lon="-97.721834" changeset="false"><tag k="addr:street" v="Holly Street"/><tag k="addr:housenumber" v="2204"/><tag k="addr:postcode" v="78702"/></node><node id="-67" lat="30.252118" lon="-97.724911" changeset="false"><tag k="addr:street" v="Haskell Street"/><tag k="addr:housenumber" v="2004"/><tag k="addr:postcode" v="78702"/></node><node id="-68" lat="30.252252" lon="-97.723336" changeset="false"><tag k="addr:street" v="Holly Street"/><tag k="addr:housenumber" v="2105"/><tag k="addr:postcode" v="78702"/></node><node id="-69" lat="30.25218" lon="-97.721985" changeset="false"><tag k="addr:street" v="Holly Street"/><tag k="addr:housenumber" v="2202"/><tag k="addr:postcode" v="78702"/></node><node id="-70" lat="30.252304" lon="-97.723482" changeset="false"><tag k="addr:street" v="Holly Street"/><tag k="addr:housenumber" v="2103"/><tag k="addr:postcode" v="78702"/></node><node id="-71" lat="30.251775" lon="-97.723876" changeset="false"><tag k="addr:street" v="Haskell Street"/><tag k="addr:housenumber" v="2100"/><tag k="addr:postcode" v="78702"/></node><node id="-72" lat="30.251906" lon="-97.722306" changeset="false"><tag k="addr:street" v="Holly Street"/><tag k="addr:housenumber" v="2201"/><tag k="addr:postcode" v="78702"/></node><node id="-73" lat="30.251826" lon="-97.722211" changeset="false"><tag k="addr:street" v="Holly Street"/><tag k="addr:housenumber" v="2203"/><tag k="addr:postcode" v="78702"/></node><node id="-74" lat="30.251858" lon="-97.722721" changeset="false"><tag k="addr:street" v="Holly Street"/><tag k="addr:housenumber" v="2115"/><tag k="addr:postcode" v="78702"/></node><node id="-75" lat="30.251883" lon="-97.724192" changeset="false"><tag k="addr:street" v="Haskell Street"/><tag k="addr:housenumber" v="2014"/><tag k="addr:postcode" v="78702"/></node><node id="-76" lat="30.252069" lon="-97.72472" changeset="false"><tag k="addr:street" v="Haskell Street"/><tag k="addr:housenumber" v="2006"/><tag k="addr:postcode" v="78702"/></node><node id="-77" lat="30.252031" lon="-97.724599" changeset="false"><tag k="addr:street" v="Haskell Street"/><tag k="addr:housenumber" v="2008"/><tag k="addr:postcode" v="78702"/></node><node id="-78" lat="30.252132" lon="-97.723063" changeset="false"><tag k="addr:street" v="Holly Street"/><tag k="addr:housenumber" v="2109"/><tag k="addr:postcode" v="78702"/></node><node id="-79" lat="30.252044" lon="-97.724121" changeset="false"><tag k="addr:street" v="Anthony Street"/><tag k="addr:housenumber" v="54"/><tag k="addr:postcode" v="78702"/></node><node id="-80" lat="30.252087" lon="-97.721725" changeset="false"><tag k="addr:street" v="Holly Street"/><tag k="addr:housenumber" v="2206"/><tag k="addr:postcode" v="78702"/></node><node id="-81" lat="30.251738" lon="-97.724911" changeset="false"><tag k="addr:street" v="Haskell Street"/><tag k="addr:housenumber" v="2007"/><tag k="addr:postcode" v="78702"/></node><node id="-82" lat="30.251682" lon="-97.724756" changeset="false"><tag k="addr:street" v="Haskell Street"/><tag k="addr:housenumber" v="2009"/><tag k="addr:postcode" v="78702"/></node><node id="-83" lat="30.251742" lon="-97.723578" changeset="false"><tag k="addr:street" v="Haskell Street"/><tag k="addr:housenumber" v="2104"/><tag k="addr:postcode" v="78702"/></node><node id="-84" lat="30.251699" lon="-97.72171" changeset="false"><tag k="addr:street" v="Holly Street"/><tag k="addr:housenumber" v="2211"/><tag k="addr:postcode" v="78702"/></node><node id="-85" lat="30.251709" lon="-97.721986" changeset="false"><tag k="addr:street" v="Holly Street"/><tag k="addr:housenumber" v="2207"/><tag k="addr:postcode" v="78702"/></node><node id="-86" lat="30.251716" lon="-97.723727" changeset="false"><tag k="addr:street" v="Haskell Street"/><tag k="addr:housenumber" v="2102"/><tag k="addr:postcode" v="78702"/></node><node id="-87" lat="30.25183" lon="-97.722055" changeset="false"><tag k="addr:street" v="Holly Street"/><tag k="addr:housenumber" v="2205"/><tag k="addr:postcode" v="78702"/></node><node id="-88" lat="30.252939" lon="-97.72539" changeset="false"><tag k="addr:street" v="Holly Street"/><tag k="addr:housenumber" v="1913"/><tag k="addr:postcode" v="78702"/></node><node id="-89" lat="30.25319" lon="-97.726087" changeset="false"><tag k="addr:street" v="Holly Street"/><tag k="addr:housenumber" v="1903"/><tag k="addr:postcode" v="78702"/></node><node id="-90" lat="30.252884" lon="-97.725256" changeset="false"><tag k="addr:street" v="Holly Street"/><tag k="addr:housenumber" v="1915"/><tag k="addr:postcode" v="78702"/></node><node id="-91" lat="30.252983" lon="-97.725542" changeset="false"><tag k="addr:street" v="Holly Street"/><tag k="addr:housenumber" v="1911"/><tag k="addr:postcode" v="78702"/></node><node id="-92" lat="30.253129" lon="-97.725939" changeset="false"><tag k="addr:street" v="Holly Street"/><tag k="addr:housenumber" v="1905"/><tag k="addr:postcode" v="78702"/></node><node id="-93" lat="30.253024" lon="-97.725679" changeset="false"><tag k="addr:street" v="Holly Street"/><tag k="addr:housenumber" v="1909"/><tag k="addr:postcode" v="78702"/></node><node id="-94" lat="30.253237" lon="-97.726239" changeset="false"><tag k="addr:street" v="Holly Street"/><tag k="addr:housenumber" v="1901"/><tag k="addr:postcode" v="78702"/></node><node id="-95" lat="30.253077" lon="-97.725812" changeset="false"><tag k="addr:street" v="Holly Street"/><tag k="addr:housenumber" v="1907"/><tag k="addr:postcode" v="78702"/></node><node id="-96" lat="30.25236" lon="-97.726628" changeset="false"><tag k="addr:street" v="Haskell Street"/><tag k="addr:housenumber" v="1901"/><tag k="addr:postcode" v="78702"/></node><node id="-97" lat="30.252365" lon="-97.72564" changeset="false"><tag k="addr:street" v="Haskell Street"/><tag k="addr:housenumber" v="1912"/><tag k="addr:postcode" v="78702"/></node><node id="-98" lat="30.252459" lon="-97.725783" changeset="false"><tag k="addr:street" v="Haskell Street"/><tag k="addr:housenumber" v="1910"/><tag k="addr:postcode" v="78702"/></node><node id="-99" lat="30.252536" lon="-97.725399" changeset="false"><tag k="addr:street" v="Lynn Street"/><tag k="addr:housenumber" v="54"/><tag k="addr:postcode" v="78702"/></node><node id="-100" lat="30.252558" lon="-97.726089" changeset="false"><tag k="addr:street" v="Haskell Street"/><tag k="addr:housenumber" v="1906"/><tag k="addr:postcode" v="78702"/></node><node id="-101" lat="30.252602" lon="-97.726221" changeset="false"><tag k="addr:street" v="Haskell Street"/><tag k="addr:housenumber" v="1904"/><tag k="addr:postcode" v="78702"/></node><node id="-102" lat="30.252609" lon="-97.725026" changeset="false"><tag k="addr:street" v="Lynn Street"/><tag k="addr:housenumber" v="55"/><tag k="addr:postcode" v="78702"/></node><node id="-103" lat="30.252638" lon="-97.726339" changeset="false"><tag k="addr:street" v="Haskell Street"/><tag k="addr:housenumber" v="1902"/><tag k="addr:postcode" v="78702"/></node><node id="-104" lat="30.252701" lon="-97.726484" changeset="false"><tag k="addr:street" v="Haskell Street"/><tag k="addr:housenumber" v="1900"/><tag k="addr:postcode" v="78702"/></node><node id="-105" lat="30.252045" lon="-97.725792" changeset="false"><tag k="addr:street" v="Haskell Street"/><tag k="addr:housenumber" v="1913"/><tag k="addr:postcode" v="78702"/></node><node id="-106" lat="30.252354" lon="-97.725492" changeset="false"><tag k="addr:street" v="Haskell Street"/><tag k="addr:housenumber" v="1914"/><tag k="addr:postcode" v="78702"/></node><node id="-107" lat="30.252322" lon="-97.726488" changeset="false"><tag k="addr:street" v="Haskell Street"/><tag k="addr:housenumber" v="1903"/><tag k="addr:postcode" v="78702"/></node><node id="-108" lat="30.252087" lon="-97.725923" changeset="false"><tag k="addr:street" v="Haskell Street"/><tag k="addr:housenumber" v="1911"/><tag k="addr:postcode" v="78702"/></node><node id="-109" lat="30.252141" lon="-97.726077" changeset="false"><tag k="addr:street" v="Haskell Street"/><tag k="addr:housenumber" v="1909"/><tag k="addr:postcode" v="78702"/></node><node id="-110" lat="30.252232" lon="-97.725153" changeset="false"><tag k="addr:street" v="Haskell Street"/><tag k="addr:housenumber" v="2000"/><tag k="addr:postcode" v="78702"/></node><node id="-111" lat="30.252175" lon="-97.725017" changeset="false"><tag k="addr:street" v="Haskell Street"/><tag k="addr:housenumber" v="2002"/><tag k="addr:postcode" v="78702"/></node><node id="-112" lat="30.252235" lon="-97.726345" changeset="false"><tag k="addr:street" v="Haskell Street"/><tag k="addr:housenumber" v="1905"/><tag k="addr:postcode" v="78702"/></node><node id="-113" lat="30.2522" lon="-97.726202" changeset="false"><tag k="addr:street" v="Haskell Street"/><tag k="addr:housenumber" v="1907"/><tag k="addr:postcode" v="78702"/></node><node id="-114" lat="30.251696" lon="-97.725411" changeset="false"><tag k="addr:street" v="Lynn Street"/><tag k="addr:housenumber" v="45"/><tag k="addr:postcode" v="78702"/></node><node id="-115" lat="30.251651" lon="-97.726468" changeset="false"><tag k="addr:street" v="Riverview Street"/><tag k="addr:housenumber" v="1906"/><tag k="addr:postcode" v="78702"/></node><node id="-116" lat="30.251792" lon="-97.726877" changeset="false"><tag k="addr:street" v="Riverview Street"/><tag k="addr:housenumber" v="1900"/><tag k="addr:postcode" v="78702"/></node><node id="-117" lat="30.251785" lon="-97.725058" changeset="false"><tag k="addr:street" v="Haskell Street"/><tag k="addr:housenumber" v="2005"/><tag k="addr:postcode" v="78702"/></node><node id="-118" lat="30.251745" lon="-97.726729" changeset="false"><tag k="addr:street" v="Riverview Street"/><tag k="addr:housenumber" v="1902"/><tag k="addr:postcode" v="78702"/></node><node id="-119" lat="30.251695" lon="-97.726602" changeset="false"><tag k="addr:street" v="Riverview Street"/><tag k="addr:housenumber" v="1904"/><tag k="addr:postcode" v="78702"/></node><node id="-120" lat="30.252" lon="-97.725645" changeset="false"><tag k="addr:street" v="Haskell Street"/><tag k="addr:housenumber" v="1915"/><tag k="addr:postcode" v="78702"/></node><node id="-121" lat="30.251872" lon="-97.725311" changeset="false"><tag k="addr:street" v="Haskell Street"/><tag k="addr:housenumber" v="2001"/><tag k="addr:postcode" v="78702"/></node><node id="-122" lat="30.251481" lon="-97.721129" changeset="false"><tag k="addr:street" v="Holly Street"/><tag k="addr:housenumber" v="2221"/><tag k="addr:postcode" v="78702"/></node><node id="-123" lat="30.25153" lon="-97.71518" changeset="false"><tag k="addr:street" v="Canterbury Street"/><tag k="addr:housenumber" v="2615"/><tag k="addr:postcode" v="78702"/></node><node id="-124" lat="30.251538" lon="-97.721248" changeset="false"><tag k="addr:street" v="Holly Street"/><tag k="addr:housenumber" v="2219"/><tag k="addr:postcode" v="78702"/></node><node id="-125" lat="30.251495" lon="-97.715089" changeset="false"><tag k="addr:street" v="Canterbury Street"/><tag k="addr:housenumber" v="2617"/><tag k="addr:postcode" v="78702"/></node><node id="-126" lat="30.251623" lon="-97.721488" changeset="false"><tag k="addr:street" v="Holly Street"/><tag k="addr:housenumber" v="2215"/><tag k="addr:postcode" v="78702"/></node><node id="-127" lat="30.251585" lon="-97.721364" changeset="false"><tag k="addr:street" v="Holly Street"/><tag k="addr:housenumber" v="2217"/><tag k="addr:postcode" v="78702"/></node><node id="-128" lat="30.251012" lon="-97.721471" changeset="false"><tag k="addr:street" v="Haskell Street"/><tag k="addr:housenumber" v="2218"/><tag k="addr:postcode" v="78702"/></node><node id="-129" lat="30.251013" lon="-97.721629" changeset="false"><tag k="addr:street" v="Haskell Street"/><tag k="addr:housenumber" v="2216"/><tag k="addr:postcode" v="78702"/></node><node id="-130" lat="30.251054" lon="-97.721752" changeset="false"><tag k="addr:street" v="Haskell Street"/><tag k="addr:housenumber" v="2214"/><tag k="addr:postcode" v="78702"/></node><node id="-131" lat="30.250722" lon="-97.721163" changeset="false"><tag k="addr:street" v="Haskell Street"/><tag k="addr:housenumber" v="2300"/><tag k="addr:postcode" v="78702"/></node><node id="-132" lat="30.251293" lon="-97.722448" changeset="false"><tag k="addr:street" v="Haskell Street"/><tag k="addr:housenumber" v="2202"/><tag k="addr:postcode" v="78702"/></node><node id="-133" lat="30.251396" lon="-97.722924" changeset="false"><tag k="addr:street" v="Haskell Street"/><tag k="addr:housenumber" v="2114"/><tag k="addr:postcode" v="78702"/></node><node id="-134" lat="30.251334" lon="-97.722568" changeset="false"><tag k="addr:street" v="Haskell Street"/><tag k="addr:housenumber" v="2200"/><tag k="addr:postcode" v="78702"/></node><node id="-135" lat="30.251573" lon="-97.723324" changeset="false"><tag k="addr:street" v="Haskell Street"/><tag k="addr:housenumber" v="2108"/><tag k="addr:postcode" v="78702"/></node><node id="-136" lat="30.250923" lon="-97.722486" changeset="false"><tag k="addr:street" v="Haskell Street"/><tag k="addr:housenumber" v="2205"/><tag k="addr:postcode" v="78702"/></node><node id="-137" lat="30.250874" lon="-97.722376" changeset="false"><tag k="addr:street" v="Haskell Street"/><tag k="addr:housenumber" v="2207"/><tag k="addr:postcode" v="78702"/></node><node id="-138" lat="30.250847" lon="-97.72226" changeset="false"><tag k="addr:street" v="Haskell Street"/><tag k="addr:housenumber" v="2209"/><tag k="addr:postcode" v="78702"/></node><node id="-139" lat="30.25098" lon="-97.722699" changeset="false"><tag k="addr:street" v="Haskell Street"/><tag k="addr:housenumber" v="2201"/><tag k="addr:postcode" v="78702"/></node><node id="-140" lat="30.251148" lon="-97.723209" changeset="false"><tag k="addr:street" v="Haskell Street"/><tag k="addr:housenumber" v="2113"/><tag k="addr:postcode" v="78702"/></node><node id="-141" lat="30.251089" lon="-97.723049" changeset="false"><tag k="addr:street" v="Haskell Street"/><tag k="addr:housenumber" v="2115"/><tag k="addr:postcode" v="78702"/></node><node id="-142" lat="30.251124" lon="-97.721962" changeset="false"><tag k="addr:street" v="Haskell Street"/><tag k="addr:housenumber" v="2210"/><tag k="addr:postcode" v="78702"/></node><node id="-143" lat="30.250966" lon="-97.722606" changeset="false"><tag k="addr:street" v="Haskell Street"/><tag k="addr:housenumber" v="2203"/><tag k="addr:postcode" v="78702"/></node><node id="-144" lat="30.251086" lon="-97.721846" changeset="false"><tag k="addr:street" v="Haskell Street"/><tag k="addr:housenumber" v="2212"/><tag k="addr:postcode" v="78702"/></node><node id="-145" lat="30.250338" lon="-97.722752" changeset="false"><tag k="addr:street" v="Riverview Street"/><tag k="addr:housenumber" v="2204"/><tag k="addr:postcode" v="78702"/></node><node id="-146" lat="30.250609" lon="-97.723418" changeset="false"><tag k="addr:street" v="Riverview Street"/><tag k="addr:housenumber" v="2112"/><tag k="addr:postcode" v="78702"/></node><node id="-147" lat="30.250671" lon="-97.722057" changeset="false"><tag k="addr:street" v="Haskell Street"/><tag k="addr:housenumber" v="2213"/><tag k="addr:postcode" v="78702"/></node><node id="-148" lat="30.250685" lon="-97.721767" changeset="false"><tag k="addr:street" v="Haskell Street"/><tag k="addr:housenumber" v="2217"/><tag k="addr:postcode" v="78702"/></node><node id="-149" lat="30.25067" lon="-97.721914" changeset="false"><tag k="addr:street" v="Haskell Street"/><tag k="addr:housenumber" v="2215"/><tag k="addr:postcode" v="78702"/></node><node id="-150" lat="30.250803" lon="-97.722124" changeset="false"><tag k="addr:street" v="Haskell Street"/><tag k="addr:housenumber" v="2211"/><tag k="addr:postcode" v="78702"/></node><node id="-151" lat="30.250208" lon="-97.723458" changeset="false"><tag k="addr:street" v="Riverview Street"/><tag k="addr:housenumber" v="2115"/><tag k="addr:postcode" v="78702"/></node><node id="-152" lat="30.250236" lon="-97.722273" changeset="false"><tag k="addr:street" v="Riverview Street"/><tag k="addr:housenumber" v="2212"/><tag k="addr:postcode" v="78702"/></node><node id="-153" lat="30.250274" lon="-97.722525" changeset="false"><tag k="addr:street" v="Riverview Street"/><tag k="addr:housenumber" v="2208"/><tag k="addr:postcode" v="78702"/></node><node id="-154" lat="30.250275" lon="-97.722682" changeset="false"><tag k="addr:street" v="Riverview Street"/><tag k="addr:housenumber" v="2206"/><tag k="addr:postcode" v="78702"/></node><node id="-155" lat="30.251285" lon="-97.723593" changeset="false"><tag k="addr:street" v="Haskell Street"/><tag k="addr:housenumber" v="2107"/><tag k="addr:postcode" v="78702"/></node><node id="-156" lat="30.251243" lon="-97.724093" changeset="false"><tag k="addr:street" v="Anthony Street"/><tag k="addr:housenumber" v="45"/><tag k="addr:postcode" v="78702"/></node><node id="-157" lat="30.251542" lon="-97.724328" changeset="false"><tag k="addr:street" v="Haskell Street"/><tag k="addr:housenumber" v="2015"/><tag k="addr:postcode" v="78702"/></node><node id="-158" lat="30.251334" lon="-97.724407" changeset="false"><tag k="addr:street" v="Anthony Street"/><tag k="addr:housenumber" v="44"/><tag k="addr:postcode" v="78702"/></node><node id="-159" lat="30.251597" lon="-97.724496" changeset="false"><tag k="addr:street" v="Haskell Street"/><tag k="addr:housenumber" v="2013"/><tag k="addr:postcode" v="78702"/></node><node id="-160" lat="30.251348" lon="-97.723753" changeset="false"><tag k="addr:street" v="Haskell Street"/><tag k="addr:housenumber" v="2105"/><tag k="addr:postcode" v="78702"/></node><node id="-161" lat="30.250967" lon="-97.724596" changeset="false"><tag k="addr:street" v="Anthony Street"/><tag k="addr:housenumber" v="40"/><tag k="addr:postcode" v="78702"/></node><node id="-162" lat="30.25108" lon="-97.724883" changeset="false"><tag k="addr:street" v="Riverview Street"/><tag k="addr:housenumber" v="2010"/><tag k="addr:postcode" v="78702"/></node><node id="-163" lat="30.251196" lon="-97.724488" changeset="false"><tag k="addr:street" v="Anthony Street"/><tag k="addr:housenumber" v="42"/><tag k="addr:postcode" v="78702"/></node><node id="-164" lat="30.25124" lon="-97.723448" changeset="false"><tag k="addr:street" v="Haskell Street"/><tag k="addr:housenumber" v="2109"/><tag k="addr:postcode" v="78702"/></node><node id="-165" lat="30.25054" lon="-97.724452" changeset="false"><tag k="addr:street" v="Riverview Street"/><tag k="addr:housenumber" v="2101"/><tag k="addr:postcode" v="78702"/></node><node id="-166" lat="30.25059" lon="-97.724795" changeset="false"><tag k="addr:street" v="Anthony Street"/><tag k="addr:housenumber" v="38"/><tag k="addr:postcode" v="78702"/></node><node id="-167" lat="30.250686" lon="-97.723611" changeset="false"><tag k="addr:street" v="Riverview Street"/><tag k="addr:housenumber" v="2110"/><tag k="addr:postcode" v="78702"/></node><node id="-168" lat="30.25069" lon="-97.724908" changeset="false"><tag k="addr:street" v="Riverview Street"/><tag k="addr:housenumber" v="2017"/><tag k="addr:postcode" v="78702"/></node><node id="-169" lat="30.250729" lon="-97.723881" changeset="false"><tag k="addr:street" v="Riverview Street"/><tag k="addr:housenumber" v="2106"/><tag k="addr:postcode" v="78702"/></node><node id="-170" lat="30.25077" lon="-97.723983" changeset="false"><tag k="addr:street" v="Riverview Street"/><tag k="addr:housenumber" v="2104"/><tag k="addr:postcode" v="78702"/></node><node id="-171" lat="30.250825" lon="-97.724136" changeset="false"><tag k="addr:street" v="Riverview Street"/><tag k="addr:housenumber" v="2102"/><tag k="addr:postcode" v="78702"/></node><node id="-172" lat="30.250875" lon="-97.724281" changeset="false"><tag k="addr:street" v="Riverview Street"/><tag k="addr:housenumber" v="2100"/><tag k="addr:postcode" v="78702"/></node><node id="-173" lat="30.250267" lon="-97.724924" changeset="false"><tag k="addr:street" v="Jesse E. Segovia Street"/><tag k="addr:housenumber" v="2018"/><tag k="addr:postcode" v="78702"/></node><node id="-174" lat="30.250249" lon="-97.723601" changeset="false"><tag k="addr:street" v="Riverview Street"/><tag k="addr:housenumber" v="2113"/><tag k="addr:postcode" v="78702"/></node><node id="-175" lat="30.249645" lon="-97.724826" changeset="false"><tag k="addr:street" v="Jesse E. Segovia Street"/><tag k="addr:housenumber" v="2101"/><tag k="addr:postcode" v="78702"/></node><node id="-176" lat="30.250334" lon="-97.723734" changeset="false"><tag k="addr:street" v="Riverview Street"/><tag k="addr:housenumber" v="2111"/><tag k="addr:postcode" v="78702"/></node><node id="-177" lat="30.250361" lon="-97.723869" changeset="false"><tag k="addr:street" v="Riverview Street"/><tag k="addr:housenumber" v="2109"/><tag k="addr:postcode" v="78702"/></node><node id="-178" lat="30.250411" lon="-97.724028" changeset="false"><tag k="addr:street" v="Riverview Street"/><tag k="addr:housenumber" v="2107"/><tag k="addr:postcode" v="78702"/></node><node id="-179" lat="30.250395" lon="-97.724524" changeset="false"><tag k="addr:street" v="Anthony Street"/><tag k="addr:housenumber" v="31"/><tag k="addr:postcode" v="78702"/></node><node id="-180" lat="30.250465" lon="-97.724823" changeset="false"><tag k="addr:street" v="Anthony Street"/><tag k="addr:housenumber" v="36"/><tag k="addr:postcode" v="78702"/></node><node id="-181" lat="30.250499" lon="-97.724318" changeset="false"><tag k="addr:street" v="Riverview Street"/><tag k="addr:housenumber" v="2103"/><tag k="addr:postcode" v="78702"/></node><node id="-182" lat="30.251237" lon="-97.7265" changeset="false"><tag k="addr:street" v="Riverview Street"/><tag k="addr:housenumber" v="1909"/><tag k="addr:postcode" v="78702"/></node><node id="-183" lat="30.251286" lon="-97.725436" changeset="false"><tag k="addr:street" v="Riverview Street"/><tag k="addr:housenumber" v="2002"/><tag k="addr:postcode" v="78702"/></node><node id="-184" lat="30.251336" lon="-97.726678" changeset="false"><tag k="addr:street" v="Riverview Street"/><tag k="addr:housenumber" v="1907"/><tag k="addr:postcode" v="78702"/></node><node id="-185" lat="30.251313" lon="-97.726756" changeset="false"><tag k="addr:street" v="Riverview Street"/><tag k="addr:housenumber" v="1905"/><tag k="addr:postcode" v="78702"/></node><node id="-186" lat="30.251369" lon="-97.726919" changeset="false"><tag k="addr:street" v="Riverview Street"/><tag k="addr:housenumber" v="1903"/><tag k="addr:postcode" v="78702"/></node><node id="-187" lat="30.251444" lon="-97.725894" changeset="false"><tag k="addr:street" v="Riverview Street"/><tag k="addr:housenumber" v="1914"/><tag k="addr:postcode" v="78702"/></node><node id="-188" lat="30.251537" lon="-97.726148" changeset="false"><tag k="addr:street" v="Riverview Street"/><tag k="addr:housenumber" v="1910"/><tag k="addr:postcode" v="78702"/></node><node id="-189" lat="30.251601" lon="-97.726307" changeset="false"><tag k="addr:street" v="Riverview Street"/><tag k="addr:housenumber" v="1908"/><tag k="addr:postcode" v="78702"/></node><node id="-190" lat="30.251578" lon="-97.725826" changeset="false"><tag k="addr:street" v="Lynn Street"/><tag k="addr:housenumber" v="44"/><tag k="addr:postcode" v="78702"/></node><node id="-191" lat="30.251435" lon="-97.727043" changeset="false"><tag k="addr:street" v="Riverview Street"/><tag k="addr:housenumber" v="1901"/><tag k="addr:postcode" v="78702"/></node><node id="-192" lat="30.251499" lon="-97.72602" changeset="false"><tag k="addr:street" v="Riverview Street"/><tag k="addr:housenumber" v="1912"/><tag k="addr:postcode" v="78702"/></node><node id="-193" lat="30.25093" lon="-97.725629" changeset="false"><tag k="addr:street" v="Riverview Street"/><tag k="addr:housenumber" v="2007"/><tag k="addr:postcode" v="78702"/></node><node id="-194" lat="30.250983" lon="-97.725791" changeset="false"><tag k="addr:street" v="Riverview Street"/><tag k="addr:housenumber" v="2005"/><tag k="addr:postcode" v="78702"/></node><node id="-195" lat="30.251143" lon="-97.725005" changeset="false"><tag k="addr:street" v="Riverview Street"/><tag k="addr:housenumber" v="2008"/><tag k="addr:postcode" v="78702"/></node><node id="-196" lat="30.251184" lon="-97.725151" changeset="false"><tag k="addr:street" v="Riverview Street"/><tag k="addr:housenumber" v="2006"/><tag k="addr:postcode" v="78702"/></node><node id="-197" lat="30.251226" lon="-97.725295" changeset="false"><tag k="addr:street" v="Riverview Street"/><tag k="addr:housenumber" v="2004"/><tag k="addr:postcode" v="78702"/></node><node id="-198" lat="30.251233" lon="-97.726387" changeset="false"><tag k="addr:street" v="Riverview Street"/><tag k="addr:housenumber" v="1911"/><tag k="addr:postcode" v="78702"/></node><node id="-199" lat="30.250475" lon="-97.725993" changeset="false"><tag k="addr:street" v="Jesse E. Segovia Street"/><tag k="addr:housenumber" v="2004"/><tag k="addr:postcode" v="78702"/></node><node id="-200" lat="30.250734" lon="-97.725057" changeset="false"><tag k="addr:street" v="Riverview Street"/><tag k="addr:housenumber" v="2015"/><tag k="addr:postcode" v="78702"/></node><node id="-201" lat="30.250833" lon="-97.725332" changeset="false"><tag k="addr:street" v="Riverview Street"/><tag k="addr:housenumber" v="2011"/><tag k="addr:postcode" v="78702"/></node><node id="-202" lat="30.250319" lon="-97.725581" changeset="false"><tag k="addr:street" v="Jesse E. Segovia Street"/><tag k="addr:housenumber" v="2010"/><tag k="addr:postcode" v="78702"/></node><node id="-203" lat="30.250376" lon="-97.725724" changeset="false"><tag k="addr:street" v="Jesse E. Segovia Street"/><tag k="addr:housenumber" v="2008"/><tag k="addr:postcode" v="78702"/></node><node id="-204" lat="30.25042" lon="-97.725855" changeset="false"><tag k="addr:street" v="Jesse E. Segovia Street"/><tag k="addr:housenumber" v="2006"/><tag k="addr:postcode" v="78702"/></node></osm>