<?xml version="1.0" encoding="UTF-8"?><osm version="0.6" generator="github.com/aaronlidman/osm-and-geojson"><node id="-1" lat="30.250758" lon="-97.724758" changeset="false"><tag k="addr:street" v="Riverview Street"/><tag k="addr:housenumber" v="2019"/><tag k="addr:postcode" v="78702"/></node><node id="-2" lat="30.251085" lon="-97.726093" changeset="false"><tag k="addr:street" v="Riverview Street"/><tag k="addr:housenumber" v="2001"/><tag k="addr:postcode" v="78702"/></node><node id="-3" lat="30.250792" lon="-97.725199" changeset="false"><tag k="addr:street" v="Riverview Street"/><tag k="addr:housenumber" v="2013"/><tag k="addr:postcode" v="78702"/></node><node id="-4" lat="30.250269" lon="-97.721718" changeset="false"><tag k="addr:street" v="Riverview Street"/><tag k="addr:housenumber" v="2220"/><tag k="addr:postcode" v="78702"/></node><node id="-5" lat="30.250283" lon="-97.726416" changeset="false"><tag k="addr:street" v="Jesse E. Segovia Street"/><tag k="addr:housenumber" v="2015"/><tag k="addr:postcode" v="78702"/></node><node id="-6" lat="30.250246" lon="-97.725119" changeset="false"><tag k="addr:street" v="Jesse E. Segovia Street"/><tag k="addr:housenumber" v="2016"/><tag k="addr:postcode" v="78702"/></node><node id="-7" lat="30.251436" lon="-97.7149" changeset="false"><tag k="addr:street" v="Canterbury Street"/><tag k="addr:housenumber" v="2701"/><tag k="addr:postcode" v="78702"/></node><node id="-8" lat="30.251758" lon="-97.721824" changeset="false"><tag k="addr:street" v="Holly Street"/><tag k="addr:housenumber" v="2209"/><tag k="addr:postcode" v="78702"/></node><node id="-9" lat="30.251476" lon="-97.71669" changeset="false"><tag k="addr:street" v="San Saba Street"/><tag k="addr:housenumber" v="70"/><tag k="addr:postcode" v="78702"/></node><node id="-10" lat="30.25088" lon="-97.725482" changeset="false"><tag k="addr:street" v="Riverview Street"/><tag k="addr:housenumber" v="2009"/><tag k="addr:postcode" v="78702"/></node><node id="-11" lat="30.250579" lon="-97.721522" changeset="false"><tag k="addr:street" v="Haskell Street"/><tag k="addr:housenumber" v="2221"/><tag k="addr:postcode" v="78702"/></node><node id="-12" lat="30.252617" lon="-97.718426" changeset="false"><tag k="addr:street" v="Canterbury Street"/><tag k="addr:housenumber" v="2323"/><tag k="addr:postcode" v="78702"/></node><node id="-13" lat="30.252533" lon="-97.717929" changeset="false"><tag k="addr:street" v="Canterbury Street"/><tag k="addr:housenumber" v="2411"/><tag k="addr:postcode" v="78702"/></node><node id="-14" lat="30.252611" lon="-97.724369" changeset="false"><tag k="addr:street" v="Holly Street"/><tag k="addr:housenumber" v="2009"/><tag k="addr:postcode" v="78702"/></node><node id="-15" lat="30.251987" lon="-97.720725" changeset="false"><tag k="addr:street" v="Mildred Street"/><tag k="addr:housenumber" v="63"/><tag k="addr:postcode" v="78702"/></node><node id="-16" lat="30.251751" lon="-97.715788" changeset="false"><tag k="addr:street" v="Canterbury Street"/><tag k="addr:housenumber" v="2607"/><tag k="addr:postcode" v="78702"/></node><node id="-17" lat="30.25063" lon="-97.727383" changeset="false"><tag k="addr:street" v="Jesse E. Segovia Street"/><tag k="addr:housenumber" v="1911"/><tag k="addr:postcode" v="78702"/></node><node id="-18" lat="30.2503" lon="-97.718463" changeset="false"><tag k="addr:street" v="Pedernales Street"/><tag k="addr:housenumber" v="51"/><tag k="addr:postcode" v="78702"/></node><node id="-19" lat="30.251291" lon="-97.716503" changeset="false"><tag k="addr:street" v="San Saba Street"/><tag k="addr:housenumber" v="71"/><tag k="addr:postcode" v="78702"/></node><node id="-20" lat="30.252151" lon="-97.723709" changeset="false"><tag k="addr:street" v="Anthony Street"/><tag k="addr:housenumber" v="57"/><tag k="addr:postcode" v="78702"/></node><node id="-21" lat="30.252811" lon="-97.721893" changeset="false"><tag k="addr:street" v="Garden Street"/><tag k="addr:housenumber" v="2201"/><tag k="addr:postcode" v="78702"/></node><node id="-22" lat="30.251395" lon="-97.71478" changeset="false"><tag k="addr:street" v="Canterbury Street"/><tag k="addr:housenumber" v="2703"/><tag k="addr:postcode" v="78702"/></node><node id="-23" lat="30.251886" lon="-97.716201" changeset="false"><tag k="addr:street" v="Canterbury Street"/><tag k="addr:housenumber" v="2601"/><tag k="addr:postcode" v="78702"/></node><node id="-24" lat="30.250411" lon="-97.72298" changeset="false"><tag k="addr:street" v="Riverview Street"/><tag k="addr:housenumber" v="2200"/><tag k="addr:postcode" v="78702"/></node><node id="-25" lat="30.250619" lon="-97.721375" changeset="false"><tag k="addr:street" v="Haskell Street"/><tag k="addr:housenumber" v="2303"/><tag k="addr:postcode" v="78702"/></node><node id="-26" lat="30.25014" lon="-97.728293" changeset="false"><tag k="addr:street" v="Chicon Street"/><tag k="addr:housenumber" v="13"/><tag k="addr:postcode" v="78702"/></node><node id="-27" lat="30.250563" lon="-97.726298" changeset="false"><tag k="addr:street" v="Jesse E. Segovia Street"/><tag k="addr:housenumber" v="2000"/><tag k="addr:postcode" v="78702"/></node><node id="-28" lat="30.250185" lon="-97.721877" changeset="false"><tag k="addr:street" v="Riverview Street"/><tag k="addr:housenumber" v="2218"/><tag k="addr:postcode" v="78702"/></node><node id="-29" lat="30.251373" lon="-97.714497" changeset="false"><tag k="addr:street" v="Canterbury Street"/><tag k="addr:housenumber" v="2705"/><tag k="addr:postcode" v="78702"/></node><node id="-30" lat="30.251165" lon="-97.722092" changeset="false"><tag k="addr:street" v="Haskell Street"/><tag k="addr:housenumber" v="2208"/><tag k="addr:postcode" v="78702"/></node><node id="-31" lat="30.252718" lon="-97.724633" changeset="false"><tag k="addr:street" v="Holly Street"/><tag k="addr:housenumber" v="2005"/><tag k="addr:postcode" v="78702"/></node><node id="-32" lat="30.251837" lon="-97.725203" changeset="false"><tag k="addr:street" v="Haskell Street"/><tag k="addr:housenumber" v="2003"/><tag k="addr:postcode" v="78702"/></node><node id="-33" lat="30.251642" lon="-97.724643" changeset="false"><tag k="addr:street" v="Haskell Street"/><tag k="addr:housenumber" v="2011"/><tag k="addr:postcode" v="78702"/></node><node id="-34" lat="30.25134" lon="-97.713822" changeset="false"><tag k="addr:street" v="Canterbury Street"/><tag k="addr:housenumber" v="2713"/><tag k="addr:postcode" v="78702"/></node><node id="-35" lat="30.252514" lon="-97.725905" changeset="false"><tag k="addr:street" v="Haskell Street"/><tag k="addr:housenumber" v="1908"/><tag k="addr:postcode" v="78702"/></node><node id="-36" lat="30.251731" lon="-97.720521" changeset="false"><tag k="addr:street" v="Holly Street"/><tag k="addr:housenumber" v="2308"/><tag k="addr:postcode" v="78702"/></node><node id="-37" lat="30.251597" lon="-97.715357" changeset="false"><tag k="addr:street" v="Canterbury Street"/><tag k="addr:housenumber" v="2613"/><tag k="addr:postcode" v="78702"/></node><node id="-38" lat="30.25026" lon="-97.725417" changeset="false"><tag k="addr:street" v="Jesse E. Segovia Street"/><tag k="addr:housenumber" v="2012"/><tag k="addr:postcode" v="78702"/></node><node id="-39" lat="30.252368" lon="-97.723626" changeset="false"><tag k="addr:street" v="Holly Street"/><tag k="addr:housenumber" v="2101"/><tag k="addr:postcode" v="78702"/></node><node id="-40" lat="30.251024" lon="-97.725913" changeset="false"><tag k="addr:street" v="Riverview Street"/><tag k="addr:housenumber" v="2003"/><tag k="addr:postcode" v="78702"/></node><node id="-41" lat="30.2517" lon="-97.716286" changeset="false"><tag k="addr:street" v="San Saba Street"/><tag k="addr:housenumber" v="75"/><tag k="addr:postcode" v="78702"/></node><node id="-42" lat="30.251702" lon="-97.717545" changeset="false"><tag k="addr:street" v="Julius Street"/><tag k="addr:housenumber" v="68"/><tag k="addr:postcode" v="78702"/></node><node id="-43" lat="30.251529" lon="-97.723179" changeset="false"><tag k="addr:street" v="Haskell Street"/><tag k="addr:housenumber" v="2110"/><tag k="addr:postcode" v="78702"/></node><node id="-44" lat="30.251471" lon="-97.723017" changeset="false"><tag k="addr:street" v="Haskell Street"/><tag k="addr:housenumber" v="2112"/><tag k="addr:postcode" v="78702"/></node><node id="-45" lat="30.251615" lon="-97.723451" changeset="false"><tag k="addr:street" v="Haskell Street"/><tag k="addr:housenumber" v="2106"/><tag k="addr:postcode" v="78702"/></node><node id="-46" lat="30.251561" lon="-97.717845" changeset="false"><tag k="addr:street" v="Pedernales Street"/><tag k="addr:housenumber" v="67"/><tag k="addr:postcode" v="78702"/></node><node id="-47" lat="30.251281" lon="-97.727134" changeset="false"><tag k="addr:street" v="Chicon Street"/><tag k="addr:housenumber" v="37"/><tag k="addr:postcode" v="78702"/></node><node id="-48" lat="30.251972" lon="-97.726803" changeset="false"><tag k="addr:street" v="Chicon Street"/><tag k="addr:housenumber" v="45"/><tag k="addr:postcode" v="78702"/></node><node id="-49" lat="30.250252" lon="-97.722397" changeset="false"><tag k="addr:street" v="Riverview Street"/><tag k="addr:housenumber" v="2210"/><tag k="addr:postcode" v="78702"/></node><node id="-50" lat="30.250581" lon="-97.721456" changeset="false"><tag k="addr:street" v="Haskell Street"/><tag k="addr:housenumber" v="2301"/><tag k="addr:postcode" v="78702"/></node><node id="-51" lat="30.252249" lon="-97.720147" changeset="false"><tag k="addr:street" v="Garden Street"/><tag k="addr:housenumber" v="2307"/><tag k="addr:postcode" v="78702"/></node><node id="-52" lat="30.251325" lon="-97.72557" changeset="false"><tag k="addr:street" v="Riverview Street"/><tag k="addr:housenumber" v="2000"/><tag k="addr:postcode" v="78702"/></node><node id="-53" lat="30.251979" lon="-97.724469" changeset="false"><tag k="addr:street" v="Haskell Street"/><tag k="addr:housenumber" v="2010"/><tag k="addr:postcode" v="78702"/></node><node id="-54" lat="30.252324" lon="-97.719741" changeset="false"><tag k="addr:street" v="Garden Street"/><tag k="addr:housenumber" v="2400"/><tag k="addr:postcode" v="78702"/></node><node id="-55" lat="30.252204" lon="-97.722959" changeset="false"><tag k="addr:street" v="Holly Street"/><tag k="addr:housenumber" v="2111"/><tag k="addr:postcode" v="78702"/></node><node id="-56" lat="30.251348" lon="-97.71406" changeset="false"><tag k="addr:street" v="Canterbury Street"/><tag k="addr:housenumber" v="2711"/><tag k="addr:postcode" v="78702"/></node><node id="-57" lat="30.250872" lon="-97.719301" changeset="false"><tag k="addr:street" v="Holly Street"/><tag k="addr:housenumber" v="2401"/><tag k="addr:postcode" v="78702"/></node><node id="-58" lat="30.252287" lon="-97.720278" changeset="false"><tag k="addr:street" v="Garden Street"/><tag k="addr:housenumber" v="2305"/><tag k="addr:postcode" v="78702"/></node><node id="-59" lat="30.251395" lon="-97.723887" changeset="false"><tag k="addr:street" v="Haskell Street"/><tag k="addr:housenumber" v="2103"/><tag k="addr:postcode" v="78702"/></node><node id="-60" lat="30.251185" lon="-97.724252" changeset="false"><tag k="addr:street" v="Anthony Street"/><tag k="addr:housenumber" v="45 1/2"/><tag k="addr:postcode" v="78702"/></node><node id="-61" lat="30.25052" lon="-97.726156" changeset="false"><tag k="addr:street" v="Jesse E. Segovia Street"/><tag k="addr:housenumber" v="2002"/><tag k="addr:postcode" v="78702"/></node><node id="-62" lat="30.24988" lon="-97.72431" changeset="false"><tag k="addr:street" v="Jesse E. Segovia Street"/><tag k="addr:housenumber" v="2106"/><tag k="addr:postcode" v="78702"/></node><node id="-63" lat="30.250227" lon="-97.725276" changeset="false"><tag k="addr:street" v="Jesse E. Segovia Street"/><tag k="addr:housenumber" v="2014"/><tag k="addr:postcode" v="78702"/></node><node id="-64" lat="30.250304" lon="-97.721975" changeset="false"><tag k="addr:street" v="Riverview Street"/><tag k="addr:housenumber" v="2216"/><tag k="addr:postcode" v="78702"/></node><node id="-65" lat="30.251798" lon="-97.715931" changeset="false"><tag k="addr:street" v="Canterbury Street"/><tag k="addr:housenumber" v="2605"/><tag k="addr:postcode" v="78702"/></node><node id="-66" lat="30.252545" lon="-97.71815" changeset="false"><tag k="addr:street" v="Canterbury Street"/><tag k="addr:housenumber" v="2407"/><tag k="addr:postcode" v="78702"/></node><node id="-67" lat="30.250302" lon="-97.722103" changeset="false"><tag k="addr:street" v="Riverview Street"/><tag k="addr:housenumber" v="2214"/><tag k="addr:postcode" v="78702"/></node><node id="-68" lat="30.251212" lon="-97.722217" changeset="false"><tag k="addr:street" v="Haskell Street"/><tag k="addr:housenumber" v="2206"/><tag k="addr:postcode" v="78702"/></node><node id="-69" lat="30.250628" lon="-97.721655" changeset="false"><tag k="addr:street" v="Haskell Street"/><tag k="addr:housenumber" v="2219"/><tag k="addr:postcode" v="78702"/></node><node id="-70" lat="30.252254" lon="-97.72223" changeset="false"><tag k="addr:street" v="Holly Street"/><tag k="addr:housenumber" v="2200"/><tag k="addr:postcode" v="78702"/></node><node id="-71" lat="30.249847" lon="-97.722236" changeset="false"><tag k="addr:street" v="Riverview Street"/><tag k="addr:housenumber" v="2215"/><tag k="addr:postcode" v="78702"/></node><node id="-72" lat="30.250425" lon="-97.724159" changeset="false"><tag k="addr:street" v="Riverview Street"/><tag k="addr:housenumber" v="2105"/><tag k="addr:postcode" v="78702"/></node><node id="-73" lat="30.251756" lon="-97.717739" changeset="false"><tag k="addr:street" v="Pedernales Street"/><tag k="addr:housenumber" v="69"/><tag k="addr:postcode" v="78702"/></node><node id="-74" lat="30.250689" lon="-97.724725" changeset="false"><tag k="addr:street" v="Anthony Street"/><tag k="addr:housenumber" v="38 1/2"/><tag k="addr:postcode" v="78702"/></node><node id="-75" lat="30.25125" lon="-97.722326" changeset="false"><tag k="addr:street" v="Haskell Street"/><tag k="addr:housenumber" v="2204"/><tag k="addr:postcode" v="78702"/></node><node id="-76" lat="30.251221" lon="-97.722379" changeset="false"><tag k="addr:street" v="Haskell Street"/><tag k="addr:housenumber" v="2220"/><tag k="addr:postcode" v="78702"/></node></osm>