<?xml version="1.0" encoding="UTF-8"?><osm version="0.6" generator="github.com/aaronlidman/osm-and-geojson"><node id="-1" lat="30.414047" lon="-97.630192" changeset="false"><tag k="addr:street" v="Kodiak Lane"/><tag k="addr:housenumber" v="14310"/><tag k="addr:postcode" v="78660"/></node><node id="-2" lat="30.40658" lon="-97.633576" changeset="false"><tag k="addr:street" v="Long Meadow Drive"/><tag k="addr:housenumber" v="13800"/><tag k="addr:postcode" v="78660"/></node><node id="-3" lat="30.405937" lon="-97.635434" changeset="false"><tag k="addr:street" v="Crooked Creek Drive"/><tag k="addr:housenumber" v="13700"/><tag k="addr:postcode" v="78660"/></node><node id="-4" lat="30.405464" lon="-97.63439" changeset="false"><tag k="addr:street" v="Long Meadow Drive"/><tag k="addr:housenumber" v="13616"/><tag k="addr:postcode" v="78660"/></node><node id="-5" lat="30.404941" lon="-97.634631" changeset="false"><tag k="addr:street" v="Long Meadow Drive"/><tag k="addr:housenumber" v="13610"/><tag k="addr:postcode" v="78660"/></node><node id="-6" lat="30.408583" lon="-97.626946" changeset="false"><tag k="addr:street" v="Millhouse Drive"/><tag k="addr:housenumber" v="2105"/><tag k="addr:postcode" v="78660"/></node><node id="-7" lat="30.416007" lon="-97.630522" changeset="false"><tag k="addr:street" v="Peridot Road"/><tag k="addr:housenumber" v="1602"/><tag k="addr:postcode" v="78660"/></node><node id="-8" lat="30.405288" lon="-97.635602" changeset="false"><tag k="addr:street" v="Crooked Creek Drive"/><tag k="addr:housenumber" v="13602"/><tag k="addr:postcode" v="78660"/></node><node id="-9" lat="30.412221" lon="-97.63226" changeset="false"><tag k="addr:street" v="Sleepy Hollow Drive"/><tag k="addr:housenumber" v="14110"/><tag k="addr:postcode" v="78660"/></node><node id="-10" lat="30.412085" lon="-97.631855" changeset="false"><tag k="addr:street" v="Nightview Drive"/><tag k="addr:housenumber" v="1701"/><tag k="addr:postcode" v="78660"/></node><node id="-11" lat="30.414345" lon="-97.62682" changeset="false"><tag k="addr:street" v="Celestial Lane"/><tag k="addr:housenumber" v="14412"/><tag k="addr:postcode" v="78660"/></node><node id="-12" lat="30.414097" lon="-97.629422" changeset="false"><tag k="addr:street" v="Kodiak Lane"/><tag k="addr:housenumber" v="14401"/><tag k="addr:postcode" v="78660"/></node><node id="-13" lat="30.422013" lon="-97.627611" changeset="false"><tag k="addr:street" v="Rendova Lane"/><tag k="addr:housenumber" v="1601"/><tag k="addr:postcode" v="78660"/></node><node id="-14" lat="30.408232" lon="-97.634875" changeset="false"><tag k="addr:street" v="Dewberry Drive"/><tag k="addr:housenumber" v="13810"/><tag k="addr:postcode" v="78660"/></node><node id="-15" lat="30.416971" lon="-97.630468" changeset="false"><tag k="addr:street" v="Serenity Drive"/><tag k="addr:housenumber" v="1611"/><tag k="addr:postcode" v="78660"/></node><node id="-16" lat="30.407354" lon="-97.629979" changeset="false"><tag k="addr:street" v="Tophill Circle"/><tag k="addr:housenumber" v="13909"/><tag k="addr:postcode" v="78660"/></node><node id="-17" lat="30.419548" lon="-97.624197" changeset="false"><tag k="addr:street" v="Buttercup Road"/><tag k="addr:housenumber" v="1716"/><tag k="addr:postcode" v="78660"/></node><node id="-18" lat="30.40994" lon="-97.627295" changeset="false"><tag k="addr:street" v="Denny Lane"/><tag k="addr:housenumber" v="14017"/><tag k="addr:postcode" v="78660"/></node><node id="-19" lat="30.407864" lon="-97.627271" changeset="false"><tag k="addr:street" v="Hymill Drive"/><tag k="addr:housenumber" v="14022"/><tag k="addr:postcode" v="78660"/></node><node id="-20" lat="30.407839" lon="-97.630953" changeset="false"><tag k="addr:street" v="Lazyridge Drive"/><tag k="addr:housenumber" v="13817"/><tag k="addr:postcode" v="78660"/></node><node id="-21" lat="30.40778" lon="-97.633879" changeset="false"><tag k="addr:street" v="Dewberry Drive"/><tag k="addr:housenumber" v="13805"/><tag k="addr:postcode" v="78660"/></node><node id="-22" lat="30.410324" lon="-97.632064" changeset="false"><tag k="addr:street" v="Cypress Drive"/><tag k="addr:housenumber" v="14006"/><tag k="addr:postcode" v="78660"/></node><node id="-23" lat="30.414394" lon="-97.627848" changeset="false"><tag k="addr:street" v="Zircon Cove"/><tag k="addr:housenumber" v="1801"/><tag k="addr:postcode" v="78660"/></node><node id="-24" lat="30.405623" lon="-97.634903" changeset="false"><tag k="addr:street" v="Crooked Creek Drive"/><tag k="addr:housenumber" v="13609"/><tag k="addr:postcode" v="78660"/></node><node id="-25" lat="30.412622" lon="-97.625581" changeset="false"><tag k="addr:street" v="Citron Cove"/><tag k="addr:housenumber" v="14401"/><tag k="addr:postcode" v="78660"/></node><node id="-26" lat="30.420128" lon="-97.625712" changeset="false"><tag k="addr:street" v="Zanzibar Lane"/><tag k="addr:housenumber" v="14901"/><tag k="addr:postcode" v="78660"/></node><node id="-27" lat="30.414009" lon="-97.631256" changeset="false"><tag k="addr:street" v="Spinel Road"/><tag k="addr:housenumber" v="1602"/><tag k="addr:postcode" v="78660"/></node><node id="-28" lat="30.419716" lon="-97.622128" changeset="false"><tag k="addr:street" v="Rendova Lane"/><tag k="addr:housenumber" v="1901"/><tag k="addr:postcode" v="78660"/></node><node id="-29" lat="30.418959" lon="-97.624565" changeset="false"><tag k="addr:street" v="Buttercup Road"/><tag k="addr:housenumber" v="1717"/><tag k="addr:postcode" v="78660"/></node><node id="-30" lat="30.409837" lon="-97.631129" changeset="false"><tag k="addr:street" v="Lazyridge Drive"/><tag k="addr:housenumber" v="14002"/><tag k="addr:postcode" v="78660"/></node><node id="-31" lat="30.417788" lon="-97.625775" changeset="false"><tag k="addr:street" v="Azores Drive"/><tag k="addr:housenumber" v="1712"/><tag k="addr:postcode" v="78660"/></node><node id="-32" lat="30.405384" lon="-97.633232" changeset="false"><tag k="addr:street" v="Lazyridge Drive"/><tag k="addr:housenumber" v="13700"/><tag k="addr:postcode" v="78660"/></node><node id="-33" lat="30.41293" lon="-97.62901" changeset="false"><tag k="addr:street" v="Spinel Road"/><tag k="addr:housenumber" v="1714"/><tag k="addr:postcode" v="78660"/></node><node id="-34" lat="30.410939" lon="-97.632259" changeset="false"><tag k="addr:street" v="Sleepy Hollow Drive"/><tag k="addr:housenumber" v="14103"/><tag k="addr:postcode" v="78660"/></node><node id="-35" lat="30.410358" lon="-97.627655" changeset="false"><tag k="addr:street" v="Denny Lane"/><tag k="addr:housenumber" v="14016"/><tag k="addr:postcode" v="78660"/></node><node id="-36" lat="30.40841" lon="-97.629969" changeset="false"><tag k="addr:street" v="Millhouse Drive"/><tag k="addr:housenumber" v="1807"/><tag k="addr:postcode" v="78660"/></node><node id="-37" lat="30.418761" lon="-97.623379" changeset="false"><tag k="addr:street" v="Chicadee Circle"/><tag k="addr:housenumber" v="14807"/><tag k="addr:postcode" v="78660"/></node><node id="-38" lat="30.408913" lon="-97.635085" changeset="false"><tag k="addr:street" v="Dessau Road"/><tag k="addr:housenumber" v="13841"/><tag k="addr:postcode" v="78660"/></node><node id="-39" lat="30.409469" lon="-97.626322" changeset="false"><tag k="addr:street" v="Millhouse Drive"/><tag k="addr:housenumber" v="2113"/><tag k="addr:postcode" v="78660"/></node><node id="-40" lat="30.406644" lon="-97.634787" changeset="false"><tag k="addr:street" v="Crystal Bend Drive"/><tag k="addr:housenumber" v="1701"/><tag k="addr:postcode" v="78660"/></node><node id="-41" lat="30.408429" lon="-97.629053" changeset="false"><tag k="addr:street" v="Millhouse Drive"/><tag k="addr:housenumber" v="1905"/><tag k="addr:postcode" v="78660"/></node><node id="-42" lat="30.408366" lon="-97.634279" changeset="false"><tag k="addr:street" v="Dewberry Drive"/><tag k="addr:housenumber" v="13809"/><tag k="addr:postcode" v="78660"/></node><node id="-43" lat="30.411957" lon="-97.632915" changeset="false"><tag k="addr:street" v="Dewberry Drive"/><tag k="addr:housenumber" v="14107"/><tag k="addr:postcode" v="78660"/></node><node id="-44" lat="30.408097" lon="-97.630845" changeset="false"><tag k="addr:street" v="Lazyridge Drive"/><tag k="addr:housenumber" v="13819"/><tag k="addr:postcode" v="78660"/></node><node id="-45" lat="30.405732" lon="-97.634184" changeset="false"><tag k="addr:street" v="Long Meadow Drive"/><tag k="addr:housenumber" v="13702"/><tag k="addr:postcode" v="78660"/></node><node id="-46" lat="30.416139" lon="-97.626721" changeset="false"><tag k="addr:street" v="Magic Hill Drive"/><tag k="addr:housenumber" v="1709"/><tag k="addr:postcode" v="78660"/></node><node id="-47" lat="30.415393" lon="-97.629307" changeset="false"><tag k="addr:street" v="Peridot Road"/><tag k="addr:housenumber" v="1614"/><tag k="addr:postcode" v="78660"/></node><node id="-48" lat="30.421888" lon="-97.627284" changeset="false"><tag k="addr:street" v="Rendova Lane"/><tag k="addr:housenumber" v="1605"/><tag k="addr:postcode" v="78660"/></node><node id="-49" lat="30.418343" lon="-97.625325" changeset="false"><tag k="addr:street" v="Samoa Court"/><tag k="addr:housenumber" v="1715"/><tag k="addr:postcode" v="78660"/></node><node id="-50" lat="30.414352" lon="-97.625852" changeset="false"><tag k="addr:street" v="Serenity Drive"/><tag k="addr:housenumber" v="1903"/><tag k="addr:postcode" v="78660"/></node><node id="-51" lat="30.40972" lon="-97.634069" changeset="false"><tag k="addr:street" v="Dewberry Drive"/><tag k="addr:housenumber" v="13909"/><tag k="addr:postcode" v="78660"/></node><node id="-52" lat="30.409986" lon="-97.632833" changeset="false"><tag k="addr:street" v="Sleepy Hollow Drive"/><tag k="addr:housenumber" v="14003"/><tag k="addr:postcode" v="78660"/></node><node id="-53" lat="30.407915" lon="-97.62769" changeset="false"><tag k="addr:street" v="Hymill Drive"/><tag k="addr:housenumber" v="14008"/><tag k="addr:postcode" v="78660"/></node><node id="-54" lat="30.417694" lon="-97.629919" changeset="false"><tag k="addr:street" v="Serenity Drive"/><tag k="addr:housenumber" v="1605"/><tag k="addr:postcode" v="78660"/></node><node id="-55" lat="30.418848" lon="-97.6241" changeset="false"><tag k="addr:street" v="Buttercup Road"/><tag k="addr:housenumber" v="1801"/><tag k="addr:postcode" v="78660"/></node><node id="-56" lat="30.413883" lon="-97.630999" changeset="false"><tag k="addr:street" v="Spinel Road"/><tag k="addr:housenumber" v="1604"/><tag k="addr:postcode" v="78660"/></node><node id="-57" lat="30.406099" lon="-97.632833" changeset="false"><tag k="addr:street" v="Lazyridge Drive"/><tag k="addr:housenumber" v="13708"/><tag k="addr:postcode" v="78660"/></node><node id="-58" lat="30.408001" lon="-97.627294" changeset="false"><tag k="addr:street" v="Hymill Drive"/><tag k="addr:housenumber" v="14018"/><tag k="addr:postcode" v="78660"/></node><node id="-59" lat="30.404111" lon="-97.634182" changeset="false"><tag k="addr:street" v="Lazyridge Drive"/><tag k="addr:housenumber" v="13516"/><tag k="addr:postcode" v="78660"/></node><node id="-60" lat="30.406744" lon="-97.630561" changeset="false"><tag k="addr:street" v="Tophill Circle"/><tag k="addr:housenumber" v="13901"/><tag k="addr:postcode" v="78660"/></node><node id="-61" lat="30.408803" lon="-97.631934" changeset="false"><tag k="addr:street" v="Millhouse Drive"/><tag k="addr:housenumber" v="1724"/><tag k="addr:postcode" v="78660"/></node><node id="-62" lat="30.408402" lon="-97.630272" changeset="false"><tag k="addr:street" v="Millhouse Drive"/><tag k="addr:housenumber" v="1805"/><tag k="addr:postcode" v="78660"/></node><node id="-63" lat="30.409966" lon="-97.62813" changeset="false"><tag k="addr:street" v="Denny Lane"/><tag k="addr:housenumber" v="14010"/><tag k="addr:postcode" v="78660"/></node><node id="-64" lat="30.409235" lon="-97.626475" changeset="false"><tag k="addr:street" v="Millhouse Drive"/><tag k="addr:housenumber" v="2111"/><tag k="addr:postcode" v="78660"/></node><node id="-65" lat="30.404735" lon="-97.634507" changeset="false"><tag k="addr:street" v="Long Meadow Drive"/><tag k="addr:housenumber" v="13608"/><tag k="addr:postcode" v="78660"/></node><node id="-66" lat="30.410664" lon="-97.625663" changeset="false"><tag k="addr:street" v="Immanuel Road"/><tag k="addr:housenumber" v="14214"/><tag k="addr:postcode" v="78660"/></node><node id="-67" lat="30.420454" lon="-97.628506" changeset="false"><tag k="addr:street" v="Dessau Road"/><tag k="addr:housenumber" v="14815"/><tag k="addr:postcode" v="78660"/></node><node id="-68" lat="30.420176" lon="-97.623719" changeset="false"><tag k="addr:street" v="Rendova Lane"/><tag k="addr:housenumber" v="1717"/><tag k="addr:postcode" v="78660"/></node><node id="-69" lat="30.419134" lon="-97.621" changeset="false"><tag k="addr:street" v="Rendova Lane"/><tag k="addr:housenumber" v="2001"/><tag k="addr:postcode" v="78660"/></node><node id="-70" lat="30.405083" lon="-97.633944" changeset="false"><tag k="addr:street" v="Long Meadow Drive"/><tag k="addr:housenumber" v="13613"/><tag k="addr:postcode" v="78660"/></node><node id="-71" lat="30.420551" lon="-97.624402" changeset="false"><tag k="addr:street" v="Rendova Lane"/><tag k="addr:housenumber" v="1709"/><tag k="addr:postcode" v="78660"/></node><node id="-72" lat="30.406619" lon="-97.632464" changeset="false"><tag k="addr:street" v="Lazyridge Drive"/><tag k="addr:housenumber" v="13800"/><tag k="addr:postcode" v="78660"/></node><node id="-73" lat="30.414142" lon="-97.63233" changeset="false"><tag k="addr:street" v="Dewberry Drive"/><tag k="addr:housenumber" v="14220"/><tag k="addr:postcode" v="78660"/></node><node id="-74" lat="30.413728" lon="-97.630705" changeset="false"><tag k="addr:street" v="Spinel Road"/><tag k="addr:housenumber" v="1606"/><tag k="addr:postcode" v="78660"/></node><node id="-75" lat="30.413326" lon="-97.626838" changeset="false"><tag k="addr:street" v="Topaz Road"/><tag k="addr:housenumber" v="1900"/><tag k="addr:postcode" v="78660"/></node><node id="-76" lat="30.415672" lon="-97.629903" changeset="false"><tag k="addr:street" v="Peridot Road"/><tag k="addr:housenumber" v="1608"/><tag k="addr:postcode" v="78660"/></node><node id="-77" lat="30.403677" lon="-97.634304" changeset="false"><tag k="addr:street" v="Lazyridge Drive"/><tag k="addr:housenumber" v="13510"/><tag k="addr:postcode" v="78660"/></node><node id="-78" lat="30.407245" lon="-97.631586" changeset="false"><tag k="addr:street" v="Lazyridge Drive"/><tag k="addr:housenumber" v="13807 1/2"/><tag k="addr:postcode" v="78660"/></node><node id="-79" lat="30.411485" lon="-97.633242" changeset="false"><tag k="addr:street" v="Dewberry Drive"/><tag k="addr:housenumber" v="14103"/><tag k="addr:postcode" v="78660"/></node><node id="-80" lat="30.411191" lon="-97.6321" changeset="false"><tag k="addr:street" v="Sleepy Hollow Drive"/><tag k="addr:housenumber" v="14105"/><tag k="addr:postcode" v="78660"/></node><node id="-81" lat="30.409457" lon="-97.634101" changeset="false"><tag k="addr:street" v="Dewberry Drive"/><tag k="addr:housenumber" v="13907"/><tag k="addr:postcode" v="78660"/></node><node id="-82" lat="30.407332" lon="-97.634307" changeset="false"><tag k="addr:street" v="Dewberry Drive"/><tag k="addr:housenumber" v="13800"/><tag k="addr:postcode" v="78660"/></node><node id="-83" lat="30.408483" lon="-97.628079" changeset="false"><tag k="addr:street" v="Millhouse Drive"/><tag k="addr:housenumber" v="2003"/><tag k="addr:postcode" v="78660"/></node><node id="-84" lat="30.407367" lon="-97.633099" changeset="false"><tag k="addr:street" v="Windmill Circle"/><tag k="addr:housenumber" v="13800"/><tag k="addr:postcode" v="78660"/></node><node id="-85" lat="30.40514" lon="-97.634577" changeset="false"><tag k="addr:street" v="Long Meadow Drive"/><tag k="addr:housenumber" v="13612"/><tag k="addr:postcode" v="78660"/></node><node id="-86" lat="30.42148" lon="-97.626345" changeset="false"><tag k="addr:street" v="Rendova Lane"/><tag k="addr:housenumber" v="1617"/><tag k="addr:postcode" v="78660"/></node><node id="-87" lat="30.420038" lon="-97.623416" changeset="false"><tag k="addr:street" v="Rendova Lane"/><tag k="addr:housenumber" v="1801"/><tag k="addr:postcode" v="78660"/></node><node id="-88" lat="30.406594" lon="-97.635286" changeset="false"><tag k="addr:street" v="Crooked Creek Drive"/><tag k="addr:housenumber" v="13708"/><tag k="addr:postcode" v="78660"/></node><node id="-89" lat="30.418684" lon="-97.627947" changeset="false"><tag k="addr:street" v="Azores Drive"/><tag k="addr:housenumber" v="1610"/><tag k="addr:postcode" v="78660"/></node><node id="-90" lat="30.405233" lon="-97.633345" changeset="false"><tag k="addr:street" v="Lazyridge Drive"/><tag k="addr:housenumber" v="13612"/><tag k="addr:postcode" v="78660"/></node><node id="-91" lat="30.41531" lon="-97.626173" changeset="false"><tag k="addr:street" v="Celestial Lane"/><tag k="addr:housenumber" v="14506"/><tag k="addr:postcode" v="78660"/></node><node id="-92" lat="30.407462" lon="-97.634482" changeset="false"><tag k="addr:street" v="Dewberry Drive"/><tag k="addr:housenumber" v="13802"/><tag k="addr:postcode" v="78660"/></node><node id="-93" lat="30.407805" lon="-97.629713" changeset="false"><tag k="addr:street" v="Tophill Circle"/><tag k="addr:housenumber" v="13913"/><tag k="addr:postcode" v="78660"/></node><node id="-94" lat="30.411664" lon="-97.631804" changeset="false"><tag k="addr:street" v="Sleepy Hollow Drive"/><tag k="addr:housenumber" v="14109"/><tag k="addr:postcode" v="78660"/></node><node id="-95" lat="30.404853" lon="-97.635264" changeset="false"><tag k="addr:street" v="Crooked Creek Drive"/><tag k="addr:housenumber" v="13519"/><tag k="addr:postcode" v="78660"/></node><node id="-96" lat="30.4147" lon="-97.626591" changeset="false"><tag k="addr:street" v="Serenity Drive"/><tag k="addr:housenumber" v="1803"/><tag k="addr:postcode" v="78660"/></node><node id="-97" lat="30.419819" lon="-97.625307" changeset="false"><tag k="addr:street" v="Buttercup Road"/><tag k="addr:housenumber" v="1704"/><tag k="addr:postcode" v="78660"/></node><node id="-98" lat="30.409144" lon="-97.632988" changeset="false"><tag k="addr:street" v="Sleepy Hollow Drive"/><tag k="addr:housenumber" v="13905"/><tag k="addr:postcode" v="78660"/></node><node id="-99" lat="30.417533" lon="-97.625538" changeset="false"><tag k="addr:street" v="Azores Drive"/><tag k="addr:housenumber" v="1714"/><tag k="addr:postcode" v="78660"/></node><node id="-100" lat="30.420321" lon="-97.624073" changeset="false"><tag k="addr:street" v="Rendova Lane"/><tag k="addr:housenumber" v="1713"/><tag k="addr:postcode" v="78660"/></node><node id="-101" lat="30.409937" lon="-97.628812" changeset="false"><tag k="addr:street" v="Denny Lane"/><tag k="addr:housenumber" v="14004"/><tag k="addr:postcode" v="78660"/></node><node id="-102" lat="30.407403" lon="-97.63126" changeset="false"><tag k="addr:street" v="Lazyridge Drive"/><tag k="addr:housenumber" v="13809"/><tag k="addr:postcode" v="78660"/></node><node id="-103" lat="30.410833" lon="-97.633092" changeset="false"><tag k="addr:street" v="Sleepy Hollow Drive"/><tag k="addr:housenumber" v="14008"/><tag k="addr:postcode" v="78660"/></node><node id="-104" lat="30.4105" lon="-97.633768" changeset="false"><tag k="addr:street" v="Dewberry Drive"/><tag k="addr:housenumber" v="14005"/><tag k="addr:postcode" v="78660"/></node><node id="-105" lat="30.418281" lon="-97.629335" changeset="false"><tag k="addr:street" v="Magic Hill Drive"/><tag k="addr:housenumber" v="1600"/><tag k="addr:postcode" v="78660"/></node><node id="-106" lat="30.421636" lon="-97.62669" changeset="false"><tag k="addr:street" v="Rendova Lane"/><tag k="addr:housenumber" v="1613"/><tag k="addr:postcode" v="78660"/></node><node id="-107" lat="30.409324" lon="-97.632482" changeset="false"><tag k="addr:street" v="Cypress Drive"/><tag k="addr:housenumber" v="13904"/><tag k="addr:postcode" v="78660"/></node><node id="-108" lat="30.409218" lon="-97.634147" changeset="false"><tag k="addr:street" v="Dewberry Drive"/><tag k="addr:housenumber" v="13905"/><tag k="addr:postcode" v="78660"/></node><node id="-109" lat="30.413217" lon="-97.627607" changeset="false"><tag k="addr:street" v="Peridot Road"/><tag k="addr:housenumber" v="1800"/><tag k="addr:postcode" v="78660"/></node><node id="-110" lat="30.405303" lon="-97.634472" changeset="false"><tag k="addr:street" v="Long Meadow Drive"/><tag k="addr:housenumber" v="13614"/><tag k="addr:postcode" v="78660"/></node><node id="-111" lat="30.408478" lon="-97.627452" changeset="false"><tag k="addr:street" v="Millhouse Drive"/><tag k="addr:housenumber" v="2101"/><tag k="addr:postcode" v="78660"/></node><node id="-112" lat="30.411001" lon="-97.6335" changeset="false"><tag k="addr:street" v="Dewberry Drive"/><tag k="addr:housenumber" v="14013"/><tag k="addr:postcode" v="78660"/></node><node id="-113" lat="30.418125" lon="-97.629721" changeset="false"><tag k="addr:street" v="Serenity Drive"/><tag k="addr:housenumber" v="1601"/><tag k="addr:postcode" v="78660"/></node><node id="-114" lat="30.41374" lon="-97.626865" changeset="false"><tag k="addr:street" v="Celestial Lane"/><tag k="addr:housenumber" v="14408"/><tag k="addr:postcode" v="78660"/></node><node id="-115" lat="30.412174" lon="-97.632771" changeset="false"><tag k="addr:street" v="Dewberry Drive"/><tag k="addr:housenumber" v="14109"/><tag k="addr:postcode" v="78660"/></node><node id="-116" lat="30.406914" lon="-97.630241" changeset="false"><tag k="addr:street" v="Tophill Circle"/><tag k="addr:housenumber" v="13903"/><tag k="addr:postcode" v="78660"/></node><node id="-117" lat="30.411835" lon="-97.629608" changeset="false"><tag k="addr:street" v="Nightview Drive"/><tag k="addr:housenumber" v="1716"/><tag k="addr:postcode" v="78660"/></node><node id="-118" lat="30.411377" lon="-97.625361" changeset="false"><tag k="addr:street" v="Immanuel Road"/><tag k="addr:housenumber" v="14304"/><tag k="addr:postcode" v="78660"/></node><node id="-119" lat="30.408473" lon="-97.627771" changeset="false"><tag k="addr:street" v="Millhouse Drive"/><tag k="addr:housenumber" v="2005"/><tag k="addr:postcode" v="78660"/></node><node id="-120" lat="30.420606" lon="-97.625427" changeset="false"><tag k="addr:street" v="Zanzibar Lane"/><tag k="addr:housenumber" v="14905"/><tag k="addr:postcode" v="78660"/></node><node id="-121" lat="30.413524" lon="-97.629764" changeset="false"><tag k="addr:street" v="Kodiak Lane"/><tag k="addr:housenumber" v="14305"/><tag k="addr:postcode" v="78660"/></node><node id="-122" lat="30.405129" lon="-97.63563" changeset="false"><tag k="addr:street" v="Crooked Creek Drive"/><tag k="addr:housenumber" v="13600"/><tag k="addr:postcode" v="78660"/></node><node id="-123" lat="30.406291" lon="-97.634772" changeset="false"><tag k="addr:street" v="Crooked Creek Drive"/><tag k="addr:housenumber" v="13707"/><tag k="addr:postcode" v="78660"/></node><node id="-124" lat="30.405754" lon="-97.633044" changeset="false"><tag k="addr:street" v="Lazyridge Drive"/><tag k="addr:housenumber" v="13704"/><tag k="addr:postcode" v="78660"/></node><node id="-125" lat="30.409429" lon="-97.632932" changeset="false"><tag k="addr:street" v="Sleepy Hollow Drive"/><tag k="addr:housenumber" v="13907"/><tag k="addr:postcode" v="78660"/></node><node id="-126" lat="30.40455" lon="-97.634387" changeset="false"><tag k="addr:street" v="Long Meadow Drive"/><tag k="addr:housenumber" v="13606"/><tag k="addr:postcode" v="78660"/></node><node id="-127" lat="30.407143" lon="-97.635378" changeset="false"><tag k="addr:street" v="Crystal Bend Drive"/><tag k="addr:housenumber" v="1618"/><tag k="addr:postcode" v="78660"/></node><node id="-128" lat="30.410466" lon="-97.632515" changeset="false"><tag k="addr:street" v="Sleepy Hollow Drive"/><tag k="addr:housenumber" v="14011"/><tag k="addr:postcode" v="78660"/></node><node id="-129" lat="30.408402" lon="-97.629327" changeset="false"><tag k="addr:street" v="Millhouse Drive"/><tag k="addr:housenumber" v="1903"/><tag k="addr:postcode" v="78660"/></node><node id="-130" lat="30.411752" lon="-97.631185" changeset="false"><tag k="addr:street" v="Cypress Drive"/><tag k="addr:housenumber" v="14108"/><tag k="addr:postcode" v="78660"/></node><node id="-131" lat="30.410792" lon="-97.630523" changeset="false"><tag k="addr:street" v="Lazyridge Drive"/><tag k="addr:housenumber" v="14104"/><tag k="addr:postcode" v="78660"/></node><node id="-132" lat="30.409963" lon="-97.633989" changeset="false"><tag k="addr:street" v="Dewberry Drive"/><tag k="addr:housenumber" v="13911"/><tag k="addr:postcode" v="78660"/></node><node id="-133" lat="30.414491" lon="-97.632061" changeset="false"><tag k="addr:street" v="Dewberry Drive"/><tag k="addr:housenumber" v="14304"/><tag k="addr:postcode" v="78660"/></node><node id="-134" lat="30.414341" lon="-97.630169" changeset="false"><tag k="addr:street" v="Kodiak Lane"/><tag k="addr:housenumber" v="14314"/><tag k="addr:postcode" v="78660"/></node><node id="-135" lat="30.411083" lon="-97.632967" changeset="false"><tag k="addr:street" v="Sleepy Hollow Drive"/><tag k="addr:housenumber" v="14100"/><tag k="addr:postcode" v="78660"/></node><node id="-136" lat="30.404986" lon="-97.635079" changeset="false"><tag k="addr:street" v="Crooked Creek Drive"/><tag k="addr:housenumber" v="13601"/><tag k="addr:postcode" v="78660"/></node><node id="-137" lat="30.407951" lon="-97.627124" changeset="false"><tag k="addr:street" v="Hymill Drive"/><tag k="addr:housenumber" v="14020"/><tag k="addr:postcode" v="78660"/></node><node id="-138" lat="30.414147" lon="-97.63155" changeset="false"><tag k="addr:street" v="Spinel Road"/><tag k="addr:housenumber" v="1600"/><tag k="addr:postcode" v="78660"/></node><node id="-139" lat="30.414875" lon="-97.628482" changeset="false"><tag k="addr:street" v="Peridot Road"/><tag k="addr:housenumber" v="1704"/><tag k="addr:postcode" v="78660"/></node><node id="-140" lat="30.420914" lon="-97.626109" changeset="false"><tag k="addr:street" v="Zanzibar Lane"/><tag k="addr:housenumber" v="14904"/><tag k="addr:postcode" v="78660"/></node><node id="-141" lat="30.416144" lon="-97.630888" changeset="false"><tag k="addr:street" v="Peridot Road"/><tag k="addr:housenumber" v="1600"/><tag k="addr:postcode" v="78660"/></node><node id="-142" lat="30.406764" lon="-97.634122" changeset="false"><tag k="addr:street" v="Crystal Bend Drive"/><tag k="addr:housenumber" v="1705"/><tag k="addr:postcode" v="78660"/></node><node id="-143" lat="30.410699" lon="-97.632365" changeset="false"><tag k="addr:street" v="Sleepy Hollow Drive"/><tag k="addr:housenumber" v="14101"/><tag k="addr:postcode" v="78660"/></node><node id="-144" lat="30.417233" lon="-97.625794" changeset="false"><tag k="addr:street" v="Azores Drive"/><tag k="addr:housenumber" v="1715"/><tag k="addr:postcode" v="78660"/></node><node id="-145" lat="30.408967" lon="-97.634225" changeset="false"><tag k="addr:street" v="Dewberry Drive"/><tag k="addr:housenumber" v="13903"/><tag k="addr:postcode" v="78660"/></node><node id="-146" lat="30.415206" lon="-97.628908" changeset="false"><tag k="addr:street" v="Kodiak Lane"/><tag k="addr:housenumber" v="14415"/><tag k="addr:postcode" v="78660"/></node><node id="-147" lat="30.414283" lon="-97.628848" changeset="false"><tag k="addr:street" v="Peridot Road"/><tag k="addr:housenumber" v="1705"/><tag k="addr:postcode" v="78660"/></node><node id="-148" lat="30.415742" lon="-97.625913" changeset="false"><tag k="addr:street" v="Celestial Lane"/><tag k="addr:housenumber" v="14600"/><tag k="addr:postcode" v="78660"/></node><node id="-149" lat="30.404904" lon="-97.633567" changeset="false"><tag k="addr:street" v="Lazyridge Drive"/><tag k="addr:housenumber" v="13608"/><tag k="addr:postcode" v="78660"/></node><node id="-150" lat="30.417344" lon="-97.630128" changeset="false"><tag k="addr:street" v="Serenity Drive"/><tag k="addr:housenumber" v="1609"/><tag k="addr:postcode" v="78660"/></node><node id="-151" lat="30.415584" lon="-97.629639" changeset="false"><tag k="addr:street" v="Peridot Road"/><tag k="addr:housenumber" v="1612"/><tag k="addr:postcode" v="78660"/></node><node id="-152" lat="30.40904" lon="-97.631943" changeset="false"><tag k="addr:street" v="Cypress Drive"/><tag k="addr:housenumber" v="13903"/><tag k="addr:postcode" v="78660"/></node><node id="-153" lat="30.404629" lon="-97.635117" changeset="false"><tag k="addr:street" v="Crooked Creek Drive"/><tag k="addr:housenumber" v="13515"/><tag k="addr:postcode" v="78660"/></node><node id="-154" lat="30.413792" lon="-97.629583" changeset="false"><tag k="addr:street" v="Kodiak Lane"/><tag k="addr:housenumber" v="14309"/><tag k="addr:postcode" v="78660"/></node><node id="-155" lat="30.409954" lon="-97.62848" changeset="false"><tag k="addr:street" v="Denny Lane"/><tag k="addr:housenumber" v="14008"/><tag k="addr:postcode" v="78660"/></node><node id="-156" lat="30.407221" lon="-97.634812" changeset="false"><tag k="addr:street" v="Crystal Bend Drive"/><tag k="addr:housenumber" v="1702"/><tag k="addr:postcode" v="78660"/></node><node id="-157" lat="30.411264" lon="-97.633341" changeset="false"><tag k="addr:street" v="Dewberry Drive"/><tag k="addr:housenumber" v="14101"/><tag k="addr:postcode" v="78660"/></node><node id="-158" lat="30.412003" lon="-97.632376" changeset="false"><tag k="addr:street" v="Sleepy Hollow Drive"/><tag k="addr:housenumber" v="14108"/><tag k="addr:postcode" v="78660"/></node><node id="-159" lat="30.41173" lon="-97.629347" changeset="false"><tag k="addr:street" v="Nightview Drive"/><tag k="addr:housenumber" v="1800"/><tag k="addr:postcode" v="78660"/></node><node id="-160" lat="30.410751" lon="-97.633642" changeset="false"><tag k="addr:street" v="Dewberry Drive"/><tag k="addr:housenumber" v="14009"/><tag k="addr:postcode" v="78660"/></node><node id="-161" lat="30.409695" lon="-97.632892" changeset="false"><tag k="addr:street" v="Sleepy Hollow Drive"/><tag k="addr:housenumber" v="14001"/><tag k="addr:postcode" v="78660"/></node><node id="-162" lat="30.410241" lon="-97.6327" changeset="false"><tag k="addr:street" v="Sleepy Hollow Drive"/><tag k="addr:housenumber" v="14007"/><tag k="addr:postcode" v="78660"/></node><node id="-163" lat="30.411742" lon="-97.624737" changeset="false"><tag k="addr:street" v="Immanuel Road"/><tag k="addr:housenumber" v="14406"/><tag k="addr:postcode" v="78660"/></node><node id="-164" lat="30.407326" lon="-97.634398" changeset="false"><tag k="addr:street" v="Crystal Bend Drive"/><tag k="addr:housenumber" v="1704"/><tag k="addr:postcode" v="78660"/></node><node id="-165" lat="30.408062" lon="-97.628596" changeset="false"><tag k="addr:street" v="Hymill Drive"/><tag k="addr:housenumber" v="14004"/><tag k="addr:postcode" v="78660"/></node><node id="-166" lat="30.408038" lon="-97.628735" changeset="false"><tag k="addr:street" v="Hymill Drive"/><tag k="addr:housenumber" v="14002"/><tag k="addr:postcode" v="78660"/></node><node id="-167" lat="30.414722" lon="-97.6297" changeset="false"><tag k="addr:street" v="Peridot Road"/><tag k="addr:housenumber" v="1611"/><tag k="addr:postcode" v="78660"/></node><node id="-168" lat="30.414782" lon="-97.629602" changeset="false"><tag k="addr:street" v="Kodiak Lane"/><tag k="addr:housenumber" v="14400"/><tag k="addr:postcode" v="78660"/></node></osm>