<?xml version="1.0" encoding="UTF-8"?><osm version="0.6" generator="github.com/aaronlidman/osm-and-geojson"><node id="-1" lat="30.436177" lon="-97.763302" changeset="false"><tag k="addr:street" v="Jekel Circle"/><tag k="addr:housenumber" v="12211"/></node><node id="-2" lat="30.435917" lon="-97.766955" changeset="false"><tag k="addr:street" v="Mc Neil Drive"/><tag k="addr:housenumber" v="7308"/></node><node id="-3" lat="30.433046" lon="-97.76434" changeset="false"><tag k="addr:street" v="Jekel Circle"/><tag k="addr:housenumber" v="12115"/></node><node id="-4" lat="30.437134" lon="-97.758711" changeset="false"><tag k="addr:street" v="Technology Boulevard"/><tag k="addr:housenumber" v="12406"/></node><node id="-5" lat="30.435362" lon="-97.764418" changeset="false"><tag k="addr:street" v="Pecan Street"/><tag k="addr:housenumber" v="12204"/></node><node id="-6" lat="30.434678" lon="-97.768947" changeset="false"><tag k="addr:street" v="Mc Neil Drive"/><tag k="addr:housenumber" v="7406"/></node><node id="-7" lat="30.435792" lon="-97.763579" changeset="false"><tag k="addr:street" v="Jekel Circle"/><tag k="addr:housenumber" v="12208"/></node><node id="-8" lat="30.434452" lon="-97.76875" changeset="false"><tag k="addr:street" v="Mc Neil Drive"/><tag k="addr:housenumber" v="7401"/></node><node id="-9" lat="30.444343" lon="-97.757656" changeset="false"><tag k="addr:street" v="Potters Trail"/><tag k="addr:housenumber" v="7314"/></node><node id="-10" lat="30.441047" lon="-97.762551" changeset="false"><tag k="addr:street" v="Sir Christophers Cove"/><tag k="addr:housenumber" v="12501"/></node><node id="-11" lat="30.440142" lon="-97.762244" changeset="false"><tag k="addr:street" v="Lobelia Drive"/><tag k="addr:housenumber" v="7502"/></node><node id="-12" lat="30.441347" lon="-97.763508" changeset="false"><tag k="addr:street" v="Los Indios Trail"/><tag k="addr:housenumber" v="12424"/></node><node id="-13" lat="30.434577" lon="-97.762356" changeset="false"><tag k="addr:street" v="Jekel Circle"/><tag k="addr:housenumber" v="12201"/></node><node id="-14" lat="30.439589" lon="-97.763281" changeset="false"><tag k="addr:street" v="Lobelia Drive"/><tag k="addr:housenumber" v="7514"/></node><node id="-15" lat="30.440247" lon="-97.761531" changeset="false"><tag k="addr:street" v="Los Indios Trail"/><tag k="addr:housenumber" v="12448"/></node><node id="-16" lat="30.434809" lon="-97.763228" changeset="false"><tag k="addr:street" v="Jekel Circle"/><tag k="addr:housenumber" v="12206"/></node><node id="-17" lat="30.435625" lon="-97.764192" changeset="false"><tag k="addr:street" v="Pecan Street"/><tag k="addr:housenumber" v="12211"/></node><node id="-18" lat="30.433483" lon="-97.762666" changeset="false"><tag k="addr:street" v="Jekel Circle"/><tag k="addr:housenumber" v="12126"/></node><node id="-19" lat="30.436281" lon="-97.764325" changeset="false"><tag k="addr:street" v="Mc Neil Drive"/><tag k="addr:housenumber" v="7114"/></node><node id="-20" lat="30.439128" lon="-97.755875" changeset="false"><tag k="addr:street" v="Mc Neil Drive"/><tag k="addr:housenumber" v="6610"/></node><node id="-21" lat="30.435382" lon="-97.765031" changeset="false"><tag k="addr:street" v="Jekel Circle"/><tag k="addr:housenumber" v="12102"/></node><node id="-22" lat="30.436619" lon="-97.762248" changeset="false"><tag k="addr:street" v="Mc Neil Drive"/><tag k="addr:housenumber" v="7019"/></node><node id="-23" lat="30.440064" lon="-97.763983" changeset="false"><tag k="addr:street" v="Summersweet Cove"/><tag k="addr:housenumber" v="12400"/></node><node id="-24" lat="30.436561" lon="-97.759078" changeset="false"><tag k="addr:street" v="Technology Boulevard"/><tag k="addr:housenumber" v="12324"/></node><node id="-25" lat="30.435086" lon="-97.766454" changeset="false"><tag k="addr:street" v="Mc Neil Drive"/><tag k="addr:housenumber" v="7309"/></node><node id="-26" lat="30.433763" lon="-97.762196" changeset="false"><tag k="addr:street" v="Jekel Circle"/><tag k="addr:housenumber" v="12125"/></node><node id="-27" lat="30.434711" lon="-97.769335" changeset="false"><tag k="addr:street" v="Mc Neil Drive"/><tag k="addr:housenumber" v="7422"/></node><node id="-28" lat="30.437233" lon="-97.760386" changeset="false"><tag k="addr:street" v="Mc Neil Drive"/><tag k="addr:housenumber" v="6909"/></node><node id="-29" lat="30.441693" lon="-97.761293" changeset="false"><tag k="addr:street" v="Langhoff Cove"/><tag k="addr:housenumber" v="12604"/></node><node id="-30" lat="30.437331" lon="-97.760206" changeset="false"><tag k="addr:street" v="Mc Neil Drive"/><tag k="addr:housenumber" v="6903"/></node><node id="-31" lat="30.434203" lon="-97.765244" changeset="false"><tag k="addr:street" v="Jekel Circle"/><tag k="addr:housenumber" v="12109"/></node><node id="-32" lat="30.433793" lon="-97.762753" changeset="false"><tag k="addr:street" v="Jekel Circle"/><tag k="addr:housenumber" v="12128"/></node><node id="-33" lat="30.436572" lon="-97.763592" changeset="false"><tag k="addr:street" v="Mc Neil Drive"/><tag k="addr:housenumber" v="7100"/></node><node id="-34" lat="30.440689" lon="-97.761843" changeset="false"><tag k="addr:street" v="Lady Suzannes Court"/><tag k="addr:housenumber" v="7436"/></node><node id="-35" lat="30.444236" lon="-97.757817" changeset="false"><tag k="addr:street" v="Potters Trail"/><tag k="addr:housenumber" v="7316"/></node><node id="-36" lat="30.441154" lon="-97.761828" changeset="false"><tag k="addr:street" v="Dallas Drive"/><tag k="addr:housenumber" v="7615"/></node><node id="-37" lat="30.432965" lon="-97.762896" changeset="false"><tag k="addr:street" v="Jekel Circle"/><tag k="addr:housenumber" v="12123"/></node><node id="-38" lat="30.435748" lon="-97.764648" changeset="false"><tag k="addr:street" v="Mc Neil Drive"/><tag k="addr:housenumber" v="7203"/></node><node id="-39" lat="30.433263" lon="-97.763754" changeset="false"><tag k="addr:street" v="Jekel Circle"/><tag k="addr:housenumber" v="12120"/></node><node id="-40" lat="30.438984" lon="-97.759665" changeset="false"><tag k="addr:street" v="Mc Neil Drive"/><tag k="addr:housenumber" v="6800"/></node><node id="-41" lat="30.437548" lon="-97.76044" changeset="false"><tag k="addr:street" v="Mc Neil Drive"/><tag k="addr:housenumber" v="6908"/></node><node id="-42" lat="30.436634" lon="-97.761771" changeset="false"><tag k="addr:street" v="Mc Neil Drive"/><tag k="addr:housenumber" v="7011 1/2"/></node><node id="-43" lat="30.436263" lon="-97.763149" changeset="false"><tag k="addr:street" v="Mc Neil Drive"/><tag k="addr:housenumber" v="7101"/></node><node id="-44" lat="30.442913" lon="-97.759735" changeset="false"><tag k="addr:street" v="Wittmer Drive"/><tag k="addr:housenumber" v="12704"/></node><node id="-45" lat="30.434304" lon="-97.762986" changeset="false"><tag k="addr:street" v="Jekel Circle"/><tag k="addr:housenumber" v="12202"/></node><node id="-46" lat="30.444499" lon="-97.75884" changeset="false"><tag k="addr:street" v="Dallas Drive"/><tag k="addr:housenumber" v="7430"/></node><node id="-47" lat="30.43815" lon="-97.758615" changeset="false"><tag k="addr:street" v="Mc Neil Drive"/><tag k="addr:housenumber" v="6818"/></node><node id="-48" lat="30.435312" lon="-97.768124" changeset="false"><tag k="addr:street" v="Mc Neil Drive"/><tag k="addr:housenumber" v="7402"/></node><node id="-49" lat="30.444293" lon="-97.758309" changeset="false"><tag k="addr:street" v="Dallas Drive"/><tag k="addr:housenumber" v="7423"/></node><node id="-50" lat="30.433769" lon="-97.763702" changeset="false"><tag k="addr:street" v="Pecan Street"/><tag k="addr:housenumber" v="12130"/></node><node id="-51" lat="30.436512" lon="-97.761435" changeset="false"><tag k="addr:street" v="Mc Neil Drive"/><tag k="addr:housenumber" v="7011"/></node><node id="-52" lat="30.442082" lon="-97.762148" changeset="false"><tag k="addr:street" v="Dallas Drive"/><tag k="addr:housenumber" v="7610"/></node><node id="-53" lat="30.433766" lon="-97.764786" changeset="false"><tag k="addr:street" v="Jekel Circle"/><tag k="addr:housenumber" v="12111"/></node><node id="-54" lat="30.442855" lon="-97.758046" changeset="false"><tag k="addr:street" v="Shemya Cove"/><tag k="addr:housenumber" v="12702"/></node><node id="-55" lat="30.434869" lon="-97.765656" changeset="false"><tag k="addr:street" v="Jekel Circle"/><tag k="addr:housenumber" v="12103"/></node><node id="-56" lat="30.434833" lon="-97.764824" changeset="false"><tag k="addr:street" v="Jekel Circle"/><tag k="addr:housenumber" v="12106"/></node><node id="-57" lat="30.442539" lon="-97.759052" changeset="false"><tag k="addr:street" v="Potters Trail"/><tag k="addr:housenumber" v="7411"/></node><node id="-58" lat="30.435405" lon="-97.764436" changeset="false"><tag k="addr:street" v="Pecan Street"/><tag k="addr:housenumber" v="12206"/></node><node id="-59" lat="30.434673" lon="-97.767952" changeset="false"><tag k="addr:street" v="Mc Neil Drive"/><tag k="addr:housenumber" v="7329"/></node><node id="-60" lat="30.435447" lon="-97.764454" changeset="false"><tag k="addr:street" v="Pecan Street"/><tag k="addr:housenumber" v="12208"/></node><node id="-61" lat="30.435137" lon="-97.766119" changeset="false"><tag k="addr:street" v="Mc Neil Drive"/><tag k="addr:housenumber" v="7301"/></node><node id="-62" lat="30.443814" lon="-97.75827" changeset="false"><tag k="addr:street" v="Potters Trail"/><tag k="addr:housenumber" v="7324"/></node><node id="-63" lat="30.441493" lon="-97.759934" changeset="false"><tag k="addr:street" v="Dringenberg Drive"/><tag k="addr:housenumber" v="12610"/></node><node id="-64" lat="30.44305" lon="-97.759024" changeset="false"><tag k="addr:street" v="Potters Trail"/><tag k="addr:housenumber" v="7408"/></node><node id="-65" lat="30.434797" lon="-97.765353" changeset="false"><tag k="addr:street" v="Jekel Circle"/><tag k="addr:housenumber" v="12105"/></node><node id="-66" lat="30.436092" lon="-97.763698" changeset="false"><tag k="addr:street" v="Mc Neil Drive"/><tag k="addr:housenumber" v="7113"/></node><node id="-67" lat="30.435954" lon="-97.763208" changeset="false"><tag k="addr:street" v="Jekel Circle"/><tag k="addr:housenumber" v="12205"/></node><node id="-68" lat="30.435721" lon="-97.767641" changeset="false"><tag k="addr:street" v="Mc Neil Drive"/><tag k="addr:housenumber" v="7318"/></node><node id="-69" lat="30.442787" lon="-97.759622" changeset="false"><tag k="addr:street" v="Wittmer Drive"/><tag k="addr:housenumber" v="12702"/></node><node id="-70" lat="30.444784" lon="-97.758543" changeset="false"><tag k="addr:street" v="Dallas Drive"/><tag k="addr:housenumber" v="7424"/></node><node id="-71" lat="30.442361" lon="-97.760452" changeset="false"><tag k="addr:street" v="Dringenberg Drive"/><tag k="addr:housenumber" v="12624"/></node><node id="-72" lat="30.440345" lon="-97.763883" changeset="false"><tag k="addr:street" v="Summersweet Cove"/><tag k="addr:housenumber" v="12402"/></node><node id="-73" lat="30.44225" lon="-97.762041" changeset="false"><tag k="addr:street" v="Dallas Drive"/><tag k="addr:housenumber" v="7608"/></node><node id="-74" lat="30.435928" lon="-97.769667" changeset="false"><tag k="addr:street" v="Pond Springs Road"/><tag k="addr:housenumber" v="12835"/></node><node id="-75" lat="30.441755" lon="-97.756523" changeset="false"><tag k="addr:street" v="Blackfoot Trail"/><tag k="addr:housenumber" v="12702"/></node><node id="-76" lat="30.435101" lon="-97.764899" changeset="false"><tag k="addr:street" v="Jekel Circle"/><tag k="addr:housenumber" v="12104"/></node><node id="-77" lat="30.434764" lon="-97.764289" changeset="false"><tag k="addr:street" v="Pecan Street"/><tag k="addr:housenumber" v="12140"/></node><node id="-78" lat="30.434578" lon="-97.764727" changeset="false"><tag k="addr:street" v="Jekel Circle"/><tag k="addr:housenumber" v="12108"/></node><node id="-79" lat="30.434242" lon="-97.764026" changeset="false"><tag k="addr:street" v="Pecan Street"/><tag k="addr:housenumber" v="12136"/></node><node id="-80" lat="30.437907" lon="-97.758462" changeset="false"><tag k="addr:street" v="Mc Neil Drive"/><tag k="addr:housenumber" v="6817"/></node><node id="-81" lat="30.43589" lon="-97.763619" changeset="false"><tag k="addr:street" v="Jekel Circle"/><tag k="addr:housenumber" v="12214"/></node><node id="-82" lat="30.441619" lon="-97.760359" changeset="false"><tag k="addr:street" v="Lady Suzannes Court"/><tag k="addr:housenumber" v="7406"/></node><node id="-83" lat="30.435535" lon="-97.764572" changeset="false"><tag k="addr:street" v="Pecan Street"/><tag k="addr:housenumber" v="12210"/></node><node id="-84" lat="30.434694" lon="-97.760477" changeset="false"><tag k="addr:street" v="Technology Boulevard"/><tag k="addr:housenumber" v="12300"/></node><node id="-85" lat="30.434581" lon="-97.763091" changeset="false"><tag k="addr:street" v="Jekel Circle"/><tag k="addr:housenumber" v="12204"/></node><node id="-86" lat="30.433754" lon="-97.765056" changeset="false"><tag k="addr:street" v="Jekel Circle"/><tag k="addr:housenumber" v="12113"/></node><node id="-87" lat="30.439476" lon="-97.762104" changeset="false"><tag k="addr:street" v="Lobelia Drive"/><tag k="addr:housenumber" v="7507"/></node><node id="-88" lat="30.439156" lon="-97.763084" changeset="false"><tag k="addr:street" v="Lobelia Drive"/><tag k="addr:housenumber" v="7517"/></node><node id="-89" lat="30.439373" lon="-97.762302" changeset="false"><tag k="addr:street" v="Lobelia Drive"/><tag k="addr:housenumber" v="7509"/></node><node id="-90" lat="30.446112" lon="-97.757141" changeset="false"><tag k="addr:street" v="Dallas Drive"/><tag k="addr:housenumber" v="7400"/></node><node id="-91" lat="30.436896" lon="-97.762293" changeset="false"><tag k="addr:street" v="Mc Neil Drive"/><tag k="addr:housenumber" v="7014"/></node><node id="-92" lat="30.434344" lon="-97.764569" changeset="false"><tag k="addr:street" v="Jekel Circle"/><tag k="addr:housenumber" v="12110"/></node><node id="-93" lat="30.43554" lon="-97.762905" changeset="false"><tag k="addr:street" v="Jekel Circle"/><tag k="addr:housenumber" v="12209"/></node><node id="-94" lat="30.434752" lon="-97.769227" changeset="false"><tag k="addr:street" v="Mc Neil Drive"/><tag k="addr:housenumber" v="7420"/></node><node id="-95" lat="30.436027" lon="-97.757984" changeset="false"><tag k="addr:street" v="Technology Boulevard"/><tag k="addr:housenumber" v="12317"/></node><node id="-96" lat="30.437004" lon="-97.757346" changeset="false"><tag k="addr:street" v="Technology Boulevard"/><tag k="addr:housenumber" v="12319"/></node><node id="-97" lat="30.434682" lon="-97.758373" changeset="false"><tag k="addr:street" v="Technology Boulevard"/><tag k="addr:housenumber" v="12301"/></node><node id="-98" lat="30.435057" lon="-97.759134" changeset="false"><tag k="addr:street" v="Technology Boulevard"/><tag k="addr:housenumber" v="12303"/></node><node id="-99" lat="30.434883" lon="-97.763703" changeset="false"><tag k="addr:street" v="Pecan Street"/><tag k="addr:housenumber" v="12201"/></node><node id="-100" lat="30.434952" lon="-97.763784" changeset="false"><tag k="addr:street" v="Pecan Street"/><tag k="addr:housenumber" v="12203"/></node><node id="-101" lat="30.435615" lon="-97.763496" changeset="false"><tag k="addr:street" v="Jekel Circle"/><tag k="addr:housenumber" v="12212"/></node><node id="-102" lat="30.43536" lon="-97.763399" changeset="false"><tag k="addr:street" v="Jekel Circle"/><tag k="addr:housenumber" v="12210"/></node><node id="-103" lat="30.433724" lon="-97.764429" changeset="false"><tag k="addr:street" v="Jekel Circle"/><tag k="addr:housenumber" v="12112"/></node><node id="-104" lat="30.433821" lon="-97.764302" changeset="false"><tag k="addr:street" v="Jekel Circle"/><tag k="addr:housenumber" v="12114"/></node><node id="-105" lat="30.433534" lon="-97.764229" changeset="false"><tag k="addr:street" v="Jekel Circle"/><tag k="addr:housenumber" v="12116"/></node><node id="-106" lat="30.435419" lon="-97.765547" changeset="false"><tag k="addr:street" v="Mc Neil Drive"/><tag k="addr:housenumber" v="7213"/></node><node id="-107" lat="30.43525" lon="-97.765439" changeset="false"><tag k="addr:street" v="Jekel Circle"/><tag k="addr:housenumber" v="12101"/></node></osm>