<?xml version="1.0" encoding="UTF-8"?><osm version="0.6" generator="github.com/aaronlidman/osm-and-geojson"><node id="-1" lat="30.30036" lon="-97.686421" changeset="false"><tag k="addr:street" v="Old Manor Road"/><tag k="addr:housenumber" v="5304"/></node><node id="-2" lat="30.305245" lon="-97.686267" changeset="false"><tag k="addr:street" v="Trafalgar Drive"/><tag k="addr:housenumber" v="2407"/></node><node id="-3" lat="30.304577" lon="-97.681655" changeset="false"><tag k="addr:street" v="Rogge Lane"/><tag k="addr:housenumber" v="2803"/></node><node id="-4" lat="30.304649" lon="-97.681804" changeset="false"><tag k="addr:street" v="Rogge Lane"/><tag k="addr:housenumber" v="2713"/></node><node id="-5" lat="30.304593" lon="-97.681728" changeset="false"><tag k="addr:street" v="Rogge Lane"/><tag k="addr:housenumber" v="2801"/></node><node id="-6" lat="30.306294" lon="-97.68661" changeset="false"><tag k="addr:street" v="Trafalgar Drive"/><tag k="addr:housenumber" v="2308"/></node><node id="-7" lat="30.303061" lon="-97.686791" changeset="false"><tag k="addr:street" v="Robinsdale Lane"/><tag k="addr:housenumber" v="5309"/></node><node id="-8" lat="30.305066" lon="-97.686126" changeset="false"><tag k="addr:street" v="Trafalgar Drive"/><tag k="addr:housenumber" v="2409"/></node><node id="-9" lat="30.300417" lon="-97.686625" changeset="false"><tag k="addr:street" v="Old Manor Road"/><tag k="addr:housenumber" v="5302"/></node><node id="-10" lat="30.304128" lon="-97.686416" changeset="false"><tag k="addr:street" v="Westminster Drive"/><tag k="addr:housenumber" v="5339 1/2"/></node><node id="-11" lat="30.303852" lon="-97.682752" changeset="false"><tag k="addr:street" v="Manor Road,1100"/><tag k="addr:housenumber" v="5602"/></node><node id="-12" lat="30.3006" lon="-97.685968" changeset="false"><tag k="addr:street" v="Westminster Drive"/><tag k="addr:housenumber" v="5301"/></node><node id="-13" lat="30.306191" lon="-97.686394" changeset="false"><tag k="addr:street" v="Trafalgar Drive"/><tag k="addr:housenumber" v="2310"/></node><node id="-14" lat="30.306983" lon="-97.687044" changeset="false"><tag k="addr:street" v="Rogge Lane"/><tag k="addr:housenumber" v="2303"/></node><node id="-15" lat="30.304492" lon="-97.681454" changeset="false"><tag k="addr:street" v="Rogge Lane"/><tag k="addr:housenumber" v="2805"/></node><node id="-16" lat="30.304754" lon="-97.682617" changeset="false"><tag k="addr:street" v="Rogge Lane"/><tag k="addr:housenumber" v="2715"/></node><node id="-17" lat="30.304635" lon="-97.68231" changeset="false"><tag k="addr:street" v="Rogge Lane"/><tag k="addr:housenumber" v="2709"/></node><node id="-18" lat="30.304693" lon="-97.682476" changeset="false"><tag k="addr:street" v="Rogge Lane"/><tag k="addr:housenumber" v="2711"/></node><node id="-19" lat="30.304589" lon="-97.682236" changeset="false"><tag k="addr:street" v="Rogge Lane"/><tag k="addr:housenumber" v="2707"/></node></osm>