<?xml version="1.0" encoding="UTF-8"?><osm version="0.6" generator="github.com/aaronlidman/osm-and-geojson"><node id="-1" lat="30.166012" lon="-97.739436" changeset="false"><tag k="addr:street" v="Orange Blossom Way"/><tag k="addr:housenumber" v="6415"/></node><node id="-2" lat="30.190124" lon="-97.737519" changeset="false"><tag k="addr:street" v="Walnut Grove Court"/><tag k="addr:housenumber" v="5229"/></node><node id="-3" lat="30.194581" lon="-97.735436" changeset="false"><tag k="addr:street" v="Lark Creek Drive"/><tag k="addr:housenumber" v="5403"/></node><node id="-4" lat="30.184856" lon="-97.743692" changeset="false"><tag k="addr:street" v="Nuckols Crossing Road"/><tag k="addr:housenumber" v="6105"/></node><node id="-5" lat="30.166064" lon="-97.733273" changeset="false"><tag k="addr:street" v="East William Cannon Drive"/><tag k="addr:housenumber" v="6710"/></node><node id="-6" lat="30.166258" lon="-97.739758" changeset="false"><tag k="addr:street" v="Orange Blossom Way"/><tag k="addr:housenumber" v="6411"/></node><node id="-7" lat="30.189462" lon="-97.735412" changeset="false"><tag k="addr:street" v="George Street"/><tag k="addr:housenumber" v="5408"/></node><node id="-8" lat="30.164645" lon="-97.738054" changeset="false"><tag k="addr:street" v="Running Water Drive"/><tag k="addr:housenumber" v="7401"/></node><node id="-9" lat="30.17988" lon="-97.746545" changeset="false"><tag k="addr:street" v="East William Cannon Drive"/><tag k="addr:housenumber" v="5400 1/2"/></node><node id="-10" lat="30.163649" lon="-97.736708" changeset="false"><tag k="addr:street" v="Crepe Myrtle Drive"/><tag k="addr:housenumber" v="7418"/></node><node id="-11" lat="30.193234" lon="-97.737354" changeset="false"><tag k="addr:street" v="China Berry Road"/><tag k="addr:housenumber" v="5304"/></node><node id="-12" lat="30.190952" lon="-97.736593" changeset="false"><tag k="addr:street" v="Hickory Drive"/><tag k="addr:housenumber" v="5314"/></node><node id="-13" lat="30.179269" lon="-97.745965" changeset="false"><tag k="addr:street" v="East William Cannon Drive"/><tag k="addr:housenumber" v="5404"/></node><node id="-14" lat="30.192309" lon="-97.731891" changeset="false"><tag k="addr:street" v="Teri Road"/><tag k="addr:housenumber" v="5718"/></node><node id="-15" lat="30.192404" lon="-97.737809" changeset="false"><tag k="addr:street" v="Walnut Grove Drive"/><tag k="addr:housenumber" v="5300"/></node><node id="-16" lat="30.191176" lon="-97.737978" changeset="false"><tag k="addr:street" v="Walnut Grove Drive"/><tag k="addr:housenumber" v="5403"/></node><node id="-17" lat="30.191673" lon="-97.737685" changeset="false"><tag k="addr:street" v="Walnut Grove Drive"/><tag k="addr:housenumber" v="5309"/></node><node id="-18" lat="30.192479" lon="-97.730508" changeset="false"><tag k="addr:street" v="Walnut Hollow Cove"/><tag k="addr:housenumber" v="5802"/></node><node id="-19" lat="30.191229" lon="-97.733952" changeset="false"><tag k="addr:street" v="China Berry Road"/><tag k="addr:housenumber" v="5705"/></node><node id="-20" lat="30.166981" lon="-97.738504" changeset="false"><tag k="addr:street" v="Spring Fever Trail"/><tag k="addr:housenumber" v="6412"/></node><node id="-21" lat="30.164071" lon="-97.736591" changeset="false"><tag k="addr:street" v="Crepe Myrtle Drive"/><tag k="addr:housenumber" v="7417"/></node><node id="-22" lat="30.1666" lon="-97.73775" changeset="false"><tag k="addr:street" v="Spring Fever Trail"/><tag k="addr:housenumber" v="6502"/></node><node id="-23" lat="30.190295" lon="-97.734853" changeset="false"><tag k="addr:street" v="George Street"/><tag k="addr:housenumber" v="5310"/></node><node id="-24" lat="30.191783" lon="-97.738897" changeset="false"><tag k="addr:street" v="Loblolly Lane"/><tag k="addr:housenumber" v="5817"/></node><node id="-25" lat="30.191769" lon="-97.73931" changeset="false"><tag k="addr:street" v="Loblolly Lane"/><tag k="addr:housenumber" v="5804"/></node><node id="-26" lat="30.191324" lon="-97.739071" changeset="false"><tag k="addr:street" v="Falling Leaft Lane"/><tag k="addr:housenumber" v="5408"/></node><node id="-27" lat="30.191234" lon="-97.73888" changeset="false"><tag k="addr:street" v="Falling Leaft Lane"/><tag k="addr:housenumber" v="5413"/></node><node id="-28" lat="30.190057" lon="-97.739687" changeset="false"><tag k="addr:street" v="Red Bud Ridge Lane"/><tag k="addr:housenumber" v="5900"/></node><node id="-29" lat="30.189845" lon="-97.739253" changeset="false"><tag k="addr:street" v="Red Bud Ridge Lane"/><tag k="addr:housenumber" v="5916"/></node><node id="-30" lat="30.189801" lon="-97.73914" changeset="false"><tag k="addr:street" v="Red Bud Ridge Lane"/><tag k="addr:housenumber" v="5920"/></node><node id="-31" lat="30.189306" lon="-97.738705" changeset="false"><tag k="addr:street" v="Bradford Pear Lane"/><tag k="addr:housenumber" v="5513"/></node><node id="-32" lat="30.189431" lon="-97.738941" changeset="false"><tag k="addr:street" v="Bradford Pear Lane"/><tag k="addr:housenumber" v="5510"/></node><node id="-33" lat="30.190783" lon="-97.740059" changeset="false"><tag k="addr:street" v="Juniper Junction Lane"/><tag k="addr:housenumber" v="5500"/></node><node id="-34" lat="30.190579" lon="-97.740205" changeset="false"><tag k="addr:street" v="Juniper Junction Lane"/><tag k="addr:housenumber" v="5508"/></node><node id="-35" lat="30.189527" lon="-97.739955" changeset="false"><tag k="addr:street" v="Magnolia Mist Lane"/><tag k="addr:housenumber" v="5816"/></node><node id="-36" lat="30.168048" lon="-97.738838" changeset="false"><tag k="addr:street" v="East William Cannon Drive"/><tag k="addr:housenumber" v="6401"/></node><node id="-37" lat="30.189658" lon="-97.739145" changeset="false"><tag k="addr:street" v="Arbor Ash Court"/><tag k="addr:housenumber" v="5501"/></node><node id="-38" lat="30.191733" lon="-97.739543" changeset="false"><tag k="addr:street" v="Juniper Junction Lane"/><tag k="addr:housenumber" v="5408"/></node><node id="-39" lat="30.166717" lon="-97.738767" changeset="false"><tag k="addr:street" v="Spring Fever Trail"/><tag k="addr:housenumber" v="6411"/></node><node id="-40" lat="30.195303" lon="-97.737326" changeset="false"><tag k="addr:street" v="Nuckols Crossing Road"/><tag k="addr:housenumber" v="5001"/></node><node id="-41" lat="30.18956" lon="-97.737513" changeset="false"><tag k="addr:street" v="Walnut Grove Drive"/><tag k="addr:housenumber" v="5458"/></node><node id="-42" lat="30.190994" lon="-97.73324" changeset="false"><tag k="addr:street" v="China Berry Road"/><tag k="addr:housenumber" v="5711"/></node><node id="-43" lat="30.167097" lon="-97.738668" changeset="false"><tag k="addr:street" v="Spring Fever Trail"/><tag k="addr:housenumber" v="6410"/></node><node id="-44" lat="30.185159" lon="-97.743441" changeset="false"><tag k="addr:street" v="Nuckols Crossing Road"/><tag k="addr:housenumber" v="6103"/></node><node id="-45" lat="30.181912" lon="-97.745703" changeset="false"><tag k="addr:street" v="South Pleasant Valley Road"/><tag k="addr:housenumber" v="6407"/></node><node id="-46" lat="30.194648" lon="-97.7368" changeset="false"><tag k="addr:street" v="Teri Road"/><tag k="addr:housenumber" v="5300"/></node><node id="-47" lat="30.19252" lon="-97.73658" changeset="false"><tag k="addr:street" v="China Berry Road"/><tag k="addr:housenumber" v="5407"/></node><node id="-48" lat="30.191873" lon="-97.736968" changeset="false"><tag k="addr:street" v="Mesquite Grove Road"/><tag k="addr:housenumber" v="5412"/></node><node id="-49" lat="30.194661" lon="-97.733424" changeset="false"><tag k="addr:street" v="Lark Creek Drive"/><tag k="addr:housenumber" v="5516"/></node><node id="-50" lat="30.189277" lon="-97.736828" changeset="false"><tag k="addr:street" v="Walnut Grove Drive"/><tag k="addr:housenumber" v="5470"/></node><node id="-51" lat="30.165983" lon="-97.738147" changeset="false"><tag k="addr:street" v="Orange Blossom Way"/><tag k="addr:housenumber" v="6504"/></node><node id="-52" lat="30.165897" lon="-97.737961" changeset="false"><tag k="addr:street" v="Orange Blossom Way"/><tag k="addr:housenumber" v="6506"/></node><node id="-53" lat="30.165581" lon="-97.739067" changeset="false"><tag k="addr:street" v="Sailing Breeze Trail"/><tag k="addr:housenumber" v="6414"/></node><node id="-54" lat="30.193054" lon="-97.737841" changeset="false"><tag k="addr:street" v="China Berry Road"/><tag k="addr:housenumber" v="5301"/></node><node id="-55" lat="30.192602" lon="-97.733568" changeset="false"><tag k="addr:street" v="Teri Road"/><tag k="addr:housenumber" v="5701"/></node><node id="-56" lat="30.194043" lon="-97.736407" changeset="false"><tag k="addr:street" v="Teri Road"/><tag k="addr:housenumber" v="5401"/></node><node id="-57" lat="30.191345" lon="-97.733037" changeset="false"><tag k="addr:street" v="China Berry Road"/><tag k="addr:housenumber" v="5712"/></node><node id="-58" lat="30.190269" lon="-97.737056" changeset="false"><tag k="addr:street" v="Hickory Drive"/><tag k="addr:housenumber" v="5412"/></node><node id="-59" lat="30.165141" lon="-97.738236" changeset="false"><tag k="addr:street" v="Sailing Breeze Trail"/><tag k="addr:housenumber" v="6508"/></node><node id="-60" lat="30.163922" lon="-97.737262" changeset="false"><tag k="addr:street" v="Crepe Myrtle Drive"/><tag k="addr:housenumber" v="7410"/></node><node id="-61" lat="30.194814" lon="-97.733883" changeset="false"><tag k="addr:street" v="Lark Creek Drive"/><tag k="addr:housenumber" v="5510"/></node><node id="-62" lat="30.163783" lon="-97.73611" changeset="false"><tag k="addr:street" v="Springtime Trail"/><tag k="addr:housenumber" v="7405"/></node><node id="-63" lat="30.164188" lon="-97.735451" changeset="false"><tag k="addr:street" v="Zequiel Drive"/><tag k="addr:housenumber" v="6704"/></node><node id="-64" lat="30.164151" lon="-97.738398" changeset="false"><tag k="addr:street" v="Running Water Drive"/><tag k="addr:housenumber" v="7407"/></node><node id="-65" lat="30.166657" lon="-97.738591" changeset="false"><tag k="addr:street" v="Spring Fever Trail"/><tag k="addr:housenumber" v="6413"/></node><node id="-66" lat="30.16594" lon="-97.739282" changeset="false"><tag k="addr:street" v="Orange Blossom Way"/><tag k="addr:housenumber" v="6417"/></node><node id="-67" lat="30.165414" lon="-97.740039" changeset="false"><tag k="addr:street" v="Sailing Breeze Trail"/><tag k="addr:housenumber" v="6409"/></node><node id="-68" lat="30.165522" lon="-97.738443" changeset="false"><tag k="addr:street" v="Orange Blossom Way"/><tag k="addr:housenumber" v="6505"/></node><node id="-69" lat="30.181694" lon="-97.745771" changeset="false"><tag k="addr:street" v="South Pleasant Valley Road"/><tag k="addr:housenumber" v="6411"/></node><node id="-70" lat="30.189439" lon="-97.739249" changeset="false"><tag k="addr:street" v="Arbor Ash Court"/><tag k="addr:housenumber" v="5505"/></node><node id="-71" lat="30.190015" lon="-97.739942" changeset="false"><tag k="addr:street" v="Mulberry Mist Court"/><tag k="addr:housenumber" v="5501"/></node><node id="-72" lat="30.190109" lon="-97.740057" changeset="false"><tag k="addr:street" v="Mulberry Mist Court"/><tag k="addr:housenumber" v="5500"/></node><node id="-73" lat="30.191127" lon="-97.739889" changeset="false"><tag k="addr:street" v="Juniper Junction Lane"/><tag k="addr:housenumber" v="5432"/></node><node id="-74" lat="30.189342" lon="-97.739536" changeset="false"><tag k="addr:street" v="Magnolia Mist Lane"/><tag k="addr:housenumber" v="5828"/></node><node id="-75" lat="30.19187" lon="-97.739129" changeset="false"><tag k="addr:street" v="Loblolly Lane"/><tag k="addr:housenumber" v="5809"/></node><node id="-76" lat="30.191736" lon="-97.738799" changeset="false"><tag k="addr:street" v="Loblolly Lane"/><tag k="addr:housenumber" v="5821"/></node><node id="-77" lat="30.191726" lon="-97.739206" changeset="false"><tag k="addr:street" v="Loblolly Lane"/><tag k="addr:housenumber" v="5808"/></node><node id="-78" lat="30.190723" lon="-97.739202" changeset="false"><tag k="addr:street" v="Falling Leaft Lane"/><tag k="addr:housenumber" v="5433"/></node><node id="-79" lat="30.190008" lon="-97.739175" changeset="false"><tag k="addr:street" v="Red Bud Ridge Lane"/><tag k="addr:housenumber" v="5913"/></node><node id="-80" lat="30.18973" lon="-97.73898" changeset="false"><tag k="addr:street" v="Red Bud Ridge Lane"/><tag k="addr:housenumber" v="5924"/></node><node id="-81" lat="30.189572" lon="-97.738912" changeset="false"><tag k="addr:street" v="Bradford Pear Lane"/><tag k="addr:housenumber" v="5512"/></node><node id="-82" lat="30.16694" lon="-97.740203" changeset="false"><tag k="addr:street" v="Green Grass Trail"/><tag k="addr:housenumber" v="7308"/></node><node id="-83" lat="30.163785" lon="-97.737001" changeset="false"><tag k="addr:street" v="Crepe Myrtle Drive"/><tag k="addr:housenumber" v="7414"/></node><node id="-84" lat="30.19439" lon="-97.725347" changeset="false"><tag k="addr:street" v="East Stassney Lane"/><tag k="addr:housenumber" v="5961"/></node><node id="-85" lat="30.190827" lon="-97.740073" changeset="false"><tag k="addr:street" v="Nuckols Crossing Road"/><tag k="addr:housenumber" v="5501"/></node><node id="-86" lat="30.189654" lon="-97.737665" changeset="false"><tag k="addr:street" v="Walnut Grove Drive"/><tag k="addr:housenumber" v="5454"/></node><node id="-87" lat="30.191622" lon="-97.73623" changeset="false"><tag k="addr:street" v="Mesquite Grove Road"/><tag k="addr:housenumber" v="5514"/></node><node id="-88" lat="30.191078" lon="-97.738047" changeset="false"><tag k="addr:street" v="Walnut Grove Drive"/><tag k="addr:housenumber" v="5405"/></node><node id="-89" lat="30.191129" lon="-97.730912" changeset="false"><tag k="addr:street" v="East Stassney Lane"/><tag k="addr:housenumber" v="5901"/></node><node id="-90" lat="30.190146" lon="-97.734956" changeset="false"><tag k="addr:street" v="George Street"/><tag k="addr:housenumber" v="5314"/></node><node id="-91" lat="30.190977" lon="-97.736988" changeset="false"><tag k="addr:street" v="Walnut Grove Court"/><tag k="addr:housenumber" v="5205"/></node><node id="-92" lat="30.192913" lon="-97.732111" changeset="false"><tag k="addr:street" v="Acorn Grove Court"/><tag k="addr:housenumber" v="5006"/></node><node id="-93" lat="30.16417" lon="-97.736728" changeset="false"><tag k="addr:street" v="Crepe Myrtle Drive"/><tag k="addr:housenumber" v="7415"/></node><node id="-94" lat="30.167284" lon="-97.739083" changeset="false"><tag k="addr:street" v="Spring Fever Trail"/><tag k="addr:housenumber" v="6406"/></node><node id="-95" lat="30.167192" lon="-97.738898" changeset="false"><tag k="addr:street" v="Spring Fever Trail"/><tag k="addr:housenumber" v="6408"/></node><node id="-96" lat="30.19202" lon="-97.732431" changeset="false"><tag k="addr:street" v="Teri Road"/><tag k="addr:housenumber" v="5715"/></node><node id="-97" lat="30.194037" lon="-97.731815" changeset="false"><tag k="addr:street" v="Lark Creek Drive"/><tag k="addr:housenumber" v="5618"/></node><node id="-98" lat="30.163431" lon="-97.73636" changeset="false"><tag k="addr:street" v="Springtime Trail"/><tag k="addr:housenumber" v="7411"/></node><node id="-99" lat="30.193056" lon="-97.73196" changeset="false"><tag k="addr:street" v="Acorn Grove Court"/><tag k="addr:housenumber" v="5004"/></node><node id="-100" lat="30.167475" lon="-97.739422" changeset="false"><tag k="addr:street" v="Spring Fever Trail"/><tag k="addr:housenumber" v="6402"/></node><node id="-101" lat="30.190602" lon="-97.735201" changeset="false"><tag k="addr:street" v="Mesquite Grove Road"/><tag k="addr:housenumber" v="5621"/></node><node id="-102" lat="30.192796" lon="-97.738654" changeset="false"><tag k="addr:street" v="Nuckols Crossing Road"/><tag k="addr:housenumber" v="5303"/></node><node id="-103" lat="30.194744" lon="-97.733708" changeset="false"><tag k="addr:street" v="Lark Creek Drive"/><tag k="addr:housenumber" v="5512"/></node><node id="-104" lat="30.167072" lon="-97.740091" changeset="false"><tag k="addr:street" v="Green Grass Trail"/><tag k="addr:housenumber" v="7306"/></node><node id="-105" lat="30.166207" lon="-97.740235" changeset="false"><tag k="addr:street" v="Sailing Breeze Trail"/><tag k="addr:housenumber" v="6400"/></node><node id="-106" lat="30.163828" lon="-97.737124" changeset="false"><tag k="addr:street" v="Crepe Myrtle Drive"/><tag k="addr:housenumber" v="7412"/></node><node id="-107" lat="30.190191" lon="-97.735378" changeset="false"><tag k="addr:street" v="Blackjack Cove"/><tag k="addr:housenumber" v="5405"/></node><node id="-108" lat="30.194615" lon="-97.733287" changeset="false"><tag k="addr:street" v="Lark Creek Drive"/><tag k="addr:housenumber" v="5518"/></node><node id="-109" lat="30.167625" lon="-97.739601" changeset="false"><tag k="addr:street" v="Spring Fever Trail"/><tag k="addr:housenumber" v="6400"/></node><node id="-110" lat="30.166179" lon="-97.734603" changeset="false"><tag k="addr:street" v="East William Cannon Drive"/><tag k="addr:housenumber" v="6604"/></node><node id="-111" lat="30.16483" lon="-97.737971" changeset="false"><tag k="addr:street" v="Running Water Drive"/><tag k="addr:housenumber" v="7317"/></node><node id="-112" lat="30.165148" lon="-97.739536" changeset="false"><tag k="addr:street" v="Sailing Breeze Trail"/><tag k="addr:housenumber" v="6415"/></node><node id="-113" lat="30.191484" lon="-97.739687" changeset="false"><tag k="addr:street" v="Juniper Junction Lane"/><tag k="addr:housenumber" v="5420"/></node><node id="-114" lat="30.19131" lon="-97.738826" changeset="false"><tag k="addr:street" v="Falling Leaft Lane"/><tag k="addr:housenumber" v="5409"/></node><node id="-115" lat="30.191059" lon="-97.739229" changeset="false"><tag k="addr:street" v="Falling Leaft Lane"/><tag k="addr:housenumber" v="5420"/></node><node id="-116" lat="30.1894" lon="-97.738645" changeset="false"><tag k="addr:street" v="Bradford Pear Lane"/><tag k="addr:housenumber" v="5509"/></node><node id="-117" lat="30.189203" lon="-97.738781" changeset="false"><tag k="addr:street" v="Bradford Pear Lane"/><tag k="addr:housenumber" v="5517"/></node><node id="-118" lat="30.16663" lon="-97.740432" changeset="false"><tag k="addr:street" v="Green Grass Trail"/><tag k="addr:housenumber" v="7312"/></node><node id="-119" lat="30.189583" lon="-97.740745" changeset="false"><tag k="addr:street" v="Nuckols Crossing Road"/><tag k="addr:housenumber" v="5513"/></node><node id="-120" lat="30.19226" lon="-97.737886" changeset="false"><tag k="addr:street" v="Walnut Grove Drive"/><tag k="addr:housenumber" v="5302"/></node><node id="-121" lat="30.191132" lon="-97.737047" changeset="false"><tag k="addr:street" v="Walnut Grove Court"/><tag k="addr:housenumber" v="5201"/></node><node id="-122" lat="30.19425" lon="-97.735112" changeset="false"><tag k="addr:street" v="Lark Creek Cove"/><tag k="addr:housenumber" v="5004"/></node><node id="-123" lat="30.190799" lon="-97.738276" changeset="false"><tag k="addr:street" v="Walnut Grove Drive"/><tag k="addr:housenumber" v="5411"/></node><node id="-124" lat="30.189808" lon="-97.736186" changeset="false"><tag k="addr:street" v="Blackjack Cove"/><tag k="addr:housenumber" v="5420"/></node><node id="-125" lat="30.189789" lon="-97.737965" changeset="false"><tag k="addr:street" v="Walnut Grove Drive"/><tag k="addr:housenumber" v="5446"/></node><node id="-126" lat="30.19242" lon="-97.736406" changeset="false"><tag k="addr:street" v="China Berry Road"/><tag k="addr:housenumber" v="5409"/></node><node id="-127" lat="30.166351" lon="-97.739931" changeset="false"><tag k="addr:street" v="Orange Blossom Way"/><tag k="addr:housenumber" v="6409"/></node><node id="-128" lat="30.190845" lon="-97.737118" changeset="false"><tag k="addr:street" v="Walnut Grove Court"/><tag k="addr:housenumber" v="5209"/></node><node id="-129" lat="30.190071" lon="-97.738571" changeset="false"><tag k="addr:street" v="Walnut Grove Drive"/><tag k="addr:housenumber" v="5430"/></node><node id="-130" lat="30.164212" lon="-97.737675" changeset="false"><tag k="addr:street" v="Crepe Myrtle Drive"/><tag k="addr:housenumber" v="7404"/></node><node id="-131" lat="30.190002" lon="-97.738409" changeset="false"><tag k="addr:street" v="Walnut Grove Drive"/><tag k="addr:housenumber" v="5434"/></node><node id="-132" lat="30.166799" lon="-97.738932" changeset="false"><tag k="addr:street" v="Spring Fever Trail"/><tag k="addr:housenumber" v="6409"/></node><node id="-133" lat="30.190571" lon="-97.738421" changeset="false"><tag k="addr:street" v="Walnut Grove Drive"/><tag k="addr:housenumber" v="5415"/></node><node id="-134" lat="30.189851" lon="-97.740734" changeset="false"><tag k="addr:street" v="Nuckols Crossing Road"/><tag k="addr:housenumber" v="5507"/></node><node id="-135" lat="30.189169" lon="-97.735497" changeset="false"><tag k="addr:street" v="George Street"/><tag k="addr:housenumber" v="5416 1/2"/></node><node id="-136" lat="30.194009" lon="-97.731639" changeset="false"><tag k="addr:street" v="Lark Creek Drive"/><tag k="addr:housenumber" v="5700"/></node><node id="-137" lat="30.163966" lon="-97.736019" changeset="false"><tag k="addr:street" v="Springtime Trail"/><tag k="addr:housenumber" v="7403"/></node><node id="-138" lat="30.164366" lon="-97.737169" changeset="false"><tag k="addr:street" v="Crepe Myrtle Drive"/><tag k="addr:housenumber" v="7409"/></node><node id="-139" lat="30.165245" lon="-97.739706" changeset="false"><tag k="addr:street" v="Sailing Breeze Trail"/><tag k="addr:housenumber" v="6413"/></node><node id="-140" lat="30.166006" lon="-97.73995" changeset="false"><tag k="addr:street" v="Sailing Breeze Trail"/><tag k="addr:housenumber" v="6404"/></node><node id="-141" lat="30.167349" lon="-97.736596" changeset="false"><tag k="addr:street" v="East William Cannon Drive"/><tag k="addr:housenumber" v="6500"/></node><node id="-142" lat="30.189763" lon="-97.73935" changeset="false"><tag k="addr:street" v="Arbor Ash Court"/><tag k="addr:housenumber" v="5500"/></node><node id="-143" lat="30.189872" lon="-97.739511" changeset="false"><tag k="addr:street" v="Maple Marsh Court"/><tag k="addr:housenumber" v="5501"/></node><node id="-144" lat="30.18965" lon="-97.739634" changeset="false"><tag k="addr:street" v="Maple Marsh Court"/><tag k="addr:housenumber" v="5505"/></node><node id="-145" lat="30.190002" lon="-97.740111" changeset="false"><tag k="addr:street" v="Mulberry Mist Court"/><tag k="addr:housenumber" v="5504"/></node><node id="-146" lat="30.190316" lon="-97.739844" changeset="false"><tag k="addr:street" v="Needle Nook Court"/><tag k="addr:housenumber" v="5809"/></node><node id="-147" lat="30.190185" lon="-97.739934" changeset="false"><tag k="addr:street" v="Needle Nook Court"/><tag k="addr:housenumber" v="5808"/></node><node id="-148" lat="30.190724" lon="-97.739469" changeset="false"><tag k="addr:street" v="Arbor Pavilion Lane"/><tag k="addr:housenumber" v="5813"/></node><node id="-149" lat="30.191814" lon="-97.73951" changeset="false"><tag k="addr:street" v="Juniper Junction Lane"/><tag k="addr:housenumber" v="5404"/></node><node id="-150" lat="30.190067" lon="-97.740551" changeset="false"><tag k="addr:street" v="Juniper Junction Lane"/><tag k="addr:housenumber" v="5520"/></node><node id="-151" lat="30.189906" lon="-97.740246" changeset="false"><tag k="addr:street" v="Magnolia Mist Lane"/><tag k="addr:housenumber" v="5805"/></node><node id="-152" lat="30.190075" lon="-97.739288" changeset="false"><tag k="addr:street" v="Red Bud Ridge Lane"/><tag k="addr:housenumber" v="5909"/></node><node id="-153" lat="30.189948" lon="-97.739065" changeset="false"><tag k="addr:street" v="Red Bud Ridge Lane"/><tag k="addr:housenumber" v="5917"/></node><node id="-154" lat="30.190024" lon="-97.739548" changeset="false"><tag k="addr:street" v="Red Bud Ridge Lane"/><tag k="addr:housenumber" v="5904"/></node><node id="-155" lat="30.189961" lon="-97.739493" changeset="false"><tag k="addr:street" v="Red Bud Ridge Lane"/><tag k="addr:housenumber" v="5908"/></node><node id="-156" lat="30.18958" lon="-97.738572" changeset="false"><tag k="addr:street" v="Bradford Pear Lane"/><tag k="addr:housenumber" v="5501"/></node><node id="-157" lat="30.1637" lon="-97.736889" changeset="false"><tag k="addr:street" v="Crepe Myrtle Drive"/><tag k="addr:housenumber" v="7416"/></node><node id="-158" lat="30.189182" lon="-97.735553" changeset="false"><tag k="addr:street" v="George Street"/><tag k="addr:housenumber" v="5416"/></node><node id="-159" lat="30.194838" lon="-97.735872" changeset="false"><tag k="addr:street" v="Lark Creek Drive"/><tag k="addr:housenumber" v="5308"/></node><node id="-160" lat="30.189992" lon="-97.740677" changeset="false"><tag k="addr:street" v="Nuckols Crossing Road"/><tag k="addr:housenumber" v="5505"/></node><node id="-161" lat="30.190581" lon="-97.736208" changeset="false"><tag k="addr:street" v="Hickory Drive"/><tag k="addr:housenumber" v="5319"/></node><node id="-162" lat="30.167364" lon="-97.739237" changeset="false"><tag k="addr:street" v="Spring Fever Trail"/><tag k="addr:housenumber" v="6404"/></node><node id="-163" lat="30.191271" lon="-97.738464" changeset="false"><tag k="addr:street" v="Walnut Grove Drive"/><tag k="addr:housenumber" v="5404"/></node><node id="-164" lat="30.179735" lon="-97.746001" changeset="false"><tag k="addr:street" v="East William Cannon Drive"/><tag k="addr:housenumber" v="5400"/></node><node id="-165" lat="30.166892" lon="-97.738318" changeset="false"><tag k="addr:street" v="Spring Fever Trail"/><tag k="addr:housenumber" v="6414"/></node><node id="-166" lat="30.190371" lon="-97.736941" changeset="false"><tag k="addr:street" v="Hickory Drive"/><tag k="addr:housenumber" v="5408"/></node><node id="-167" lat="30.194719" lon="-97.737677" changeset="false"><tag k="addr:street" v="Teri Road"/><tag k="addr:housenumber" v="5201"/></node><node id="-168" lat="30.19113" lon="-97.738558" changeset="false"><tag k="addr:street" v="Walnut Grove Drive"/><tag k="addr:housenumber" v="5408"/></node><node id="-169" lat="30.192125" lon="-97.73798" changeset="false"><tag k="addr:street" v="Walnut Grove Drive"/><tag k="addr:housenumber" v="5306"/></node><node id="-170" lat="30.18783" lon="-97.742087" changeset="false"><tag k="addr:street" v="Nuckols Crossing Road"/><tag k="addr:housenumber" v="5803"/></node><node id="-171" lat="30.194894" lon="-97.735674" changeset="false"><tag k="addr:street" v="Lark Creek Drive"/><tag k="addr:housenumber" v="5400"/></node><node id="-172" lat="30.193929" lon="-97.731483" changeset="false"><tag k="addr:street" v="Lark Creek Drive"/><tag k="addr:housenumber" v="5702"/></node><node id="-173" lat="30.166488" lon="-97.740583" changeset="false"><tag k="addr:street" v="Green Grass Trail"/><tag k="addr:housenumber" v="7314"/></node><node id="-174" lat="30.165076" lon="-97.739392" changeset="false"><tag k="addr:street" v="Sailing Breeze Trail"/><tag k="addr:housenumber" v="6417"/></node><node id="-175" lat="30.164819" lon="-97.738907" changeset="false"><tag k="addr:street" v="Sailing Breeze Trail"/><tag k="addr:housenumber" v="6505"/></node><node id="-176" lat="30.193003" lon="-97.734365" changeset="false"><tag k="addr:street" v="Teri Road"/><tag k="addr:housenumber" v="5605"/></node><node id="-177" lat="30.16572" lon="-97.740733" changeset="false"><tag k="addr:street" v="Sailing Breeze Trail"/><tag k="addr:housenumber" v="6401"/></node><node id="-178" lat="30.189964" lon="-97.739767" changeset="false"><tag k="addr:street" v="Maple Marsh Court"/><tag k="addr:housenumber" v="5500"/></node><node id="-179" lat="30.189741" lon="-97.739867" changeset="false"><tag k="addr:street" v="Maple Marsh Court"/><tag k="addr:housenumber" v="5504"/></node><node id="-180" lat="30.190303" lon="-97.740217" changeset="false"><tag k="addr:street" v="Needle Nook Court"/><tag k="addr:housenumber" v="5800"/></node><node id="-181" lat="30.190239" lon="-97.740085" changeset="false"><tag k="addr:street" v="Needle Nook Court"/><tag k="addr:housenumber" v="5804"/></node><node id="-182" lat="30.191877" lon="-97.739457" changeset="false"><tag k="addr:street" v="Juniper Junction Lane"/><tag k="addr:housenumber" v="5400"/></node><node id="-183" lat="30.191373" lon="-97.739753" changeset="false"><tag k="addr:street" v="Juniper Junction Lane"/><tag k="addr:housenumber" v="5424"/></node><node id="-184" lat="30.191211" lon="-97.739828" changeset="false"><tag k="addr:street" v="Juniper Junction Lane"/><tag k="addr:housenumber" v="5428"/></node><node id="-185" lat="30.190996" lon="-97.739963" changeset="false"><tag k="addr:street" v="Juniper Junction Lane"/><tag k="addr:housenumber" v="5436"/></node><node id="-186" lat="30.190136" lon="-97.74031" changeset="false"><tag k="addr:street" v="Juniper Junction Lane"/><tag k="addr:housenumber" v="5517"/></node><node id="-187" lat="30.189458" lon="-97.739798" changeset="false"><tag k="addr:street" v="Magnolia Mist Lane"/><tag k="addr:housenumber" v="5820"/></node><node id="-188" lat="30.191553" lon="-97.738715" changeset="false"><tag k="addr:street" v="Falling Leaft Lane"/><tag k="addr:housenumber" v="5401"/></node><node id="-189" lat="30.190934" lon="-97.739081" changeset="false"><tag k="addr:street" v="Falling Leaft Lane"/><tag k="addr:housenumber" v="5425"/></node><node id="-190" lat="30.19084" lon="-97.739162" changeset="false"><tag k="addr:street" v="Falling Leaft Lane"/><tag k="addr:housenumber" v="5429"/></node><node id="-191" lat="30.166427" lon="-97.74011" changeset="false"><tag k="addr:street" v="Orange Blossom Way"/><tag k="addr:housenumber" v="6407"/></node><node id="-192" lat="30.196398" lon="-97.736599" changeset="false"><tag k="addr:street" v="Nuckols Crossing Road"/><tag k="addr:housenumber" v="4905"/></node><node id="-193" lat="30.166792" lon="-97.738125" changeset="false"><tag k="addr:street" v="Spring Fever Trail"/><tag k="addr:housenumber" v="6416"/></node><node id="-194" lat="30.164968" lon="-97.737865" changeset="false"><tag k="addr:street" v="Running Water Drive"/><tag k="addr:housenumber" v="7315"/></node><node id="-195" lat="30.191252" lon="-97.732256" changeset="false"><tag k="addr:street" v="China Berry Road"/><tag k="addr:housenumber" v="5721"/></node><node id="-196" lat="30.182659" lon="-97.745221" changeset="false"><tag k="addr:street" v="South Pleasant Valley Road"/><tag k="addr:housenumber" v="6403"/></node><node id="-197" lat="30.194138" lon="-97.733793" changeset="false"><tag k="addr:street" v="Dove Creek Cove"/><tag k="addr:housenumber" v="4903"/></node><node id="-198" lat="30.190384" lon="-97.739987" changeset="false"><tag k="addr:street" v="Needle Nook Court"/><tag k="addr:housenumber" v="5805"/></node><node id="-199" lat="30.190909" lon="-97.739859" changeset="false"><tag k="addr:street" v="Arbor Pavilion Lane"/><tag k="addr:housenumber" v="5805"/></node><node id="-200" lat="30.191666" lon="-97.739592" changeset="false"><tag k="addr:street" v="Juniper Junction Lane"/><tag k="addr:housenumber" v="5412"/></node><node id="-201" lat="30.191544" lon="-97.739642" changeset="false"><tag k="addr:street" v="Juniper Junction Lane"/><tag k="addr:housenumber" v="5416"/></node><node id="-202" lat="30.190349" lon="-97.740354" changeset="false"><tag k="addr:street" v="Juniper Junction Lane"/><tag k="addr:housenumber" v="5512"/></node><node id="-203" lat="30.189583" lon="-97.740102" changeset="false"><tag k="addr:street" v="Magnolia Mist Lane"/><tag k="addr:housenumber" v="5812"/></node><node id="-204" lat="30.189219" lon="-97.739212" changeset="false"><tag k="addr:street" v="Magnolia Mist Lane"/><tag k="addr:housenumber" v="5836"/></node><node id="-205" lat="30.191208" lon="-97.739163" changeset="false"><tag k="addr:street" v="Falling Leaft Lane"/><tag k="addr:housenumber" v="5412"/></node><node id="-206" lat="30.190911" lon="-97.739291" changeset="false"><tag k="addr:street" v="Falling Leaft Lane"/><tag k="addr:housenumber" v="5424"/></node><node id="-207" lat="30.19018" lon="-97.739483" changeset="false"><tag k="addr:street" v="Red Bud Ridge Lane"/><tag k="addr:housenumber" v="5901"/></node><node id="-208" lat="30.189786" lon="-97.73865" changeset="false"><tag k="addr:street" v="Red Bud Ridge Lane"/><tag k="addr:housenumber" v="5933"/></node><node id="-209" lat="30.189901" lon="-97.739386" changeset="false"><tag k="addr:street" v="Red Bud Ridge Lane"/><tag k="addr:housenumber" v="5912"/></node><node id="-210" lat="30.18949" lon="-97.738601" changeset="false"><tag k="addr:street" v="Bradford Pear Lane"/><tag k="addr:housenumber" v="5505"/></node><node id="-211" lat="30.189324" lon="-97.738997" changeset="false"><tag k="addr:street" v="Bradford Pear Lane"/><tag k="addr:housenumber" v="5514"/></node><node id="-212" lat="30.165116" lon="-97.73451" changeset="false"><tag k="addr:street" v="East William Cannon Drive"/><tag k="addr:housenumber" v="6605"/></node><node id="-213" lat="30.16574" lon="-97.739428" changeset="false"><tag k="addr:street" v="Sailing Breeze Trail"/><tag k="addr:housenumber" v="6410"/></node><node id="-214" lat="30.165494" lon="-97.7402" changeset="false"><tag k="addr:street" v="Sailing Breeze Trail"/><tag k="addr:housenumber" v="6407"/></node><node id="-215" lat="30.18956" lon="-97.739439" changeset="false"><tag k="addr:street" v="Arbor Ash Court"/><tag k="addr:housenumber" v="5504"/></node><node id="-216" lat="30.190448" lon="-97.740138" changeset="false"><tag k="addr:street" v="Needle Nook Court"/><tag k="addr:housenumber" v="5801"/></node><node id="-217" lat="30.190204" lon="-97.74043" changeset="false"><tag k="addr:street" v="Juniper Junction Lane"/><tag k="addr:housenumber" v="5516"/></node><node id="-218" lat="30.191917" lon="-97.739212" changeset="false"><tag k="addr:street" v="Loblolly Lane"/><tag k="addr:housenumber" v="5805"/></node><node id="-219" lat="30.191503" lon="-97.738967" changeset="false"><tag k="addr:street" v="Falling Leaft Lane"/><tag k="addr:housenumber" v="5404"/></node><node id="-220" lat="30.191113" lon="-97.738951" changeset="false"><tag k="addr:street" v="Falling Leaft Lane"/><tag k="addr:housenumber" v="5417"/></node><node id="-221" lat="30.191029" lon="-97.739074" changeset="false"><tag k="addr:street" v="Falling Leaft Lane"/><tag k="addr:housenumber" v="5421"/></node><node id="-222" lat="30.191497" lon="-97.737771" changeset="false"><tag k="addr:street" v="Walnut Grove Drive"/><tag k="addr:housenumber" v="5311"/></node><node id="-223" lat="30.1945" lon="-97.736029" changeset="false"><tag k="addr:street" v="Lark Creek Drive"/><tag k="addr:housenumber" v="5303"/></node><node id="-224" lat="30.192247" lon="-97.739368" changeset="false"><tag k="addr:street" v="Nuckols Crossing Road"/><tag k="addr:housenumber" v="5317"/></node><node id="-225" lat="30.165611" lon="-97.735777" changeset="false"><tag k="addr:street" v="East William Cannon Drive"/><tag k="addr:housenumber" v="6535"/></node><node id="-226" lat="30.166358" lon="-97.738102" changeset="false"><tag k="addr:street" v="Spring Fever Trail"/><tag k="addr:housenumber" v="6501"/></node><node id="-227" lat="30.18985" lon="-97.740013" changeset="false"><tag k="addr:street" v="Mulberry Mist Court"/><tag k="addr:housenumber" v="5505"/></node><node id="-228" lat="30.190795" lon="-97.739647" changeset="false"><tag k="addr:street" v="Arbor Pavilion Lane"/><tag k="addr:housenumber" v="5809"/></node><node id="-229" lat="30.19196" lon="-97.739315" changeset="false"><tag k="addr:street" v="Loblolly Lane"/><tag k="addr:housenumber" v="5801"/></node><node id="-230" lat="30.191827" lon="-97.739026" changeset="false"><tag k="addr:street" v="Loblolly Lane"/><tag k="addr:housenumber" v="5813"/></node><node id="-231" lat="30.191664" lon="-97.739051" changeset="false"><tag k="addr:street" v="Loblolly Lane"/><tag k="addr:housenumber" v="5812"/></node><node id="-232" lat="30.191427" lon="-97.73877" changeset="false"><tag k="addr:street" v="Falling Leaft Lane"/><tag k="addr:housenumber" v="5405"/></node><node id="-233" lat="30.19062" lon="-97.739267" changeset="false"><tag k="addr:street" v="Falling Leaft Lane"/><tag k="addr:housenumber" v="5437"/></node><node id="-234" lat="30.190417" lon="-97.739362" changeset="false"><tag k="addr:street" v="Falling Leaft Lane"/><tag k="addr:housenumber" v="5441"/></node><node id="-235" lat="30.190803" lon="-97.739362" changeset="false"><tag k="addr:street" v="Falling Leaft Lane"/><tag k="addr:housenumber" v="5428"/></node><node id="-236" lat="30.189896" lon="-97.738954" changeset="false"><tag k="addr:street" v="Red Bud Ridge Lane"/><tag k="addr:housenumber" v="5921"/></node><node id="-237" lat="30.189853" lon="-97.738797" changeset="false"><tag k="addr:street" v="Red Bud Ridge Lane"/><tag k="addr:housenumber" v="5929"/></node><node id="-238" lat="30.189692" lon="-97.738888" changeset="false"><tag k="addr:street" v="Red Bud Ridge Lane"/><tag k="addr:housenumber" v="5928"/></node><node id="-239" lat="30.189257" lon="-97.739316" changeset="false"><tag k="addr:street" v="Magnolia Mist Lane"/><tag k="addr:housenumber" v="5832"/></node><node id="-240" lat="30.19383" lon="-97.733902" changeset="false"><tag k="addr:street" v="Dove Creek Cove"/><tag k="addr:housenumber" v="4907"/></node><node id="-241" lat="30.190715" lon="-97.738331" changeset="false"><tag k="addr:street" v="Walnut Grove Drive"/><tag k="addr:housenumber" v="5413"/></node><node id="-242" lat="30.189595" lon="-97.735303" changeset="false"><tag k="addr:street" v="George Street"/><tag k="addr:housenumber" v="5404"/></node><node id="-243" lat="30.189768" lon="-97.735679" changeset="false"><tag k="addr:street" v="Blackjack Cove"/><tag k="addr:housenumber" v="5417"/></node><node id="-244" lat="30.192105" lon="-97.731039" changeset="false"><tag k="addr:street" v="Walnut Hollow Cove"/><tag k="addr:housenumber" v="5801"/></node><node id="-245" lat="30.193223" lon="-97.732192" changeset="false"><tag k="addr:street" v="Gnarled Oak Cove"/><tag k="addr:housenumber" v="4905"/></node><node id="-246" lat="30.193102" lon="-97.730865" changeset="false"><tag k="addr:street" v="Lark Creek Drive"/><tag k="addr:housenumber" v="5714"/></node><node id="-247" lat="30.186835" lon="-97.738217" changeset="false"><tag k="addr:street" v="Ainez Drive"/><tag k="addr:housenumber" v="5801"/></node><node id="-248" lat="30.193873" lon="-97.733455" changeset="false"><tag k="addr:street" v="Birch Creek Road"/><tag k="addr:housenumber" v="4904"/></node><node id="-249" lat="30.191493" lon="-97.736091" changeset="false"><tag k="addr:street" v="Mesquite Grove Road"/><tag k="addr:housenumber" v="5518"/></node><node id="-250" lat="30.192813" lon="-97.731395" changeset="false"><tag k="addr:street" v="Acorn Grove Court"/><tag k="addr:housenumber" v="5001"/></node><node id="-251" lat="30.194593" lon="-97.735613" changeset="false"><tag k="addr:street" v="Lark Creek Drive"/><tag k="addr:housenumber" v="5401"/></node><node id="-252" lat="30.194214" lon="-97.735899" changeset="false"><tag k="addr:street" v="Teri Road"/><tag k="addr:housenumber" v="5402"/></node><node id="-253" lat="30.16478" lon="-97.736975" changeset="false"><tag k="addr:street" v="Zequiel Drive"/><tag k="addr:housenumber" v="6601"/></node><node id="-254" lat="30.193587" lon="-97.735507" changeset="false"><tag k="addr:street" v="Teri Road"/><tag k="addr:housenumber" v="5501"/></node><node id="-255" lat="30.191798" lon="-97.737595" changeset="false"><tag k="addr:street" v="Walnut Grove Drive"/><tag k="addr:housenumber" v="5305"/></node><node id="-256" lat="30.18996" lon="-97.736083" changeset="false"><tag k="addr:street" v="Blackjack Cove"/><tag k="addr:housenumber" v="5416"/></node><node id="-257" lat="30.190714" lon="-97.738831" changeset="false"><tag k="addr:street" v="Walnut Grove Drive"/><tag k="addr:housenumber" v="5416"/></node><node id="-258" lat="30.19003" lon="-97.735051" changeset="false"><tag k="addr:street" v="George Street"/><tag k="addr:housenumber" v="5318"/></node><node id="-259" lat="30.192511" lon="-97.733162" changeset="false"><tag k="addr:street" v="Teri Road"/><tag k="addr:housenumber" v="5705"/></node><node id="-260" lat="30.164988" lon="-97.739221" changeset="false"><tag k="addr:street" v="Sailing Breeze Trail"/><tag k="addr:housenumber" v="6501"/></node><node id="-261" lat="30.166697" lon="-97.737931" changeset="false"><tag k="addr:street" v="Spring Fever Trail"/><tag k="addr:housenumber" v="6500"/></node><node id="-262" lat="30.165243" lon="-97.737668" changeset="false"><tag k="addr:street" v="Running Water Drive"/><tag k="addr:housenumber" v="7311"/></node><node id="-263" lat="30.194809" lon="-97.736061" changeset="false"><tag k="addr:street" v="Lark Creek Drive"/><tag k="addr:housenumber" v="5306"/></node><node id="-264" lat="30.19109" lon="-97.736484" changeset="false"><tag k="addr:street" v="Hickory Drive"/><tag k="addr:housenumber" v="5310"/></node><node id="-265" lat="30.192882" lon="-97.733147" changeset="false"><tag k="addr:street" v="Teri Road"/><tag k="addr:housenumber" v="5702"/></node><node id="-266" lat="30.19103" lon="-97.735934" changeset="false"><tag k="addr:street" v="Hickory Drive"/><tag k="addr:housenumber" v="5307"/></node><node id="-267" lat="30.190678" lon="-97.736742" changeset="false"><tag k="addr:street" v="Hickory Drive"/><tag k="addr:housenumber" v="5400"/></node><node id="-268" lat="30.190747" lon="-97.73553" changeset="false"><tag k="addr:street" v="Mesquite Grove Road"/><tag k="addr:housenumber" v="5613"/></node><node id="-269" lat="30.194181" lon="-97.734958" changeset="false"><tag k="addr:street" v="Lark Creek Cove"/><tag k="addr:housenumber" v="5006"/></node><node id="-270" lat="30.176554" lon="-97.743598" changeset="false"><tag k="addr:street" v="East William Cannon Drive"/><tag k="addr:housenumber" v="5600"/></node><node id="-271" lat="30.192394" lon="-97.739037" changeset="false"><tag k="addr:street" v="Nuckols Crossing Road"/><tag k="addr:housenumber" v="5309"/></node><node id="-272" lat="30.165309" lon="-97.739868" changeset="false"><tag k="addr:street" v="Sailing Breeze Trail"/><tag k="addr:housenumber" v="6411"/></node><node id="-273" lat="30.189321" lon="-97.735494" changeset="false"><tag k="addr:street" v="George Street"/><tag k="addr:housenumber" v="5412"/></node><node id="-274" lat="30.194414" lon="-97.735182" changeset="false"><tag k="addr:street" v="Lark Creek Cove"/><tag k="addr:housenumber" v="5002"/></node><node id="-275" lat="30.191444" lon="-97.730179" changeset="false"><tag k="addr:street" v="East Stassney Lane"/><tag k="addr:housenumber" v="5913"/></node><node id="-276" lat="30.191969" lon="-97.738057" changeset="false"><tag k="addr:street" v="Walnut Grove Drive"/><tag k="addr:housenumber" v="5310"/></node><node id="-277" lat="30.189886" lon="-97.735132" changeset="false"><tag k="addr:street" v="George Street"/><tag k="addr:housenumber" v="5322"/></node><node id="-278" lat="30.193305" lon="-97.738686" changeset="false"><tag k="addr:street" v="East Stassney Lane"/><tag k="addr:housenumber" v="5200"/></node><node id="-279" lat="30.189861" lon="-97.738097" changeset="false"><tag k="addr:street" v="Walnut Grove Drive"/><tag k="addr:housenumber" v="5442"/></node><node id="-280" lat="30.190543" lon="-97.737282" changeset="false"><tag k="addr:street" v="Walnut Grove Court"/><tag k="addr:housenumber" v="5217"/></node><node id="-281" lat="30.185375" lon="-97.742857" changeset="false"><tag k="addr:street" v="Nuckols Crossing Road"/><tag k="addr:housenumber" v="6011"/></node><node id="-282" lat="30.166175" lon="-97.739581" changeset="false"><tag k="addr:street" v="Orange Blossom Way"/><tag k="addr:housenumber" v="6413"/></node><node id="-283" lat="30.165576" lon="-97.737473" changeset="false"><tag k="addr:street" v="Running Water Drive"/><tag k="addr:housenumber" v="7307"/></node><node id="-284" lat="30.18442" lon="-97.743796" changeset="false"><tag k="addr:street" v="Nuckols Crossing Road"/><tag k="addr:housenumber" v="6113"/></node><node id="-285" lat="30.190359" lon="-97.740448" changeset="false"><tag k="addr:street" v="Nuckols Crossing Road"/><tag k="addr:housenumber" v="5503"/></node><node id="-286" lat="30.192706" lon="-97.739001" changeset="false"><tag k="addr:street" v="Nuckols Crossing Road"/><tag k="addr:housenumber" v="5303 1/2"/></node><node id="-287" lat="30.190509" lon="-97.736838" changeset="false"><tag k="addr:street" v="Hickory Drive"/><tag k="addr:housenumber" v="5404"/></node><node id="-288" lat="30.193475" lon="-97.733653" changeset="false"><tag k="addr:street" v="Birch Creek Road"/><tag k="addr:housenumber" v="5002"/></node><node id="-289" lat="30.189744" lon="-97.7352" changeset="false"><tag k="addr:street" v="George Street"/><tag k="addr:housenumber" v="5400"/></node><node id="-290" lat="30.193993" lon="-97.733817" changeset="false"><tag k="addr:street" v="Dove Creek Cove"/><tag k="addr:housenumber" v="4905"/></node><node id="-291" lat="30.191265" lon="-97.737926" changeset="false"><tag k="addr:street" v="Walnut Grove Drive"/><tag k="addr:housenumber" v="5401"/></node><node id="-292" lat="30.166491" lon="-97.737561" changeset="false"><tag k="addr:street" v="Spring Fever Trail"/><tag k="addr:housenumber" v="6504"/></node><node id="-293" lat="30.163974" lon="-97.737367" changeset="false"><tag k="addr:street" v="Crepe Myrtle Drive"/><tag k="addr:housenumber" v="7408"/></node><node id="-294" lat="30.164287" lon="-97.736948" changeset="false"><tag k="addr:street" v="Crepe Myrtle Drive"/><tag k="addr:housenumber" v="7413"/></node><node id="-295" lat="30.191978" lon="-97.735752" changeset="false"><tag k="addr:street" v="China Berry Road"/><tag k="addr:housenumber" v="5507"/></node><node id="-296" lat="30.183445" lon="-97.744605" changeset="false"><tag k="addr:street" v="South Pleasant Valley Road"/><tag k="addr:housenumber" v="6319"/></node><node id="-297" lat="30.192494" lon="-97.736802" changeset="false"><tag k="addr:street" v="China Berry Road"/><tag k="addr:housenumber" v="5405"/></node><node id="-298" lat="30.190685" lon="-97.735369" changeset="false"><tag k="addr:street" v="Mesquite Grove Road"/><tag k="addr:housenumber" v="5617"/></node><node id="-299" lat="30.165131" lon="-97.737745" changeset="false"><tag k="addr:street" v="Running Water Drive"/><tag k="addr:housenumber" v="7313"/></node><node id="-300" lat="30.190495" lon="-97.735054" changeset="false"><tag k="addr:street" v="Mesquite Grove Road"/><tag k="addr:housenumber" v="5701"/></node><node id="-301" lat="30.16577" lon="-97.737236" changeset="false"><tag k="addr:street" v="Running Water Drive"/><tag k="addr:housenumber" v="7303"/></node><node id="-302" lat="30.179827" lon="-97.746657" changeset="false"><tag k="addr:street" v="South Pleasant Valley Road"/><tag k="addr:housenumber" v="6517"/></node><node id="-303" lat="30.163153" lon="-97.736528" changeset="false"><tag k="addr:street" v="Springtime Trail"/><tag k="addr:housenumber" v="7415"/></node><node id="-304" lat="30.190437" lon="-97.734779" changeset="false"><tag k="addr:street" v="George Street"/><tag k="addr:housenumber" v="5306"/></node><node id="-305" lat="30.190297" lon="-97.733275" changeset="false"><tag k="addr:street" v="Jimmy Clay Drive"/><tag k="addr:housenumber" v="5300"/></node><node id="-306" lat="30.193248" lon="-97.733174" changeset="false"><tag k="addr:street" v="Birch Creek Road"/><tag k="addr:housenumber" v="5003"/></node><node id="-307" lat="30.190121" lon="-97.737117" changeset="false"><tag k="addr:street" v="Hickory Drive"/><tag k="addr:housenumber" v="5416"/></node><node id="-308" lat="30.196938" lon="-97.736376" changeset="false"><tag k="addr:street" v="Nuckols Crossing Road"/><tag k="addr:housenumber" v="4903"/></node><node id="-309" lat="30.190387" lon="-97.734085" changeset="false"><tag k="addr:street" v="George Street"/><tag k="addr:housenumber" v="5301"/></node><node id="-310" lat="30.190407" lon="-97.734158" changeset="false"><tag k="addr:street" v="George Street"/><tag k="addr:housenumber" v="5301 1/2"/></node><node id="-311" lat="30.193364" lon="-97.738531" changeset="false"><tag k="addr:street" v="Nuckols Crossing Road"/><tag k="addr:housenumber" v="5205"/></node><node id="-312" lat="30.193455" lon="-97.738445" changeset="false"><tag k="addr:street" v="Nuckols Crossing Road"/><tag k="addr:housenumber" v="5203"/></node><node id="-313" lat="30.186906" lon="-97.742538" changeset="false"><tag k="addr:street" v="Nuckols Crossing Road"/><tag k="addr:housenumber" v="5905"/></node><node id="-314" lat="30.186902" lon="-97.742444" changeset="false"><tag k="addr:street" v="Nuckols Crossing Road"/><tag k="addr:housenumber" v="5905 1/2"/></node></osm>