<?xml version="1.0" encoding="UTF-8"?><osm version="0.6" generator="github.com/aaronlidman/osm-and-geojson"><node id="-1" lat="30.429493" lon="-97.629422" changeset="false"><tag k="addr:street" v="Settlers Valley Drive"/><tag k="addr:housenumber" v="213"/><tag k="coa:place_id" v="3114308"/></node><node id="-2" lat="30.428493" lon="-97.627722" changeset="false"><tag k="addr:street" v="Rutgers Drive"/><tag k="addr:housenumber" v="1105"/><tag k="coa:place_id" v="3114362"/></node><node id="-3" lat="30.417729" lon="-97.638449" changeset="false"><tag k="addr:street" v="Tudor House Road"/><tag k="addr:housenumber" v="1221"/><tag k="coa:place_id" v="3051293"/></node><node id="-4" lat="30.431121" lon="-97.637796" changeset="false"><tag k="addr:street" v="Saddlegirth Lane"/><tag k="addr:housenumber" v="15004"/><tag k="coa:place_id" v="1164861"/></node><node id="-5" lat="30.419774" lon="-97.638102" changeset="false"><tag k="addr:street" v="Oolong Lane"/><tag k="addr:housenumber" v="1321"/><tag k="coa:place_id" v="3076190"/></node><node id="-6" lat="30.426761" lon="-97.629052" changeset="false"><tag k="addr:street" v="Ambrose Drive"/><tag k="addr:housenumber" v="115"/><tag k="coa:place_id" v="3114198"/></node><node id="-7" lat="30.433702" lon="-97.637008" changeset="false"><tag k="addr:street" v="Twisted Fence Drive"/><tag k="addr:housenumber" v="820"/><tag k="coa:place_id" v="1157061"/></node><node id="-8" lat="30.428483" lon="-97.628275" changeset="false"><tag k="addr:street" v="Rutgers Drive"/><tag k="addr:housenumber" v="1106"/><tag k="coa:place_id" v="3114363"/></node><node id="-9" lat="30.431922" lon="-97.630793" changeset="false"><tag k="addr:street" v="Olympic Drive"/><tag k="addr:housenumber" v="603"/><tag k="coa:place_id" v="3114264"/></node><node id="-10" lat="30.414097" lon="-97.633785" changeset="false"><tag k="addr:street" v="Tudor House Road"/><tag k="addr:housenumber" v="1525 1/2"/><tag k="coa:place_id" v="3073838"/></node><node id="-11" lat="30.423232" lon="-97.629303" changeset="false"><tag k="addr:street" v="Saint Croix Lane"/><tag k="addr:housenumber" v="1500"/><tag k="coa:place_id" v="73676"/></node><node id="-12" lat="30.426223" lon="-97.633177" changeset="false"><tag k="addr:street" v="Crete Lane"/><tag k="addr:housenumber" v="1304"/><tag k="coa:place_id" v="73649"/></node><node id="-13" lat="30.416513" lon="-97.637126" changeset="false"><tag k="addr:street" v="Tudor House Road"/><tag k="addr:housenumber" v="1321"/><tag k="coa:place_id" v="3051312"/></node><node id="-14" lat="30.428264" lon="-97.630919" changeset="false"><tag k="addr:street" v="Ambrose Drive"/><tag k="addr:housenumber" v="403"/><tag k="coa:place_id" v="3114140"/></node><node id="-15" lat="30.429258" lon="-97.628416" changeset="false"><tag k="addr:street" v="Rutgers Drive"/><tag k="addr:housenumber" v="1014"/><tag k="coa:place_id" v="3114355"/></node><node id="-16" lat="30.432406" lon="-97.638947" changeset="false"><tag k="addr:street" v="Antique Finish Drive"/><tag k="addr:housenumber" v="15021"/><tag k="coa:place_id" v="1164878"/></node><node id="-17" lat="30.425261" lon="-97.632705" changeset="false"><tag k="addr:street" v="Crete Lane"/><tag k="addr:housenumber" v="1311"/><tag k="coa:place_id" v="73642"/></node><node id="-18" lat="30.425267" lon="-97.640871" changeset="false"><tag k="addr:street" v="Tudor House Road"/><tag k="addr:housenumber" v="521"/><tag k="coa:place_id" v="3085899"/></node><node id="-19" lat="30.426282" lon="-97.640692" changeset="false"><tag k="addr:street" v="Tudor House Road"/><tag k="addr:housenumber" v="420"/><tag k="coa:place_id" v="3085648"/></node><node id="-20" lat="30.433176" lon="-97.637892" changeset="false"><tag k="addr:street" v="Plowshare Drive"/><tag k="addr:housenumber" v="15200"/><tag k="coa:place_id" v="1158182"/></node><node id="-21" lat="30.431287" lon="-97.631035" changeset="false"><tag k="addr:street" v="Brown Drive"/><tag k="addr:housenumber" v="1008"/><tag k="coa:place_id" v="3114119"/></node><node id="-22" lat="30.43097" lon="-97.636185" changeset="false"><tag k="addr:street" v="Lantern Drive"/><tag k="addr:housenumber" v="15027"/><tag k="coa:place_id" v="3069308"/></node><node id="-23" lat="30.430141" lon="-97.640388" changeset="false"><tag k="addr:street" v="Lantern Drive"/><tag k="addr:housenumber" v="14701"/><tag k="coa:place_id" v="3080280"/></node><node id="-24" lat="30.430039" lon="-97.64018" changeset="false"><tag k="addr:street" v="Lantern Drive"/><tag k="addr:housenumber" v="14705"/><tag k="coa:place_id" v="3080281"/></node><node id="-25" lat="30.425104" lon="-97.64091" changeset="false"><tag k="addr:street" v="Tudor House Road"/><tag k="addr:housenumber" v="525"/><tag k="coa:place_id" v="3085900"/></node><node id="-26" lat="30.424035" lon="-97.632463" changeset="false"><tag k="addr:street" v="Saint Croix Lane"/><tag k="addr:housenumber" v="1401"/><tag k="coa:place_id" v="73666"/></node><node id="-27" lat="30.42318" lon="-97.628297" changeset="false"><tag k="addr:street" v="Crete Lane"/><tag k="addr:housenumber" v="1509"/><tag k="coa:place_id" v="179213"/></node><node id="-28" lat="30.425113" lon="-97.634283" changeset="false"><tag k="addr:street" v="Saint Croix Lane"/><tag k="addr:housenumber" v="1303"/><tag k="coa:place_id" v="889059"/></node><node id="-29" lat="30.431836" lon="-97.630603" changeset="false"><tag k="addr:street" v="Olympic Drive"/><tag k="addr:housenumber" v="601"/><tag k="coa:place_id" v="3287916"/></node><node id="-30" lat="30.429008" lon="-97.627394" changeset="false"><tag k="addr:street" v="Vanderbilt Circle"/><tag k="addr:housenumber" v="1012"/><tag k="coa:place_id" v="3114378"/></node><node id="-31" lat="30.416017" lon="-97.637838" changeset="false"><tag k="addr:street" v="Ceylon Tea Circle"/><tag k="addr:housenumber" v="14101 1/2"/><tag k="coa:place_id" v="3076053"/></node><node id="-32" lat="30.417623" lon="-97.638346" changeset="false"><tag k="addr:street" v="Tudor House Road"/><tag k="addr:housenumber" v="1225"/><tag k="coa:place_id" v="3051287"/></node><node id="-33" lat="30.427922" lon="-97.630706" changeset="false"><tag k="addr:street" v="Ambrose Drive"/><tag k="addr:housenumber" v="305"/><tag k="coa:place_id" v="3114203"/></node><node id="-34" lat="30.421337" lon="-97.641625" changeset="false"><tag k="addr:street" v="Battenburg Trail"/><tag k="addr:housenumber" v="1000"/><tag k="coa:place_id" v="3085871"/></node><node id="-35" lat="30.418168" lon="-97.631544" changeset="false"><tag k="addr:street" v="Whittard of Chelsea Lane"/><tag k="addr:housenumber" v="1821"/><tag k="coa:place_id" v="3077285"/></node><node id="-36" lat="30.415447" lon="-97.635923" changeset="false"><tag k="addr:street" v="Tea Room Cove"/><tag k="addr:housenumber" v="14212"/><tag k="coa:place_id" v="3051340"/></node><node id="-37" lat="30.421669" lon="-97.637602" changeset="false"><tag k="addr:street" v="Darjeeling Drive"/><tag k="addr:housenumber" v="1323 1/2"/><tag k="coa:place_id" v="3091408"/></node><node id="-38" lat="30.432397" lon="-97.631877" changeset="false"><tag k="addr:street" v="Olympic Drive"/><tag k="addr:housenumber" v="805"/><tag k="coa:place_id" v="3114274"/></node><node id="-39" lat="30.431008" lon="-97.636197" changeset="false"><tag k="addr:street" v="Lantern Drive"/><tag k="addr:housenumber" v="15025"/><tag k="coa:place_id" v="3069309"/></node><node id="-40" lat="30.41809" lon="-97.639801" changeset="false"><tag k="addr:street" v="Ceylon Tea Circle"/><tag k="addr:housenumber" v="13815 1/2"/><tag k="coa:place_id" v="3148203"/></node><node id="-41" lat="30.423553" lon="-97.629014" changeset="false"><tag k="addr:street" v="Crete Lane"/><tag k="addr:housenumber" v="1501"/><tag k="coa:place_id" v="73658"/></node><node id="-42" lat="30.426417" lon="-97.640738" changeset="false"><tag k="addr:street" v="Tudor House Road"/><tag k="addr:housenumber" v="416"/><tag k="coa:place_id" v="3085646"/></node><node id="-43" lat="30.432523" lon="-97.632266" changeset="false"><tag k="addr:street" v="Olympic Drive"/><tag k="addr:housenumber" v="901"/><tag k="coa:place_id" v="3114278"/></node><node id="-44" lat="30.431388" lon="-97.638239" changeset="false"><tag k="addr:street" v="Thayer Cove"/><tag k="addr:housenumber" v="905"/><tag k="coa:place_id" v="1164890"/></node><node id="-45" lat="30.417018" lon="-97.637659" changeset="false"><tag k="addr:street" v="Tudor House Road"/><tag k="addr:housenumber" v="1301"/><tag k="coa:place_id" v="3051313"/></node><node id="-46" lat="30.416623" lon="-97.637228" changeset="false"><tag k="addr:street" v="Tudor House Road"/><tag k="addr:housenumber" v="1317"/><tag k="coa:place_id" v="3051311"/></node><node id="-47" lat="30.425306" lon="-97.639736" changeset="false"><tag k="addr:street" v="Tudor House Road"/><tag k="addr:housenumber" v="528"/><tag k="coa:place_id" v="3085911"/></node><node id="-48" lat="30.423374" lon="-97.629689" changeset="false"><tag k="addr:street" v="Saint Croix Lane"/><tag k="addr:housenumber" v="1426"/><tag k="coa:place_id" v="73675"/></node><node id="-49" lat="30.431641" lon="-97.630837" changeset="false"><tag k="addr:street" v="Brown Drive"/><tag k="addr:housenumber" v="1002"/><tag k="coa:place_id" v="3114117"/></node><node id="-50" lat="30.431369" lon="-97.631809" changeset="false"><tag k="addr:street" v="Clemson Cove"/><tag k="addr:housenumber" v="1105"/><tag k="coa:place_id" v="3114111"/></node><node id="-51" lat="30.429197" lon="-97.63044" changeset="false"><tag k="addr:street" v="Brown Drive"/><tag k="addr:housenumber" v="1116"/><tag k="coa:place_id" v="3114176"/></node><node id="-52" lat="30.414177" lon="-97.634125" changeset="false"><tag k="addr:street" v="Tudor House Road"/><tag k="addr:housenumber" v="1517"/><tag k="coa:place_id" v="3051491"/></node><node id="-53" lat="30.414657" lon="-97.635117" changeset="false"><tag k="addr:street" v="Tudor House Road"/><tag k="addr:housenumber" v="1429"/><tag k="coa:place_id" v="3051346"/></node><node id="-54" lat="30.427445" lon="-97.641221" changeset="false"><tag k="addr:street" v="Tudor House Road"/><tag k="addr:housenumber" v="309"/><tag k="coa:place_id" v="3085679"/></node><node id="-55" lat="30.420342" lon="-97.638921" changeset="false"><tag k="addr:street" v="Tudor House Road"/><tag k="addr:housenumber" v="1032"/><tag k="coa:place_id" v="3079445"/></node><node id="-56" lat="30.427733" lon="-97.641171" changeset="false"><tag k="addr:street" v="Tudor House Road"/><tag k="addr:housenumber" v="301"/><tag k="coa:place_id" v="3085677"/></node><node id="-57" lat="30.424105" lon="-97.630186" changeset="false"><tag k="addr:street" v="Crete Lane"/><tag k="addr:housenumber" v="1419"/><tag k="coa:place_id" v="73661"/></node><node id="-58" lat="30.425443" lon="-97.637741" changeset="false"><tag k="addr:street" v="Hyson Crossing"/><tag k="addr:housenumber" v="15013"/><tag k="coa:place_id" v="3098627"/></node><node id="-59" lat="30.430277" lon="-97.640695" changeset="false"><tag k="addr:street" v="Lantern Drive"/><tag k="addr:housenumber" v="14625"/><tag k="coa:place_id" v="3080277"/></node><node id="-60" lat="30.429943" lon="-97.628877" changeset="false"><tag k="addr:street" v="Settlers Valley Drive"/><tag k="addr:housenumber" v="218"/><tag k="coa:place_id" v="3114313"/></node><node id="-61" lat="30.429891" lon="-97.626678" changeset="false"><tag k="addr:street" v="Olympic Drive"/><tag k="addr:housenumber" v="111"/><tag k="coa:place_id" v="3114336"/></node><node id="-62" lat="30.429909" lon="-97.638522" changeset="false"><tag k="addr:street" v="Lantern Drive"/><tag k="addr:housenumber" v="14817"/><tag k="coa:place_id" v="3069290"/></node><node id="-63" lat="30.412537" lon="-97.634864" changeset="false"><tag k="addr:street" v="Dessau Road"/><tag k="addr:housenumber" v="13826"/><tag k="coa:place_id" v="601131"/></node><node id="-64" lat="30.42472" lon="-97.632589" changeset="false"><tag k="addr:street" v="Saint Croix Lane"/><tag k="addr:housenumber" v="1314"/><tag k="coa:place_id" v="73664"/></node><node id="-65" lat="30.419404" lon="-97.63902" changeset="false"><tag k="addr:street" v="Tudor House Road"/><tag k="addr:housenumber" v="1116"/><tag k="coa:place_id" v="3076213"/></node><node id="-66" lat="30.427569" lon="-97.627246" changeset="false"><tag k="addr:street" v="Vanderbilt Circle"/><tag k="addr:housenumber" v="1110"/><tag k="coa:place_id" v="3114392"/></node><node id="-67" lat="30.426839" lon="-97.640843" changeset="false"><tag k="addr:street" v="Tudor House Road"/><tag k="addr:housenumber" v="404"/><tag k="coa:place_id" v="3085640"/></node><node id="-68" lat="30.4223" lon="-97.630223" changeset="false"><tag k="addr:street" v="Sweet Leaf Lane"/><tag k="addr:housenumber" v="423 1/2"/><tag k="coa:place_id" v="3279074"/></node><node id="-69" lat="30.42993" lon="-97.638145" changeset="false"><tag k="addr:street" v="Lantern Drive"/><tag k="addr:housenumber" v="14825"/><tag k="coa:place_id" v="3374907"/></node><node id="-70" lat="30.431117" lon="-97.628995" changeset="false"><tag k="addr:street" v="Settlers Valley Drive"/><tag k="addr:housenumber" v="229"/><tag k="coa:place_id" v="3287923"/></node><node id="-71" lat="30.424453" lon="-97.631003" changeset="false"><tag k="addr:street" v="Crete Lane"/><tag k="addr:housenumber" v="1411"/><tag k="coa:place_id" v="182104"/></node><node id="-72" lat="30.423254" lon="-97.630781" changeset="false"><tag k="addr:street" v="Saint Croix Lane"/><tag k="addr:housenumber" v="1419"/><tag k="coa:place_id" v="73682"/></node><node id="-73" lat="30.43303" lon="-97.635631" changeset="false"><tag k="addr:street" v="Twisted Fence Drive"/><tag k="addr:housenumber" v="928"/><tag k="coa:place_id" v="1157069"/></node><node id="-74" lat="30.432603" lon="-97.637728" changeset="false"><tag k="addr:street" v="Melted Candle Cove"/><tag k="addr:housenumber" v="901"/><tag k="coa:place_id" v="1158167"/></node><node id="-75" lat="30.43116" lon="-97.632835" changeset="false"><tag k="addr:street" v="Clemson Cove"/><tag k="addr:housenumber" v="803"/><tag k="coa:place_id" v="3114103"/></node><node id="-76" lat="30.430416" lon="-97.64015" changeset="false"><tag k="addr:street" v="Lantern Drive"/><tag k="addr:housenumber" v="14700"/><tag k="coa:place_id" v="3080279"/></node><node id="-77" lat="30.433601" lon="-97.63863" changeset="false"><tag k="addr:street" v="Antique Heritage Drive"/><tag k="addr:housenumber" v="1012"/><tag k="coa:place_id" v="1158193"/></node><node id="-78" lat="30.42454" lon="-97.642601" changeset="false"><tag k="addr:street" v="Battenburg Trail"/><tag k="addr:housenumber" v="604"/><tag k="coa:place_id" v="3085787"/></node><node id="-79" lat="30.424284" lon="-97.630574" changeset="false"><tag k="addr:street" v="Crete Lane"/><tag k="addr:housenumber" v="1415"/><tag k="coa:place_id" v="73662"/></node><node id="-80" lat="30.423071" lon="-97.63043" changeset="false"><tag k="addr:street" v="Saint Croix Lane"/><tag k="addr:housenumber" v="1423"/><tag k="coa:place_id" v="73681"/></node><node id="-81" lat="30.422722" lon="-97.629646" changeset="false"><tag k="addr:street" v="Saint Croix Lane"/><tag k="addr:housenumber" v="1501"/><tag k="coa:place_id" v="73679"/></node><node id="-82" lat="30.41457" lon="-97.634977" changeset="false"><tag k="addr:street" v="Tudor House Road"/><tag k="addr:housenumber" v="1433"/><tag k="coa:place_id" v="3051347"/></node><node id="-83" lat="30.429867" lon="-97.639136" changeset="false"><tag k="addr:street" v="Lantern Drive"/><tag k="addr:housenumber" v="14801"/><tag k="coa:place_id" v="3069286"/></node><node id="-84" lat="30.429782" lon="-97.631965" changeset="false"><tag k="addr:street" v="Ambrose Drive"/><tag k="addr:housenumber" v="601"/><tag k="coa:place_id" v="3114151"/></node><node id="-85" lat="30.41685" lon="-97.632182" changeset="false"><tag k="addr:street" v="Sweet Leaf Lane"/><tag k="addr:housenumber" v="1617"/><tag k="coa:place_id" v="3077237"/></node><node id="-86" lat="30.419297" lon="-97.640028" changeset="false"><tag k="addr:street" v="Tudor House Road"/><tag k="addr:housenumber" v="1101"/><tag k="coa:place_id" v="3079451"/></node><node id="-87" lat="30.418819" lon="-97.631186" changeset="false"><tag k="addr:street" v="Whittard of Chelsea Lane"/><tag k="addr:housenumber" v="1801"/><tag k="coa:place_id" v="3077281"/></node><node id="-88" lat="30.429073" lon="-97.628397" changeset="false"><tag k="addr:street" v="Rutgers Drive"/><tag k="addr:housenumber" v="1100"/><tag k="coa:place_id" v="3114357"/></node><node id="-89" lat="30.417941" lon="-97.638673" changeset="false"><tag k="addr:street" v="Tudor House Road"/><tag k="addr:housenumber" v="1213"/><tag k="coa:place_id" v="3051285"/></node><node id="-90" lat="30.425115" lon="-97.633339" changeset="false"><tag k="addr:street" v="Saint Croix Lane"/><tag k="addr:housenumber" v="1306"/><tag k="coa:place_id" v="186191"/></node><node id="-91" lat="30.426691" lon="-97.640839" changeset="false"><tag k="addr:street" v="Tudor House Road"/><tag k="addr:housenumber" v="408"/><tag k="coa:place_id" v="3085642"/></node><node id="-92" lat="30.424987" lon="-97.640084" changeset="false"><tag k="addr:street" v="Tudor House Road"/><tag k="addr:housenumber" v="532 1/2"/><tag k="coa:place_id" v="3126645"/></node><node id="-93" lat="30.424863" lon="-97.639525" changeset="false"><tag k="addr:street" v="Tudor House Road"/><tag k="addr:housenumber" v="604"/><tag k="coa:place_id" v="3085913"/></node><node id="-94" lat="30.423028" lon="-97.628915" changeset="false"><tag k="addr:street" v="Saint Croix Lane"/><tag k="addr:housenumber" v="1504"/><tag k="coa:place_id" v="73677"/></node><node id="-95" lat="30.417324" lon="-97.637991" changeset="false"><tag k="addr:street" v="Tudor House Road"/><tag k="addr:housenumber" v="1237"/><tag k="coa:place_id" v="3051290"/></node><node id="-96" lat="30.434093" lon="-97.6378" changeset="false"><tag k="addr:street" v="Twisted Fence Drive"/><tag k="addr:housenumber" v="800"/><tag k="coa:place_id" v="1158158"/></node><node id="-97" lat="30.417326" lon="-97.635018" changeset="false"><tag k="addr:street" v="Alderminster Lane"/><tag k="addr:housenumber" v="14421"/><tag k="coa:place_id" v="3051400"/></node><node id="-98" lat="30.430552" lon="-97.639098" changeset="false"><tag k="addr:street" v="Tapestry Cove"/><tag k="addr:housenumber" v="817"/><tag k="coa:place_id" v="1164818"/></node><node id="-99" lat="30.432262" lon="-97.638924" changeset="false"><tag k="addr:street" v="Antique Finish Drive"/><tag k="addr:housenumber" v="15017"/><tag k="coa:place_id" v="1164877"/></node><node id="-100" lat="30.42925" lon="-97.635212" changeset="false"><tag k="addr:street" v="Wells Branch Parkway"/><tag k="addr:housenumber" v="1040"/><tag k="coa:place_id" v="3363886"/></node><node id="-101" lat="30.435146" lon="-97.641212" changeset="false"><tag k="addr:street" v="Broken Feather Trail"/><tag k="addr:housenumber" v="900"/><tag k="coa:place_id" v="3312510"/></node><node id="-102" lat="30.429905" lon="-97.638658" changeset="false"><tag k="addr:street" v="Lantern Drive"/><tag k="addr:housenumber" v="14813"/><tag k="coa:place_id" v="3069289"/></node><node id="-103" lat="30.426453" lon="-97.628483" changeset="false"><tag k="addr:street" v="Ambrose Drive"/><tag k="addr:housenumber" v="109"/><tag k="coa:place_id" v="3114195"/></node><node id="-104" lat="30.416223" lon="-97.636798" changeset="false"><tag k="addr:street" v="Tudor House Road"/><tag k="addr:housenumber" v="1333"/><tag k="coa:place_id" v="3051336"/></node><node id="-105" lat="30.425523" lon="-97.64031" changeset="false"><tag k="addr:street" v="Tudor House Road"/><tag k="addr:housenumber" v="516"/><tag k="coa:place_id" v="3085908"/></node><node id="-106" lat="30.431547" lon="-97.63789" changeset="false"><tag k="addr:street" v="Thayer Cove"/><tag k="addr:housenumber" v="908"/><tag k="coa:place_id" v="1164840"/></node><node id="-107" lat="30.427084" lon="-97.639405" changeset="false"><tag k="addr:street" v="Hyson Crossing"/><tag k="addr:housenumber" v="15217"/><tag k="coa:place_id" v="3098701"/></node><node id="-108" lat="30.425345" lon="-97.638082" changeset="false"><tag k="addr:street" v="Hyson Crossing"/><tag k="addr:housenumber" v="15012 1/2"/><tag k="coa:place_id" v="3121812"/></node><node id="-109" lat="30.417827" lon="-97.638561" changeset="false"><tag k="addr:street" v="Tudor House Road"/><tag k="addr:housenumber" v="1217"/><tag k="coa:place_id" v="3051286"/></node><node id="-110" lat="30.423912" lon="-97.628421" changeset="false"><tag k="addr:street" v="Crete Lane"/><tag k="addr:housenumber" v="1504"/><tag k="coa:place_id" v="73656"/></node><node id="-111" lat="30.423927" lon="-97.630847" changeset="false"><tag k="addr:street" v="Saint Croix Lane"/><tag k="addr:housenumber" v="1414"/><tag k="coa:place_id" v="73672"/></node><node id="-112" lat="30.428424" lon="-97.631036" changeset="false"><tag k="addr:street" v="Ambrose Drive"/><tag k="addr:housenumber" v="405"/><tag k="coa:place_id" v="3114141"/></node><node id="-113" lat="30.428392" lon="-97.641261" changeset="false"><tag k="addr:street" v="Tudor House Road"/><tag k="addr:housenumber" v="211 1/2"/><tag k="coa:place_id" v="3111856"/></node><node id="-114" lat="30.431285" lon="-97.636983" changeset="false"><tag k="addr:street" v="Saddlegirth Lane"/><tag k="addr:housenumber" v="15019"/><tag k="coa:place_id" v="1164839"/></node><node id="-115" lat="30.418078" lon="-97.638756" changeset="false"><tag k="addr:street" v="Tudor House Road"/><tag k="addr:housenumber" v="1209"/><tag k="coa:place_id" v="3051284"/></node><node id="-116" lat="30.425722" lon="-97.641107" changeset="false"><tag k="addr:street" v="Earl Grey Lane"/><tag k="addr:housenumber" v="14909"/><tag k="coa:place_id" v="3085920"/></node><node id="-117" lat="30.425808" lon="-97.643093" changeset="false"><tag k="addr:street" v="Sally Lunn Way"/><tag k="addr:housenumber" v="905"/><tag k="coa:place_id" v="3085691"/></node><node id="-118" lat="30.41476" lon="-97.635257" changeset="false"><tag k="addr:street" v="Tudor House Road"/><tag k="addr:housenumber" v="1425"/><tag k="coa:place_id" v="3051345"/></node><node id="-119" lat="30.422643" lon="-97.63671" changeset="false"><tag k="addr:street" v="Tea Leaf Drive"/><tag k="addr:housenumber" v="1209"/><tag k="coa:place_id" v="3098608"/></node><node id="-120" lat="30.427287" lon="-97.628137" changeset="false"><tag k="addr:street" v="Loyola Drive"/><tag k="addr:housenumber" v="107"/><tag k="coa:place_id" v="3114294"/></node><node id="-121" lat="30.419195" lon="-97.639365" changeset="false"><tag k="addr:street" v="Tudor House Road"/><tag k="addr:housenumber" v="1113"/><tag k="coa:place_id" v="3079247"/></node><node id="-122" lat="30.419172" lon="-97.639837" changeset="false"><tag k="addr:street" v="Tudor House Road"/><tag k="addr:housenumber" v="1105"/><tag k="coa:place_id" v="3079452"/></node><node id="-123" lat="30.426381" lon="-97.636335" changeset="false"><tag k="addr:street" v="Lady Elizabeths Lane"/><tag k="addr:housenumber" v="15301"/><tag k="coa:place_id" v="3108879"/></node><node id="-124" lat="30.424385" lon="-97.631812" changeset="false"><tag k="addr:street" v="Saint Croix Lane"/><tag k="addr:housenumber" v="1404"/><tag k="coa:place_id" v="182106"/></node><node id="-125" lat="30.42445" lon="-97.63973" changeset="false"><tag k="addr:street" v="Tudor House Road"/><tag k="addr:housenumber" v="616"/><tag k="coa:place_id" v="3085916"/></node><node id="-126" lat="30.423369" lon="-97.628659" changeset="false"><tag k="addr:street" v="Crete Lane"/><tag k="addr:housenumber" v="1505"/><tag k="coa:place_id" v="73657"/></node><node id="-127" lat="30.433165" lon="-97.634593" changeset="false"><tag k="addr:street" v="Rocking Spur Cove"/><tag k="addr:housenumber" v="907"/><tag k="coa:place_id" v="230795"/></node><node id="-128" lat="30.423726" lon="-97.627987" changeset="false"><tag k="addr:street" v="Crete Lane"/><tag k="addr:housenumber" v="1508"/><tag k="coa:place_id" v="180331"/></node><node id="-129" lat="30.431272" lon="-97.629498" changeset="false"><tag k="addr:street" v="Olympic Drive"/><tag k="addr:housenumber" v="405"/><tag k="coa:place_id" v="3114286"/></node><node id="-130" lat="30.432141" lon="-97.638983" changeset="false"><tag k="addr:street" v="Antique Finish Drive"/><tag k="addr:housenumber" v="15013"/><tag k="coa:place_id" v="1164876"/></node><node id="-131" lat="30.429288" lon="-97.625452" changeset="false"><tag k="addr:street" v="Olympic Drive"/><tag k="addr:housenumber" v="101"/><tag k="coa:place_id" v="3114327"/></node><node id="-132" lat="30.422892" lon="-97.630017" changeset="false"><tag k="addr:street" v="Saint Croix Lane"/><tag k="addr:housenumber" v="1427"/><tag k="coa:place_id" v="73680"/></node><node id="-133" lat="30.433633" lon="-97.636874" changeset="false"><tag k="addr:street" v="Twisted Fence Drive"/><tag k="addr:housenumber" v="824"/><tag k="coa:place_id" v="1157062"/></node><node id="-134" lat="30.430359" lon="-97.636624" changeset="false"><tag k="addr:street" v="Lantern Drive"/><tag k="addr:housenumber" v="15001"/><tag k="coa:place_id" v="3069303"/></node><node id="-135" lat="30.414116" lon="-97.633984" changeset="false"><tag k="addr:street" v="Tudor House Road"/><tag k="addr:housenumber" v="1521"/><tag k="coa:place_id" v="3051492"/></node><node id="-136" lat="30.424553" lon="-97.632233" changeset="false"><tag k="addr:street" v="Saint Croix Lane"/><tag k="addr:housenumber" v="1400"/><tag k="coa:place_id" v="73665"/></node><node id="-137" lat="30.429794" lon="-97.626461" changeset="false"><tag k="addr:street" v="Olympic Drive"/><tag k="addr:housenumber" v="109"/><tag k="coa:place_id" v="3114335"/></node><node id="-138" lat="30.425729" lon="-97.632436" changeset="false"><tag k="addr:street" v="Crete Lane"/><tag k="addr:housenumber" v="1310"/><tag k="coa:place_id" v="73647"/></node><node id="-139" lat="30.434319" lon="-97.635654" changeset="false"><tag k="addr:street" v="Low Brim Cove"/><tag k="addr:housenumber" v="900"/><tag k="coa:place_id" v="3374540"/></node><node id="-140" lat="30.425954" lon="-97.633452" changeset="false"><tag k="addr:street" v="Crete Lane"/><tag k="addr:housenumber" v="1302"/><tag k="coa:place_id" v="73650"/></node><node id="-141" lat="30.430462" lon="-97.634537" changeset="false"><tag k="addr:street" v="10th Street"/><tag k="addr:housenumber" v="1200"/><tag k="coa:place_id" v="3774134"/></node><node id="-142" lat="30.431467" lon="-97.638412" changeset="false"><tag k="addr:street" v="Thayer Cove"/><tag k="addr:housenumber" v="901"/><tag k="coa:place_id" v="3374554"/></node><node id="-143" lat="30.420185" lon="-97.638816" changeset="false"><tag k="addr:street" v="Tudor House Road"/><tag k="addr:housenumber" v="1036"/><tag k="coa:place_id" v="3079446"/></node><node id="-144" lat="30.412796" lon="-97.634337" changeset="false"><tag k="addr:street" v="Dessau Road"/><tag k="addr:housenumber" v="13826 1/2"/><tag k="coa:place_id" v="237641"/></node><node id="-145" lat="30.426779" lon="-97.627091" changeset="false"><tag k="addr:street" v="Vanderbilt Circle"/><tag k="addr:housenumber" v="1201"/><tag k="coa:place_id" v="3114209"/></node><node id="-146" lat="30.427191" lon="-97.627929" changeset="false"><tag k="addr:street" v="Loyola Drive"/><tag k="addr:housenumber" v="105"/><tag k="coa:place_id" v="3114293"/></node><node id="-147" lat="30.434036" lon="-97.637596" changeset="false"><tag k="addr:street" v="Twisted Fence Drive"/><tag k="addr:housenumber" v="804"/><tag k="coa:place_id" v="1158154"/></node><node id="-148" lat="30.422861" lon="-97.628539" changeset="false"><tag k="addr:street" v="Saint Croix Lane"/><tag k="addr:housenumber" v="1508"/><tag k="coa:place_id" v="179214"/></node><node id="-149" lat="30.419665" lon="-97.640219" changeset="false"><tag k="addr:street" v="Tudor House Road"/><tag k="addr:housenumber" v="1033"/><tag k="coa:place_id" v="3079450"/></node><node id="-150" lat="30.432885" lon="-97.637104" changeset="false"><tag k="addr:street" v="Melted Candle Cove"/><tag k="addr:housenumber" v="908"/><tag k="coa:place_id" v="1158160"/></node><node id="-151" lat="30.428057" lon="-97.641251" changeset="false"><tag k="addr:street" v="Sassafras Trail"/><tag k="addr:housenumber" v="15017"/><tag k="coa:place_id" v="3085673"/></node><node id="-152" lat="30.430073" lon="-97.627829" changeset="false"><tag k="addr:street" v="Rutgers Drive"/><tag k="addr:housenumber" v="1005"/><tag k="coa:place_id" v="3114346"/></node><node id="-153" lat="30.43013" lon="-97.632183" changeset="false"><tag k="addr:street" v="Ambrose Drive"/><tag k="addr:housenumber" v="605"/><tag k="coa:place_id" v="3114153"/></node><node id="-154" lat="30.428072" lon="-97.626169" changeset="false"><tag k="addr:street" v="Duke Cove"/><tag k="addr:housenumber" v="1014"/><tag k="coa:place_id" v="3114403"/></node><node id="-155" lat="30.419872" lon="-97.638693" changeset="false"><tag k="addr:street" v="Tudor House Road"/><tag k="addr:housenumber" v="1100"/><tag k="coa:place_id" v="3079439"/></node><node id="-156" lat="30.423709" lon="-97.636741" changeset="false"><tag k="addr:street" v="Lady Grey Avenue"/><tag k="addr:housenumber" v="1425"/><tag k="coa:place_id" v="3108956"/></node><node id="-157" lat="30.418031" lon="-97.639346" changeset="false"><tag k="addr:street" v="Ceylon Tea Circle"/><tag k="addr:housenumber" v="13820"/><tag k="coa:place_id" v="3051275"/></node><node id="-158" lat="30.416823" lon="-97.637444" changeset="false"><tag k="addr:street" v="Tudor House Road"/><tag k="addr:housenumber" v="1309"/><tag k="coa:place_id" v="3051309"/></node><node id="-159" lat="30.422543" lon="-97.629238" changeset="false"><tag k="addr:street" v="Saint Croix Lane"/><tag k="addr:housenumber" v="1505"/><tag k="coa:place_id" v="73678"/></node><node id="-160" lat="30.429545" lon="-97.630652" changeset="false"><tag k="addr:street" v="Brown Drive"/><tag k="addr:housenumber" v="1112"/><tag k="coa:place_id" v="3114174"/></node><node id="-161" lat="30.424447" lon="-97.640666" changeset="false"><tag k="addr:street" v="Tudor House Road"/><tag k="addr:housenumber" v="605"/><tag k="coa:place_id" v="3085904"/></node><node id="-162" lat="30.428376" lon="-97.627324" changeset="false"><tag k="addr:street" v="Vanderbilt Circle"/><tag k="addr:housenumber" v="1102"/><tag k="coa:place_id" v="3114384"/></node><node id="-163" lat="30.427125" lon="-97.63945" changeset="false"><tag k="addr:street" v="Hyson Crossing"/><tag k="addr:housenumber" v="15217 1/2"/><tag k="coa:place_id" v="3152955"/></node><node id="-164" lat="30.429105" lon="-97.627843" changeset="false"><tag k="addr:street" v="Rutgers Drive"/><tag k="addr:housenumber" v="1015"/><tag k="coa:place_id" v="3114356"/></node><node id="-165" lat="30.429043" lon="-97.630323" changeset="false"><tag k="addr:street" v="Brown Drive"/><tag k="addr:housenumber" v="1118"/><tag k="coa:place_id" v="3114177"/></node><node id="-166" lat="30.425375" lon="-97.640726" changeset="false"><tag k="addr:street" v="Tudor House Road"/><tag k="addr:housenumber" v="517"/><tag k="coa:place_id" v="3085898"/></node><node id="-167" lat="30.431924" lon="-97.639199" changeset="false"><tag k="addr:street" v="Antique Finish Drive"/><tag k="addr:housenumber" v="15005"/><tag k="coa:place_id" v="1164874"/></node><node id="-168" lat="30.426291" lon="-97.643227" changeset="false"><tag k="addr:street" v="Sassafras Trail"/><tag k="addr:housenumber" v="14800"/><tag k="coa:place_id" v="3085628"/></node><node id="-169" lat="30.426033" lon="-97.637065" changeset="false"><tag k="addr:street" v="Coronation Way"/><tag k="addr:housenumber" v="1300"/><tag k="coa:place_id" v="3108893"/></node><node id="-170" lat="30.430238" lon="-97.636762" changeset="false"><tag k="addr:street" v="Lantern Drive"/><tag k="addr:housenumber" v="14917"/><tag k="coa:place_id" v="3069302"/></node><node id="-171" lat="30.430188" lon="-97.639637" changeset="false"><tag k="addr:street" v="Lantern Drive"/><tag k="addr:housenumber" v="14712"/><tag k="coa:place_id" v="3069273"/></node><node id="-172" lat="30.42992" lon="-97.638363" changeset="false"><tag k="addr:street" v="Lantern Drive"/><tag k="addr:housenumber" v="14821"/><tag k="coa:place_id" v="3069291"/></node><node id="-173" lat="30.423629" lon="-97.631583" changeset="false"><tag k="addr:street" v="Saint Croix Lane"/><tag k="addr:housenumber" v="1411"/><tag k="coa:place_id" v="181827"/></node><node id="-174" lat="30.414358" lon="-97.634555" changeset="false"><tag k="addr:street" v="Tudor House Road"/><tag k="addr:housenumber" v="1505"/><tag k="coa:place_id" v="3051350"/></node><node id="-175" lat="30.419564" lon="-97.635926" changeset="false"><tag k="addr:street" v="Honey Blossom Drive"/><tag k="addr:housenumber" v="1325"/><tag k="coa:place_id" v="3077134"/></node><node id="-176" lat="30.424893" lon="-97.631935" changeset="false"><tag k="addr:street" v="Crete Lane"/><tag k="addr:housenumber" v="1401"/><tag k="coa:place_id" v="73644"/></node><node id="-177" lat="30.429881" lon="-97.638818" changeset="false"><tag k="addr:street" v="Lantern Drive"/><tag k="addr:housenumber" v="14809"/><tag k="coa:place_id" v="3069288"/></node><node id="-178" lat="30.430481" lon="-97.636509" changeset="false"><tag k="addr:street" v="Lantern Drive"/><tag k="addr:housenumber" v="15005"/><tag k="coa:place_id" v="3069304"/></node><node id="-179" lat="30.429941" lon="-97.629527" changeset="false"><tag k="addr:street" v="Settlers Valley Drive"/><tag k="addr:housenumber" v="217"/><tag k="coa:place_id" v="3114312"/></node><node id="-180" lat="30.420608" lon="-97.637936" changeset="false"><tag k="addr:street" v="Spearmint Tea Trail"/><tag k="addr:housenumber" v="14413"/><tag k="coa:place_id" v="3076224"/></node><node id="-181" lat="30.424937" lon="-97.640915" changeset="false"><tag k="addr:street" v="Tudor House Road"/><tag k="addr:housenumber" v="529"/><tag k="coa:place_id" v="3085901"/></node><node id="-182" lat="30.429884" lon="-97.638969" changeset="false"><tag k="addr:street" v="Lantern Drive"/><tag k="addr:housenumber" v="14805"/><tag k="coa:place_id" v="3069287"/></node><node id="-183" lat="30.429849" lon="-97.639288" changeset="false"><tag k="addr:street" v="Lantern Drive"/><tag k="addr:housenumber" v="14725"/><tag k="coa:place_id" v="3069285"/></node><node id="-184" lat="30.428572" lon="-97.627331" changeset="false"><tag k="addr:street" v="Vanderbilt Circle"/><tag k="addr:housenumber" v="1100"/><tag k="coa:place_id" v="3114382"/></node><node id="-185" lat="30.431057" lon="-97.636165" changeset="false"><tag k="addr:street" v="Lantern Drive"/><tag k="addr:housenumber" v="15029"/><tag k="coa:place_id" v="3069310"/></node><node id="-186" lat="30.430643" lon="-97.639576" changeset="false"><tag k="addr:street" v="Tapestry Cove"/><tag k="addr:housenumber" v="809"/><tag k="coa:place_id" v="1164824"/></node><node id="-187" lat="30.427764" lon="-97.62724" changeset="false"><tag k="addr:street" v="Vanderbilt Circle"/><tag k="addr:housenumber" v="1108"/><tag k="coa:place_id" v="3114390"/></node><node id="-188" lat="30.417525" lon="-97.63822" changeset="false"><tag k="addr:street" v="Tudor House Road"/><tag k="addr:housenumber" v="1229"/><tag k="coa:place_id" v="3051288"/></node><node id="-189" lat="30.420407" lon="-97.639604" changeset="false"><tag k="addr:street" v="Tudor House Road"/><tag k="addr:housenumber" v="1016"/><tag k="coa:place_id" v="3076199"/></node><node id="-190" lat="30.419133" lon="-97.639581" changeset="false"><tag k="addr:street" v="Tudor House Road"/><tag k="addr:housenumber" v="1109"/><tag k="coa:place_id" v="3079453"/></node><node id="-191" lat="30.429414" lon="-97.626505" changeset="false"><tag k="addr:street" v="Duke Cove"/><tag k="addr:housenumber" v="1002"/><tag k="coa:place_id" v="3114394"/></node><node id="-192" lat="30.429424" lon="-97.627495" changeset="false"><tag k="addr:street" v="Vanderbilt Circle"/><tag k="addr:housenumber" v="1008"/><tag k="coa:place_id" v="3114374"/></node><node id="-193" lat="30.420256" lon="-97.639976" changeset="false"><tag k="addr:street" v="Tudor House Road"/><tag k="addr:housenumber" v="1017"/><tag k="coa:place_id" v="3076194"/></node><node id="-194" lat="30.429544" lon="-97.636012" changeset="false"><tag k="addr:street" v="Wells Branch Parkway"/><tag k="addr:housenumber" v="1020"/><tag k="coa:place_id" v="3364607"/></node><node id="-195" lat="30.430855" lon="-97.636276" changeset="false"><tag k="addr:street" v="Lantern Drive"/><tag k="addr:housenumber" v="15017"/><tag k="coa:place_id" v="3069307"/></node><node id="-196" lat="30.422168" lon="-97.639626" changeset="false"><tag k="addr:street" v="Tudor House Road"/><tag k="addr:housenumber" v="900"/><tag k="coa:place_id" v="3192107"/></node><node id="-197" lat="30.421984" lon="-97.630364" changeset="false"><tag k="addr:street" v="Sweet Leaf Lane"/><tag k="addr:housenumber" v="416"/><tag k="coa:place_id" v="3271229"/></node><node id="-198" lat="30.420682" lon="-97.637481" changeset="false"><tag k="addr:street" v="Jasmine Tea Lane"/><tag k="addr:housenumber" v="1413"/><tag k="coa:place_id" v="3076222"/></node><node id="-199" lat="30.429864" lon="-97.639638" changeset="false"><tag k="addr:street" v="Lantern Drive"/><tag k="addr:housenumber" v="14717"/><tag k="coa:place_id" v="3069283"/></node><node id="-200" lat="30.427856" lon="-97.641613" changeset="false"><tag k="addr:street" v="Sassafras Trail"/><tag k="addr:housenumber" v="15009"/><tag k="coa:place_id" v="3085669"/></node><node id="-201" lat="30.425572" lon="-97.632021" changeset="false"><tag k="addr:street" v="Crete Lane"/><tag k="addr:housenumber" v="1314"/><tag k="coa:place_id" v="73646"/></node><node id="-202" lat="30.425397" lon="-97.634045" changeset="false"><tag k="addr:street" v="Saint Croix Lane"/><tag k="addr:housenumber" v="1301"/><tag k="coa:place_id" v="206337"/></node><node id="-203" lat="30.425457" lon="-97.639844" changeset="false"><tag k="addr:street" v="Tudor House Road"/><tag k="addr:housenumber" v="524"/><tag k="coa:place_id" v="3085910"/></node><node id="-204" lat="30.428912" lon="-97.629339" changeset="false"><tag k="addr:street" v="Settlers Valley Drive"/><tag k="addr:housenumber" v="207"/><tag k="coa:place_id" v="3114302"/></node><node id="-205" lat="30.433946" lon="-97.637462" changeset="false"><tag k="addr:street" v="Twisted Fence Drive"/><tag k="addr:housenumber" v="808"/><tag k="coa:place_id" v="1158155"/></node><node id="-206" lat="30.42492" lon="-97.630727" changeset="false"><tag k="addr:street" v="Crete Lane"/><tag k="addr:housenumber" v="1410"/><tag k="coa:place_id" v="180330"/></node><node id="-207" lat="30.423743" lon="-97.630472" changeset="false"><tag k="addr:street" v="Saint Croix Lane"/><tag k="addr:housenumber" v="1418"/><tag k="coa:place_id" v="73673"/></node><node id="-208" lat="30.42391" lon="-97.629798" changeset="false"><tag k="addr:street" v="Crete Lane"/><tag k="addr:housenumber" v="1423"/><tag k="coa:place_id" v="73660"/></node><node id="-209" lat="30.424046" lon="-97.638661" changeset="false"><tag k="addr:street" v="Mandarin Crossing"/><tag k="addr:housenumber" v="15305"/><tag k="coa:place_id" v="3098662"/></node><node id="-210" lat="30.419413" lon="-97.638784" changeset="false"><tag k="addr:street" v="Tudor House Road"/><tag k="addr:housenumber" v="1112"/><tag k="coa:place_id" v="3079441"/></node><node id="-211" lat="30.424596" lon="-97.629969" changeset="false"><tag k="addr:street" v="Crete Lane"/><tag k="addr:housenumber" v="1418"/><tag k="coa:place_id" v="73652"/></node><node id="-212" lat="30.428358" lon="-97.628678" changeset="false"><tag k="addr:street" v="Settlers Valley Drive"/><tag k="addr:housenumber" v="202"/><tag k="coa:place_id" v="3114299"/></node><node id="-213" lat="30.421609" lon="-97.628792" changeset="false"><tag k="addr:street" v="Dessau Road"/><tag k="addr:housenumber" v="14906"/><tag k="coa:place_id" v="3098913"/></node><node id="-214" lat="30.42151" lon="-97.628781" changeset="false"><tag k="addr:street" v="Dessau Road"/><tag k="addr:housenumber" v="14906 1/2"/><tag k="coa:place_id" v="3143017"/></node><node id="-215" lat="30.433104" lon="-97.639028" changeset="false"><tag k="addr:street" v="Antique Heritage Drive"/><tag k="addr:housenumber" v="1028"/><tag k="coa:place_id" v="1158197"/></node><node id="-216" lat="30.417141" lon="-97.637775" changeset="false"><tag k="addr:street" v="Tudor House Road"/><tag k="addr:housenumber" v="1245"/><tag k="coa:place_id" v="3051292"/></node><node id="-217" lat="30.43034" lon="-97.640834" changeset="false"><tag k="addr:street" v="Lantern Drive"/><tag k="addr:housenumber" v="14621"/><tag k="coa:place_id" v="3080276"/></node><node id="-218" lat="30.428127" lon="-97.629834" changeset="false"><tag k="addr:street" v="Seton Hall Lane"/><tag k="addr:housenumber" v="1105"/><tag k="coa:place_id" v="3114208"/></node><node id="-219" lat="30.42543" lon="-97.633126" changeset="false"><tag k="addr:street" v="Crete Lane"/><tag k="addr:housenumber" v="1307"/><tag k="coa:place_id" v="183265"/></node><node id="-220" lat="30.425541" lon="-97.640103" changeset="false"><tag k="addr:street" v="Tudor House Road"/><tag k="addr:housenumber" v="520"/><tag k="coa:place_id" v="3085909"/></node><node id="-221" lat="30.432042" lon="-97.639117" changeset="false"><tag k="addr:street" v="Antique Finish Drive"/><tag k="addr:housenumber" v="15009"/><tag k="coa:place_id" v="1164875"/></node><node id="-222" lat="30.424274" lon="-97.642694" changeset="false"><tag k="addr:street" v="Battenburg Trail"/><tag k="addr:housenumber" v="612"/><tag k="coa:place_id" v="3085788"/></node><node id="-223" lat="30.42073" lon="-97.640228" changeset="false"><tag k="addr:street" v="Darjeeling Drive"/><tag k="addr:housenumber" v="1125"/><tag k="coa:place_id" v="3076152"/></node><node id="-224" lat="30.426546" lon="-97.640816" changeset="false"><tag k="addr:street" v="Tudor House Road"/><tag k="addr:housenumber" v="412"/><tag k="coa:place_id" v="3085644"/></node><node id="-225" lat="30.424287" lon="-97.640121" changeset="false"><tag k="addr:street" v="Tudor House Road"/><tag k="addr:housenumber" v="617"/><tag k="coa:place_id" v="3085907"/></node><node id="-226" lat="30.418931" lon="-97.637558" changeset="false"><tag k="addr:street" v="Sleepytime Trail"/><tag k="addr:housenumber" v="1300"/><tag k="coa:place_id" v="3051472"/></node><node id="-227" lat="30.415141" lon="-97.635582" changeset="false"><tag k="addr:street" v="Tea Room Cove"/><tag k="addr:housenumber" v="14213"/><tag k="coa:place_id" v="3051344"/></node><node id="-228" lat="30.428908" lon="-97.631378" changeset="false"><tag k="addr:street" v="Ambrose Drive"/><tag k="addr:housenumber" v="411"/><tag k="coa:place_id" v="3114144"/></node><node id="-229" lat="30.425055" lon="-97.632304" changeset="false"><tag k="addr:street" v="Crete Lane"/><tag k="addr:housenumber" v="1313"/><tag k="coa:place_id" v="73643"/></node><node id="-230" lat="30.426864" lon="-97.629246" changeset="false"><tag k="addr:street" v="Ambrose Drive"/><tag k="addr:housenumber" v="117"/><tag k="coa:place_id" v="3114199"/></node><node id="-231" lat="30.416721" lon="-97.63735" changeset="false"><tag k="addr:street" v="Tudor House Road"/><tag k="addr:housenumber" v="1313"/><tag k="coa:place_id" v="3051310"/></node><node id="-232" lat="30.430515" lon="-97.63939" changeset="false"><tag k="addr:street" v="Tapestry Cove"/><tag k="addr:housenumber" v="813"/><tag k="coa:place_id" v="1164817"/></node><node id="-233" lat="30.426987" lon="-97.640835" changeset="false"><tag k="addr:street" v="Tudor House Road"/><tag k="addr:housenumber" v="400"/><tag k="coa:place_id" v="3085638"/></node><node id="-234" lat="30.417231" lon="-97.637892" changeset="false"><tag k="addr:street" v="Tudor House Road"/><tag k="addr:housenumber" v="1241"/><tag k="coa:place_id" v="3051291"/></node><node id="-235" lat="30.433851" lon="-97.638459" changeset="false"><tag k="addr:street" v="Antique Heritage Drive"/><tag k="addr:housenumber" v="1004"/><tag k="coa:place_id" v="1158191"/></node><node id="-236" lat="30.428093" lon="-97.630783" changeset="false"><tag k="addr:street" v="Ambrose Drive"/><tag k="addr:housenumber" v="401"/><tag k="coa:place_id" v="3114139"/></node><node id="-237" lat="30.426" lon="-97.640576" changeset="false"><tag k="addr:street" v="Mandarin Crossing"/><tag k="addr:housenumber" v="15001"/><tag k="coa:place_id" v="3085636"/></node><node id="-238" lat="30.424736" lon="-97.630359" changeset="false"><tag k="addr:street" v="Crete Lane"/><tag k="addr:housenumber" v="1414"/><tag k="coa:place_id" v="73651"/></node><node id="-239" lat="30.424726" lon="-97.631566" changeset="false"><tag k="addr:street" v="Crete Lane"/><tag k="addr:housenumber" v="1405"/><tag k="coa:place_id" v="183269"/></node><node id="-240" lat="30.424775" lon="-97.634152" changeset="false"><tag k="addr:street" v="Saint Croix Lane"/><tag k="addr:housenumber" v="1305"/><tag k="coa:place_id" v="73670"/></node><node id="-241" lat="30.417826" lon="-97.637958" changeset="false"><tag k="addr:street" v="Nestle Court"/><tag k="addr:housenumber" v="14301"/><tag k="coa:place_id" v="3051280"/></node><node id="-242" lat="30.416216" lon="-97.632445" changeset="false"><tag k="addr:street" v="Dessau Road"/><tag k="addr:housenumber" v="14400"/><tag k="coa:place_id" v="3052537"/></node><node id="-243" lat="30.41692" lon="-97.637547" changeset="false"><tag k="addr:street" v="Tudor House Road"/><tag k="addr:housenumber" v="1305"/><tag k="coa:place_id" v="3051308"/></node><node id="-244" lat="30.424303" lon="-97.640331" changeset="false"><tag k="addr:street" v="Tudor House Road"/><tag k="addr:housenumber" v="613"/><tag k="coa:place_id" v="3085906"/></node><node id="-245" lat="30.429853" lon="-97.639455" changeset="false"><tag k="addr:street" v="Lantern Drive"/><tag k="addr:housenumber" v="14721"/><tag k="coa:place_id" v="3069284"/></node><node id="-246" lat="30.425803" lon="-97.633748" changeset="false"><tag k="addr:street" v="Crete Lane"/><tag k="addr:housenumber" v="1300"/><tag k="coa:place_id" v="180329"/></node><node id="-247" lat="30.423562" lon="-97.630088" changeset="false"><tag k="addr:street" v="Saint Croix Lane"/><tag k="addr:housenumber" v="1422"/><tag k="coa:place_id" v="73674"/></node><node id="-248" lat="30.425178" lon="-97.641489" changeset="false"><tag k="addr:street" v="Earl Grey Lane"/><tag k="addr:housenumber" v="14809"/><tag k="coa:place_id" v="3085710"/></node><node id="-249" lat="30.424559" lon="-97.639607" changeset="false"><tag k="addr:street" v="Tudor House Road"/><tag k="addr:housenumber" v="612"/><tag k="coa:place_id" v="3085915"/></node><node id="-250" lat="30.423422" lon="-97.631162" changeset="false"><tag k="addr:street" v="Saint Croix Lane"/><tag k="addr:housenumber" v="1415"/><tag k="coa:place_id" v="73683"/></node><node id="-251" lat="30.416431" lon="-97.637008" changeset="false"><tag k="addr:street" v="Tudor House Road"/><tag k="addr:housenumber" v="1325"/><tag k="coa:place_id" v="3051334"/></node><node id="-252" lat="30.426729" lon="-97.63854" changeset="false"><tag k="addr:street" v="Hyson Crossing"/><tag k="addr:housenumber" v="15125"/><tag k="coa:place_id" v="3098691"/></node><node id="-253" lat="30.427402" lon="-97.628334" changeset="false"><tag k="addr:street" v="Loyola Drive"/><tag k="addr:housenumber" v="109"/><tag k="coa:place_id" v="3114295"/></node><node id="-254" lat="30.432957" lon="-97.63727" changeset="false"><tag k="addr:street" v="Melted Candle Cove"/><tag k="addr:housenumber" v="904"/><tag k="coa:place_id" v="1158175"/></node><node id="-255" lat="30.433065" lon="-97.637959" changeset="false"><tag k="addr:street" v="Plowshare Drive"/><tag k="addr:housenumber" v="15132"/><tag k="coa:place_id" v="1158178"/></node><node id="-256" lat="30.432702" lon="-97.638221" changeset="false"><tag k="addr:street" v="Plowshare Drive"/><tag k="addr:housenumber" v="15120"/><tag k="coa:place_id" v="1158179"/></node><node id="-257" lat="30.43074" lon="-97.636374" changeset="false"><tag k="addr:street" v="Lantern Drive"/><tag k="addr:housenumber" v="15013"/><tag k="coa:place_id" v="3069306"/></node><node id="-258" lat="30.426795" lon="-97.634916" changeset="false"><tag k="addr:street" v="Peppermint Trail"/><tag k="addr:housenumber" v="1328 1/2"/><tag k="coa:place_id" v="3159122"/></node><node id="-259" lat="30.420337" lon="-97.637871" changeset="false"><tag k="addr:street" v="Spearmint Tea Trail"/><tag k="addr:housenumber" v="14405"/><tag k="coa:place_id" v="3076184"/></node><node id="-260" lat="30.42412" lon="-97.63126" changeset="false"><tag k="addr:street" v="Saint Croix Lane"/><tag k="addr:housenumber" v="1410"/><tag k="coa:place_id" v="182105"/></node><node id="-261" lat="30.417423" lon="-97.638112" changeset="false"><tag k="addr:street" v="Tudor House Road"/><tag k="addr:housenumber" v="1233"/><tag k="coa:place_id" v="3051289"/></node><node id="-262" lat="30.425009" lon="-97.639598" changeset="false"><tag k="addr:street" v="Tudor House Road"/><tag k="addr:housenumber" v="600"/><tag k="coa:place_id" v="3085912"/></node><node id="-263" lat="30.42471" lon="-97.639538" changeset="false"><tag k="addr:street" v="Tudor House Road"/><tag k="addr:housenumber" v="608"/><tag k="coa:place_id" v="3085914"/></node><node id="-264" lat="30.426958" lon="-97.63491" changeset="false"><tag k="addr:street" v="Peppermint Trail"/><tag k="addr:housenumber" v="1324"/><tag k="coa:place_id" v="3108892"/></node><node id="-265" lat="30.428296" lon="-97.626359" changeset="false"><tag k="addr:street" v="Duke Cove"/><tag k="addr:housenumber" v="1012"/><tag k="coa:place_id" v="3114402"/></node><node id="-266" lat="30.416333" lon="-97.636905" changeset="false"><tag k="addr:street" v="Tudor House Road"/><tag k="addr:housenumber" v="1329"/><tag k="coa:place_id" v="3051335"/></node><node id="-267" lat="30.424355" lon="-97.640501" changeset="false"><tag k="addr:street" v="Tudor House Road"/><tag k="addr:housenumber" v="609"/><tag k="coa:place_id" v="3085905"/></node><node id="-268" lat="30.427464" lon="-97.635956" changeset="false"><tag k="addr:street" v="Peppermint Trail"/><tag k="addr:housenumber" v="1220 1/2"/><tag k="coa:place_id" v="3181316"/></node><node id="-269" lat="30.427497" lon="-97.635961" changeset="false"><tag k="addr:street" v="Peppermint Trail"/><tag k="addr:housenumber" v="1220"/><tag k="coa:place_id" v="3108830"/></node></osm>