<?xml version="1.0" encoding="UTF-8"?><osm version="0.6" generator="github.com/aaronlidman/osm-and-geojson"><node id="-1" lat="30.347249" lon="-97.987119" changeset="false"><tag k="addr:street" v="Club Estates Parkway"/><tag k="addr:housenumber" v="26"/><tag k="addr:postcode" v="78738"/></node><node id="-2" lat="30.350413" lon="-97.990391" changeset="false"><tag k="addr:street" v="Tournament Way"/><tag k="addr:housenumber" v="5"/><tag k="addr:postcode" v="78738"/></node><node id="-3" lat="30.344758" lon="-97.992308" changeset="false"><tag k="addr:street" v="Applegreen Lane"/><tag k="addr:housenumber" v="6"/><tag k="addr:postcode" v="78738"/></node><node id="-4" lat="30.344867" lon="-97.991736" changeset="false"><tag k="addr:street" v="Applegreen Lane"/><tag k="addr:housenumber" v="5"/><tag k="addr:postcode" v="78738"/></node><node id="-5" lat="30.338534" lon="-97.990995" changeset="false"><tag k="addr:street" v="Black Wolf Run"/><tag k="addr:housenumber" v="512"/><tag k="addr:postcode" v="78738"/></node></osm>