<?xml version="1.0" encoding="UTF-8"?><osm version="0.6" generator="github.com/aaronlidman/osm-and-geojson"><node id="-1" lat="30.341934" lon="-97.993603" changeset="false"><tag k="addr:street" v="Autumn Oaks Drive"/><tag k="addr:housenumber" v="49"/><tag k="addr:postcode" v="78738"/></node><node id="-2" lat="30.341563" lon="-97.993139" changeset="false"><tag k="addr:street" v="Autumn Oaks Drive"/><tag k="addr:housenumber" v="60"/><tag k="addr:postcode" v="78738"/></node><node id="-3" lat="30.342471" lon="-97.994692" changeset="false"><tag k="addr:street" v="Heatherbloom Lane"/><tag k="addr:housenumber" v="7"/><tag k="addr:postcode" v="78738"/></node><node id="-4" lat="30.339101" lon="-97.992631" changeset="false"><tag k="addr:street" v="Indianwood Drive"/><tag k="addr:housenumber" v="410"/><tag k="addr:postcode" v="78738"/></node><node id="-5" lat="30.33956" lon="-97.99021" changeset="false"><tag k="addr:street" v="Grapewood Court"/><tag k="addr:housenumber" v="6"/><tag k="addr:postcode" v="78738"/></node><node id="-6" lat="30.347825" lon="-97.990339" changeset="false"><tag k="addr:street" v="Club Estates Parkway"/><tag k="addr:housenumber" v="16"/><tag k="addr:postcode" v="78738"/></node><node id="-7" lat="30.341251" lon="-97.99218" changeset="false"><tag k="addr:street" v="Swiftwater Cove"/><tag k="addr:housenumber" v="19"/><tag k="addr:postcode" v="78738"/></node><node id="-8" lat="30.333822" lon="-97.997431" changeset="false"><tag k="addr:street" v="Escavera Cove"/><tag k="addr:housenumber" v="108"/><tag k="addr:postcode" v="78738"/></node><node id="-9" lat="30.33359" lon="-97.996476" changeset="false"><tag k="addr:street" v="Escavera Cove"/><tag k="addr:housenumber" v="116"/><tag k="addr:postcode" v="78738"/></node><node id="-10" lat="30.334103" lon="-97.996562" changeset="false"><tag k="addr:street" v="Escavera Cove"/><tag k="addr:housenumber" v="109"/><tag k="addr:postcode" v="78738"/></node><node id="-11" lat="30.338205" lon="-97.995052" changeset="false"><tag k="addr:street" v="Indianwood Drive"/><tag k="addr:housenumber" v="107"/><tag k="addr:postcode" v="78738"/></node><node id="-12" lat="30.337078" lon="-97.993898" changeset="false"><tag k="addr:street" v="Black Wolf Run"/><tag k="addr:housenumber" v="308"/><tag k="addr:postcode" v="78738"/></node><node id="-13" lat="30.333269" lon="-97.99962" changeset="false"><tag k="addr:street" v="Black Wolf Run"/><tag k="addr:housenumber" v="111"/><tag k="addr:postcode" v="78738"/></node><node id="-14" lat="30.344246" lon="-97.995748" changeset="false"><tag k="addr:street" v="Monarch Oaks Drive"/><tag k="addr:housenumber" v="16"/><tag k="addr:postcode" v="78738"/></node><node id="-15" lat="30.339678" lon="-97.992222" changeset="false"><tag k="addr:street" v="Indianwood Drive"/><tag k="addr:housenumber" v="420"/><tag k="addr:postcode" v="78738"/></node><node id="-16" lat="30.350581" lon="-97.991307" changeset="false"><tag k="addr:street" v="Tourney Lane"/><tag k="addr:housenumber" v="8"/><tag k="addr:postcode" v="78738"/></node><node id="-17" lat="30.341949" lon="-97.99126" changeset="false"><tag k="addr:street" v="Swiftwater Cove"/><tag k="addr:housenumber" v="9"/><tag k="addr:postcode" v="78738"/></node><node id="-18" lat="30.33933" lon="-97.991778" changeset="false"><tag k="addr:street" v="Applewood Court"/><tag k="addr:housenumber" v="6"/><tag k="addr:postcode" v="78738"/></node><node id="-19" lat="30.339139" lon="-97.992464" changeset="false"><tag k="addr:street" v="Indianwood Drive"/><tag k="addr:housenumber" v="412"/><tag k="addr:postcode" v="78738"/></node><node id="-20" lat="30.339332" lon="-97.992152" changeset="false"><tag k="addr:street" v="Indianwood Drive"/><tag k="addr:housenumber" v="416"/><tag k="addr:postcode" v="78738"/></node><node id="-21" lat="30.339801" lon="-97.996381" changeset="false"><tag k="addr:street" v="Serene Hills Drive"/><tag k="addr:housenumber" v="3805"/><tag k="addr:postcode" v="78738"/></node><node id="-22" lat="30.342293" lon="-97.994256" changeset="false"><tag k="addr:street" v="Heatherbloom Lane"/><tag k="addr:housenumber" v="5"/><tag k="addr:postcode" v="78738"/></node><node id="-23" lat="30.344558" lon="-97.993518" changeset="false"><tag k="addr:street" v="Camwood Trail"/><tag k="addr:housenumber" v="10"/><tag k="addr:postcode" v="78738"/></node><node id="-24" lat="30.33663" lon="-97.996585" changeset="false"><tag k="addr:street" v="Pine Barrens Court"/><tag k="addr:housenumber" v="104"/><tag k="addr:postcode" v="78738"/></node><node id="-25" lat="30.336768" lon="-97.996823" changeset="false"><tag k="addr:street" v="Pine Barrens Court"/><tag k="addr:housenumber" v="106"/><tag k="addr:postcode" v="78738"/></node><node id="-26" lat="30.336312" lon="-97.994583" changeset="false"><tag k="addr:street" v="Cog Hill"/><tag k="addr:housenumber" v="104"/><tag k="addr:postcode" v="78738"/></node><node id="-27" lat="30.337209" lon="-97.994793" changeset="false"><tag k="addr:street" v="Black Wolf Run"/><tag k="addr:housenumber" v="305"/><tag k="addr:postcode" v="78738"/></node><node id="-28" lat="30.336747" lon="-97.996022" changeset="false"><tag k="addr:street" v="Black Wolf Run"/><tag k="addr:housenumber" v="221"/><tag k="addr:postcode" v="78738"/></node><node id="-29" lat="30.338801" lon="-97.991748" changeset="false"><tag k="addr:street" v="Black Wolf Run"/><tag k="addr:housenumber" v="509"/><tag k="addr:postcode" v="78738"/></node><node id="-30" lat="30.334438" lon="-97.996054" changeset="false"><tag k="addr:street" v="Escavera Cove"/><tag k="addr:housenumber" v="113"/><tag k="addr:postcode" v="78738"/></node><node id="-31" lat="30.341601" lon="-97.990698" changeset="false"><tag k="addr:street" v="Treehaven Lane"/><tag k="addr:housenumber" v="15"/><tag k="addr:postcode" v="78738"/></node><node id="-32" lat="30.340758" lon="-97.996642" changeset="false"><tag k="addr:street" v="Serene Hills Drive"/><tag k="addr:housenumber" v="3707"/><tag k="addr:postcode" v="78738"/></node><node id="-33" lat="30.355178" lon="-97.98764" changeset="false"><tag k="addr:street" v="Lakeway Boulevard"/><tag k="addr:housenumber" v="2401"/><tag k="addr:postcode" v="78738"/></node><node id="-34" lat="30.338853" lon="-97.996454" changeset="false"><tag k="addr:street" v="Serene Hills Drive"/><tag k="addr:housenumber" v="3901"/><tag k="addr:postcode" v="78738"/></node><node id="-35" lat="30.336145" lon="-97.995644" changeset="false"><tag k="addr:street" v="Black Wolf Run"/><tag k="addr:housenumber" v="220"/><tag k="addr:postcode" v="78738"/></node><node id="-36" lat="30.337362" lon="-97.994541" changeset="false"><tag k="addr:street" v="Black Wolf Run"/><tag k="addr:housenumber" v="307"/><tag k="addr:postcode" v="78738"/></node><node id="-37" lat="30.344668" lon="-97.990886" changeset="false"><tag k="addr:street" v="Stillmeadow Drive"/><tag k="addr:housenumber" v="5"/><tag k="addr:postcode" v="78738"/></node><node id="-38" lat="30.339127" lon="-97.993741" changeset="false"><tag k="addr:street" v="Indigo Run Cove"/><tag k="addr:housenumber" v="101"/><tag k="addr:postcode" v="78738"/></node><node id="-39" lat="30.333968" lon="-97.997717" changeset="false"><tag k="addr:street" v="Escavera Cove"/><tag k="addr:housenumber" v="104"/><tag k="addr:postcode" v="78738"/></node><node id="-40" lat="30.335059" lon="-97.99758" changeset="false"><tag k="addr:street" v="Black Wolf Run"/><tag k="addr:housenumber" v="206"/><tag k="addr:postcode" v="78738"/></node><node id="-41" lat="30.336908" lon="-97.995339" changeset="false"><tag k="addr:street" v="Black Wolf Run"/><tag k="addr:housenumber" v="301"/><tag k="addr:postcode" v="78738"/></node><node id="-42" lat="30.33868" lon="-97.992467" changeset="false"><tag k="addr:street" v="Black Wolf Run"/><tag k="addr:housenumber" v="505"/><tag k="addr:postcode" v="78738"/></node><node id="-43" lat="30.338779" lon="-97.992162" changeset="false"><tag k="addr:street" v="Black Wolf Run"/><tag k="addr:housenumber" v="507"/><tag k="addr:postcode" v="78738"/></node><node id="-44" lat="30.334896" lon="-97.995037" changeset="false"><tag k="addr:street" v="Escavera Cove"/><tag k="addr:housenumber" v="119"/><tag k="addr:postcode" v="78738"/></node><node id="-45" lat="30.333516" lon="-97.999466" changeset="false"><tag k="addr:street" v="Black Wolf Run"/><tag k="addr:housenumber" v="113"/><tag k="addr:postcode" v="78738"/></node><node id="-46" lat="30.334888" lon="-97.998454" changeset="false"><tag k="addr:street" v="Black Wolf Run"/><tag k="addr:housenumber" v="201"/><tag k="addr:postcode" v="78738"/></node><node id="-47" lat="30.338576" lon="-97.992805" changeset="false"><tag k="addr:street" v="Black Wolf Run"/><tag k="addr:housenumber" v="503"/><tag k="addr:postcode" v="78738"/></node><node id="-48" lat="30.344427" lon="-97.996238" changeset="false"><tag k="addr:street" v="Autumn Oaks Drive"/><tag k="addr:housenumber" v="11"/><tag k="addr:postcode" v="78738"/></node><node id="-49" lat="30.334403" lon="-97.994871" changeset="false"><tag k="addr:street" v="Escavera Cove"/><tag k="addr:housenumber" v="128"/><tag k="addr:postcode" v="78738"/></node><node id="-50" lat="30.334257" lon="-97.996296" changeset="false"><tag k="addr:street" v="Escavera Cove"/><tag k="addr:housenumber" v="111"/><tag k="addr:postcode" v="78738"/></node><node id="-51" lat="30.341113" lon="-97.992723" changeset="false"><tag k="addr:street" v="Swiftwater Cove"/><tag k="addr:housenumber" v="25"/><tag k="addr:postcode" v="78738"/></node><node id="-52" lat="30.342374" lon="-97.99073" changeset="false"><tag k="addr:street" v="Swiftwater Cove"/><tag k="addr:housenumber" v="6"/><tag k="addr:postcode" v="78738"/></node><node id="-53" lat="30.339168" lon="-97.992288" changeset="false"><tag k="addr:street" v="Indianwood Drive"/><tag k="addr:housenumber" v="414"/><tag k="addr:postcode" v="78738"/></node><node id="-54" lat="30.342077" lon="-97.989943" changeset="false"><tag k="addr:street" v="Treehaven Lane"/><tag k="addr:housenumber" v="16"/><tag k="addr:postcode" v="78738"/></node><node id="-55" lat="30.339952" lon="-97.990029" changeset="false"><tag k="addr:street" v="Grapewood Court"/><tag k="addr:housenumber" v="12"/><tag k="addr:postcode" v="78738"/></node><node id="-56" lat="30.339501" lon="-97.989736" changeset="false"><tag k="addr:street" v="Dashwood Court"/><tag k="addr:housenumber" v="5"/><tag k="addr:postcode" v="78738"/></node><node id="-57" lat="30.352207" lon="-97.987464" changeset="false"><tag k="addr:street" v="Club Estates Parkway"/><tag k="addr:housenumber" v="50"/><tag k="addr:postcode" v="78738"/></node><node id="-58" lat="30.337424" lon="-97.995061" changeset="false"><tag k="addr:street" v="Indianwood Drive"/><tag k="addr:housenumber" v="104"/><tag k="addr:postcode" v="78738"/></node><node id="-59" lat="30.335678" lon="-97.996442" changeset="false"><tag k="addr:street" v="Black Wolf Run"/><tag k="addr:housenumber" v="214"/><tag k="addr:postcode" v="78738"/></node><node id="-60" lat="30.336049" lon="-97.996918" changeset="false"><tag k="addr:street" v="Black Wolf Run"/><tag k="addr:housenumber" v="215"/><tag k="addr:postcode" v="78738"/></node><node id="-61" lat="30.343978" lon="-97.994744" changeset="false"><tag k="addr:street" v="Camwood Trail"/><tag k="addr:housenumber" v="20"/><tag k="addr:postcode" v="78738"/></node><node id="-62" lat="30.34338" lon="-97.992691" changeset="false"><tag k="addr:street" v="Stillmeadow Drive"/><tag k="addr:housenumber" v="73"/><tag k="addr:postcode" v="78738"/></node><node id="-63" lat="30.337648" lon="-97.997106" changeset="false"><tag k="addr:street" v="Desert Forest Court"/><tag k="addr:housenumber" v="119"/><tag k="addr:postcode" v="78738"/></node><node id="-64" lat="30.333022" lon="-97.999774" changeset="false"><tag k="addr:street" v="Black Wolf Run"/><tag k="addr:housenumber" v="109"/><tag k="addr:postcode" v="78738"/></node><node id="-65" lat="30.335569" lon="-97.99781" changeset="false"><tag k="addr:street" v="Black Wolf Run"/><tag k="addr:housenumber" v="207"/><tag k="addr:postcode" v="78738"/></node><node id="-66" lat="30.334196" lon="-97.998935" changeset="false"><tag k="addr:street" v="Black Wolf Run"/><tag k="addr:housenumber" v="119"/><tag k="addr:postcode" v="78738"/></node><node id="-67" lat="30.337854" lon="-97.993225" changeset="false"><tag k="addr:street" v="Golden Bear Drive"/><tag k="addr:housenumber" v="613"/><tag k="addr:postcode" v="78738"/></node><node id="-68" lat="30.342327" lon="-97.995009" changeset="false"><tag k="addr:street" v="Heatherbloom Lane"/><tag k="addr:housenumber" v="11"/><tag k="addr:postcode" v="78738"/></node><node id="-69" lat="30.341853" lon="-97.994691" changeset="false"><tag k="addr:street" v="Cove Creek Lane"/><tag k="addr:housenumber" v="9"/><tag k="addr:postcode" v="78738"/></node><node id="-70" lat="30.348669" lon="-97.994316" changeset="false"><tag k="addr:street" v="Club Estates Parkway"/><tag k="addr:housenumber" v="2"/><tag k="addr:postcode" v="78738"/></node><node id="-71" lat="30.34148" lon="-97.994498" changeset="false"><tag k="addr:street" v="Cove Creek Lane"/><tag k="addr:housenumber" v="5"/><tag k="addr:postcode" v="78738"/></node><node id="-72" lat="30.341107" lon="-97.990759" changeset="false"><tag k="addr:street" v="Treehaven Lane"/><tag k="addr:housenumber" v="4"/><tag k="addr:postcode" v="78738"/></node><node id="-73" lat="30.340042" lon="-97.991165" changeset="false"><tag k="addr:street" v="Jasperwood Court"/><tag k="addr:housenumber" v="4"/><tag k="addr:postcode" v="78738"/></node><node id="-74" lat="30.339322" lon="-97.996332" changeset="false"><tag k="addr:street" v="Serene Hills Drive"/><tag k="addr:housenumber" v="3809"/><tag k="addr:postcode" v="78738"/></node><node id="-75" lat="30.339056" lon="-97.990652" changeset="false"><tag k="addr:street" v="The Hills Drive"/><tag k="addr:housenumber" v="52"/><tag k="addr:postcode" v="78738"/></node><node id="-76" lat="30.338393" lon="-97.991395" changeset="false"><tag k="addr:street" v="Black Wolf Run"/><tag k="addr:housenumber" v="510"/><tag k="addr:postcode" v="78738"/></node><node id="-77" lat="30.339272" lon="-97.994562" changeset="false"><tag k="addr:street" v="Reflection Bay Court"/><tag k="addr:housenumber" v="108"/><tag k="addr:postcode" v="78738"/></node><node id="-78" lat="30.334205" lon="-97.995554" changeset="false"><tag k="addr:street" v="Escavera Cove"/><tag k="addr:housenumber" v="124"/><tag k="addr:postcode" v="78738"/></node><node id="-79" lat="30.334306" lon="-97.995205" changeset="false"><tag k="addr:street" v="Escavera Cove"/><tag k="addr:housenumber" v="126"/><tag k="addr:postcode" v="78738"/></node><node id="-80" lat="30.334032" lon="-97.996886" changeset="false"><tag k="addr:street" v="Escavera Cove"/><tag k="addr:housenumber" v="107"/><tag k="addr:postcode" v="78738"/></node><node id="-81" lat="30.338558" lon="-97.994598" changeset="false"><tag k="addr:street" v="Indianwood Drive"/><tag k="addr:housenumber" v="205"/><tag k="addr:postcode" v="78738"/></node><node id="-82" lat="30.340005" lon="-97.992832" changeset="false"><tag k="addr:street" v="Indianwood Drive"/><tag k="addr:housenumber" v="409"/><tag k="addr:postcode" v="78738"/></node><node id="-83" lat="30.335765" lon="-97.997305" changeset="false"><tag k="addr:street" v="Black Wolf Run"/><tag k="addr:housenumber" v="211"/><tag k="addr:postcode" v="78738"/></node><node id="-84" lat="30.337095" lon="-97.995082" changeset="false"><tag k="addr:street" v="Black Wolf Run"/><tag k="addr:housenumber" v="303"/><tag k="addr:postcode" v="78738"/></node><node id="-85" lat="30.336158" lon="-97.993959" changeset="false"><tag k="addr:street" v="Cog Hill"/><tag k="addr:housenumber" v="108"/><tag k="addr:postcode" v="78738"/></node><node id="-86" lat="30.33831" lon="-97.993357" changeset="false"><tag k="addr:street" v="Black Wolf Run"/><tag k="addr:housenumber" v="407"/><tag k="addr:postcode" v="78738"/></node><node id="-87" lat="30.332039" lon="-97.998839" changeset="false"><tag k="addr:street" v="Black Wolf Run"/><tag k="addr:housenumber" v="101"/><tag k="addr:postcode" v="78738"/></node><node id="-88" lat="30.334756" lon="-97.995343" changeset="false"><tag k="addr:street" v="Escavera Cove"/><tag k="addr:housenumber" v="117"/><tag k="addr:postcode" v="78738"/></node><node id="-89" lat="30.332982" lon="-97.999049" changeset="false"><tag k="addr:street" v="Black Wolf Run"/><tag k="addr:housenumber" v="108"/><tag k="addr:postcode" v="78738"/></node><node id="-90" lat="30.333723" lon="-97.998564" changeset="false"><tag k="addr:street" v="Black Wolf Run"/><tag k="addr:housenumber" v="114"/><tag k="addr:postcode" v="78738"/></node><node id="-91" lat="30.333963" lon="-97.998404" changeset="false"><tag k="addr:street" v="Black Wolf Run"/><tag k="addr:housenumber" v="116"/><tag k="addr:postcode" v="78738"/></node><node id="-92" lat="30.331236" lon="-97.997948" changeset="false"><tag k="addr:street" v="Flint Rock Road"/><tag k="addr:housenumber" v="16606"/><tag k="addr:postcode" v="78738"/></node><node id="-93" lat="30.35199" lon="-97.987496" changeset="false"><tag k="addr:street" v="Club Estates Parkway"/><tag k="addr:housenumber" v="48"/><tag k="addr:postcode" v="78738"/></node><node id="-94" lat="30.339618" lon="-97.989625" changeset="false"><tag k="addr:street" v="Dashwood Court"/><tag k="addr:housenumber" v="7"/><tag k="addr:postcode" v="78738"/></node><node id="-95" lat="30.341756" lon="-97.996137" changeset="false"><tag k="addr:street" v="Autumn Oaks Drive"/><tag k="addr:housenumber" v="36"/><tag k="addr:postcode" v="78738"/></node><node id="-96" lat="30.3389" lon="-97.993219" changeset="false"><tag k="addr:street" v="Indianwood Drive"/><tag k="addr:housenumber" v="402"/><tag k="addr:postcode" v="78738"/></node><node id="-97" lat="30.341072" lon="-97.992592" changeset="false"><tag k="addr:street" v="Swiftwater Cove"/><tag k="addr:housenumber" v="23"/><tag k="addr:postcode" v="78738"/></node><node id="-98" lat="30.341396" lon="-97.996928" changeset="false"><tag k="addr:street" v="Serene Hills Drive"/><tag k="addr:housenumber" v="3701"/><tag k="addr:postcode" v="78738"/></node><node id="-99" lat="30.340589" lon="-97.991316" changeset="false"><tag k="addr:street" v="Jasperwood Court"/><tag k="addr:housenumber" v="5"/><tag k="addr:postcode" v="78738"/></node><node id="-100" lat="30.339825" lon="-97.992235" changeset="false"><tag k="addr:street" v="Indianwood Drive"/><tag k="addr:housenumber" v="422"/><tag k="addr:postcode" v="78738"/></node><node id="-101" lat="30.348596" lon="-97.991767" changeset="false"><tag k="addr:street" v="Club Estates Parkway"/><tag k="addr:housenumber" v="7"/><tag k="addr:postcode" v="78738"/></node><node id="-102" lat="30.342245" lon="-97.99614" changeset="false"><tag k="addr:street" v="Autumn Oaks Drive"/><tag k="addr:housenumber" v="29"/><tag k="addr:postcode" v="78738"/></node><node id="-103" lat="30.338213" lon="-97.994315" changeset="false"><tag k="addr:street" v="Indianwood Drive"/><tag k="addr:housenumber" v="206"/><tag k="addr:postcode" v="78738"/></node><node id="-104" lat="30.337128" lon="-97.995781" changeset="false"><tag k="addr:street" v="Indianwood Drive"/><tag k="addr:housenumber" v="101"/><tag k="addr:postcode" v="78738"/></node><node id="-105" lat="30.331309" lon="-97.998582" changeset="false"><tag k="addr:street" v="Flint Rock Road"/><tag k="addr:housenumber" v="16613"/><tag k="addr:postcode" v="78738"/></node><node id="-106" lat="30.334608" lon="-97.995713" changeset="false"><tag k="addr:street" v="Escavera Cove"/><tag k="addr:housenumber" v="115"/><tag k="addr:postcode" v="78738"/></node><node id="-107" lat="30.3348" lon="-97.994718" changeset="false"><tag k="addr:street" v="Escavera Cove"/><tag k="addr:housenumber" v="121"/><tag k="addr:postcode" v="78738"/></node><node id="-108" lat="30.332411" lon="-97.999625" changeset="false"><tag k="addr:street" v="Black Wolf Run"/><tag k="addr:housenumber" v="105"/><tag k="addr:postcode" v="78738"/></node><node id="-109" lat="30.334795" lon="-97.997785" changeset="false"><tag k="addr:street" v="Black Wolf Run"/><tag k="addr:housenumber" v="204"/><tag k="addr:postcode" v="78738"/></node><node id="-110" lat="30.336284" lon="-97.997226" changeset="false"><tag k="addr:street" v="Pine Barrens Court"/><tag k="addr:housenumber" v="103"/><tag k="addr:postcode" v="78738"/></node><node id="-111" lat="30.336712" lon="-97.997144" changeset="false"><tag k="addr:street" v="Pine Barrens Court"/><tag k="addr:housenumber" v="107"/><tag k="addr:postcode" v="78738"/></node><node id="-112" lat="30.338414" lon="-97.993079" changeset="false"><tag k="addr:street" v="Black Wolf Run"/><tag k="addr:housenumber" v="501"/><tag k="addr:postcode" v="78738"/></node><node id="-113" lat="30.338015" lon="-97.992632" changeset="false"><tag k="addr:street" v="Black Wolf Run"/><tag k="addr:housenumber" v="502"/><tag k="addr:postcode" v="78738"/></node><node id="-114" lat="30.350826" lon="-97.990164" changeset="false"><tag k="addr:street" v="Tournament Way"/><tag k="addr:housenumber" v="16"/><tag k="addr:postcode" v="78738"/></node><node id="-115" lat="30.344661" lon="-97.996101" changeset="false"><tag k="addr:street" v="Autumn Oaks Drive"/><tag k="addr:housenumber" v="9"/><tag k="addr:postcode" v="78738"/></node><node id="-116" lat="30.350537" lon="-97.991923" changeset="false"><tag k="addr:street" v="Tournament Way"/><tag k="addr:housenumber" v="55"/><tag k="addr:postcode" v="78738"/></node><node id="-117" lat="30.333251" lon="-97.998883" changeset="false"><tag k="addr:street" v="Black Wolf Run"/><tag k="addr:housenumber" v="110"/><tag k="addr:postcode" v="78738"/></node><node id="-118" lat="30.334652" lon="-97.998598" changeset="false"><tag k="addr:street" v="Black Wolf Run"/><tag k="addr:housenumber" v="123"/><tag k="addr:postcode" v="78738"/></node><node id="-119" lat="30.344573" lon="-97.994126" changeset="false"><tag k="addr:street" v="The Hills Drive"/><tag k="addr:housenumber" v="17"/><tag k="addr:postcode" v="78738"/></node><node id="-120" lat="30.333456" lon="-97.99689" changeset="false"><tag k="addr:street" v="Escavera Cove"/><tag k="addr:housenumber" v="112"/><tag k="addr:postcode" v="78738"/></node><node id="-121" lat="30.333504" lon="-97.996691" changeset="false"><tag k="addr:street" v="Escavera Cove"/><tag k="addr:housenumber" v="114"/><tag k="addr:postcode" v="78738"/></node><node id="-122" lat="30.33384" lon="-97.996014" changeset="false"><tag k="addr:street" v="Escavera Cove"/><tag k="addr:housenumber" v="120"/><tag k="addr:postcode" v="78738"/></node><node id="-123" lat="30.335192" lon="-97.997285" changeset="false"><tag k="addr:street" v="Black Wolf Run"/><tag k="addr:housenumber" v="208"/><tag k="addr:postcode" v="78738"/></node><node id="-124" lat="30.336486" lon="-97.997309" changeset="false"><tag k="addr:street" v="Pine Barrens Court"/><tag k="addr:housenumber" v="105"/><tag k="addr:postcode" v="78738"/></node><node id="-125" lat="30.332795" lon="-97.998718" changeset="false"><tag k="addr:street" v="Black Wolf Run"/><tag k="addr:housenumber" v="106"/><tag k="addr:postcode" v="78738"/></node><node id="-126" lat="30.331668" lon="-97.998339" changeset="false"><tag k="addr:street" v="Flint Rock Road"/><tag k="addr:housenumber" v="16610"/><tag k="addr:postcode" v="78738"/></node><node id="-127" lat="30.335119" lon="-97.998294" changeset="false"><tag k="addr:street" v="Black Wolf Run"/><tag k="addr:housenumber" v="203"/><tag k="addr:postcode" v="78738"/></node><node id="-128" lat="30.339667" lon="-97.992809" changeset="false"><tag k="addr:street" v="Indianwood Drive"/><tag k="addr:housenumber" v="405"/><tag k="addr:postcode" v="78738"/></node><node id="-129" lat="30.338475" lon="-97.993951" changeset="false"><tag k="addr:street" v="Indianwood Drive"/><tag k="addr:housenumber" v="304"/><tag k="addr:postcode" v="78738"/></node><node id="-130" lat="30.333724" lon="-97.996265" changeset="false"><tag k="addr:street" v="Escavera Cove"/><tag k="addr:housenumber" v="118"/><tag k="addr:postcode" v="78738"/></node><node id="-131" lat="30.337877" lon="-97.994684" changeset="false"><tag k="addr:street" v="Indianwood Drive"/><tag k="addr:housenumber" v="106"/><tag k="addr:postcode" v="78738"/></node><node id="-132" lat="30.350072" lon="-97.991606" changeset="false"><tag k="addr:street" v="Tourney Cove"/><tag k="addr:housenumber" v="6"/><tag k="addr:postcode" v="78738"/></node><node id="-133" lat="30.337409" lon="-97.995521" changeset="false"><tag k="addr:street" v="Desert Forest Court"/><tag k="addr:housenumber" v="101"/><tag k="addr:postcode" v="78738"/></node><node id="-134" lat="30.337653" lon="-97.996572" changeset="false"><tag k="addr:street" v="Desert Forest Court"/><tag k="addr:housenumber" v="113"/><tag k="addr:postcode" v="78738"/></node><node id="-135" lat="30.339821" lon="-97.992884" changeset="false"><tag k="addr:street" v="Indianwood Drive"/><tag k="addr:housenumber" v="407"/><tag k="addr:postcode" v="78738"/></node><node id="-136" lat="30.339528" lon="-97.992195" changeset="false"><tag k="addr:street" v="Indianwood Drive"/><tag k="addr:housenumber" v="418"/><tag k="addr:postcode" v="78738"/></node><node id="-137" lat="30.341744" lon="-97.990114" changeset="false"><tag k="addr:street" v="Treehaven Lane"/><tag k="addr:housenumber" v="10"/><tag k="addr:postcode" v="78738"/></node><node id="-138" lat="30.3419" lon="-97.991405" changeset="false"><tag k="addr:street" v="Swiftwater Cove"/><tag k="addr:housenumber" v="11"/><tag k="addr:postcode" v="78738"/></node><node id="-139" lat="30.341169" lon="-97.993539" changeset="false"><tag k="addr:street" v="Autumn Oaks Drive"/><tag k="addr:housenumber" v="56"/><tag k="addr:postcode" v="78738"/></node><node id="-140" lat="30.340399" lon="-97.993423" changeset="false"><tag k="addr:street" v="Sparrowglen Lane"/><tag k="addr:housenumber" v="13"/><tag k="addr:postcode" v="78738"/></node><node id="-141" lat="30.342439" lon="-97.989739" changeset="false"><tag k="addr:street" v="Treehaven Lane"/><tag k="addr:housenumber" v="20"/><tag k="addr:postcode" v="78738"/></node><node id="-142" lat="30.342681" lon="-97.995051" changeset="false"><tag k="addr:street" v="Heatherbloom Lane"/><tag k="addr:housenumber" v="8"/><tag k="addr:postcode" v="78738"/></node><node id="-143" lat="30.341644" lon="-97.990173" changeset="false"><tag k="addr:street" v="Treehaven Lane"/><tag k="addr:housenumber" v="8"/><tag k="addr:postcode" v="78738"/></node><node id="-144" lat="30.339981" lon="-97.993429" changeset="false"><tag k="addr:street" v="Indigo Run Cove"/><tag k="addr:housenumber" v="110"/><tag k="addr:postcode" v="78738"/></node><node id="-145" lat="30.340294" lon="-97.99216" changeset="false"><tag k="addr:street" v="Sparrowglen Lane"/><tag k="addr:housenumber" v="3"/><tag k="addr:postcode" v="78738"/></node><node id="-146" lat="30.342204" lon="-97.989963" changeset="false"><tag k="addr:street" v="Treehaven Lane"/><tag k="addr:housenumber" v="18"/><tag k="addr:postcode" v="78738"/></node><node id="-147" lat="30.340949" lon="-97.991587" changeset="false"><tag k="addr:street" v="Treehaven Lane"/><tag k="addr:housenumber" v="2"/><tag k="addr:postcode" v="78738"/></node><node id="-148" lat="30.341946" lon="-97.990916" changeset="false"><tag k="addr:street" v="Swiftwater Cove"/><tag k="addr:housenumber" v="5"/><tag k="addr:postcode" v="78738"/></node><node id="-149" lat="30.342366" lon="-97.995154" changeset="false"><tag k="addr:street" v="Heatherbloom Lane"/><tag k="addr:housenumber" v="14"/><tag k="addr:postcode" v="78738"/></node><node id="-150" lat="30.342327" lon="-97.99507" changeset="false"><tag k="addr:street" v="Heatherbloom Lane"/><tag k="addr:housenumber" v="15"/><tag k="addr:postcode" v="78738"/></node><node id="-151" lat="30.342813" lon="-97.994582" changeset="false"><tag k="addr:street" v="Heatherbloom Lane"/><tag k="addr:housenumber" v="4"/><tag k="addr:postcode" v="78738"/></node><node id="-152" lat="30.338946" lon="-97.993071" changeset="false"><tag k="addr:street" v="Indianwood Drive"/><tag k="addr:housenumber" v="404"/><tag k="addr:postcode" v="78738"/></node><node id="-153" lat="30.341091" lon="-97.992429" changeset="false"><tag k="addr:street" v="Swiftwater Cove"/><tag k="addr:housenumber" v="21"/><tag k="addr:postcode" v="78738"/></node><node id="-154" lat="30.341975" lon="-97.994459" changeset="false"><tag k="addr:street" v="Cove Creek Lane"/><tag k="addr:housenumber" v="10"/><tag k="addr:postcode" v="78738"/></node><node id="-155" lat="30.343642" lon="-97.990668" changeset="false"><tag k="addr:street" v="Stillmeadow Drive"/><tag k="addr:housenumber" v="48"/><tag k="addr:postcode" v="78738"/></node><node id="-156" lat="30.339727" lon="-97.993993" changeset="false"><tag k="addr:street" v="Indigo Run Cove"/><tag k="addr:housenumber" v="109"/><tag k="addr:postcode" v="78738"/></node><node id="-157" lat="30.335988" lon="-97.995918" changeset="false"><tag k="addr:street" v="Black Wolf Run"/><tag k="addr:housenumber" v="218"/><tag k="addr:postcode" v="78738"/></node><node id="-158" lat="30.336459" lon="-97.995279" changeset="false"><tag k="addr:street" v="Black Wolf Run"/><tag k="addr:housenumber" v="300"/><tag k="addr:postcode" v="78738"/></node><node id="-159" lat="30.339493" lon="-97.992772" changeset="false"><tag k="addr:street" v="Indianwood Drive"/><tag k="addr:housenumber" v="403"/><tag k="addr:postcode" v="78738"/></node><node id="-160" lat="30.339432" lon="-97.993906" changeset="false"><tag k="addr:street" v="Indigo Run Cove"/><tag k="addr:housenumber" v="105"/><tag k="addr:postcode" v="78738"/></node><node id="-161" lat="30.339397" lon="-97.989767" changeset="false"><tag k="addr:street" v="Dashwood Court"/><tag k="addr:housenumber" v="3"/><tag k="addr:postcode" v="78738"/></node><node id="-162" lat="30.342746" lon="-97.994824" changeset="false"><tag k="addr:street" v="Heatherbloom Lane"/><tag k="addr:housenumber" v="6"/><tag k="addr:postcode" v="78738"/></node><node id="-163" lat="30.341971" lon="-97.991109" changeset="false"><tag k="addr:street" v="Swiftwater Cove"/><tag k="addr:housenumber" v="7"/><tag k="addr:postcode" v="78738"/></node><node id="-164" lat="30.342617" lon="-97.995304" changeset="false"><tag k="addr:street" v="Heatherbloom Lane"/><tag k="addr:housenumber" v="10"/><tag k="addr:postcode" v="78738"/></node><node id="-165" lat="30.35389" lon="-97.987574" changeset="false"><tag k="addr:street" v="Birdie Drive"/><tag k="addr:housenumber" v="109"/><tag k="addr:postcode" v="78738"/></node><node id="-166" lat="30.353841" lon="-97.987488" changeset="false"><tag k="addr:street" v="Birdie Drive"/><tag k="addr:housenumber" v="107"/><tag k="addr:postcode" v="78738"/></node><node id="-167" lat="30.353778" lon="-97.987403" changeset="false"><tag k="addr:street" v="Birdie Drive"/><tag k="addr:housenumber" v="105"/><tag k="addr:postcode" v="78738"/></node><node id="-168" lat="30.353712" lon="-97.987323" changeset="false"><tag k="addr:street" v="Birdie Drive"/><tag k="addr:housenumber" v="103"/><tag k="addr:postcode" v="78738"/></node><node id="-169" lat="30.341988" lon="-97.990075" changeset="false"><tag k="addr:street" v="Treehaven Lane"/><tag k="addr:housenumber" v="14"/><tag k="addr:postcode" v="78738"/></node><node id="-170" lat="30.341887" lon="-97.990123" changeset="false"><tag k="addr:street" v="Treehaven Lane"/><tag k="addr:housenumber" v="12"/><tag k="addr:postcode" v="78738"/></node><node id="-171" lat="30.351064" lon="-97.991105" changeset="false"><tag k="addr:street" v="Tournament Way"/><tag k="addr:housenumber" v="38"/><tag k="addr:postcode" v="78738"/></node><node id="-172" lat="30.351134" lon="-97.99101" changeset="false"><tag k="addr:street" v="Tournament Way"/><tag k="addr:housenumber" v="36"/><tag k="addr:postcode" v="78738"/></node><node id="-173" lat="30.351164" lon="-97.990944" changeset="false"><tag k="addr:street" v="Tournament Way"/><tag k="addr:housenumber" v="34"/><tag k="addr:postcode" v="78738"/></node><node id="-174" lat="30.35122" lon="-97.99085" changeset="false"><tag k="addr:street" v="Tournament Way"/><tag k="addr:housenumber" v="32"/><tag k="addr:postcode" v="78738"/></node><node id="-175" lat="30.35127" lon="-97.990442" changeset="false"><tag k="addr:street" v="Tournament Way"/><tag k="addr:housenumber" v="26"/><tag k="addr:postcode" v="78738"/></node><node id="-176" lat="30.35128" lon="-97.990534" changeset="false"><tag k="addr:street" v="Tournament Way"/><tag k="addr:housenumber" v="28"/><tag k="addr:postcode" v="78738"/></node><node id="-177" lat="30.351293" lon="-97.990637" changeset="false"><tag k="addr:street" v="Tournament Way"/><tag k="addr:housenumber" v="30"/><tag k="addr:postcode" v="78738"/></node><node id="-178" lat="30.350812" lon="-97.992062" changeset="false"><tag k="addr:street" v="Tournament Way"/><tag k="addr:housenumber" v="54"/><tag k="addr:postcode" v="78738"/></node><node id="-179" lat="30.35086" lon="-97.991866" changeset="false"><tag k="addr:street" v="Tournament Way"/><tag k="addr:housenumber" v="50"/><tag k="addr:postcode" v="78738"/></node><node id="-180" lat="30.350842" lon="-97.991962" changeset="false"><tag k="addr:street" v="Tournament Way"/><tag k="addr:housenumber" v="52"/><tag k="addr:postcode" v="78738"/></node><node id="-181" lat="30.350882" lon="-97.991786" changeset="false"><tag k="addr:street" v="Tournament Way"/><tag k="addr:housenumber" v="48"/><tag k="addr:postcode" v="78738"/></node><node id="-182" lat="30.350784" lon="-97.992231" changeset="false"><tag k="addr:street" v="Tournament Way"/><tag k="addr:housenumber" v="56"/><tag k="addr:postcode" v="78738"/></node><node id="-183" lat="30.35076" lon="-97.992318" changeset="false"><tag k="addr:street" v="Tournament Way"/><tag k="addr:housenumber" v="58"/><tag k="addr:postcode" v="78738"/></node><node id="-184" lat="30.350727" lon="-97.992434" changeset="false"><tag k="addr:street" v="Tournament Way"/><tag k="addr:housenumber" v="60"/><tag k="addr:postcode" v="78738"/></node><node id="-185" lat="30.350706" lon="-97.992524" changeset="false"><tag k="addr:street" v="Tournament Way"/><tag k="addr:housenumber" v="62"/><tag k="addr:postcode" v="78738"/></node><node id="-186" lat="30.350949" lon="-97.991401" changeset="false"><tag k="addr:street" v="Tournament Way"/><tag k="addr:housenumber" v="42"/><tag k="addr:postcode" v="78738"/></node><node id="-187" lat="30.350927" lon="-97.99159" changeset="false"><tag k="addr:street" v="Tournament Way"/><tag k="addr:housenumber" v="46"/><tag k="addr:postcode" v="78738"/></node><node id="-188" lat="30.350942" lon="-97.991494" changeset="false"><tag k="addr:street" v="Tournament Way"/><tag k="addr:housenumber" v="44"/><tag k="addr:postcode" v="78738"/></node><node id="-189" lat="30.350976" lon="-97.991302" changeset="false"><tag k="addr:street" v="Tournament Way"/><tag k="addr:housenumber" v="40"/><tag k="addr:postcode" v="78738"/></node><node id="-190" lat="30.350669" lon="-97.992693" changeset="false"><tag k="addr:street" v="Tournament Way"/><tag k="addr:housenumber" v="64"/><tag k="addr:postcode" v="78738"/></node><node id="-191" lat="30.350648" lon="-97.992779" changeset="false"><tag k="addr:street" v="Tournament Way"/><tag k="addr:housenumber" v="66"/><tag k="addr:postcode" v="78738"/></node><node id="-192" lat="30.350618" lon="-97.992889" changeset="false"><tag k="addr:street" v="Tournament Way"/><tag k="addr:housenumber" v="68"/><tag k="addr:postcode" v="78738"/></node><node id="-193" lat="30.342722" lon="-97.99606" changeset="false"><tag k="addr:street" v="Autumn Oaks Drive"/><tag k="addr:housenumber" v="25"/><tag k="addr:postcode" v="78738"/></node><node id="-194" lat="30.342948" lon="-97.996073" changeset="false"><tag k="addr:street" v="Autumn Oaks Drive"/><tag k="addr:housenumber" v="23"/><tag k="addr:postcode" v="78738"/></node><node id="-195" lat="30.341433" lon="-97.991307" changeset="false"><tag k="addr:street" v="Treehaven Lane"/><tag k="addr:housenumber" v="7"/><tag k="addr:postcode" v="78738"/></node><node id="-196" lat="30.34145" lon="-97.991164" changeset="false"><tag k="addr:street" v="Treehaven Lane"/><tag k="addr:housenumber" v="9"/><tag k="addr:postcode" v="78738"/></node><node id="-197" lat="30.342113" lon="-97.992214" changeset="false"><tag k="addr:street" v="Swiftwater Cove"/><tag k="addr:housenumber" v="5"/><tag k="addr:postcode" v="78738"/></node><node id="-198" lat="30.342039" lon="-97.992087" changeset="false"><tag k="addr:street" v="Swiftwater Cove"/><tag k="addr:housenumber" v="3"/><tag k="addr:postcode" v="78738"/></node></osm>