<?xml version="1.0" encoding="UTF-8"?><osm version="0.6" generator="github.com/aaronlidman/osm-and-geojson"><node id="-1" lat="30.359214" lon="-97.693457" changeset="false"><tag k="addr:street" v="North Creek Drive,1100"/><tag k="addr:housenumber" v="9204"/><tag k="coa:place_id" v="97946"/></node><node id="-2" lat="30.360069" lon="-97.69302" changeset="false"><tag k="addr:street" v="North Creek Drive,1100"/><tag k="addr:housenumber" v="9304"/><tag k="coa:place_id" v="97928"/></node><node id="-3" lat="30.362199" lon="-97.697027" changeset="false"><tag k="addr:street" v="North Lamar Boulevard"/><tag k="addr:housenumber" v="9311"/><tag k="coa:place_id" v="812145"/></node><node id="-4" lat="30.360538" lon="-97.693866" changeset="false"><tag k="addr:street" v="Georgian Drive"/><tag k="addr:housenumber" v="9308"/><tag k="coa:place_id" v="98066"/></node><node id="-5" lat="30.355047" lon="-97.693462" changeset="false"><tag k="addr:street" v="Capitol Drive"/><tag k="addr:housenumber" v="510"/><tag k="coa:place_id" v="243453"/></node><node id="-6" lat="30.357154" lon="-97.693385" changeset="false"><tag k="addr:street" v="East Drive,1100"/><tag k="addr:housenumber" v="9015"/><tag k="coa:place_id" v="589408"/></node><node id="-7" lat="30.358308" lon="-97.688823" changeset="false"><tag k="addr:street" v="North Interstate Highway 35 Service Road"/><tag k="addr:housenumber" v="9318"/><tag k="coa:place_id" v="134462"/></node><node id="-8" lat="30.356216" lon="-97.696501" changeset="false"><tag k="addr:street" v="Georgian Drive"/><tag k="addr:housenumber" v="8904"/><tag k="coa:place_id" v="3140752"/></node><node id="-9" lat="30.357514" lon="-97.698017" changeset="false"><tag k="addr:street" v="Glenn Lane"/><tag k="addr:housenumber" v="8908"/><tag k="coa:place_id" v="321254"/></node><node id="-10" lat="30.358725" lon="-97.695139" changeset="false"><tag k="addr:street" v="West Fawnridge Drive"/><tag k="addr:housenumber" v="102"/><tag k="coa:place_id" v="97982"/></node><node id="-11" lat="30.361521" lon="-97.697388" changeset="false"><tag k="addr:street" v="North Lamar Boulevard"/><tag k="addr:housenumber" v="9209"/><tag k="coa:place_id" v="958370"/></node><node id="-12" lat="30.356819" lon="-97.692298" changeset="false"><tag k="addr:street" v="East Fawnridge Drive"/><tag k="addr:housenumber" v="509"/><tag k="coa:place_id" v="97352"/></node><node id="-13" lat="30.357554" lon="-97.689377" changeset="false"><tag k="addr:street" v="North Interstate Highway 35 Service Road"/><tag k="addr:housenumber" v="9220"/><tag k="coa:place_id" v="199592"/></node><node id="-14" lat="30.361485" lon="-97.696051" changeset="false"><tag k="addr:street" v="Glenn Lane"/><tag k="addr:housenumber" v="9306"/><tag k="coa:place_id" v="3292196"/></node><node id="-15" lat="30.356242" lon="-97.696865" changeset="false"><tag k="addr:street" v="West Home Place"/><tag k="addr:housenumber" v="110"/><tag k="coa:place_id" v="3140753"/></node><node id="-16" lat="30.355589" lon="-97.692999" changeset="false"><tag k="addr:street" v="Capitol Drive"/><tag k="addr:housenumber" v="8912"/><tag k="coa:place_id" v="97238"/></node><node id="-17" lat="30.358528" lon="-97.691336" changeset="false"><tag k="addr:street" v="Hackberry Lane"/><tag k="addr:housenumber" v="411"/><tag k="coa:place_id" v="173751"/></node><node id="-18" lat="30.356298" lon="-97.692743" changeset="false"><tag k="addr:street" v="Capitol Drive"/><tag k="addr:housenumber" v="9006"/><tag k="coa:place_id" v="97226"/></node><node id="-19" lat="30.356293" lon="-97.693852" changeset="false"><tag k="addr:street" v="East Drive,1100"/><tag k="addr:housenumber" v="9001"/><tag k="coa:place_id" v="225147"/></node><node id="-20" lat="30.355745" lon="-97.695699" changeset="false"><tag k="addr:street" v="East Home Place"/><tag k="addr:housenumber" v="104"/><tag k="coa:place_id" v="97520"/></node><node id="-21" lat="30.358261" lon="-97.69171" changeset="false"><tag k="addr:street" v="Middle Lane"/><tag k="addr:housenumber" v="406"/><tag k="coa:place_id" v="97742"/></node><node id="-22" lat="30.357929" lon="-97.693119" changeset="false"><tag k="addr:street" v="East Fawnridge Drive"/><tag k="addr:housenumber" v="400"/><tag k="coa:place_id" v="97400"/></node><node id="-23" lat="30.355795" lon="-97.696118" changeset="false"><tag k="addr:street" v="East Home Place"/><tag k="addr:housenumber" v="100"/><tag k="coa:place_id" v="97532"/></node><node id="-24" lat="30.359811" lon="-97.6978" changeset="false"><tag k="addr:street" v="Shepard Drive"/><tag k="addr:housenumber" v="9015"/><tag k="coa:place_id" v="321356"/></node><node id="-25" lat="30.359377" lon="-97.698913" changeset="false"><tag k="addr:street" v="North Lamar Boulevard"/><tag k="addr:housenumber" v="9001"/><tag k="coa:place_id" v="787269"/></node><node id="-26" lat="30.358142" lon="-97.697689" changeset="false"><tag k="addr:street" v="Grissom Court"/><tag k="addr:housenumber" v="501"/><tag k="coa:place_id" v="321236"/></node><node id="-27" lat="30.362346" lon="-97.696995" changeset="false"><tag k="addr:street" v="North Lamar Boulevard"/><tag k="addr:housenumber" v="9315"/><tag k="coa:place_id" v="134060"/></node><node id="-28" lat="30.362247" lon="-97.69699" changeset="false"><tag k="addr:street" v="North Lamar Boulevard"/><tag k="addr:housenumber" v="9313"/><tag k="coa:place_id" v="134054"/></node><node id="-29" lat="30.355681" lon="-97.694477" changeset="false"><tag k="addr:street" v="East Drive,1100"/><tag k="addr:housenumber" v="8915"/><tag k="coa:place_id" v="84830"/></node><node id="-30" lat="30.359379" lon="-97.693322" changeset="false"><tag k="addr:street" v="North Creek Drive,1100"/><tag k="addr:housenumber" v="9206"/><tag k="coa:place_id" v="97940"/></node><node id="-31" lat="30.36076" lon="-97.693678" changeset="false"><tag k="addr:street" v="Georgian Drive"/><tag k="addr:housenumber" v="9310"/><tag k="coa:place_id" v="98060"/></node><node id="-32" lat="30.36014" lon="-97.693493" changeset="false"><tag k="addr:street" v="Georgian Drive"/><tag k="addr:housenumber" v="9303"/><tag k="coa:place_id" v="98048"/></node><node id="-33" lat="30.362484" lon="-97.6964" changeset="false"><tag k="addr:street" v="West Rundberg Lane"/><tag k="addr:housenumber" v="709"/><tag k="coa:place_id" v="3052095"/></node><node id="-34" lat="30.355409" lon="-97.694207" changeset="false"><tag k="addr:street" v="Capitol Drive"/><tag k="addr:housenumber" v="500"/><tag k="coa:place_id" v="97268"/></node><node id="-35" lat="30.362126" lon="-97.697096" changeset="false"><tag k="addr:street" v="North Lamar Boulevard"/><tag k="addr:housenumber" v="9309"/><tag k="coa:place_id" v="134042"/></node><node id="-36" lat="30.359768" lon="-97.691667" changeset="false"><tag k="addr:street" v="East Rundberg Lane"/><tag k="addr:housenumber" v="311"/><tag k="coa:place_id" v="134414"/></node><node id="-37" lat="30.35702" lon="-97.689584" changeset="false"><tag k="addr:street" v="North Interstate Highway 35 Service Road"/><tag k="addr:housenumber" v="9200"/><tag k="coa:place_id" v="815541"/></node><node id="-38" lat="30.360318" lon="-97.693431" changeset="false"><tag k="addr:street" v="Georgian Drive"/><tag k="addr:housenumber" v="9307"/><tag k="coa:place_id" v="98054"/></node><node id="-39" lat="30.356934" lon="-97.692667" changeset="false"><tag k="addr:street" v="East Fawnridge Drive"/><tag k="addr:housenumber" v="503"/><tag k="coa:place_id" v="185279"/></node><node id="-40" lat="30.35756" lon="-97.690393" changeset="false"><tag k="addr:street" v="Middle Lane"/><tag k="addr:housenumber" v="600"/><tag k="coa:place_id" v="97688"/></node><node id="-41" lat="30.357407" lon="-97.692347" changeset="false"><tag k="addr:street" v="East Fawnridge Drive"/><tag k="addr:housenumber" v="504"/><tag k="coa:place_id" v="245323"/></node><node id="-42" lat="30.359999" lon="-97.692231" changeset="false"><tag k="addr:street" v="East Rundberg Lane"/><tag k="addr:housenumber" v="305"/><tag k="coa:place_id" v="134408"/></node><node id="-43" lat="30.357278" lon="-97.692186" changeset="false"><tag k="addr:street" v="East Fawnridge Drive"/><tag k="addr:housenumber" v="506"/><tag k="coa:place_id" v="472881"/></node><node id="-44" lat="30.358186" lon="-97.691569" changeset="false"><tag k="addr:street" v="Middle Lane"/><tag k="addr:housenumber" v="408"/><tag k="coa:place_id" v="248051"/></node><node id="-45" lat="30.356895" lon="-97.691215" changeset="false"><tag k="addr:street" v="Capitol Drive"/><tag k="addr:housenumber" v="9026"/><tag k="coa:place_id" v="186189"/></node><node id="-46" lat="30.355777" lon="-97.695928" changeset="false"><tag k="addr:street" v="East Home Place"/><tag k="addr:housenumber" v="102"/><tag k="coa:place_id" v="97526"/></node><node id="-47" lat="30.355761" lon="-97.695113" changeset="false"><tag k="addr:street" v="East Drive,1100"/><tag k="addr:housenumber" v="8908"/><tag k="coa:place_id" v="97496"/></node><node id="-48" lat="30.355714" lon="-97.694455" changeset="false"><tag k="addr:street" v="East Drive,1100"/><tag k="addr:housenumber" v="8917"/><tag k="coa:place_id" v="84831"/></node><node id="-49" lat="30.358875" lon="-97.693247" changeset="false"><tag k="addr:street" v="Middle Lane"/><tag k="addr:housenumber" v="300"/><tag k="coa:place_id" v="97778"/></node><node id="-50" lat="30.356946" lon="-97.691831" changeset="false"><tag k="addr:street" v="East Fawnridge Drive"/><tag k="addr:housenumber" v="513"/><tag k="coa:place_id" v="97358"/></node><node id="-51" lat="30.359267" lon="-97.691875" changeset="false"><tag k="addr:street" v="Hackberry Lane"/><tag k="addr:housenumber" v="310"/><tag k="coa:place_id" v="1163492"/></node><node id="-52" lat="30.359159" lon="-97.69048" changeset="false"><tag k="addr:street" v="East Rundberg Lane"/><tag k="addr:housenumber" v="503"/><tag k="coa:place_id" v="600796"/></node><node id="-53" lat="30.35903" lon="-97.690281" changeset="false"><tag k="addr:street" v="East Rundberg Lane"/><tag k="addr:housenumber" v="505"/><tag k="coa:place_id" v="134456"/></node><node id="-54" lat="30.355481" lon="-97.694566" changeset="false"><tag k="addr:street" v="Capitol Drive"/><tag k="addr:housenumber" v="406"/><tag k="coa:place_id" v="97274"/></node><node id="-55" lat="30.355534" lon="-97.694486" changeset="false"><tag k="addr:street" v="East Drive,1100"/><tag k="addr:housenumber" v="8901"/><tag k="coa:place_id" v="97280"/></node></osm>