<?xml version="1.0" encoding="UTF-8"?><osm version="0.6" generator="github.com/aaronlidman/osm-and-geojson"><node id="-1" lat="30.410988" lon="-97.744709" changeset="false"><tag k="addr:street" v="Research Boulevard"/><tag k="addr:housenumber" v="11411"/><tag k="addr:postcode" v="78759"/></node><node id="-2" lat="30.407342" lon="-97.742316" changeset="false"><tag k="addr:street" v="Balcones Woods Cove"/><tag k="addr:housenumber" v="11203"/><tag k="addr:postcode" v="78759"/></node><node id="-3" lat="30.40588" lon="-97.734488" changeset="false"><tag k="addr:street" v="Balcones Woods Drive"/><tag k="addr:housenumber" v="4118"/><tag k="addr:postcode" v="78759"/></node><node id="-4" lat="30.407096" lon="-97.742128" changeset="false"><tag k="addr:street" v="Balcones Woods Drive"/><tag k="addr:housenumber" v="4704"/><tag k="addr:postcode" v="78759"/></node><node id="-5" lat="30.406772" lon="-97.741502" changeset="false"><tag k="addr:street" v="Toledo Drive"/><tag k="addr:housenumber" v="11201"/><tag k="addr:postcode" v="78759"/></node><node id="-6" lat="30.406316" lon="-97.735882" changeset="false"><tag k="addr:street" v="Las Palmas Drive"/><tag k="addr:housenumber" v="4310"/><tag k="addr:postcode" v="78759"/></node><node id="-7" lat="30.412967" lon="-97.744764" changeset="false"><tag k="addr:street" v="Angus Road"/><tag k="addr:housenumber" v="11511"/><tag k="addr:postcode" v="78759"/></node><node id="-8" lat="30.407968" lon="-97.744574" changeset="false"><tag k="addr:street" v="Balcones Woods Drive"/><tag k="addr:housenumber" v="5012"/><tag k="addr:postcode" v="78759"/></node><node id="-9" lat="30.407254" lon="-97.734782" changeset="false"><tag k="addr:street" v="Flagstaff Drive"/><tag k="addr:housenumber" v="4309"/><tag k="addr:postcode" v="78759"/></node><node id="-10" lat="30.405551" lon="-97.735889" changeset="false"><tag k="addr:street" v="Balcones Woods Drive"/><tag k="addr:housenumber" v="4208"/><tag k="addr:postcode" v="78759"/></node><node id="-11" lat="30.408025" lon="-97.740243" changeset="false"><tag k="addr:street" v="Toledo Drive"/><tag k="addr:housenumber" v="11311"/><tag k="addr:postcode" v="78759"/></node><node id="-12" lat="30.406714" lon="-97.740906" changeset="false"><tag k="addr:street" v="Santa Cruz Drive"/><tag k="addr:housenumber" v="11204"/><tag k="addr:postcode" v="78759"/></node><node id="-13" lat="30.406355" lon="-97.735962" changeset="false"><tag k="addr:street" v="Malaga Drive"/><tag k="addr:housenumber" v="4306"/><tag k="addr:postcode" v="78759"/></node><node id="-14" lat="30.410936" lon="-97.739446" changeset="false"><tag k="addr:street" v="Catalonia Drive"/><tag k="addr:housenumber" v="11510"/><tag k="addr:postcode" v="78759"/></node><node id="-15" lat="30.410929" lon="-97.739388" changeset="false"><tag k="addr:street" v="Catalonia Drive"/><tag k="addr:housenumber" v="11510 1/2"/><tag k="addr:postcode" v="78759"/></node></osm>