<?xml version="1.0" encoding="UTF-8"?><osm version="0.6" generator="github.com/aaronlidman/osm-and-geojson"><node id="-1" lat="30.164665" lon="-97.852458" changeset="false"><tag k="addr:street" v="Sesbania Drive"/><tag k="addr:housenumber" v="3024"/><tag k="addr:postcode" v="78748"/></node><node id="-2" lat="30.167743" lon="-97.85145" changeset="false"><tag k="addr:street" v="Whiskey River Drive"/><tag k="addr:housenumber" v="11013"/><tag k="addr:postcode" v="78748"/></node><node id="-3" lat="30.167743" lon="-97.852889" changeset="false"><tag k="addr:street" v="Whiskey River Drive"/><tag k="addr:housenumber" v="11028"/><tag k="addr:postcode" v="78748"/></node><node id="-4" lat="30.163701" lon="-97.850002" changeset="false"><tag k="addr:street" v="Bellows Falls Avenue"/><tag k="addr:housenumber" v="11216"/><tag k="addr:postcode" v="78748"/></node><node id="-5" lat="30.163597" lon="-97.849002" changeset="false"><tag k="addr:street" v="Balfour Falls Lane"/><tag k="addr:housenumber" v="2912"/><tag k="addr:postcode" v="78748"/></node><node id="-6" lat="30.160358" lon="-97.849289" changeset="false"><tag k="addr:street" v="Arroyo Blanco Drive"/><tag k="addr:housenumber" v="11409"/><tag k="addr:postcode" v="78748"/></node><node id="-7" lat="30.168055" lon="-97.850386" changeset="false"><tag k="addr:street" v="Whiskey River Drive"/><tag k="addr:housenumber" v="11002"/><tag k="addr:postcode" v="78748"/></node><node id="-8" lat="30.165474" lon="-97.852224" changeset="false"><tag k="addr:street" v="Holster Court"/><tag k="addr:housenumber" v="11205"/><tag k="addr:postcode" v="78748"/></node><node id="-9" lat="30.164805" lon="-97.856924" changeset="false"><tag k="addr:street" v="Menodora Drive"/><tag k="addr:housenumber" v="11317"/><tag k="addr:postcode" v="78748"/></node><node id="-10" lat="30.16698" lon="-97.853332" changeset="false"><tag k="addr:street" v="Whiskey River Drive"/><tag k="addr:housenumber" v="11108"/><tag k="addr:postcode" v="78748"/></node><node id="-11" lat="30.166895" lon="-97.856456" changeset="false"><tag k="addr:street" v="Treadsoft Cove"/><tag k="addr:housenumber" v="3300"/><tag k="addr:postcode" v="78748"/></node><node id="-12" lat="30.167898" lon="-97.852777" changeset="false"><tag k="addr:street" v="Whiskey River Drive"/><tag k="addr:housenumber" v="11026"/><tag k="addr:postcode" v="78748"/></node><node id="-13" lat="30.166516" lon="-97.853502" changeset="false"><tag k="addr:street" v="Whiskey River Drive"/><tag k="addr:housenumber" v="11114"/><tag k="addr:postcode" v="78748"/></node><node id="-14" lat="30.166197" lon="-97.853619" changeset="false"><tag k="addr:street" v="Whiskey River Drive"/><tag k="addr:housenumber" v="11202"/><tag k="addr:postcode" v="78748"/></node><node id="-15" lat="30.167135" lon="-97.853265" changeset="false"><tag k="addr:street" v="Whiskey River Drive"/><tag k="addr:housenumber" v="11106"/><tag k="addr:postcode" v="78748"/></node><node id="-16" lat="30.160555" lon="-97.849992" changeset="false"><tag k="addr:street" v="Arroyo Blanco Drive"/><tag k="addr:housenumber" v="11401"/><tag k="addr:postcode" v="78748"/></node><node id="-17" lat="30.162018" lon="-97.850658" changeset="false"><tag k="addr:street" v="Six Gun Trail"/><tag k="addr:housenumber" v="2907"/><tag k="addr:postcode" v="78748"/></node><node id="-18" lat="30.166668" lon="-97.853458" changeset="false"><tag k="addr:street" v="Whiskey River Drive"/><tag k="addr:housenumber" v="11112"/><tag k="addr:postcode" v="78748"/></node><node id="-19" lat="30.160423" lon="-97.851549" changeset="false"><tag k="addr:street" v="Shotgun Lane"/><tag k="addr:housenumber" v="2914"/><tag k="addr:postcode" v="78748"/></node><node id="-20" lat="30.166839" lon="-97.853372" changeset="false"><tag k="addr:street" v="Whiskey River Drive"/><tag k="addr:housenumber" v="11110"/><tag k="addr:postcode" v="78748"/></node><node id="-21" lat="30.164472" lon="-97.850365" changeset="false"><tag k="addr:street" v="Sesbania Drive"/><tag k="addr:housenumber" v="3005"/><tag k="addr:postcode" v="78748"/></node><node id="-22" lat="30.165223" lon="-97.857032" changeset="false"><tag k="addr:street" v="Menodora Drive"/><tag k="addr:housenumber" v="11313"/><tag k="addr:postcode" v="78748"/></node><node id="-23" lat="30.167616" lon="-97.852973" changeset="false"><tag k="addr:street" v="Whiskey River Drive"/><tag k="addr:housenumber" v="11100"/><tag k="addr:postcode" v="78748"/></node><node id="-24" lat="30.165307" lon="-97.853824" changeset="false"><tag k="addr:street" v="Festus Drive"/><tag k="addr:housenumber" v="3122"/><tag k="addr:postcode" v="78748"/></node><node id="-25" lat="30.165344" lon="-97.853871" changeset="false"><tag k="addr:street" v="Whiskey River Drive"/><tag k="addr:housenumber" v="11212"/><tag k="addr:postcode" v="78748"/></node></osm>