<?xml version="1.0" encoding="UTF-8"?><osm version="0.6" generator="github.com/aaronlidman/osm-and-geojson"><node id="-1" lat="30.439359" lon="-97.745071" changeset="false"><tag k="addr:street" v="Melrose Trail"/><tag k="addr:housenumber" v="6101"/><tag k="coa:place_id" v="1007733"/></node><node id="-2" lat="30.438218" lon="-97.745629" changeset="false"><tag k="addr:street" v="New Iberia Court"/><tag k="addr:housenumber" v="6103"/><tag k="coa:place_id" v="254500"/></node><node id="-3" lat="30.43903" lon="-97.752758" changeset="false"><tag k="addr:street" v="Jennings Drive"/><tag k="addr:housenumber" v="6501"/><tag k="coa:place_id" v="1011129"/></node><node id="-4" lat="30.439245" lon="-97.745533" changeset="false"><tag k="addr:street" v="Melrose Trail"/><tag k="addr:housenumber" v="6105"/><tag k="coa:place_id" v="346412"/></node><node id="-5" lat="30.437725" lon="-97.750097" changeset="false"><tag k="addr:street" v="Avery Island Avenue"/><tag k="addr:housenumber" v="6305"/><tag k="coa:place_id" v="949329"/></node><node id="-6" lat="30.438166" lon="-97.75001" changeset="false"><tag k="addr:street" v="Avery Island Avenue"/><tag k="addr:housenumber" v="6306"/><tag k="coa:place_id" v="994005"/></node><node id="-7" lat="30.437716" lon="-97.749234" changeset="false"><tag k="addr:street" v="Theriot Trail"/><tag k="addr:housenumber" v="12701"/><tag k="coa:place_id" v="973137"/></node><node id="-8" lat="30.43872" lon="-97.74581" changeset="false"><tag k="addr:street" v="New Iberia Court"/><tag k="addr:housenumber" v="6109"/><tag k="coa:place_id" v="235882"/></node><node id="-9" lat="30.438549" lon="-97.746865" changeset="false"><tag k="addr:street" v="Melrose Trail"/><tag k="addr:housenumber" v="6245"/><tag k="coa:place_id" v="254475"/></node></osm>