<?xml version="1.0" encoding="UTF-8"?><osm version="0.6" generator="github.com/aaronlidman/osm-and-geojson"><node id="-1" lat="30.232298" lon="-97.795576" changeset="false"><tag k="addr:street" v="Lamar Boulevard Frontage Road"/><tag k="addr:housenumber" v="4411"/><tag k="coa:place_id" v="708290"/></node><node id="-2" lat="30.228887" lon="-97.799433" changeset="false"><tag k="addr:street" v="Sagebrush Trail"/><tag k="addr:housenumber" v="4601"/><tag k="coa:place_id" v="708248"/></node><node id="-3" lat="30.230444" lon="-97.791079" changeset="false"><tag k="addr:street" v="West Ben White Boulevard"/><tag k="addr:housenumber" v="2111"/><tag k="coa:place_id" v="479883"/></node><node id="-4" lat="30.230428" lon="-97.791043" changeset="false"><tag k="addr:street" v="West Ben White Boulevard"/><tag k="addr:housenumber" v="2109"/><tag k="coa:place_id" v="869330"/></node><node id="-5" lat="30.226262" lon="-97.801908" changeset="false"><tag k="addr:street" v="Choctaw Trail"/><tag k="addr:housenumber" v="2611"/><tag k="coa:place_id" v="147866"/></node><node id="-6" lat="30.230379" lon="-97.790934" changeset="false"><tag k="addr:street" v="West Ben White Boulevard"/><tag k="addr:housenumber" v="2103"/><tag k="coa:place_id" v="869348"/></node><node id="-7" lat="30.222647" lon="-97.797135" changeset="false"><tag k="addr:street" v="Remuda Trail"/><tag k="addr:housenumber" v="2209"/><tag k="coa:place_id" v="114722"/></node><node id="-8" lat="30.226202" lon="-97.79735" changeset="false"><tag k="addr:street" v="Arapahoe Trail"/><tag k="addr:housenumber" v="4611"/><tag k="coa:place_id" v="115658"/></node><node id="-9" lat="30.230292" lon="-97.793128" changeset="false"><tag k="addr:street" v="Western Trails Boulevard"/><tag k="addr:housenumber" v="2210"/><tag k="coa:place_id" v="3429074"/></node><node id="-10" lat="30.230463" lon="-97.791122" changeset="false"><tag k="addr:street" v="West Ben White Boulevard"/><tag k="addr:housenumber" v="2113"/><tag k="coa:place_id" v="869318"/></node><node id="-11" lat="30.222284" lon="-97.793648" changeset="false"><tag k="addr:street" v="Manchaca Road"/><tag k="addr:housenumber" v="4906"/><tag k="coa:place_id" v="111872"/></node><node id="-12" lat="30.226781" lon="-97.802547" changeset="false"><tag k="addr:street" v="Winding Trail"/><tag k="addr:housenumber" v="4904"/><tag k="coa:place_id" v="147932"/></node><node id="-13" lat="30.231907" lon="-97.799345" changeset="false"><tag k="addr:street" v="Lamar Boulevard Frontage Road"/><tag k="addr:housenumber" v="4503"/><tag k="coa:place_id" v="488343"/></node><node id="-14" lat="30.229779" lon="-97.789596" changeset="false"><tag k="addr:street" v="West Ben White Boulevard"/><tag k="addr:housenumber" v="2029"/><tag k="coa:place_id" v="869360"/></node><node id="-15" lat="30.230395" lon="-97.79097" changeset="false"><tag k="addr:street" v="West Ben White Boulevard"/><tag k="addr:housenumber" v="2105"/><tag k="coa:place_id" v="869342"/></node><node id="-16" lat="30.227072" lon="-97.794171" changeset="false"><tag k="addr:street" v="Frontier Trail"/><tag k="addr:housenumber" v="4602"/><tag k="coa:place_id" v="112274"/></node><node id="-17" lat="30.225176" lon="-97.797453" changeset="false"><tag k="addr:street" v="Broken Bow Pass"/><tag k="addr:housenumber" v="4904"/><tag k="coa:place_id" v="1144790"/></node><node id="-18" lat="30.225648" lon="-97.793936" changeset="false"><tag k="addr:street" v="Roundup Trail"/><tag k="addr:housenumber" v="4715"/><tag k="coa:place_id" v="112088"/></node><node id="-19" lat="30.225938" lon="-97.791243" changeset="false"><tag k="addr:street" v="Manchaca Road"/><tag k="addr:housenumber" v="4616"/><tag k="coa:place_id" v="910862"/></node><node id="-20" lat="30.228512" lon="-97.797019" changeset="false"><tag k="addr:street" v="Navajo Path"/><tag k="addr:housenumber" v="4504"/><tag k="coa:place_id" v="115964"/></node><node id="-21" lat="30.225755" lon="-97.801022" changeset="false"><tag k="addr:street" v="Tahoe Trail"/><tag k="addr:housenumber" v="4901"/><tag k="coa:place_id" v="147758"/></node><node id="-22" lat="30.226459" lon="-97.796966" changeset="false"><tag k="addr:street" v="Arapahoe Trail"/><tag k="addr:housenumber" v="4609"/><tag k="coa:place_id" v="115652"/></node><node id="-23" lat="30.230411" lon="-97.791006" changeset="false"><tag k="addr:street" v="West Ben White Boulevard"/><tag k="addr:housenumber" v="2107"/><tag k="coa:place_id" v="869336"/></node><node id="-24" lat="30.229762" lon="-97.78956" changeset="false"><tag k="addr:street" v="West Ben White Boulevard"/><tag k="addr:housenumber" v="2027"/><tag k="coa:place_id" v="869366"/></node><node id="-25" lat="30.226284" lon="-97.794839" changeset="false"><tag k="addr:street" v="Roundup Trail"/><tag k="addr:housenumber" v="4706"/><tag k="coa:place_id" v="3511516"/></node><node id="-26" lat="30.226006" lon="-97.791008" changeset="false"><tag k="addr:street" v="Manchaca Road"/><tag k="addr:housenumber" v="4606"/><tag k="coa:place_id" v="910874"/></node><node id="-27" lat="30.225842" lon="-97.792991" changeset="false"><tag k="addr:street" v="Frontier Trail"/><tag k="addr:housenumber" v="4707"/><tag k="coa:place_id" v="112382"/></node><node id="-28" lat="30.229892" lon="-97.796358" changeset="false"><tag k="addr:street" v="Western Trails Boulevard"/><tag k="addr:housenumber" v="2500"/><tag k="coa:place_id" v="116222"/></node><node id="-29" lat="30.230828" lon="-97.795252" changeset="false"><tag k="addr:street" v="Frontier Trail"/><tag k="addr:housenumber" v="4451"/><tag k="coa:place_id" v="90625"/></node><node id="-30" lat="30.230092" lon="-97.795863" changeset="false"><tag k="addr:street" v="Western Trails Boulevard"/><tag k="addr:housenumber" v="2410 1/2"/><tag k="coa:place_id" v="3221388"/></node><node id="-31" lat="30.225647" lon="-97.802377" changeset="false"><tag k="addr:street" v="Winding Trail"/><tag k="addr:housenumber" v="5007"/><tag k="coa:place_id" v="147836"/></node><node id="-32" lat="30.224321" lon="-97.800591" changeset="false"><tag k="addr:street" v="Jones Road"/><tag k="addr:housenumber" v="2512"/><tag k="coa:place_id" v="3310308"/></node><node id="-33" lat="30.222975" lon="-97.797823" changeset="false"><tag k="addr:street" v="Remuda Trail"/><tag k="addr:housenumber" v="2305"/><tag k="coa:place_id" v="114704"/></node><node id="-34" lat="30.226025" lon="-97.79757" changeset="false"><tag k="addr:street" v="Arapahoe Trail"/><tag k="addr:housenumber" v="4613"/><tag k="coa:place_id" v="132546"/></node><node id="-35" lat="30.228427" lon="-97.792337" changeset="false"><tag k="addr:street" v="Cimarron Trail"/><tag k="addr:housenumber" v="2106"/><tag k="coa:place_id" v="115466"/></node><node id="-36" lat="30.22255" lon="-97.793479" changeset="false"><tag k="addr:street" v="Manchaca Road"/><tag k="addr:housenumber" v="4904"/><tag k="coa:place_id" v="111878"/></node><node id="-37" lat="30.23041" lon="-97.794976" changeset="false"><tag k="addr:street" v="Western Trails Boulevard"/><tag k="addr:housenumber" v="2306"/><tag k="coa:place_id" v="145893"/></node><node id="-38" lat="30.223083" lon="-97.79801" changeset="false"><tag k="addr:street" v="Remuda Trail"/><tag k="addr:housenumber" v="2307"/><tag k="coa:place_id" v="114698"/></node><node id="-39" lat="30.2227" lon="-97.793377" changeset="false"><tag k="addr:street" v="Manchaca Road"/><tag k="addr:housenumber" v="4902"/><tag k="coa:place_id" v="111884"/></node><node id="-40" lat="30.22684" lon="-97.793169" changeset="false"><tag k="addr:street" v="Cactus Lane"/><tag k="addr:housenumber" v="4606"/><tag k="coa:place_id" v="115502"/></node><node id="-41" lat="30.231042" lon="-97.795919" changeset="false"><tag k="addr:street" v="Frontier Trail"/><tag k="addr:housenumber" v="4446"/><tag k="coa:place_id" v="178577"/></node><node id="-42" lat="30.232312" lon="-97.79423" changeset="false"><tag k="addr:street" v="West Ben White Boulevard"/><tag k="addr:housenumber" v="2413"/><tag k="coa:place_id" v="1024478"/></node><node id="-43" lat="30.231949" lon="-97.794099" changeset="false"><tag k="addr:street" v="West Ben White Boulevard"/><tag k="addr:housenumber" v="2415"/><tag k="coa:place_id" v="120008"/></node><node id="-44" lat="30.222054" lon="-97.793825" changeset="false"><tag k="addr:street" v="Manchaca Road"/><tag k="addr:housenumber" v="4908"/><tag k="coa:place_id" v="111866"/></node><node id="-45" lat="30.225138" lon="-97.79235" changeset="false"><tag k="addr:street" v="Lasso Path"/><tag k="addr:housenumber" v="4703"/><tag k="coa:place_id" v="112460"/></node><node id="-46" lat="30.222938" lon="-97.793219" changeset="false"><tag k="addr:street" v="Roundup Trail"/><tag k="addr:housenumber" v="4820"/><tag k="coa:place_id" v="111890"/></node><node id="-47" lat="30.226792" lon="-97.793394" changeset="false"><tag k="addr:street" v="Cactus Lane"/><tag k="addr:housenumber" v="4608"/><tag k="coa:place_id" v="115496"/></node><node id="-48" lat="30.226729" lon="-97.793395" changeset="false"><tag k="addr:street" v="Frontier Trail"/><tag k="addr:housenumber" v="4608"/><tag k="coa:place_id" v="112256"/></node><node id="-49" lat="30.23166" lon="-97.800253" changeset="false"><tag k="addr:street" v="West Gate Boulevard"/><tag k="addr:housenumber" v="4521 1/2"/><tag k="coa:place_id" v="3185143"/></node><node id="-50" lat="30.231686" lon="-97.800124" changeset="false"><tag k="addr:street" v="West Gate Boulevard"/><tag k="addr:housenumber" v="4521"/><tag k="coa:place_id" v="155487"/></node><node id="-51" lat="30.227757" lon="-97.800522" changeset="false"><tag k="addr:street" v="Sagebrush Trail"/><tag k="addr:housenumber" v="4709"/><tag k="coa:place_id" v="250386"/></node><node id="-52" lat="30.227669" lon="-97.800594" changeset="false"><tag k="addr:street" v="Sagebrush Circle"/><tag k="addr:housenumber" v="4701"/><tag k="coa:place_id" v="250373"/></node><node id="-53" lat="30.227815" lon="-97.801686" changeset="false"><tag k="addr:street" v="Sagebrush Trail"/><tag k="addr:housenumber" v="4715"/><tag k="coa:place_id" v="147998"/></node><node id="-54" lat="30.227751" lon="-97.801805" changeset="false"><tag k="addr:street" v="West Gate Boulevard"/><tag k="addr:housenumber" v="4801"/><tag k="coa:place_id" v="147986"/></node><node id="-55" lat="30.225201" lon="-97.795508" changeset="false"><tag k="addr:street" v="Buckskin Pass"/><tag k="addr:housenumber" v="4805"/><tag k="coa:place_id" v="266217"/></node><node id="-56" lat="30.224983" lon="-97.795486" changeset="false"><tag k="addr:street" v="Buckskin Pass"/><tag k="addr:housenumber" v="4807"/><tag k="coa:place_id" v="114308"/></node></osm>