<?xml version="1.0" encoding="UTF-8"?><osm version="0.6" generator="github.com/aaronlidman/osm-and-geojson"><node id="-1" lat="30.307067" lon="-97.766692" changeset="false"><tag k="addr:street" v="Mountain Laurel Lane"/><tag k="addr:housenumber" v="2722"/><tag k="coa:place_id" v="695384"/></node><node id="-2" lat="30.308569" lon="-97.765865" changeset="false"><tag k="addr:street" v="Hillview Road"/><tag k="addr:housenumber" v="3002"/><tag k="coa:place_id" v="695918"/></node><node id="-3" lat="30.308464" lon="-97.763663" changeset="false"><tag k="addr:street" v="Exposition Boulevard"/><tag k="addr:housenumber" v="3208"/><tag k="coa:place_id" v="695480"/></node><node id="-4" lat="30.309084" lon="-97.767559" changeset="false"><tag k="addr:street" v="Maywood Avenue"/><tag k="addr:housenumber" v="3106"/><tag k="coa:place_id" v="695948"/></node><node id="-5" lat="30.30684" lon="-97.76453" changeset="false"><tag k="addr:street" v="Tarry Trail"/><tag k="addr:housenumber" v="2907"/><tag k="coa:place_id" v="188271"/></node><node id="-6" lat="30.307855" lon="-97.770456" changeset="false"><tag k="addr:street" v="Northwood Circle"/><tag k="addr:housenumber" v="3406"/><tag k="coa:place_id" v="830120"/></node><node id="-7" lat="30.31251" lon="-97.765586" changeset="false"><tag k="addr:street" v="West 35th Street"/><tag k="addr:housenumber" v="3003 1/2"/><tag k="coa:place_id" v="1101408"/></node><node id="-8" lat="30.310009" lon="-97.765825" changeset="false"><tag k="addr:street" v="Jamesborough Street"/><tag k="addr:housenumber" v="2924"/><tag k="coa:place_id" v="3333676"/></node><node id="-9" lat="30.310043" lon="-97.768716" changeset="false"><tag k="addr:street" v="Wade Avenue"/><tag k="addr:housenumber" v="3203"/><tag k="coa:place_id" v="136549"/></node><node id="-10" lat="30.3074" lon="-97.772312" changeset="false"><tag k="addr:street" v="Southill Circle"/><tag k="addr:housenumber" v="3413"/><tag k="coa:place_id" v="830042"/></node><node id="-11" lat="30.306664" lon="-97.771284" changeset="false"><tag k="addr:street" v="Southill Circle"/><tag k="addr:housenumber" v="3405"/><tag k="coa:place_id" v="830018"/></node><node id="-12" lat="30.310207" lon="-97.764014" changeset="false"><tag k="addr:street" v="Warren Street"/><tag k="addr:housenumber" v="2804"/><tag k="coa:place_id" v="252066"/></node><node id="-13" lat="30.312252" lon="-97.765696" changeset="false"><tag k="addr:street" v="West 35th Street"/><tag k="addr:housenumber" v="3003"/><tag k="coa:place_id" v="696212"/></node><node id="-14" lat="30.30704" lon="-97.764323" changeset="false"><tag k="addr:street" v="Tarry Trail"/><tag k="addr:housenumber" v="2906"/><tag k="coa:place_id" v="100543"/></node><node id="-15" lat="30.309456" lon="-97.768141" changeset="false"><tag k="addr:street" v="Pecos Street"/><tag k="addr:housenumber" v="3102"/><tag k="coa:place_id" v="3028994"/></node><node id="-16" lat="30.312194" lon="-97.767292" changeset="false"><tag k="addr:street" v="Pecos Street"/><tag k="addr:housenumber" v="3407"/><tag k="coa:place_id" v="696380"/></node><node id="-17" lat="30.309904" lon="-97.766595" changeset="false"><tag k="addr:street" v="Maywood Circle"/><tag k="addr:housenumber" v="3007"/><tag k="coa:place_id" v="185050"/></node><node id="-18" lat="30.312397" lon="-97.766804" changeset="false"><tag k="addr:street" v="Woodstone Square"/><tag k="addr:housenumber" v="35"/><tag k="coa:place_id" v="696470"/></node><node id="-19" lat="30.309581" lon="-97.763009" changeset="false"><tag k="addr:street" v="Exposition Boulevard"/><tag k="addr:housenumber" v="3400"/><tag k="coa:place_id" v="695654"/></node><node id="-20" lat="30.309681" lon="-97.763257" changeset="false"><tag k="addr:street" v="Warren Street"/><tag k="addr:housenumber" v="2700"/><tag k="coa:place_id" v="695642"/></node><node id="-21" lat="30.309259" lon="-97.76312" changeset="false"><tag k="addr:street" v="Exposition Boulevard"/><tag k="addr:housenumber" v="3304"/><tag k="coa:place_id" v="695540"/></node><node id="-22" lat="30.309173" lon="-97.763133" changeset="false"><tag k="addr:street" v="Exposition Boulevard"/><tag k="addr:housenumber" v="3302"/><tag k="coa:place_id" v="695546"/></node><node id="-23" lat="30.311308" lon="-97.766968" changeset="false"><tag k="addr:street" v="Woodstone Square"/><tag k="addr:housenumber" v="19"/><tag k="coa:place_id" v="696410"/></node><node id="-24" lat="30.311301" lon="-97.766876" changeset="false"><tag k="addr:street" v="Woodstone Square"/><tag k="addr:housenumber" v="20"/><tag k="coa:place_id" v="696362"/></node><node id="-25" lat="30.311288" lon="-97.766789" changeset="false"><tag k="addr:street" v="Woodstone Square"/><tag k="addr:housenumber" v="21"/><tag k="coa:place_id" v="696368"/></node><node id="-26" lat="30.311269" lon="-97.76666" changeset="false"><tag k="addr:street" v="Woodstone Square"/><tag k="addr:housenumber" v="22"/><tag k="coa:place_id" v="696356"/></node><node id="-27" lat="30.311629" lon="-97.767201" changeset="false"><tag k="addr:street" v="Woodstone Square"/><tag k="addr:housenumber" v="44"/><tag k="coa:place_id" v="696524"/></node><node id="-28" lat="30.311733" lon="-97.767162" changeset="false"><tag k="addr:street" v="Woodstone Square"/><tag k="addr:housenumber" v="43"/><tag k="coa:place_id" v="696518"/></node><node id="-29" lat="30.311539" lon="-97.7672" changeset="false"><tag k="addr:street" v="Woodstone Square"/><tag k="addr:housenumber" v="45"/><tag k="coa:place_id" v="923708"/></node><node id="-30" lat="30.311451" lon="-97.767225" changeset="false"><tag k="addr:street" v="Woodstone Square"/><tag k="addr:housenumber" v="46"/><tag k="coa:place_id" v="696530"/></node><node id="-31" lat="30.311976" lon="-97.766529" changeset="false"><tag k="addr:street" v="Woodstone Square"/><tag k="addr:housenumber" v="30"/><tag k="coa:place_id" v="696434"/></node><node id="-32" lat="30.312063" lon="-97.76672" changeset="false"><tag k="addr:street" v="Woodstone Square"/><tag k="addr:housenumber" v="28"/><tag k="coa:place_id" v="696422"/></node><node id="-33" lat="30.312025" lon="-97.766631" changeset="false"><tag k="addr:street" v="Woodstone Square"/><tag k="addr:housenumber" v="29"/><tag k="coa:place_id" v="696428"/></node><node id="-34" lat="30.312083" lon="-97.766785" changeset="false"><tag k="addr:street" v="Woodstone Square"/><tag k="addr:housenumber" v="27"/><tag k="coa:place_id" v="696416"/></node><node id="-35" lat="30.312324" lon="-97.766471" changeset="false"><tag k="addr:street" v="Woodstone Square"/><tag k="addr:housenumber" v="32"/><tag k="coa:place_id" v="696452"/></node><node id="-36" lat="30.312356" lon="-97.766556" changeset="false"><tag k="addr:street" v="Woodstone Square"/><tag k="addr:housenumber" v="33"/><tag k="coa:place_id" v="987020"/></node><node id="-37" lat="30.312358" lon="-97.766652" changeset="false"><tag k="addr:street" v="Woodstone Square"/><tag k="addr:housenumber" v="34"/><tag k="coa:place_id" v="696464"/></node><node id="-38" lat="30.312295" lon="-97.766373" changeset="false"><tag k="addr:street" v="Woodstone Square"/><tag k="addr:housenumber" v="31"/><tag k="coa:place_id" v="696446"/></node><node id="-39" lat="30.311628" lon="-97.766714" changeset="false"><tag k="addr:street" v="Woodstone Square"/><tag k="addr:housenumber" v="24"/><tag k="coa:place_id" v="696392"/></node><node id="-40" lat="30.311568" lon="-97.766595" changeset="false"><tag k="addr:street" v="Woodstone Square"/><tag k="addr:housenumber" v="23"/><tag k="coa:place_id" v="696386"/></node><node id="-41" lat="30.311652" lon="-97.76681" changeset="false"><tag k="addr:street" v="Woodstone Square"/><tag k="addr:housenumber" v="25"/><tag k="coa:place_id" v="696398"/></node><node id="-42" lat="30.311672" lon="-97.766878" changeset="false"><tag k="addr:street" v="Woodstone Square"/><tag k="addr:housenumber" v="26"/><tag k="coa:place_id" v="696404"/></node><node id="-43" lat="30.312475" lon="-97.766996" changeset="false"><tag k="addr:street" v="Woodstone Square"/><tag k="addr:housenumber" v="37"/><tag k="coa:place_id" v="943292"/></node><node id="-44" lat="30.312448" lon="-97.766901" changeset="false"><tag k="addr:street" v="Woodstone Square"/><tag k="addr:housenumber" v="36"/><tag k="coa:place_id" v="696578"/></node><node id="-45" lat="30.312504" lon="-97.767077" changeset="false"><tag k="addr:street" v="Woodstone Square"/><tag k="addr:housenumber" v="38"/><tag k="coa:place_id" v="696476"/></node><node id="-46" lat="30.312011" lon="-97.766218" changeset="false"><tag k="addr:street" v="Woodstone Square"/><tag k="addr:housenumber" v="1"/><tag k="coa:place_id" v="696224"/></node><node id="-47" lat="30.311921" lon="-97.766225" changeset="false"><tag k="addr:street" v="Woodstone Square"/><tag k="addr:housenumber" v="2"/><tag k="coa:place_id" v="696230"/></node><node id="-48" lat="30.31183" lon="-97.766239" changeset="false"><tag k="addr:street" v="Woodstone Square"/><tag k="addr:housenumber" v="3"/><tag k="coa:place_id" v="696236"/></node><node id="-49" lat="30.311726" lon="-97.76626" changeset="false"><tag k="addr:street" v="Woodstone Square"/><tag k="addr:housenumber" v="4"/><tag k="coa:place_id" v="696242"/></node><node id="-50" lat="30.311892" lon="-97.76712" changeset="false"><tag k="addr:street" v="Woodstone Square"/><tag k="addr:housenumber" v="42"/><tag k="coa:place_id" v="696506"/></node><node id="-51" lat="30.312216" lon="-97.767102" changeset="false"><tag k="addr:street" v="Woodstone Square"/><tag k="addr:housenumber" v="39"/><tag k="coa:place_id" v="696488"/></node><node id="-52" lat="30.312106" lon="-97.767124" changeset="false"><tag k="addr:street" v="Woodstone Square"/><tag k="addr:housenumber" v="40"/><tag k="coa:place_id" v="696494"/></node><node id="-53" lat="30.312016" lon="-97.767122" changeset="false"><tag k="addr:street" v="Woodstone Square"/><tag k="addr:housenumber" v="41"/><tag k="coa:place_id" v="696500"/></node><node id="-54" lat="30.310633" lon="-97.766696" changeset="false"><tag k="addr:street" v="Woodstone Square"/><tag k="addr:housenumber" v="52"/><tag k="coa:place_id" v="696314"/></node><node id="-55" lat="30.310664" lon="-97.766802" changeset="false"><tag k="addr:street" v="Woodstone Square"/><tag k="addr:housenumber" v="14"/><tag k="coa:place_id" v="696320"/></node><node id="-56" lat="30.31057" lon="-97.76717" changeset="false"><tag k="addr:street" v="Maywood Avenue"/><tag k="addr:housenumber" v="3302"/><tag k="coa:place_id" v="532995"/></node><node id="-57" lat="30.310659" lon="-97.767204" changeset="false"><tag k="addr:street" v="Maywood Avenue"/><tag k="addr:housenumber" v="3306"/><tag k="coa:place_id" v="696278"/></node><node id="-58" lat="30.310666" lon="-97.767408" changeset="false"><tag k="addr:street" v="Woodbridge Drive"/><tag k="addr:housenumber" v="3107"/><tag k="coa:place_id" v="148107"/></node><node id="-59" lat="30.310645" lon="-97.767494" changeset="false"><tag k="addr:street" v="Pecos Street"/><tag k="addr:housenumber" v="3303"/><tag k="coa:place_id" v="696632"/></node><node id="-60" lat="30.311035" lon="-97.766917" changeset="false"><tag k="addr:street" v="Woodstone Square"/><tag k="addr:housenumber" v="17"/><tag k="coa:place_id" v="696338"/></node><node id="-61" lat="30.311056" lon="-97.766999" changeset="false"><tag k="addr:street" v="Woodstone Square"/><tag k="addr:housenumber" v="18"/><tag k="coa:place_id" v="696350"/></node><node id="-62" lat="30.311036" lon="-97.766826" changeset="false"><tag k="addr:street" v="Woodstone Square"/><tag k="addr:housenumber" v="16"/><tag k="coa:place_id" v="696584"/></node><node id="-63" lat="30.310998" lon="-97.766706" changeset="false"><tag k="addr:street" v="Woodstone Square"/><tag k="addr:housenumber" v="15"/><tag k="coa:place_id" v="696332"/></node><node id="-64" lat="30.310663" lon="-97.766445" changeset="false"><tag k="addr:street" v="Woodstone Square"/><tag k="addr:housenumber" v="11"/><tag k="coa:place_id" v="696344"/></node><node id="-65" lat="30.310838" lon="-97.766406" changeset="false"><tag k="addr:street" v="Woodstone Square"/><tag k="addr:housenumber" v="10"/><tag k="coa:place_id" v="696290"/></node><node id="-66" lat="30.310936" lon="-97.766377" changeset="false"><tag k="addr:street" v="Woodstone Square"/><tag k="addr:housenumber" v="9"/><tag k="coa:place_id" v="696296"/></node><node id="-67" lat="30.310527" lon="-97.766525" changeset="false"><tag k="addr:street" v="Woodstone Square"/><tag k="addr:housenumber" v="12"/><tag k="coa:place_id" v="696302"/></node><node id="-68" lat="30.311145" lon="-97.76733" changeset="false"><tag k="addr:street" v="Woodstone Square"/><tag k="addr:housenumber" v="49"/><tag k="coa:place_id" v="696554"/></node><node id="-69" lat="30.311303" lon="-97.767264" changeset="false"><tag k="addr:street" v="Woodstone Square"/><tag k="addr:housenumber" v="47"/><tag k="coa:place_id" v="696542"/></node><node id="-70" lat="30.311227" lon="-97.767304" changeset="false"><tag k="addr:street" v="Woodstone Square"/><tag k="addr:housenumber" v="48"/><tag k="coa:place_id" v="696548"/></node><node id="-71" lat="30.311041" lon="-97.767371" changeset="false"><tag k="addr:street" v="Woodstone Square"/><tag k="addr:housenumber" v="50"/><tag k="coa:place_id" v="696566"/></node><node id="-72" lat="30.311287" lon="-97.766313" changeset="false"><tag k="addr:street" v="Woodstone Square"/><tag k="addr:housenumber" v="6"/><tag k="coa:place_id" v="696260"/></node><node id="-73" lat="30.311095" lon="-97.766355" changeset="false"><tag k="addr:street" v="Woodstone Square"/><tag k="addr:housenumber" v="8"/><tag k="coa:place_id" v="696272"/></node><node id="-74" lat="30.311416" lon="-97.766296" changeset="false"><tag k="addr:street" v="Woodstone Square"/><tag k="addr:housenumber" v="5"/><tag k="coa:place_id" v="696254"/></node><node id="-75" lat="30.311208" lon="-97.766342" changeset="false"><tag k="addr:street" v="Woodstone Square"/><tag k="addr:housenumber" v="7"/><tag k="coa:place_id" v="696266"/></node><node id="-76" lat="30.308011" lon="-97.774253" changeset="false"><tag k="addr:street" v="Scenic Drive,1100"/><tag k="addr:housenumber" v="2709"/><tag k="coa:place_id" v="678765"/></node><node id="-77" lat="30.308041" lon="-97.774271" changeset="false"><tag k="addr:street" v="Scenic Drive,1100"/><tag k="addr:housenumber" v="2711"/><tag k="coa:place_id" v="146566"/></node></osm>