<?xml version="1.0" encoding="UTF-8"?><osm version="0.6" generator="github.com/aaronlidman/osm-and-geojson"><node id="-1" lat="30.43532" lon="-97.880177" changeset="false"><tag k="addr:street" v="Farm-to-Market Road 2769"/><tag k="addr:housenumber" v="14013"/><tag k="coa:place_id" v="3079284"/></node><node id="-2" lat="30.433444" lon="-97.889493" changeset="false"><tag k="addr:street" v="Farm-to-Market Road 2769"/><tag k="addr:housenumber" v="14500"/><tag k="coa:place_id" v="216565"/></node><node id="-3" lat="30.432711" lon="-97.894384" changeset="false"><tag k="addr:street" v="Old Anderson Mill Road"/><tag k="addr:housenumber" v="14709"/><tag k="coa:place_id" v="50444"/></node><node id="-4" lat="30.481421" lon="-97.885327" changeset="false"><tag k="addr:street" v="Fisher Hollow Trail"/><tag k="addr:housenumber" v="16020"/><tag k="coa:place_id" v="3028954"/></node><node id="-5" lat="30.483059" lon="-97.857572" changeset="false"><tag k="addr:street" v="Rowley Drive"/><tag k="addr:housenumber" v="1208"/><tag k="coa:place_id" v="3150636"/></node><node id="-6" lat="30.46434" lon="-97.852584" changeset="false"><tag k="addr:street" v="Terlingua Drive"/><tag k="addr:housenumber" v="2502"/><tag k="coa:place_id" v="3137815"/></node><node id="-7" lat="30.450932" lon="-97.912966" changeset="false"><tag k="addr:street" v="Sherman Street"/><tag k="addr:housenumber" v="16409"/><tag k="coa:place_id" v="219171"/></node><node id="-8" lat="30.45078" lon="-97.914308" changeset="false"><tag k="addr:street" v="Sherman Street"/><tag k="addr:housenumber" v="16416"/><tag k="coa:place_id" v="227898"/></node><node id="-9" lat="30.429546" lon="-97.897267" changeset="false"><tag k="addr:street" v="Navajo Pass"/><tag k="addr:housenumber" v="7411"/><tag k="coa:place_id" v="1111776"/></node><node id="-10" lat="30.459985" lon="-97.833227" changeset="false"><tag k="addr:street" v="Windy Terrace"/><tag k="addr:housenumber" v="2004"/><tag k="coa:place_id" v="3152708"/></node><node id="-11" lat="30.458996" lon="-97.846427" changeset="false"><tag k="addr:street" v="Lombardi Way"/><tag k="addr:housenumber" v="3006"/><tag k="coa:place_id" v="3151441"/></node><node id="-12" lat="30.460045" lon="-97.846416" changeset="false"><tag k="addr:street" v="Benevento Way"/><tag k="addr:housenumber" v="2701"/><tag k="coa:place_id" v="3151398"/></node><node id="-13" lat="30.459978" lon="-97.852929" changeset="false"><tag k="addr:street" v="Kinloch Drive"/><tag k="addr:housenumber" v="2912"/><tag k="coa:place_id" v="3116800"/></node><node id="-14" lat="30.434721" lon="-97.91108" changeset="false"><tag k="addr:street" v="Ray Vista Street"/><tag k="addr:housenumber" v="15844"/><tag k="coa:place_id" v="213177"/></node><node id="-15" lat="30.466763" lon="-97.850552" changeset="false"><tag k="addr:street" v="Aldworth Drive"/><tag k="addr:housenumber" v="2322"/><tag k="coa:place_id" v="3102203"/></node><node id="-16" lat="30.459648" lon="-97.845157" changeset="false"><tag k="addr:street" v="Cashell Wood Drive"/><tag k="addr:housenumber" v="3006"/><tag k="coa:place_id" v="3151626"/></node><node id="-17" lat="30.456813" lon="-97.920958" changeset="false"><tag k="addr:street" v="West Darleen Drive,1100"/><tag k="addr:housenumber" v="8204"/><tag k="coa:place_id" v="236714"/></node><node id="-18" lat="30.456497" lon="-97.920088" changeset="false"><tag k="addr:street" v="West Darleen Drive,1100"/><tag k="addr:housenumber" v="8203"/><tag k="coa:place_id" v="1103768"/></node><node id="-19" lat="30.455015" lon="-97.921015" changeset="false"><tag k="addr:street" v="Sharon Road"/><tag k="addr:housenumber" v="8119"/><tag k="coa:place_id" v="220942"/></node><node id="-20" lat="30.465817" lon="-97.850041" changeset="false"><tag k="addr:street" v="Tivoli Drive"/><tag k="addr:housenumber" v="2404"/><tag k="coa:place_id" v="3101138"/></node><node id="-21" lat="30.465795" lon="-97.849359" changeset="false"><tag k="addr:street" v="Izoro Bend"/><tag k="addr:housenumber" v="2607"/><tag k="coa:place_id" v="3101150"/></node><node id="-22" lat="30.467267" lon="-97.848063" changeset="false"><tag k="addr:street" v="Dervingham Drive"/><tag k="addr:housenumber" v="2306"/><tag k="coa:place_id" v="3155172"/></node><node id="-23" lat="30.467218" lon="-97.84599" changeset="false"><tag k="addr:street" v="Guara Drive"/><tag k="addr:housenumber" v="2407"/><tag k="coa:place_id" v="3155201"/></node><node id="-24" lat="30.45852" lon="-97.846354" changeset="false"><tag k="addr:street" v="Lombardi Way"/><tag k="addr:housenumber" v="3010"/><tag k="coa:place_id" v="3151443"/></node><node id="-25" lat="30.458179" lon="-97.849879" changeset="false"><tag k="addr:street" v="Appennini Way"/><tag k="addr:housenumber" v="3105"/><tag k="coa:place_id" v="3127189"/></node><node id="-26" lat="30.466938" lon="-97.840255" changeset="false"><tag k="addr:street" v="Melba Pass"/><tag k="addr:housenumber" v="2602"/><tag k="coa:place_id" v="3151866"/></node><node id="-27" lat="30.465172" lon="-97.84672" changeset="false"><tag k="addr:street" v="Orsobello Place"/><tag k="addr:housenumber" v="2601"/><tag k="coa:place_id" v="3149208"/></node><node id="-28" lat="30.444685" lon="-97.913615" changeset="false"><tag k="addr:street" v="Dodd Street"/><tag k="addr:housenumber" v="16209"/><tag k="coa:place_id" v="1111711"/></node><node id="-29" lat="30.445326" lon="-97.862565" changeset="false"><tag k="addr:street" v="Farm-to-Market Road 2769"/><tag k="addr:housenumber" v="13430"/><tag k="coa:place_id" v="229728"/></node><node id="-30" lat="30.449338" lon="-97.915463" changeset="false"><tag k="addr:street" v="Jackson Street"/><tag k="addr:housenumber" v="16504"/><tag k="coa:place_id" v="219197"/></node><node id="-31" lat="30.469565" lon="-97.846149" changeset="false"><tag k="addr:street" v="Powderham Lane"/><tag k="addr:housenumber" v="2404"/><tag k="coa:place_id" v="3150754"/></node><node id="-32" lat="30.432367" lon="-97.90636" changeset="false"><tag k="addr:street" v="Reed Drive"/><tag k="addr:housenumber" v="7400"/><tag k="coa:place_id" v="3083307"/></node><node id="-33" lat="30.432383" lon="-97.90993" changeset="false"><tag k="addr:street" v="Booth Circle"/><tag k="addr:housenumber" v="15767"/><tag k="coa:place_id" v="3082731"/></node><node id="-34" lat="30.431397" lon="-97.896815" changeset="false"><tag k="addr:street" v="Navajo Pass"/><tag k="addr:housenumber" v="7604"/><tag k="coa:place_id" v="1111753"/></node><node id="-35" lat="30.430548" lon="-97.905704" changeset="false"><tag k="addr:street" v="Reed Drive"/><tag k="addr:housenumber" v="7320"/><tag k="coa:place_id" v="3083293"/></node><node id="-36" lat="30.429692" lon="-97.88711" changeset="false"><tag k="addr:street" v="Geronimo Street"/><tag k="addr:housenumber" v="14315"/><tag k="coa:place_id" v="3198151"/></node><node id="-37" lat="30.464313" lon="-97.850565" changeset="false"><tag k="addr:street" v="Culver Cliff Lane"/><tag k="addr:housenumber" v="2703"/><tag k="coa:place_id" v="3137879"/></node><node id="-38" lat="30.46378" lon="-97.852919" changeset="false"><tag k="addr:street" v="Terlingua Drive"/><tag k="addr:housenumber" v="2503"/><tag k="coa:place_id" v="3137824"/></node><node id="-39" lat="30.471237" lon="-97.854731" changeset="false"><tag k="addr:street" v="Zambia Drive"/><tag k="addr:housenumber" v="2714"/><tag k="coa:place_id" v="3151290"/></node><node id="-40" lat="30.434946" lon="-97.908882" changeset="false"><tag k="addr:street" v="Booth Circle"/><tag k="addr:housenumber" v="15745"/><tag k="coa:place_id" v="3198169"/></node><node id="-41" lat="30.462633" lon="-97.841846" changeset="false"><tag k="addr:street" v="London Lane"/><tag k="addr:housenumber" v="2304"/><tag k="coa:place_id" v="3151704"/></node><node id="-42" lat="30.433149" lon="-97.901725" changeset="false"><tag k="addr:street" v="Farm-to-Market Road 2769"/><tag k="addr:housenumber" v="15207"/><tag k="coa:place_id" v="3035132"/></node><node id="-43" lat="30.462485" lon="-97.85423" changeset="false"><tag k="addr:street" v="KinClaven Court"/><tag k="addr:housenumber" v="2507"/><tag k="coa:place_id" v="3143546"/></node><node id="-44" lat="30.459278" lon="-97.843024" changeset="false"><tag k="addr:street" v="Vestavia Ridge Lane"/><tag k="addr:housenumber" v="2501"/><tag k="coa:place_id" v="3151590"/></node><node id="-45" lat="30.450908" lon="-97.915872" changeset="false"><tag k="addr:street" v="Sherman Street"/><tag k="addr:housenumber" v="16510"/><tag k="coa:place_id" v="227902"/></node><node id="-46" lat="30.450323" lon="-97.91347" changeset="false"><tag k="addr:street" v="Sherman Street"/><tag k="addr:housenumber" v="16413"/><tag k="coa:place_id" v="219173"/></node><node id="-47" lat="30.512765" lon="-97.868897" changeset="false"><tag k="addr:street" v="Cedar Lime Road"/><tag k="addr:housenumber" v="13425"/><tag k="coa:place_id" v="1105240"/></node><node id="-48" lat="30.468029" lon="-97.844984" changeset="false"><tag k="addr:street" v="Dartford Bend"/><tag k="addr:housenumber" v="2309"/><tag k="coa:place_id" v="3155159"/></node><node id="-49" lat="30.435125" lon="-97.884446" changeset="false"><tag k="addr:street" v="Farm-to-Market Road 2769"/><tag k="addr:housenumber" v="14262"/><tag k="coa:place_id" v="3075029"/></node><node id="-50" lat="30.43151" lon="-97.897534" changeset="false"><tag k="addr:street" v="Arrowhead Drive"/><tag k="addr:housenumber" v="14964"/><tag k="coa:place_id" v="1111752"/></node><node id="-51" lat="30.457542" lon="-97.848374" changeset="false"><tag k="addr:street" v="Brindisi Way"/><tag k="addr:housenumber" v="2711"/><tag k="coa:place_id" v="3127170"/></node><node id="-52" lat="30.452303" lon="-97.915262" changeset="false"><tag k="addr:street" v="Beauregard Drive"/><tag k="addr:housenumber" v="8112"/><tag k="coa:place_id" v="219210"/></node><node id="-53" lat="30.445318" lon="-97.914486" changeset="false"><tag k="addr:street" v="Lakeview Street"/><tag k="addr:housenumber" v="7906"/><tag k="coa:place_id" v="1111708"/></node><node id="-54" lat="30.436697" lon="-97.880583" changeset="false"><tag k="addr:street" v="Farm-to-Market Road 2769"/><tag k="addr:housenumber" v="14111"/><tag k="coa:place_id" v="3079290"/></node><node id="-55" lat="30.436219" lon="-97.880553" changeset="false"><tag k="addr:street" v="Farm-to-Market Road 2769"/><tag k="addr:housenumber" v="14105"/><tag k="coa:place_id" v="3079289"/></node><node id="-56" lat="30.429526" lon="-97.9031" changeset="false"><tag k="addr:street" v="Blue Heron Cove"/><tag k="addr:housenumber" v="7307"/><tag k="coa:place_id" v="3198155"/></node><node id="-57" lat="30.515204" lon="-97.873601" changeset="false"><tag k="addr:street" v="West Whitestone Boulevard"/><tag k="addr:housenumber" v="2900"/><tag k="coa:place_id" v="3363244"/></node><node id="-58" lat="30.512459" lon="-97.879707" changeset="false"><tag k="addr:street" v="West Whitestone Boulevard"/><tag k="addr:housenumber" v="3400"/><tag k="coa:place_id" v="3363260"/></node><node id="-59" lat="30.433747" lon="-97.902703" changeset="false"><tag k="addr:street" v="Farm-to-Market Road 2769"/><tag k="addr:housenumber" v="15214"/><tag k="coa:place_id" v="3214244"/></node><node id="-60" lat="30.435762" lon="-97.875958" changeset="false"><tag k="addr:street" v="Farm-to-Market Road 2769"/><tag k="addr:housenumber" v="13963"/><tag k="coa:place_id" v="3272075"/></node><node id="-61" lat="30.447948" lon="-97.908997" changeset="false"><tag k="addr:street" v="Lime Creek Road"/><tag k="addr:housenumber" v="8108"/><tag k="coa:place_id" v="3215555"/></node><node id="-62" lat="30.440855" lon="-97.908618" changeset="false"><tag k="addr:street" v="Mary Street"/><tag k="addr:housenumber" v="15808"/><tag k="coa:place_id" v="3214175"/></node><node id="-63" lat="30.462875" lon="-97.854404" changeset="false"><tag k="addr:street" v="KinClaven Court"/><tag k="addr:housenumber" v="2501"/><tag k="coa:place_id" v="3143543"/></node><node id="-64" lat="30.466894" lon="-97.848666" changeset="false"><tag k="addr:street" v="Twin Creeks Club Drive"/><tag k="addr:housenumber" v="2610"/><tag k="coa:place_id" v="3362875"/></node><node id="-65" lat="30.484102" lon="-97.859433" changeset="false"><tag k="addr:street" v="Rhondstat Run"/><tag k="addr:housenumber" v="1006"/><tag k="coa:place_id" v="3362485"/></node><node id="-66" lat="30.454111" lon="-97.857099" changeset="false"><tag k="addr:street" v="Grand Oaks Loop"/><tag k="addr:housenumber" v="2805"/><tag k="coa:place_id" v="3289372"/></node><node id="-67" lat="30.437018" lon="-97.908437" changeset="false"><tag k="addr:street" v="Davy Drive"/><tag k="addr:housenumber" v="7502"/><tag k="coa:place_id" v="3354862"/></node><node id="-68" lat="30.437978" lon="-97.907453" changeset="false"><tag k="addr:street" v="Davy Drive"/><tag k="addr:housenumber" v="7612"/><tag k="coa:place_id" v="3354864"/></node><node id="-69" lat="30.435641" lon="-97.880337" changeset="false"><tag k="addr:street" v="Farm-to-Market Road 2769"/><tag k="addr:housenumber" v="14017"/><tag k="coa:place_id" v="3079286"/></node><node id="-70" lat="30.482438" lon="-97.859244" changeset="false"><tag k="addr:street" v="Rhondstat Run"/><tag k="addr:housenumber" v="1107"/><tag k="coa:place_id" v="3362503"/></node><node id="-71" lat="30.436865" lon="-97.906518" changeset="false"><tag k="addr:street" v="Debbie Drive"/><tag k="addr:housenumber" v="7617"/><tag k="coa:place_id" v="3354846"/></node><node id="-72" lat="30.437078" lon="-97.906478" changeset="false"><tag k="addr:street" v="Debbie Drive"/><tag k="addr:housenumber" v="7621"/><tag k="coa:place_id" v="3354847"/></node><node id="-73" lat="30.437345" lon="-97.906516" changeset="false"><tag k="addr:street" v="Debbie Drive"/><tag k="addr:housenumber" v="7623"/><tag k="coa:place_id" v="3354849"/></node><node id="-74" lat="30.476501" lon="-97.909398" changeset="false"><tag k="addr:street" v="Trails End Road"/><tag k="addr:housenumber" v="10001"/><tag k="coa:place_id" v="3267195"/></node><node id="-75" lat="30.467621" lon="-97.841244" changeset="false"><tag k="addr:street" v="Lobelia Drive"/><tag k="addr:housenumber" v="2108"/><tag k="coa:place_id" v="3294241"/></node><node id="-76" lat="30.454142" lon="-97.858954" changeset="false"><tag k="addr:street" v="Grand Oaks Loop"/><tag k="addr:housenumber" v="2814"/><tag k="coa:place_id" v="3293731"/></node><node id="-77" lat="30.455899" lon="-97.914295" changeset="false"><tag k="addr:street" v="Lime Creek Road"/><tag k="addr:housenumber" v="8309"/><tag k="coa:place_id" v="3430107"/></node><node id="-78" lat="30.45931" lon="-97.914372" changeset="false"><tag k="addr:street" v="Lime Creek Road"/><tag k="addr:housenumber" v="8505"/><tag k="coa:place_id" v="3430110"/></node><node id="-79" lat="30.434182" lon="-97.879245" changeset="false"><tag k="addr:street" v="Farm-to-Market Road 2769"/><tag k="addr:housenumber" v="14001"/><tag k="coa:place_id" v="216328"/></node><node id="-80" lat="30.428216" lon="-97.895987" changeset="false"><tag k="addr:street" v="Arrowhead Drive"/><tag k="addr:housenumber" v="14723"/><tag k="coa:place_id" v="1111736"/></node><node id="-81" lat="30.428676" lon="-97.893724" changeset="false"><tag k="addr:street" v="Pocohontas Trail"/><tag k="addr:housenumber" v="14625"/><tag k="coa:place_id" v="3390402"/></node><node id="-82" lat="30.500261" lon="-97.880774" changeset="false"><tag k="addr:street" v="Wire Road"/><tag k="addr:housenumber" v="12404"/><tag k="coa:place_id" v="3317357"/></node><node id="-83" lat="30.45736" lon="-97.857012" changeset="false"><tag k="addr:street" v="Mystic Summit Drive"/><tag k="addr:housenumber" v="3302"/><tag k="coa:place_id" v="3288708"/></node><node id="-84" lat="30.437918" lon="-97.902329" changeset="false"><tag k="addr:street" v="Farm-to-Market Road 2769"/><tag k="addr:housenumber" v="15424"/><tag k="coa:place_id" v="3302474"/></node><node id="-85" lat="30.45048" lon="-97.918414" changeset="false"><tag k="addr:street" v="Bernard Street"/><tag k="addr:housenumber" v="8006"/><tag k="coa:place_id" v="3354685"/></node><node id="-86" lat="30.479707" lon="-97.90721" changeset="false"><tag k="addr:street" v="Trails End Road"/><tag k="addr:housenumber" v="10301"/><tag k="coa:place_id" v="3335255"/></node><node id="-87" lat="30.434104" lon="-97.888593" changeset="false"><tag k="addr:street" v="Lake Mountain Lane"/><tag k="addr:housenumber" v="8011"/><tag k="coa:place_id" v="3280347"/></node><node id="-88" lat="30.435144" lon="-97.887031" changeset="false"><tag k="addr:street" v="Lake Mountain Lane"/><tag k="addr:housenumber" v="8137"/><tag k="coa:place_id" v="3280351"/></node><node id="-89" lat="30.482111" lon="-97.905727" changeset="false"><tag k="addr:street" v="Trails End Road"/><tag k="addr:housenumber" v="10505"/><tag k="coa:place_id" v="3691731"/></node><node id="-90" lat="30.455843" lon="-97.858682" changeset="false"><tag k="addr:street" v="Mossy Grove Court"/><tag k="addr:housenumber" v="3308"/><tag k="coa:place_id" v="3293757"/></node><node id="-91" lat="30.475816" lon="-97.909468" changeset="false"><tag k="addr:street" v="Trails End Road"/><tag k="addr:housenumber" v="9907"/><tag k="coa:place_id" v="3383297"/></node><node id="-92" lat="30.478014" lon="-97.848105" changeset="false"><tag k="addr:street" v="Heather Drive"/><tag k="addr:housenumber" v="2224"/><tag k="coa:place_id" v="3363046"/></node><node id="-93" lat="30.458746" lon="-97.856346" changeset="false"><tag k="addr:street" v="Feathergrass Court"/><tag k="addr:housenumber" v="2700"/><tag k="coa:place_id" v="3288688"/></node><node id="-94" lat="30.458141" lon="-97.856396" changeset="false"><tag k="addr:street" v="Feathergrass Court"/><tag k="addr:housenumber" v="2707"/><tag k="coa:place_id" v="3288700"/></node><node id="-95" lat="30.434498" lon="-97.892407" changeset="false"><tag k="addr:street" v="Navajo Pass"/><tag k="addr:housenumber" v="7913"/><tag k="coa:place_id" v="3500898"/></node><node id="-96" lat="30.477922" lon="-97.908815" changeset="false"><tag k="addr:street" v="Trails End Road"/><tag k="addr:housenumber" v="10103"/><tag k="coa:place_id" v="3335183"/></node><node id="-97" lat="30.447877" lon="-97.916804" changeset="false"><tag k="addr:street" v="Jackson Street"/><tag k="addr:housenumber" v="16601"/><tag k="coa:place_id" v="3198174"/></node><node id="-98" lat="30.437595" lon="-97.907744" changeset="false"><tag k="addr:street" v="Davy Drive"/><tag k="addr:housenumber" v="7604"/><tag k="coa:place_id" v="3354842"/></node><node id="-99" lat="30.454417" lon="-97.858148" changeset="false"><tag k="addr:street" v="Grand Oaks Loop"/><tag k="addr:housenumber" v="2811"/><tag k="coa:place_id" v="3293730"/></node><node id="-100" lat="30.488029" lon="-97.888465" changeset="false"><tag k="addr:street" v="Commelina Drive"/><tag k="addr:housenumber" v="16408"/><tag k="coa:place_id" v="3363297"/></node><node id="-101" lat="30.454212" lon="-97.8497" changeset="false"><tag k="addr:street" v="Fiorellino Place"/><tag k="addr:housenumber" v="3201"/><tag k="coa:place_id" v="3363303"/></node><node id="-102" lat="30.456861" lon="-97.85796" changeset="false"><tag k="addr:street" v="Crystal Hill Drive"/><tag k="addr:housenumber" v="3302"/><tag k="coa:place_id" v="3288935"/></node><node id="-103" lat="30.491424" lon="-97.896089" changeset="false"><tag k="addr:street" v="Trails End Road"/><tag k="addr:housenumber" v="11605"/><tag k="coa:place_id" v="5109642"/></node><node id="-104" lat="30.457237" lon="-97.85577" changeset="false"><tag k="addr:street" v="Grand Oaks Loop"/><tag k="addr:housenumber" v="2733"/><tag k="coa:place_id" v="3288685"/></node><node id="-105" lat="30.42966" lon="-97.892715" changeset="false"><tag k="addr:street" v="Pocohontas Trail"/><tag k="addr:housenumber" v="14605"/><tag k="coa:place_id" v="3502536"/></node><node id="-106" lat="30.431255" lon="-97.894896" changeset="false"><tag k="addr:street" v="Deer Run Road"/><tag k="addr:housenumber" v="7607"/><tag k="coa:place_id" v="3390270"/></node><node id="-107" lat="30.457837" lon="-97.918791" changeset="false"><tag k="addr:street" v="West Darleen Drive,1100"/><tag k="addr:housenumber" v="8304"/><tag k="coa:place_id" v="3329342"/></node><node id="-108" lat="30.430295" lon="-97.905111" changeset="false"><tag k="addr:street" v="Reed Drive"/><tag k="addr:housenumber" v="7316"/><tag k="coa:place_id" v="3083295"/></node><node id="-109" lat="30.450463" lon="-97.917036" changeset="false"><tag k="addr:street" v="Arren Terrace"/><tag k="addr:housenumber" v="8034"/><tag k="coa:place_id" v="3523734"/></node><node id="-110" lat="30.43385" lon="-97.896279" changeset="false"><tag k="addr:street" v="Farm-to-Market Road 2769"/><tag k="addr:housenumber" v="14901"/><tag k="coa:place_id" v="5097890"/></node><node id="-111" lat="30.433803" lon="-97.878663" changeset="false"><tag k="addr:street" v="Farm-to-Market Road 2769"/><tag k="addr:housenumber" v="13993"/><tag k="coa:place_id" v="216330"/></node><node id="-112" lat="30.42913" lon="-97.895882" changeset="false"><tag k="addr:street" v="Arrowhead Drive"/><tag k="addr:housenumber" v="14715"/><tag k="coa:place_id" v="1111732"/></node><node id="-113" lat="30.428002" lon="-97.896009" changeset="false"><tag k="addr:street" v="Arrowhead Drive"/><tag k="addr:housenumber" v="14725"/><tag k="coa:place_id" v="1111737"/></node><node id="-114" lat="30.462304" lon="-97.914221" changeset="false"><tag k="addr:street" v="Lime Creek Road"/><tag k="addr:housenumber" v="8708"/><tag k="coa:place_id" v="221741"/></node><node id="-115" lat="30.46273" lon="-97.854384" changeset="false"><tag k="addr:street" v="KinClaven Court"/><tag k="addr:housenumber" v="2503"/><tag k="coa:place_id" v="3143544"/></node><node id="-116" lat="30.48425" lon="-97.904005" changeset="false"><tag k="addr:street" v="Trails End Road"/><tag k="addr:housenumber" v="10709"/><tag k="coa:place_id" v="1144833"/></node><node id="-117" lat="30.465747" lon="-97.838381" changeset="false"><tag k="addr:street" v="Dagama Court"/><tag k="addr:housenumber" v="2708"/><tag k="coa:place_id" v="3151822"/></node><node id="-118" lat="30.465376" lon="-97.854906" changeset="false"><tag k="addr:street" v="Welton Cliff Drive"/><tag k="addr:housenumber" v="2909"/><tag k="coa:place_id" v="3137765"/></node><node id="-119" lat="30.50839" lon="-97.86924" changeset="false"><tag k="addr:street" v="Cedar Lime Road"/><tag k="addr:housenumber" v="13400"/><tag k="coa:place_id" v="1105253"/></node><node id="-120" lat="30.439339" lon="-97.906866" changeset="false"><tag k="addr:street" v="Farm-to-Market Road 2769"/><tag k="addr:housenumber" v="15608"/><tag k="coa:place_id" v="3083879"/></node><node id="-121" lat="30.482785" lon="-97.854202" changeset="false"><tag k="addr:street" v="Ritter Drive"/><tag k="addr:housenumber" v="1208"/><tag k="coa:place_id" v="3150618"/></node><node id="-122" lat="30.427758" lon="-97.896958" changeset="false"><tag k="addr:street" v="Arrowhead Drive"/><tag k="addr:housenumber" v="14732"/><tag k="coa:place_id" v="1111788"/></node><node id="-123" lat="30.437898" lon="-97.88026" changeset="false"><tag k="addr:street" v="Farm-to-Market Road 2769"/><tag k="addr:housenumber" v="14121"/><tag k="coa:place_id" v="3150501"/></node><node id="-124" lat="30.459749" lon="-97.85298" changeset="false"><tag k="addr:street" v="Kinloch Drive"/><tag k="addr:housenumber" v="2914"/><tag k="coa:place_id" v="3116801"/></node><node id="-125" lat="30.433616" lon="-97.906393" changeset="false"><tag k="addr:street" v="Reed Drive"/><tag k="addr:housenumber" v="7412"/><tag k="coa:place_id" v="1140293"/></node><node id="-126" lat="30.43262" lon="-97.906373" changeset="false"><tag k="addr:street" v="Reed Drive"/><tag k="addr:housenumber" v="7402"/><tag k="coa:place_id" v="3083306"/></node><node id="-127" lat="30.460057" lon="-97.916754" changeset="false"><tag k="addr:street" v="Lime Creek Road"/><tag k="addr:housenumber" v="8420"/><tag k="coa:place_id" v="1136727"/></node><node id="-128" lat="30.452828" lon="-97.914072" changeset="false"><tag k="addr:street" v="Beauregard Drive"/><tag k="addr:housenumber" v="8128"/><tag k="coa:place_id" v="219205"/></node><node id="-129" lat="30.449885" lon="-97.914872" changeset="false"><tag k="addr:street" v="Sherman Street"/><tag k="addr:housenumber" v="16501"/><tag k="coa:place_id" v="219175"/></node><node id="-130" lat="30.485701" lon="-97.898313" changeset="false"><tag k="addr:street" v="Lime Creek Road"/><tag k="addr:housenumber" v="11206"/><tag k="coa:place_id" v="1144917"/></node><node id="-131" lat="30.446652" lon="-97.912841" changeset="false"><tag k="addr:street" v="Lakeview Street"/><tag k="addr:housenumber" v="8010"/><tag k="coa:place_id" v="3133652"/></node><node id="-132" lat="30.464861" lon="-97.847292" changeset="false"><tag k="addr:street" v="Zennor Court"/><tag k="addr:housenumber" v="2501"/><tag k="coa:place_id" v="3101163"/></node><node id="-133" lat="30.42891" lon="-97.899974" changeset="false"><tag k="addr:street" v="Arrowhead Drive"/><tag k="addr:housenumber" v="14928"/><tag k="coa:place_id" v="66781"/></node><node id="-134" lat="30.455309" lon="-97.922006" changeset="false"><tag k="addr:street" v="Joy Road"/><tag k="addr:housenumber" v="8121"/><tag k="coa:place_id" v="3198210"/></node><node id="-135" lat="30.506508" lon="-97.86896" changeset="false"><tag k="addr:street" v="Wire Road"/><tag k="addr:housenumber" v="13229"/><tag k="coa:place_id" v="229537"/></node><node id="-136" lat="30.473382" lon="-97.851936" changeset="false"><tag k="addr:street" v="Quiet Moon Trail"/><tag k="addr:housenumber" v="2600"/><tag k="coa:place_id" v="3151342"/></node><node id="-137" lat="30.434511" lon="-97.879557" changeset="false"><tag k="addr:street" v="Farm-to-Market Road 2769"/><tag k="addr:housenumber" v="14003"/><tag k="coa:place_id" v="3079280"/></node><node id="-138" lat="30.430608" lon="-97.895405" changeset="false"><tag k="addr:street" v="Pocohontas Trail"/><tag k="addr:housenumber" v="14706"/><tag k="coa:place_id" v="3034227"/></node><node id="-139" lat="30.428435" lon="-97.895967" changeset="false"><tag k="addr:street" v="Arrowhead Drive"/><tag k="addr:housenumber" v="14721"/><tag k="coa:place_id" v="1111735"/></node><node id="-140" lat="30.434341" lon="-97.906157" changeset="false"><tag k="addr:street" v="Reed Drive"/><tag k="addr:housenumber" v="7502"/><tag k="coa:place_id" v="1140288"/></node><node id="-141" lat="30.510909" lon="-97.869369" changeset="false"><tag k="addr:street" v="Cedar Lime Road"/><tag k="addr:housenumber" v="13414"/><tag k="coa:place_id" v="1105247"/></node><node id="-142" lat="30.465237" lon="-97.848594" changeset="false"><tag k="addr:street" v="Izoro Bend"/><tag k="addr:housenumber" v="2613"/><tag k="coa:place_id" v="3101153"/></node><node id="-143" lat="30.466842" lon="-97.852899" changeset="false"><tag k="addr:street" v="Birchington Drive"/><tag k="addr:housenumber" v="2302"/><tag k="coa:place_id" v="3102214"/></node><node id="-144" lat="30.468146" lon="-97.853641" changeset="false"><tag k="addr:street" v="Aldworth Drive"/><tag k="addr:housenumber" v="2202"/><tag k="coa:place_id" v="3101910"/></node><node id="-145" lat="30.471395" lon="-97.853741" changeset="false"><tag k="addr:street" v="Zambia Drive"/><tag k="addr:housenumber" v="2706"/><tag k="coa:place_id" v="3151278"/></node><node id="-146" lat="30.471324" lon="-97.853971" changeset="false"><tag k="addr:street" v="Zambia Drive"/><tag k="addr:housenumber" v="2708"/><tag k="coa:place_id" v="3151279"/></node><node id="-147" lat="30.462762" lon="-97.855019" changeset="false"><tag k="addr:street" v="Ben Doran Court"/><tag k="addr:housenumber" v="2500"/><tag k="coa:place_id" v="3111188"/></node><node id="-148" lat="30.431226" lon="-97.896954" changeset="false"><tag k="addr:street" v="Navajo Pass"/><tag k="addr:housenumber" v="7602"/><tag k="coa:place_id" v="1111754"/></node><node id="-149" lat="30.457341" lon="-97.847568" changeset="false"><tag k="addr:street" v="Brindisi Way"/><tag k="addr:housenumber" v="2705"/><tag k="coa:place_id" v="3127123"/></node><node id="-150" lat="30.460706" lon="-97.853365" changeset="false"><tag k="addr:street" v="Bonnyrigg Court"/><tag k="addr:housenumber" v="2607"/><tag k="coa:place_id" v="3116806"/></node><node id="-151" lat="30.452885" lon="-97.913758" changeset="false"><tag k="addr:street" v="Beauregard Drive"/><tag k="addr:housenumber" v="8132"/><tag k="coa:place_id" v="219204"/></node><node id="-152" lat="30.450023" lon="-97.914054" changeset="false"><tag k="addr:street" v="Sherman Street"/><tag k="addr:housenumber" v="16417"/><tag k="coa:place_id" v="219174"/></node><node id="-153" lat="30.451352" lon="-97.911335" changeset="false"><tag k="addr:street" v="Jackson Street"/><tag k="addr:housenumber" v="16300"/><tag k="coa:place_id" v="1136730"/></node><node id="-154" lat="30.445669" lon="-97.914289" changeset="false"><tag k="addr:street" v="Lakeview Street"/><tag k="addr:housenumber" v="7910"/><tag k="coa:place_id" v="1111706"/></node><node id="-155" lat="30.429233" lon="-97.900768" changeset="false"><tag k="addr:street" v="Arrowhead Drive"/><tag k="addr:housenumber" v="14933"/><tag k="coa:place_id" v="3052953"/></node><node id="-156" lat="30.448591" lon="-97.913678" changeset="false"><tag k="addr:street" v="Jackson Street"/><tag k="addr:housenumber" v="16411"/><tag k="coa:place_id" v="112699"/></node><node id="-157" lat="30.459491" lon="-97.846454" changeset="false"><tag k="addr:street" v="Lombardi Way"/><tag k="addr:housenumber" v="3002"/><tag k="coa:place_id" v="3151439"/></node><node id="-158" lat="30.456754" lon="-97.848428" changeset="false"><tag k="addr:street" v="Fiorellino Place"/><tag k="addr:housenumber" v="3103"/><tag k="coa:place_id" v="3151453"/></node><node id="-159" lat="30.459244" lon="-97.918372" changeset="false"><tag k="addr:street" v="Lime Creek Road"/><tag k="addr:housenumber" v="8408"/><tag k="coa:place_id" v="1136737"/></node><node id="-160" lat="30.477653" lon="-97.855853" changeset="false"><tag k="addr:street" v="Gholson Drive"/><tag k="addr:housenumber" v="2719"/><tag k="coa:place_id" v="3158849"/></node><node id="-161" lat="30.485702" lon="-97.903843" changeset="false"><tag k="addr:street" v="Trails End Road"/><tag k="addr:housenumber" v="10715"/><tag k="coa:place_id" v="3296285"/></node><node id="-162" lat="30.433727" lon="-97.886404" changeset="false"><tag k="addr:street" v="Farm-to-Market Road 2769"/><tag k="addr:housenumber" v="14296"/><tag k="coa:place_id" v="3212420"/></node><node id="-163" lat="30.488237" lon="-97.887145" changeset="false"><tag k="addr:street" v="Commelina Drive"/><tag k="addr:housenumber" v="16318"/><tag k="coa:place_id" v="3217608"/></node><node id="-164" lat="30.459608" lon="-97.848679" changeset="false"><tag k="addr:street" v="Benevento Way"/><tag k="addr:housenumber" v="2712"/><tag k="coa:place_id" v="3151411"/></node><node id="-165" lat="30.435954" lon="-97.882941" changeset="false"><tag k="addr:street" v="Farm-to-Market Road 2769"/><tag k="addr:housenumber" v="14257"/><tag k="coa:place_id" v="3212239"/></node><node id="-166" lat="30.455662" lon="-97.915842" changeset="false"><tag k="addr:street" v="Lime Creek Road"/><tag k="addr:housenumber" v="8316"/><tag k="coa:place_id" v="3214507"/></node><node id="-167" lat="30.431549" lon="-97.905124" changeset="false"><tag k="addr:street" v="Reed Drive"/><tag k="addr:housenumber" v="7323"/><tag k="coa:place_id" v="3389703"/></node><node id="-168" lat="30.447209" lon="-97.905508" changeset="false"><tag k="addr:street" v="Lime Creek Road"/><tag k="addr:housenumber" v="8117"/><tag k="coa:place_id" v="3390078"/></node><node id="-169" lat="30.434886" lon="-97.903762" changeset="false"><tag k="addr:street" v="Farm-to-Market Road 2769"/><tag k="addr:housenumber" v="15400"/><tag k="coa:place_id" v="3214238"/></node><node id="-170" lat="30.433275" lon="-97.894348" changeset="false"><tag k="addr:street" v="Old Anderson Mill Road"/><tag k="addr:housenumber" v="14714"/><tag k="coa:place_id" v="3425653"/></node><node id="-171" lat="30.426727" lon="-97.900874" changeset="false"><tag k="addr:street" v="Arrowhead Drive"/><tag k="addr:housenumber" v="14818"/><tag k="coa:place_id" v="1111809"/></node><node id="-172" lat="30.448938" lon="-97.913316" changeset="false"><tag k="addr:street" v="Jackson Street"/><tag k="addr:housenumber" v="16407"/><tag k="coa:place_id" v="3354687"/></node><node id="-173" lat="30.456776" lon="-97.919795" changeset="false"><tag k="addr:street" v="West Darleen Drive,1100"/><tag k="addr:housenumber" v="8205"/><tag k="coa:place_id" v="3390548"/></node><node id="-174" lat="30.457653" lon="-97.855427" changeset="false"><tag k="addr:street" v="Grand Oaks Loop"/><tag k="addr:housenumber" v="2727"/><tag k="coa:place_id" v="3288682"/></node><node id="-175" lat="30.495109" lon="-97.884049" changeset="false"><tag k="addr:street" v="Red Wagon Lane"/><tag k="addr:housenumber" v="16429"/><tag k="coa:place_id" v="3317367"/></node><node id="-176" lat="30.455129" lon="-97.859771" changeset="false"><tag k="addr:street" v="Granite Basin Court"/><tag k="addr:housenumber" v="3401"/><tag k="coa:place_id" v="3293746"/></node><node id="-177" lat="30.429749" lon="-97.895653" changeset="false"><tag k="addr:street" v="Arrowhead Drive"/><tag k="addr:housenumber" v="14709"/><tag k="coa:place_id" v="1111729"/></node><node id="-178" lat="30.428908" lon="-97.895925" changeset="false"><tag k="addr:street" v="Arrowhead Drive"/><tag k="addr:housenumber" v="14717"/><tag k="coa:place_id" v="1111733"/></node><node id="-179" lat="30.474989" lon="-97.909561" changeset="false"><tag k="addr:street" v="Trails End Road"/><tag k="addr:housenumber" v="9817"/><tag k="coa:place_id" v="3198339"/></node><node id="-180" lat="30.437212" lon="-97.893139" changeset="false"><tag k="addr:street" v="Navajo Pass"/><tag k="addr:housenumber" v="8201"/><tag k="coa:place_id" v="3500902"/></node><node id="-181" lat="30.438923" lon="-97.892583" changeset="false"><tag k="addr:street" v="Navajo Pass"/><tag k="addr:housenumber" v="8100"/><tag k="coa:place_id" v="3382937"/></node><node id="-182" lat="30.47824" lon="-97.848164" changeset="false"><tag k="addr:street" v="Azalea Drive"/><tag k="addr:housenumber" v="1811"/><tag k="coa:place_id" v="3363035"/></node><node id="-183" lat="30.456637" lon="-97.854845" changeset="false"><tag k="addr:street" v="Sugar Maple Court"/><tag k="addr:housenumber" v="2807"/><tag k="coa:place_id" v="3288876"/></node><node id="-184" lat="30.455839" lon="-97.920441" changeset="false"><tag k="addr:street" v="Sharon Road"/><tag k="addr:housenumber" v="8127"/><tag k="coa:place_id" v="3374352"/></node><node id="-185" lat="30.482909" lon="-97.85896" changeset="false"><tag k="addr:street" v="Rhondstat Run"/><tag k="addr:housenumber" v="1106"/><tag k="coa:place_id" v="3362493"/></node><node id="-186" lat="30.448627" lon="-97.915219" changeset="false"><tag k="addr:street" v="Jackson Street"/><tag k="addr:housenumber" v="16507"/><tag k="coa:place_id" v="3354714"/></node><node id="-187" lat="30.436083" lon="-97.904086" changeset="false"><tag k="addr:street" v="Farm-to-Market Road 2769"/><tag k="addr:housenumber" v="15410"/><tag k="coa:place_id" v="3302276"/></node><node id="-188" lat="30.454474" lon="-97.92174" changeset="false"><tag k="addr:street" v="Sharon Road"/><tag k="addr:housenumber" v="8112"/><tag k="coa:place_id" v="3374334"/></node><node id="-189" lat="30.468386" lon="-97.842364" changeset="false"><tag k="addr:street" v="Stenson Drive"/><tag k="addr:housenumber" v="2501"/><tag k="coa:place_id" v="3294168"/></node><node id="-190" lat="30.454794" lon="-97.860036" changeset="false"><tag k="addr:street" v="Granite Basin Court"/><tag k="addr:housenumber" v="3403"/><tag k="coa:place_id" v="3293748"/></node><node id="-191" lat="30.457542" lon="-97.857374" changeset="false"><tag k="addr:street" v="Mystic Summit Drive"/><tag k="addr:housenumber" v="3306"/><tag k="coa:place_id" v="3288710"/></node><node id="-192" lat="30.43518" lon="-97.894341" changeset="false"><tag k="addr:street" v="Navajo Pass"/><tag k="addr:housenumber" v="8000"/><tag k="coa:place_id" v="3691066"/></node><node id="-193" lat="30.457627" lon="-97.858822" changeset="false"><tag k="addr:street" v="Crystal Hill Drive"/><tag k="addr:housenumber" v="3403"/><tag k="coa:place_id" v="3288887"/></node><node id="-194" lat="30.436416" lon="-97.886037" changeset="false"><tag k="addr:street" v="Lake Mountain Lane"/><tag k="addr:housenumber" v="8145"/><tag k="coa:place_id" v="3280353"/></node><node id="-195" lat="30.438067" lon="-97.889253" changeset="false"><tag k="addr:street" v="Lake Mountain Lane"/><tag k="addr:housenumber" v="8200"/><tag k="coa:place_id" v="3302478"/></node><node id="-196" lat="30.430827" lon="-97.892306" changeset="false"><tag k="addr:street" v="Leatherman Lane"/><tag k="addr:housenumber" v="7605"/><tag k="coa:place_id" v="3303556"/></node><node id="-197" lat="30.457451" lon="-97.857176" changeset="false"><tag k="addr:street" v="Mystic Summit Drive"/><tag k="addr:housenumber" v="3304"/><tag k="coa:place_id" v="3288709"/></node><node id="-198" lat="30.457847" lon="-97.857587" changeset="false"><tag k="addr:street" v="Mystic Summit Drive"/><tag k="addr:housenumber" v="3308"/><tag k="coa:place_id" v="3288711"/></node><node id="-199" lat="30.488627" lon="-97.861974" changeset="false"><tag k="addr:street" v="Basie Bend"/><tag k="addr:housenumber" v="614"/><tag k="coa:place_id" v="3312795"/></node><node id="-200" lat="30.4273" lon="-97.89771" changeset="false"><tag k="addr:street" v="Arrowhead Drive"/><tag k="addr:housenumber" v="14740"/><tag k="coa:place_id" v="1111795"/></node><node id="-201" lat="30.439206" lon="-97.874146" changeset="false"><tag k="addr:street" v="Farm-to-Market Road 2769"/><tag k="addr:housenumber" v="13909"/><tag k="coa:place_id" v="3516097"/></node><node id="-202" lat="30.439151" lon="-97.890291" changeset="false"><tag k="addr:street" v="Lake Mountain Lane"/><tag k="addr:housenumber" v="8216"/><tag k="coa:place_id" v="3431354"/></node><node id="-203" lat="30.485953" lon="-97.863306" changeset="false"><tag k="addr:street" v="Lady Day Cove"/><tag k="addr:housenumber" v="2907"/><tag k="coa:place_id" v="3362421"/></node><node id="-204" lat="30.438474" lon="-97.889873" changeset="false"><tag k="addr:street" v="Lake Mountain Lane"/><tag k="addr:housenumber" v="8208"/><tag k="coa:place_id" v="3302480"/></node><node id="-205" lat="30.439903" lon="-97.912643" changeset="false"><tag k="addr:street" v="Booth Circle"/><tag k="addr:housenumber" v="15951"/><tag k="coa:place_id" v="5073992"/></node><node id="-206" lat="30.443913" lon="-97.913242" changeset="false"><tag k="addr:street" v="Dodd Street"/><tag k="addr:housenumber" v="16203"/><tag k="coa:place_id" v="1111714"/></node><node id="-207" lat="30.436366" lon="-97.880747" changeset="false"><tag k="addr:street" v="Farm-to-Market Road 2769"/><tag k="addr:housenumber" v="14109"/><tag k="coa:place_id" v="1155087"/></node><node id="-208" lat="30.435973" lon="-97.880539" changeset="false"><tag k="addr:street" v="Farm-to-Market Road 2769"/><tag k="addr:housenumber" v="14103"/><tag k="coa:place_id" v="3079288"/></node><node id="-209" lat="30.433956" lon="-97.879461" changeset="false"><tag k="addr:street" v="Farm-to-Market Road 2769"/><tag k="addr:housenumber" v="13995"/><tag k="coa:place_id" v="3079279"/></node><node id="-210" lat="30.433898" lon="-97.879136" changeset="false"><tag k="addr:street" v="Farm-to-Market Road 2769"/><tag k="addr:housenumber" v="13989"/><tag k="coa:place_id" v="216327"/></node><node id="-211" lat="30.426999" lon="-97.901171" changeset="false"><tag k="addr:street" v="Arrowhead Drive"/><tag k="addr:housenumber" v="14908"/><tag k="coa:place_id" v="1111803"/></node><node id="-212" lat="30.427122" lon="-97.898644" changeset="false"><tag k="addr:street" v="Arrowhead Drive"/><tag k="addr:housenumber" v="14748"/><tag k="coa:place_id" v="1111800"/></node><node id="-213" lat="30.443781" lon="-97.910963" changeset="false"><tag k="addr:street" v="Lime Creek Road"/><tag k="addr:housenumber" v="7903"/><tag k="coa:place_id" v="3431423"/></node><node id="-214" lat="30.458073" lon="-97.848469" changeset="false"><tag k="addr:street" v="Azzuro Way"/><tag k="addr:housenumber" v="2712"/><tag k="coa:place_id" v="3151435"/></node><node id="-215" lat="30.429567" lon="-97.895307" changeset="false"><tag k="addr:street" v="Pocohontas Trail"/><tag k="addr:housenumber" v="14701"/><tag k="coa:place_id" v="3034229"/></node><node id="-216" lat="30.466531" lon="-97.841867" changeset="false"><tag k="addr:street" v="Old Mill Road"/><tag k="addr:housenumber" v="2200"/><tag k="coa:place_id" v="3151950"/></node><node id="-217" lat="30.500034" lon="-97.876074" changeset="false"><tag k="addr:street" v="Wire Road"/><tag k="addr:housenumber" v="12505"/><tag k="coa:place_id" v="3042391"/></node><node id="-218" lat="30.455267" lon="-97.922514" changeset="false"><tag k="addr:street" v="Joy Road"/><tag k="addr:housenumber" v="8128"/><tag k="coa:place_id" v="3099498"/></node><node id="-219" lat="30.458681" lon="-97.846959" changeset="false"><tag k="addr:street" v="Lombardi Way"/><tag k="addr:housenumber" v="3009"/><tag k="coa:place_id" v="3151450"/></node><node id="-220" lat="30.473616" lon="-97.848382" changeset="false"><tag k="addr:street" v="Chula Vista Drive"/><tag k="addr:housenumber" v="2006"/><tag k="coa:place_id" v="3149506"/></node><node id="-221" lat="30.446501" lon="-97.913017" changeset="false"><tag k="addr:street" v="Lakeview Street"/><tag k="addr:housenumber" v="8006"/><tag k="coa:place_id" v="3133650"/></node><node id="-222" lat="30.458464" lon="-97.830978" changeset="false"><tag k="addr:street" v="Anderson Mill Road,1100"/><tag k="addr:housenumber" v="12110"/><tag k="coa:place_id" v="5111202"/></node><node id="-223" lat="30.463985" lon="-97.846964" changeset="false"><tag k="addr:street" v="Orsobello Place"/><tag k="addr:housenumber" v="2609"/><tag k="coa:place_id" v="3149221"/></node><node id="-224" lat="30.479268" lon="-97.851553" changeset="false"><tag k="addr:street" v="Texan Drive"/><tag k="addr:housenumber" v="2401"/><tag k="coa:place_id" v="3141641"/></node><node id="-225" lat="30.461814" lon="-97.912199" changeset="false"><tag k="addr:street" v="Schmid Drive"/><tag k="addr:housenumber" v="9006"/><tag k="coa:place_id" v="1136327"/></node><node id="-226" lat="30.438172" lon="-97.908455" changeset="false"><tag k="addr:street" v="Booth Circle"/><tag k="addr:housenumber" v="15718"/><tag k="coa:place_id" v="5121401"/></node><node id="-227" lat="30.434032" lon="-97.912843" changeset="false"><tag k="addr:street" v="Booth Circle"/><tag k="addr:housenumber" v="15811"/><tag k="coa:place_id" v="3081606"/></node><node id="-228" lat="30.429907" lon="-97.897008" changeset="false"><tag k="addr:street" v="Navajo Pass"/><tag k="addr:housenumber" v="7503"/><tag k="coa:place_id" v="1111770"/></node><node id="-229" lat="30.429904" lon="-97.899179" changeset="false"><tag k="addr:street" v="Arrowhead Drive"/><tag k="addr:housenumber" v="14944"/><tag k="coa:place_id" v="66776"/></node><node id="-230" lat="30.429697" lon="-97.898113" changeset="false"><tag k="addr:street" v="Navajo Pass"/><tag k="addr:housenumber" v="7408"/><tag k="coa:place_id" v="1111774"/></node><node id="-231" lat="30.464687" lon="-97.846795" changeset="false"><tag k="addr:street" v="Orsobello Place"/><tag k="addr:housenumber" v="2603"/><tag k="coa:place_id" v="3149209"/></node><node id="-232" lat="30.464629" lon="-97.851601" changeset="false"><tag k="addr:street" v="Kopperl Court"/><tag k="addr:housenumber" v="2504"/><tag k="coa:place_id" v="3137799"/></node><node id="-233" lat="30.431633" lon="-97.906225" changeset="false"><tag k="addr:street" v="Reed Drive"/><tag k="addr:housenumber" v="7328"/><tag k="coa:place_id" v="3083300"/></node><node id="-234" lat="30.430887" lon="-97.898069" changeset="false"><tag k="addr:street" v="Arrowhead Drive"/><tag k="addr:housenumber" v="14956"/><tag k="coa:place_id" v="1111757"/></node><node id="-235" lat="30.430535" lon="-97.898331" changeset="false"><tag k="addr:street" v="Arrowhead Drive"/><tag k="addr:housenumber" v="14952"/><tag k="coa:place_id" v="1111760"/></node><node id="-236" lat="30.510001" lon="-97.867744" changeset="false"><tag k="addr:street" v="Cedar Lime Road"/><tag k="addr:housenumber" v="13405"/><tag k="coa:place_id" v="1105248"/></node><node id="-237" lat="30.510739" lon="-97.863189" changeset="false"><tag k="addr:street" v="Wire Road"/><tag k="addr:housenumber" v="13440"/><tag k="coa:place_id" v="1105254"/></node><node id="-238" lat="30.466076" lon="-97.850995" changeset="false"><tag k="addr:street" v="Yalding Drive"/><tag k="addr:housenumber" v="2702"/><tag k="coa:place_id" v="3102210"/></node><node id="-239" lat="30.47845" lon="-97.855217" changeset="false"><tag k="addr:street" v="Gholson Drive"/><tag k="addr:housenumber" v="2709"/><tag k="coa:place_id" v="3158844"/></node><node id="-240" lat="30.4643" lon="-97.847482" changeset="false"><tag k="addr:street" v="Zennor Court"/><tag k="addr:housenumber" v="2502"/><tag k="coa:place_id" v="3101173"/></node><node id="-241" lat="30.462542" lon="-97.852488" changeset="false"><tag k="addr:street" v="Farleigh Lane"/><tag k="addr:housenumber" v="2515"/><tag k="coa:place_id" v="3116845"/></node><node id="-242" lat="30.465496" lon="-97.85211" changeset="false"><tag k="addr:street" v="Birchington Drive"/><tag k="addr:housenumber" v="2313"/><tag k="coa:place_id" v="3102224"/></node><node id="-243" lat="30.462179" lon="-97.85388" changeset="false"><tag k="addr:street" v="KinClaven Court"/><tag k="addr:housenumber" v="2513"/><tag k="coa:place_id" v="3143549"/></node><node id="-244" lat="30.46211" lon="-97.852363" changeset="false"><tag k="addr:street" v="Dunbar Court"/><tag k="addr:housenumber" v="2903"/><tag k="coa:place_id" v="3116839"/></node><node id="-245" lat="30.453426" lon="-97.922969" changeset="false"><tag k="addr:street" v="Joy Road"/><tag k="addr:housenumber" v="8108"/><tag k="coa:place_id" v="3198192"/></node><node id="-246" lat="30.490825" lon="-97.898821" changeset="false"><tag k="addr:street" v="Trails End Road"/><tag k="addr:housenumber" v="11501"/><tag k="coa:place_id" v="1144893"/></node><node id="-247" lat="30.458946" lon="-97.847367" changeset="false"><tag k="addr:street" v="Giacomo Cove"/><tag k="addr:housenumber" v="2700"/><tag k="coa:place_id" v="3151420"/></node><node id="-248" lat="30.458398" lon="-97.834587" changeset="false"><tag k="addr:street" v="Windy Terrace"/><tag k="addr:housenumber" v="2009"/><tag k="coa:place_id" v="3152718"/></node><node id="-249" lat="30.499613" lon="-97.88642" changeset="false"><tag k="addr:street" v="Trails End Cove"/><tag k="addr:housenumber" v="16708"/><tag k="coa:place_id" v="3043216"/></node><node id="-250" lat="30.429535" lon="-97.899566" changeset="false"><tag k="addr:street" v="Arrowhead Drive"/><tag k="addr:housenumber" v="14936"/><tag k="coa:place_id" v="66778"/></node><node id="-251" lat="30.471365" lon="-97.854959" changeset="false"><tag k="addr:street" v="Zambia Drive"/><tag k="addr:housenumber" v="2716"/><tag k="coa:place_id" v="3151291"/></node><node id="-252" lat="30.484875" lon="-97.85823" changeset="false"><tag k="addr:street" v="Lovett Lane"/><tag k="addr:housenumber" v="2710"/><tag k="coa:place_id" v="3141462"/></node><node id="-253" lat="30.465725" lon="-97.851426" changeset="false"><tag k="addr:street" v="Yalding Drive"/><tag k="addr:housenumber" v="2706"/><tag k="coa:place_id" v="3102212"/></node><node id="-254" lat="30.465124" lon="-97.853831" changeset="false"><tag k="addr:street" v="Allerford Court"/><tag k="addr:housenumber" v="2907"/><tag k="coa:place_id" v="3137792"/></node><node id="-255" lat="30.456587" lon="-97.92124" changeset="false"><tag k="addr:street" v="West Darleen Drive,1100"/><tag k="addr:housenumber" v="8200"/><tag k="coa:place_id" v="236715"/></node><node id="-256" lat="30.456075" lon="-97.920552" changeset="false"><tag k="addr:street" v="Sharon Road"/><tag k="addr:housenumber" v="8201"/><tag k="coa:place_id" v="257093"/></node><node id="-257" lat="30.455544" lon="-97.922464" changeset="false"><tag k="addr:street" v="Joy Road"/><tag k="addr:housenumber" v="8130"/><tag k="coa:place_id" v="3099499"/></node><node id="-258" lat="30.454852" lon="-97.922612" changeset="false"><tag k="addr:street" v="Joy Road"/><tag k="addr:housenumber" v="8122"/><tag k="coa:place_id" v="3099496"/></node><node id="-259" lat="30.434507" lon="-97.883802" changeset="false"><tag k="addr:street" v="Farm-to-Market Road 2769"/><tag k="addr:housenumber" v="14266"/><tag k="coa:place_id" v="3032973"/></node><node id="-260" lat="30.432909" lon="-97.878137" changeset="false"><tag k="addr:street" v="Farm-to-Market Road 2769"/><tag k="addr:housenumber" v="13987"/><tag k="coa:place_id" v="218107"/></node><node id="-261" lat="30.434474" lon="-97.906097" changeset="false"><tag k="addr:street" v="Reed Drive"/><tag k="addr:housenumber" v="7504"/><tag k="coa:place_id" v="112182"/></node><node id="-262" lat="30.430894" lon="-97.896273" changeset="false"><tag k="addr:street" v="Navajo Pass"/><tag k="addr:housenumber" v="7603"/><tag k="coa:place_id" v="1111756"/></node><node id="-263" lat="30.466332" lon="-97.852992" changeset="false"><tag k="addr:street" v="Birchington Drive"/><tag k="addr:housenumber" v="2303"/><tag k="coa:place_id" v="3102219"/></node><node id="-264" lat="30.450803" lon="-97.911738" changeset="false"><tag k="addr:street" v="Jackson Street"/><tag k="addr:housenumber" v="16304"/><tag k="coa:place_id" v="219191"/></node><node id="-265" lat="30.481479" lon="-97.879775" changeset="false"><tag k="addr:street" v="Lime Creek Road"/><tag k="addr:housenumber" v="11947"/><tag k="coa:place_id" v="3119199"/></node><node id="-266" lat="30.447227" lon="-97.911986" changeset="false"><tag k="addr:street" v="Lakeview Street"/><tag k="addr:housenumber" v="8026"/><tag k="coa:place_id" v="3133661"/></node><node id="-267" lat="30.44691" lon="-97.912447" changeset="false"><tag k="addr:street" v="Lakeview Street"/><tag k="addr:housenumber" v="8018"/><tag k="coa:place_id" v="3133657"/></node><node id="-268" lat="30.429459" lon="-97.896579" changeset="false"><tag k="addr:street" v="Arrowhead Drive"/><tag k="addr:housenumber" v="14716"/><tag k="coa:place_id" v="1111777"/></node><node id="-269" lat="30.42894" lon="-97.898354" changeset="false"><tag k="addr:street" v="Navajo Pass"/><tag k="addr:housenumber" v="7401"/><tag k="coa:place_id" v="66789"/></node><node id="-270" lat="30.430944" lon="-97.905982" changeset="false"><tag k="addr:street" v="Reed Drive"/><tag k="addr:housenumber" v="7324"/><tag k="coa:place_id" v="3083302"/></node><node id="-271" lat="30.435485" lon="-97.880257" changeset="false"><tag k="addr:street" v="Farm-to-Market Road 2769"/><tag k="addr:housenumber" v="14015"/><tag k="coa:place_id" v="3079285"/></node><node id="-272" lat="30.427378" lon="-97.897498" changeset="false"><tag k="addr:street" v="Arrowhead Drive"/><tag k="addr:housenumber" v="14738"/><tag k="coa:place_id" v="1111793"/></node><node id="-273" lat="30.427159" lon="-97.898409" changeset="false"><tag k="addr:street" v="Arrowhead Drive"/><tag k="addr:housenumber" v="14746"/><tag k="coa:place_id" v="1111798"/></node><node id="-274" lat="30.426893" lon="-97.899935" changeset="false"><tag k="addr:street" v="Arrowhead Drive"/><tag k="addr:housenumber" v="14804"/><tag k="coa:place_id" v="1111805"/></node><node id="-275" lat="30.459502" lon="-97.918227" changeset="false"><tag k="addr:street" v="Lime Creek Road"/><tag k="addr:housenumber" v="8410"/><tag k="coa:place_id" v="1110604"/></node><node id="-276" lat="30.444413" lon="-97.913484" changeset="false"><tag k="addr:street" v="Dodd Street"/><tag k="addr:housenumber" v="16207"/><tag k="coa:place_id" v="1111712"/></node><node id="-277" lat="30.446775" lon="-97.912632" changeset="false"><tag k="addr:street" v="Lakeview Street"/><tag k="addr:housenumber" v="8014"/><tag k="coa:place_id" v="3133655"/></node><node id="-278" lat="30.455492" lon="-97.849289" changeset="false"><tag k="addr:street" v="Castellano Way"/><tag k="addr:housenumber" v="3117"/><tag k="coa:place_id" v="3127188"/></node><node id="-279" lat="30.456" lon="-97.922344" changeset="false"><tag k="addr:street" v="Joy Road"/><tag k="addr:housenumber" v="8134"/><tag k="coa:place_id" v="3198200"/></node><node id="-280" lat="30.444028" lon="-97.864483" changeset="false"><tag k="addr:street" v="Farm-to-Market Road 2769"/><tag k="addr:housenumber" v="13520"/><tag k="coa:place_id" v="3038349"/></node><node id="-281" lat="30.43518" lon="-97.880034" changeset="false"><tag k="addr:street" v="Farm-to-Market Road 2769"/><tag k="addr:housenumber" v="14011"/><tag k="coa:place_id" v="3079283"/></node><node id="-282" lat="30.45048" lon="-97.909006" changeset="false"><tag k="addr:street" v="Lime Creek Road"/><tag k="addr:housenumber" v="8244"/><tag k="coa:place_id" v="3284029"/></node><node id="-283" lat="30.481476" lon="-97.894246" changeset="false"><tag k="addr:street" v="Lime Creek Road"/><tag k="addr:housenumber" v="11002"/><tag k="coa:place_id" v="3222904"/></node><node id="-284" lat="30.476841" lon="-97.909215" changeset="false"><tag k="addr:street" v="Trails End Road"/><tag k="addr:housenumber" v="10005"/><tag k="coa:place_id" v="3267198"/></node><node id="-285" lat="30.4374" lon="-97.880282" changeset="false"><tag k="addr:street" v="Farm-to-Market Road 2769"/><tag k="addr:housenumber" v="14117"/><tag k="coa:place_id" v="3211776"/></node><node id="-286" lat="30.433779" lon="-97.886019" changeset="false"><tag k="addr:street" v="Farm-to-Market Road 2769"/><tag k="addr:housenumber" v="14292"/><tag k="coa:place_id" v="3212419"/></node><node id="-287" lat="30.434531" lon="-97.877835" changeset="false"><tag k="addr:street" v="Farm-to-Market Road 2769"/><tag k="addr:housenumber" v="13986"/><tag k="coa:place_id" v="3272082"/></node><node id="-288" lat="30.440072" lon="-97.905888" changeset="false"><tag k="addr:street" v="Mary Street"/><tag k="addr:housenumber" v="15608"/><tag k="coa:place_id" v="3214169"/></node><node id="-289" lat="30.456927" lon="-97.916514" changeset="false"><tag k="addr:street" v="Lime Creek Road"/><tag k="addr:housenumber" v="8328"/><tag k="coa:place_id" v="3214510"/></node><node id="-290" lat="30.440043" lon="-97.906319" changeset="false"><tag k="addr:street" v="Mary Street"/><tag k="addr:housenumber" v="15612"/><tag k="coa:place_id" v="3214170"/></node><node id="-291" lat="30.44101" lon="-97.908943" changeset="false"><tag k="addr:street" v="Mary Street"/><tag k="addr:housenumber" v="15900"/><tag k="coa:place_id" v="3214176"/></node><node id="-292" lat="30.454503" lon="-97.855909" changeset="false"><tag k="addr:street" v="Grand Oaks Loop"/><tag k="addr:housenumber" v="2756"/><tag k="coa:place_id" v="3289313"/></node><node id="-293" lat="30.45636" lon="-97.82679" changeset="false"><tag k="addr:street" v="Anderson Mill Road,1100"/><tag k="addr:housenumber" v="11906"/><tag k="coa:place_id" v="3189071"/></node><node id="-294" lat="30.432286" lon="-97.891802" changeset="false"><tag k="addr:street" v="Comanche Trail"/><tag k="addr:housenumber" v="7801"/><tag k="coa:place_id" v="3287740"/></node><node id="-295" lat="30.475558" lon="-97.908363" changeset="false"><tag k="addr:street" v="East Darleen Drive"/><tag k="addr:housenumber" v="17123"/><tag k="coa:place_id" v="3198350"/></node><node id="-296" lat="30.450144" lon="-97.916561" changeset="false"><tag k="addr:street" v="Arren Terrace"/><tag k="addr:housenumber" v="8033"/><tag k="coa:place_id" v="3390501"/></node><node id="-297" lat="30.450681" lon="-97.914798" changeset="false"><tag k="addr:street" v="Sherman Street"/><tag k="addr:housenumber" v="16500"/><tag k="coa:place_id" v="227899"/></node><node id="-298" lat="30.457157" lon="-97.856507" changeset="false"><tag k="addr:street" v="Mystic Summit Drive"/><tag k="addr:housenumber" v="3206"/><tag k="coa:place_id" v="3288715"/></node><node id="-299" lat="30.432151" lon="-97.898009" changeset="false"><tag k="addr:street" v="Arrowhead Drive"/><tag k="addr:housenumber" v="14975"/><tag k="coa:place_id" v="1111745"/></node><node id="-300" lat="30.426156" lon="-97.899644" changeset="false"><tag k="addr:street" v="Arrowhead Drive"/><tag k="addr:housenumber" v="14805"/><tag k="coa:place_id" v="3371831"/></node><node id="-301" lat="30.457804" lon="-97.855319" changeset="false"><tag k="addr:street" v="Grand Oaks Loop"/><tag k="addr:housenumber" v="2725"/><tag k="coa:place_id" v="3288669"/></node><node id="-302" lat="30.461069" lon="-97.91552" changeset="false"><tag k="addr:street" v="Lime Creek Road"/><tag k="addr:housenumber" v="8508"/><tag k="coa:place_id" v="3374359"/></node><node id="-303" lat="30.46705" lon="-97.843477" changeset="false"><tag k="addr:street" v="Anderson Mill Road,1100"/><tag k="addr:housenumber" v="13402"/><tag k="coa:place_id" v="3280586"/></node><node id="-304" lat="30.454925" lon="-97.921764" changeset="false"><tag k="addr:street" v="Sharon Road"/><tag k="addr:housenumber" v="8116"/><tag k="coa:place_id" v="3374336"/></node><node id="-305" lat="30.494556" lon="-97.885096" changeset="false"><tag k="addr:street" v="Red Wagon Lane"/><tag k="addr:housenumber" v="16521"/><tag k="coa:place_id" v="3331091"/></node><node id="-306" lat="30.482558" lon="-97.881481" changeset="false"><tag k="addr:street" v="Lime Creek Road"/><tag k="addr:housenumber" v="11929"/><tag k="coa:place_id" v="3363299"/></node><node id="-307" lat="30.486218" lon="-97.893433" changeset="false"><tag k="addr:street" v="Lime Creek Road"/><tag k="addr:housenumber" v="11300"/><tag k="coa:place_id" v="3374325"/></node><node id="-308" lat="30.454074" lon="-97.856275" changeset="false"><tag k="addr:street" v="Grand Oaks Loop"/><tag k="addr:housenumber" v="2800"/><tag k="coa:place_id" v="3289361"/></node><node id="-309" lat="30.442757" lon="-97.913666" changeset="false"><tag k="addr:street" v="Wharf Cove"/><tag k="addr:housenumber" v="16120"/><tag k="coa:place_id" v="3383320"/></node><node id="-310" lat="30.448723" lon="-97.914955" changeset="false"><tag k="addr:street" v="Jackson Street"/><tag k="addr:housenumber" v="16503"/><tag k="coa:place_id" v="3354691"/></node><node id="-311" lat="30.433451" lon="-97.909397" changeset="false"><tag k="addr:street" v="Booth Circle"/><tag k="addr:housenumber" v="15759"/><tag k="coa:place_id" v="3337278"/></node><node id="-312" lat="30.489283" lon="-97.861649" changeset="false"><tag k="addr:street" v="Basie Bend"/><tag k="addr:housenumber" v="611"/><tag k="coa:place_id" v="3312792"/></node><node id="-313" lat="30.45432" lon="-97.859185" changeset="false"><tag k="addr:street" v="Grand Oaks Loop"/><tag k="addr:housenumber" v="2816"/><tag k="coa:place_id" v="3293733"/></node><node id="-314" lat="30.456301" lon="-97.859626" changeset="false"><tag k="addr:street" v="Grand Oaks Loop"/><tag k="addr:housenumber" v="2908"/><tag k="coa:place_id" v="3293744"/></node><node id="-315" lat="30.458191" lon="-97.859298" changeset="false"><tag k="addr:street" v="Crystal Hill Drive"/><tag k="addr:housenumber" v="3411"/><tag k="coa:place_id" v="3288891"/></node><node id="-316" lat="30.458196" lon="-97.859574" changeset="false"><tag k="addr:street" v="Crystal Hill Drive"/><tag k="addr:housenumber" v="3413"/><tag k="coa:place_id" v="3288892"/></node><node id="-317" lat="30.457529" lon="-97.919681" changeset="false"><tag k="addr:street" v="West Darleen Drive,1100"/><tag k="addr:housenumber" v="8212"/><tag k="coa:place_id" v="3329341"/></node><node id="-318" lat="30.479364" lon="-97.8495" changeset="false"><tag k="addr:street" v="Shady Creek Trail"/><tag k="addr:housenumber" v="1604"/><tag k="coa:place_id" v="3330945"/></node><node id="-319" lat="30.481885" lon="-97.850545" changeset="false"><tag k="addr:street" v="Somerset Canyon Lane"/><tag k="addr:housenumber" v="1502"/><tag k="coa:place_id" v="3330886"/></node><node id="-320" lat="30.434365" lon="-97.911272" changeset="false"><tag k="addr:street" v="Ray Vista Street"/><tag k="addr:housenumber" v="15848"/><tag k="coa:place_id" v="3430131"/></node><node id="-321" lat="30.439338" lon="-97.908529" changeset="false"><tag k="addr:street" v="Farm-to-Market Road 2769"/><tag k="addr:housenumber" v="15707"/><tag k="coa:place_id" v="3504130"/></node><node id="-322" lat="30.436648" lon="-97.884133" changeset="false"><tag k="addr:street" v="Farm-to-Market Road 2769"/><tag k="addr:housenumber" v="14250"/><tag k="coa:place_id" v="3504325"/></node><node id="-323" lat="30.475412" lon="-97.909441" changeset="false"><tag k="addr:street" v="Trails End Road"/><tag k="addr:housenumber" v="9903"/><tag k="coa:place_id" v="3198341"/></node><node id="-324" lat="30.432435" lon="-97.886391" changeset="false"><tag k="addr:street" v="Farm-to-Market Road 2769"/><tag k="addr:housenumber" v="14302"/><tag k="coa:place_id" v="3332182"/></node><node id="-325" lat="30.459072" lon="-97.857023" changeset="false"><tag k="addr:street" v="Grand Oaks Loop"/><tag k="addr:housenumber" v="2701"/><tag k="coa:place_id" v="3288657"/></node><node id="-326" lat="30.456225" lon="-97.858251" changeset="false"><tag k="addr:street" v="Prairie Mist Court"/><tag k="addr:housenumber" v="2805"/><tag k="coa:place_id" v="3293752"/></node><node id="-327" lat="30.455046" lon="-97.858346" changeset="false"><tag k="addr:street" v="Mossy Grove Court"/><tag k="addr:housenumber" v="3301"/><tag k="coa:place_id" v="3293761"/></node><node id="-328" lat="30.456386" lon="-97.858618" changeset="false"><tag k="addr:street" v="Mossy Grove Court"/><tag k="addr:housenumber" v="3317"/><tag k="coa:place_id" v="3293763"/></node><node id="-329" lat="30.458084" lon="-97.857198" changeset="false"><tag k="addr:street" v="Mystic Summit Drive"/><tag k="addr:housenumber" v="3309"/><tag k="coa:place_id" v="3288705"/></node><node id="-330" lat="30.429992" lon="-97.892378" changeset="false"><tag k="addr:street" v="Pocohontas Trail"/><tag k="addr:housenumber" v="14601"/><tag k="coa:place_id" v="3502534"/></node><node id="-331" lat="30.429859" lon="-97.891019" changeset="false"><tag k="addr:street" v="Pocohontas Trail"/><tag k="addr:housenumber" v="14533"/><tag k="coa:place_id" v="3502531"/></node><node id="-332" lat="30.447674" lon="-97.909439" changeset="false"><tag k="addr:street" v="Lime Creek Road"/><tag k="addr:housenumber" v="8104"/><tag k="coa:place_id" v="3215554"/></node><node id="-333" lat="30.46981" lon="-97.847051" changeset="false"><tag k="addr:street" v="Powderham Lane"/><tag k="addr:housenumber" v="2409"/><tag k="coa:place_id" v="3150762"/></node><node id="-334" lat="30.462276" lon="-97.844821" changeset="false"><tag k="addr:street" v="Cashell Wood Drive"/><tag k="addr:housenumber" v="2811"/><tag k="coa:place_id" v="3151694"/></node><node id="-335" lat="30.460185" lon="-97.852852" changeset="false"><tag k="addr:street" v="Kinloch Drive"/><tag k="addr:housenumber" v="2910"/><tag k="coa:place_id" v="3116799"/></node><node id="-336" lat="30.434051" lon="-97.906254" changeset="false"><tag k="addr:street" v="Reed Drive"/><tag k="addr:housenumber" v="7418"/><tag k="coa:place_id" v="1140290"/></node><node id="-337" lat="30.434571" lon="-97.904443" changeset="false"><tag k="addr:street" v="Farm-to-Market Road 2769"/><tag k="addr:housenumber" v="15315"/><tag k="coa:place_id" v="77242"/></node><node id="-338" lat="30.51256" lon="-97.864985" changeset="false"><tag k="addr:street" v="West Whitestone Boulevard"/><tag k="addr:housenumber" v="2460"/><tag k="coa:place_id" v="1145046"/></node><node id="-339" lat="30.511414" lon="-97.86899" changeset="false"><tag k="addr:street" v="Cedar Lime Road"/><tag k="addr:housenumber" v="13413"/><tag k="coa:place_id" v="1105244"/></node><node id="-340" lat="30.429555" lon="-97.898453" changeset="false"><tag k="addr:street" v="Navajo Pass"/><tag k="addr:housenumber" v="7406"/><tag k="coa:place_id" v="66782"/></node><node id="-341" lat="30.428655" lon="-97.89854" changeset="false"><tag k="addr:street" v="Navajo Pass"/><tag k="addr:housenumber" v="7309"/><tag k="coa:place_id" v="66788"/></node><node id="-342" lat="30.428331" lon="-97.896717" changeset="false"><tag k="addr:street" v="Arrowhead Drive"/><tag k="addr:housenumber" v="14726"/><tag k="coa:place_id" v="1111783"/></node><node id="-343" lat="30.445177" lon="-97.914487" changeset="false"><tag k="addr:street" v="Lakeview Street"/><tag k="addr:housenumber" v="7904"/><tag k="coa:place_id" v="1111709"/></node><node id="-344" lat="30.427243" lon="-97.897939" changeset="false"><tag k="addr:street" v="Arrowhead Drive"/><tag k="addr:housenumber" v="14742"/><tag k="coa:place_id" v="1111796"/></node><node id="-345" lat="30.468361" lon="-97.845548" changeset="false"><tag k="addr:street" v="Dartford Bend"/><tag k="addr:housenumber" v="2401"/><tag k="coa:place_id" v="3155162"/></node><node id="-346" lat="30.44317" lon="-97.911736" changeset="false"><tag k="addr:street" v="Lime Creek Road"/><tag k="addr:housenumber" v="7808"/><tag k="coa:place_id" v="215531"/></node><node id="-347" lat="30.474653" lon="-97.85404" changeset="false"><tag k="addr:street" v="Catchfly Cove"/><tag k="addr:housenumber" v="1707"/><tag k="coa:place_id" v="3154819"/></node><node id="-348" lat="30.50084" lon="-97.885766" changeset="false"><tag k="addr:street" v="Trails End Cove"/><tag k="addr:housenumber" v="16917"/><tag k="coa:place_id" v="5081148"/></node><node id="-349" lat="30.456271" lon="-97.828432" changeset="false"><tag k="addr:street" v="Anderson Mill Road,1100"/><tag k="addr:housenumber" v="11910"/><tag k="coa:place_id" v="213072"/></node><node id="-350" lat="30.432156" lon="-97.886237" changeset="false"><tag k="addr:street" v="Farm-to-Market Road 2769"/><tag k="addr:housenumber" v="14301"/><tag k="coa:place_id" v="3121757"/></node><node id="-351" lat="30.462248" lon="-97.853997" changeset="false"><tag k="addr:street" v="KinClaven Court"/><tag k="addr:housenumber" v="2511"/><tag k="coa:place_id" v="3143548"/></node><node id="-352" lat="30.466244" lon="-97.847439" changeset="false"><tag k="addr:street" v="Guara Drive"/><tag k="addr:housenumber" v="2508"/><tag k="coa:place_id" v="3155184"/></node><node id="-353" lat="30.460473" lon="-97.848196" changeset="false"><tag k="addr:street" v="Benevento Way"/><tag k="addr:housenumber" v="2709"/><tag k="coa:place_id" v="3151407"/></node><node id="-354" lat="30.467545" lon="-97.844584" changeset="false"><tag k="addr:street" v="Dartford Bend"/><tag k="addr:housenumber" v="2303"/><tag k="coa:place_id" v="3155156"/></node><node id="-355" lat="30.450663" lon="-97.919271" changeset="false"><tag k="addr:street" v="Bernard Street"/><tag k="addr:housenumber" v="8004"/><tag k="coa:place_id" v="1136739"/></node><node id="-356" lat="30.462742" lon="-97.841447" changeset="false"><tag k="addr:street" v="London Lane"/><tag k="addr:housenumber" v="2302"/><tag k="coa:place_id" v="3151703"/></node><node id="-357" lat="30.461773" lon="-97.856214" changeset="false"><tag k="addr:street" v="Moray Lane"/><tag k="addr:housenumber" v="2501"/><tag k="coa:place_id" v="3111202"/></node><node id="-358" lat="30.469485" lon="-97.906193" changeset="false"><tag k="addr:street" v="Lime Creek Road"/><tag k="addr:housenumber" v="9500"/><tag k="coa:place_id" v="3050240"/></node><node id="-359" lat="30.495845" lon="-97.884294" changeset="false"><tag k="addr:street" v="Red Wagon Lane"/><tag k="addr:housenumber" v="16438"/><tag k="coa:place_id" v="1126988"/></node><node id="-360" lat="30.449442" lon="-97.914707" changeset="false"><tag k="addr:street" v="Jackson Street"/><tag k="addr:housenumber" v="16500"/><tag k="coa:place_id" v="219195"/></node><node id="-361" lat="30.457742" lon="-97.847093" changeset="false"><tag k="addr:street" v="Azzuro Way"/><tag k="addr:housenumber" v="2702"/><tag k="coa:place_id" v="3151430"/></node><node id="-362" lat="30.457703" lon="-97.850101" changeset="false"><tag k="addr:street" v="Appennini Way"/><tag k="addr:housenumber" v="3109"/><tag k="coa:place_id" v="3127191"/></node><node id="-363" lat="30.431895" lon="-97.906264" changeset="false"><tag k="addr:street" v="Reed Drive"/><tag k="addr:housenumber" v="7330"/><tag k="coa:place_id" v="3083299"/></node><node id="-364" lat="30.431107" lon="-97.910361" changeset="false"><tag k="addr:street" v="Booth Circle"/><tag k="addr:housenumber" v="15781"/><tag k="coa:place_id" v="89356"/></node><node id="-365" lat="30.510993" lon="-97.870133" changeset="false"><tag k="addr:street" v="Cedar Lime Road"/><tag k="addr:housenumber" v="13416"/><tag k="coa:place_id" v="1105245"/></node><node id="-366" lat="30.468261" lon="-97.849029" changeset="false"><tag k="addr:street" v="Tattler Drive"/><tag k="addr:housenumber" v="2205"/><tag k="coa:place_id" v="3150739"/></node><node id="-367" lat="30.426814" lon="-97.900412" changeset="false"><tag k="addr:street" v="Arrowhead Drive"/><tag k="addr:housenumber" v="14812"/><tag k="coa:place_id" v="1111807"/></node><node id="-368" lat="30.464309" lon="-97.852863" changeset="false"><tag k="addr:street" v="Terlingua Drive"/><tag k="addr:housenumber" v="2500"/><tag k="coa:place_id" v="3137814"/></node><node id="-369" lat="30.466614" lon="-97.846139" changeset="false"><tag k="addr:street" v="Guara Drive"/><tag k="addr:housenumber" v="2416"/><tag k="coa:place_id" v="3155216"/></node><node id="-370" lat="30.466483" lon="-97.839479" changeset="false"><tag k="addr:street" v="Rainfall Trail"/><tag k="addr:housenumber" v="2620"/><tag k="coa:place_id" v="3151852"/></node><node id="-371" lat="30.462825" lon="-97.84113" changeset="false"><tag k="addr:street" v="London Lane"/><tag k="addr:housenumber" v="2300"/><tag k="coa:place_id" v="3151702"/></node><node id="-372" lat="30.503955" lon="-97.856143" changeset="false"><tag k="addr:street" v="Anderson Mill Road,1100"/><tag k="addr:housenumber" v="15700"/><tag k="coa:place_id" v="1145034"/></node><node id="-373" lat="30.432568" lon="-97.893467" changeset="false"><tag k="addr:street" v="Old Anderson Mill Road"/><tag k="addr:housenumber" v="14701"/><tag k="coa:place_id" v="50446"/></node><node id="-374" lat="30.447123" lon="-97.912137" changeset="false"><tag k="addr:street" v="Lakeview Street"/><tag k="addr:housenumber" v="8024"/><tag k="coa:place_id" v="3133660"/></node><node id="-375" lat="30.446938" lon="-97.909615" changeset="false"><tag k="addr:street" v="Lime Creek Road"/><tag k="addr:housenumber" v="8100"/><tag k="coa:place_id" v="3050235"/></node><node id="-376" lat="30.429751" lon="-97.903568" changeset="false"><tag k="addr:street" v="Reed Drive"/><tag k="addr:housenumber" v="7304"/><tag k="coa:place_id" v="3083286"/></node><node id="-377" lat="30.451436" lon="-97.916084" changeset="false"><tag k="addr:street" v="Beauregard Drive"/><tag k="addr:housenumber" v="8100"/><tag k="coa:place_id" v="219216"/></node><node id="-378" lat="30.426396" lon="-97.901643" changeset="false"><tag k="addr:street" v="Arrowhead Drive"/><tag k="addr:housenumber" v="14901"/><tag k="coa:place_id" v="3155986"/></node><node id="-379" lat="30.453179" lon="-97.913512" changeset="false"><tag k="addr:street" v="Beauregard Drive"/><tag k="addr:housenumber" v="8136"/><tag k="coa:place_id" v="1103067"/></node><node id="-380" lat="30.442921" lon="-97.912191" changeset="false"><tag k="addr:street" v="Dodd Street"/><tag k="addr:housenumber" v="16100"/><tag k="coa:place_id" v="3034154"/></node><node id="-381" lat="30.434592" lon="-97.878583" changeset="false"><tag k="addr:street" v="Farm-to-Market Road 2769"/><tag k="addr:housenumber" v="14000"/><tag k="coa:place_id" v="131687"/></node><node id="-382" lat="30.430362" lon="-97.898483" changeset="false"><tag k="addr:street" v="Arrowhead Drive"/><tag k="addr:housenumber" v="14950"/><tag k="coa:place_id" v="1111762"/></node><node id="-383" lat="30.430167" lon="-97.904776" changeset="false"><tag k="addr:street" v="Reed Drive"/><tag k="addr:housenumber" v="7314"/><tag k="coa:place_id" v="3083296"/></node><node id="-384" lat="30.429834" lon="-97.896362" changeset="false"><tag k="addr:street" v="Arrowhead Drive"/><tag k="addr:housenumber" v="14712"/><tag k="coa:place_id" v="1111772"/></node><node id="-385" lat="30.461419" lon="-97.855047" changeset="false"><tag k="addr:street" v="Moray Lane"/><tag k="addr:housenumber" v="2516"/><tag k="coa:place_id" v="3111217"/></node><node id="-386" lat="30.43179" lon="-97.898241" changeset="false"><tag k="addr:street" v="Arrowhead Drive"/><tag k="addr:housenumber" v="14971"/><tag k="coa:place_id" v="1111748"/></node><node id="-387" lat="30.435719" lon="-97.908598" changeset="false"><tag k="addr:street" v="Booth Circle"/><tag k="addr:housenumber" v="15739"/><tag k="coa:place_id" v="3198165"/></node><node id="-388" lat="30.473163" lon="-97.849532" changeset="false"><tag k="addr:street" v="Chula Vista Drive"/><tag k="addr:housenumber" v="1907"/><tag k="coa:place_id" v="3149501"/></node><node id="-389" lat="30.477652" lon="-97.848987" changeset="false"><tag k="addr:street" v="Narrow Valley Drive"/><tag k="addr:housenumber" v="2300"/><tag k="coa:place_id" v="3141695"/></node><node id="-390" lat="30.431914" lon="-97.886156" changeset="false"><tag k="addr:street" v="Geronimo Street"/><tag k="addr:housenumber" v="14200"/><tag k="coa:place_id" v="3198141"/></node><node id="-391" lat="30.455776" lon="-97.92243" changeset="false"><tag k="addr:street" v="Joy Road"/><tag k="addr:housenumber" v="8132"/><tag k="coa:place_id" v="3198199"/></node><node id="-392" lat="30.457589" lon="-97.917231" changeset="false"><tag k="addr:street" v="West Darleen Drive,1100"/><tag k="addr:housenumber" v="8315"/><tag k="coa:place_id" v="1104707"/></node><node id="-393" lat="30.431576" lon="-97.896661" changeset="false"><tag k="addr:street" v="Navajo Pass"/><tag k="addr:housenumber" v="7606"/><tag k="coa:place_id" v="1111750"/></node><node id="-394" lat="30.508309" lon="-97.8647" changeset="false"><tag k="addr:street" v="Vista Oaks Drive"/><tag k="addr:housenumber" v="13400"/><tag k="coa:place_id" v="1145057"/></node><node id="-395" lat="30.433122" lon="-97.902029" changeset="false"><tag k="addr:street" v="Farm-to-Market Road 2769"/><tag k="addr:housenumber" v="15209"/><tag k="coa:place_id" v="3214272"/></node><node id="-396" lat="30.45223" lon="-97.913022" changeset="false"><tag k="addr:street" v="Beauregard Drive"/><tag k="addr:housenumber" v="8133"/><tag k="coa:place_id" v="3198185"/></node><node id="-397" lat="30.462442" lon="-97.856756" changeset="false"><tag k="addr:street" v="Twin Creeks Club Drive"/><tag k="addr:housenumber" v="3201"/><tag k="coa:place_id" v="3276692"/></node><node id="-398" lat="30.440534" lon="-97.908024" changeset="false"><tag k="addr:street" v="Mary Street"/><tag k="addr:housenumber" v="15800"/><tag k="coa:place_id" v="3214173"/></node><node id="-399" lat="30.460171" lon="-97.856525" changeset="false"><tag k="addr:street" v="Rolling Plains Court"/><tag k="addr:housenumber" v="2603"/><tag k="coa:place_id" v="3288650"/></node><node id="-400" lat="30.433692" lon="-97.902209" changeset="false"><tag k="addr:street" v="Farm-to-Market Road 2769"/><tag k="addr:housenumber" v="15210"/><tag k="coa:place_id" v="3214241"/></node><node id="-401" lat="30.475383" lon="-97.90887" changeset="false"><tag k="addr:street" v="East Darleen Drive"/><tag k="addr:housenumber" v="17129"/><tag k="coa:place_id" v="3198351"/></node><node id="-402" lat="30.449268" lon="-97.91615" changeset="false"><tag k="addr:street" v="Jackson Street"/><tag k="addr:housenumber" v="16508"/><tag k="coa:place_id" v="219198"/></node><node id="-403" lat="30.431949" lon="-97.883132" changeset="false"><tag k="addr:street" v="Farm-to-Market Road 2769"/><tag k="addr:housenumber" v="14289"/><tag k="coa:place_id" v="3212325"/></node><node id="-404" lat="30.440341" lon="-97.907657" changeset="false"><tag k="addr:street" v="Mary Street"/><tag k="addr:housenumber" v="15710"/><tag k="coa:place_id" v="3214172"/></node><node id="-405" lat="30.440688" lon="-97.908321" changeset="false"><tag k="addr:street" v="Mary Street"/><tag k="addr:housenumber" v="15804"/><tag k="coa:place_id" v="3214174"/></node><node id="-406" lat="30.486666" lon="-97.862145" changeset="false"><tag k="addr:street" v="Zappa Drive"/><tag k="addr:housenumber" v="844"/><tag k="coa:place_id" v="3213056"/></node><node id="-407" lat="30.477829" lon="-97.908222" changeset="false"><tag k="addr:street" v="North Darleen Drive"/><tag k="addr:housenumber" v="10104"/><tag k="coa:place_id" v="3335272"/></node><node id="-408" lat="30.454941" lon="-97.859019" changeset="false"><tag k="addr:street" v="Grand Oaks Loop"/><tag k="addr:housenumber" v="2817"/><tag k="coa:place_id" v="3293734"/></node><node id="-409" lat="30.50768" lon="-97.866501" changeset="false"><tag k="addr:street" v="Wire Road"/><tag k="addr:housenumber" v="13300"/><tag k="coa:place_id" v="3318443"/></node><node id="-410" lat="30.434405" lon="-97.900989" changeset="false"><tag k="addr:street" v="Farm-to-Market Road 2769"/><tag k="addr:housenumber" v="15200"/><tag k="coa:place_id" v="3374507"/></node><node id="-411" lat="30.50591" lon="-97.886994" changeset="false"><tag k="addr:street" v="Trails End Road"/><tag k="addr:housenumber" v="12509"/><tag k="coa:place_id" v="3326458"/></node><node id="-412" lat="30.457371" lon="-97.915809" changeset="false"><tag k="addr:street" v="Lime Creek Road"/><tag k="addr:housenumber" v="8325"/><tag k="coa:place_id" v="3430108"/></node><node id="-413" lat="30.451826" lon="-97.914212" changeset="false"><tag k="addr:street" v="Beauregard Drive"/><tag k="addr:housenumber" v="8119"/><tag k="coa:place_id" v="3430111"/></node><node id="-414" lat="30.43321" lon="-97.912511" changeset="false"><tag k="addr:street" v="Booth Circle"/><tag k="addr:housenumber" v="15805"/><tag k="coa:place_id" v="3337186"/></node><node id="-415" lat="30.512903" lon="-97.866258" changeset="false"><tag k="addr:street" v="Vista Oaks Drive"/><tag k="addr:housenumber" v="13480"/><tag k="coa:place_id" v="3430478"/></node><node id="-416" lat="30.456607" lon="-97.854395" changeset="false"><tag k="addr:street" v="Sugar Maple Court"/><tag k="addr:housenumber" v="2804"/><tag k="coa:place_id" v="3288871"/></node><node id="-417" lat="30.463403" lon="-97.907368" changeset="false"><tag k="addr:street" v="Lime Creek Road"/><tag k="addr:housenumber" v="9012"/><tag k="coa:place_id" v="1105476"/></node><node id="-418" lat="30.476471" lon="-97.908984" changeset="false"><tag k="addr:street" v="East Darleen Drive"/><tag k="addr:housenumber" v="17120"/><tag k="coa:place_id" v="3390075"/></node><node id="-419" lat="30.45691" lon="-97.857782" changeset="false"><tag k="addr:street" v="Crystal Hill Drive"/><tag k="addr:housenumber" v="3300"/><tag k="coa:place_id" v="3288934"/></node><node id="-420" lat="30.453593" lon="-97.857297" changeset="false"><tag k="addr:street" v="Grand Oaks Loop"/><tag k="addr:housenumber" v="2808"/><tag k="coa:place_id" v="3289365"/></node><node id="-421" lat="30.432931" lon="-97.890389" changeset="false"><tag k="addr:street" v="Pocohontas Trail"/><tag k="addr:housenumber" v="14500"/><tag k="coa:place_id" v="3313944"/></node><node id="-422" lat="30.440056" lon="-97.90881" changeset="false"><tag k="addr:street" v="Farm-to-Market Road 2769"/><tag k="addr:housenumber" v="15800"/><tag k="coa:place_id" v="3313949"/></node><node id="-423" lat="30.481817" lon="-97.859217" changeset="false"><tag k="addr:street" v="Mancini Cove"/><tag k="addr:housenumber" v="2803"/><tag k="coa:place_id" v="3362506"/></node><node id="-424" lat="30.47944" lon="-97.848976" changeset="false"><tag k="addr:street" v="Serenity Springs Cove"/><tag k="addr:housenumber" v="1603"/><tag k="coa:place_id" v="3362684"/></node><node id="-425" lat="30.448495" lon="-97.915762" changeset="false"><tag k="addr:street" v="Jackson Street"/><tag k="addr:housenumber" v="16511"/><tag k="coa:place_id" v="3354716"/></node><node id="-426" lat="30.437014" lon="-97.907024" changeset="false"><tag k="addr:street" v="Debbie Drive"/><tag k="addr:housenumber" v="7610"/><tag k="coa:place_id" v="3354858"/></node><node id="-427" lat="30.437843" lon="-97.907559" changeset="false"><tag k="addr:street" v="Davy Drive"/><tag k="addr:housenumber" v="7610"/><tag k="coa:place_id" v="3354863"/></node><node id="-428" lat="30.504009" lon="-97.871675" changeset="false"><tag k="addr:street" v="Wire Road"/><tag k="addr:housenumber" v="13011"/><tag k="coa:place_id" v="3306085"/></node><node id="-429" lat="30.502236" lon="-97.873484" changeset="false"><tag k="addr:street" v="Wire Road"/><tag k="addr:housenumber" v="12901"/><tag k="coa:place_id" v="3306130"/></node><node id="-430" lat="30.455094" lon="-97.858616" changeset="false"><tag k="addr:street" v="Mossy Grove Court"/><tag k="addr:housenumber" v="3300"/><tag k="coa:place_id" v="3293753"/></node><node id="-431" lat="30.455447" lon="-97.857993" changeset="false"><tag k="addr:street" v="Mossy Grove Court"/><tag k="addr:housenumber" v="3305"/><tag k="coa:place_id" v="3293759"/></node><node id="-432" lat="30.45442" lon="-97.859903" changeset="false"><tag k="addr:street" v="Granite Basin Court"/><tag k="addr:housenumber" v="3402"/><tag k="coa:place_id" v="3293747"/></node><node id="-433" lat="30.435301" lon="-97.887434" changeset="false"><tag k="addr:street" v="Lake Mountain Lane"/><tag k="addr:housenumber" v="8133"/><tag k="coa:place_id" v="3280350"/></node><node id="-434" lat="30.456047" lon="-97.859005" changeset="false"><tag k="addr:street" v="Grand Oaks Loop"/><tag k="addr:housenumber" v="2907"/><tag k="coa:place_id" v="3293743"/></node><node id="-435" lat="30.428946" lon="-97.89359" changeset="false"><tag k="addr:street" v="Pocohontas Trail"/><tag k="addr:housenumber" v="14619"/><tag k="coa:place_id" v="3390403"/></node><node id="-436" lat="30.457083" lon="-97.856323" changeset="false"><tag k="addr:street" v="Mystic Summit Drive"/><tag k="addr:housenumber" v="3204"/><tag k="coa:place_id" v="3288714"/></node><node id="-437" lat="30.430071" lon="-97.891687" changeset="false"><tag k="addr:street" v="Pocohontas Trail"/><tag k="addr:housenumber" v="14537"/><tag k="coa:place_id" v="3502521"/></node><node id="-438" lat="30.430954" lon="-97.896902" changeset="false"><tag k="addr:street" v="Navajo Pass"/><tag k="addr:housenumber" v="7600"/><tag k="coa:place_id" v="3430198"/></node><node id="-439" lat="30.457376" lon="-97.855654" changeset="false"><tag k="addr:street" v="Grand Oaks Loop"/><tag k="addr:housenumber" v="2731"/><tag k="coa:place_id" v="3288684"/></node><node id="-440" lat="30.458495" lon="-97.856004" changeset="false"><tag k="addr:street" v="Feathergrass Court"/><tag k="addr:housenumber" v="2704"/><tag k="coa:place_id" v="3288690"/></node><node id="-441" lat="30.458149" lon="-97.855913" changeset="false"><tag k="addr:street" v="Feathergrass Court"/><tag k="addr:housenumber" v="2708"/><tag k="coa:place_id" v="3288692"/></node><node id="-442" lat="30.431504" lon="-97.910397" changeset="false"><tag k="addr:street" v="Booth Circle"/><tag k="addr:housenumber" v="15785"/><tag k="coa:place_id" v="3354838"/></node><node id="-443" lat="30.432677" lon="-97.9112" changeset="false"><tag k="addr:street" v="Booth Circle"/><tag k="addr:housenumber" v="15795"/><tag k="coa:place_id" v="3354840"/></node><node id="-444" lat="30.437736" lon="-97.908309" changeset="false"><tag k="addr:street" v="Booth Circle"/><tag k="addr:housenumber" v="15721"/><tag k="coa:place_id" v="3354841"/></node><node id="-445" lat="30.450005" lon="-97.917537" changeset="false"><tag k="addr:street" v="Arren Terrace"/><tag k="addr:housenumber" v="8024"/><tag k="coa:place_id" v="3346736"/></node><node id="-446" lat="30.457509" lon="-97.858616" changeset="false"><tag k="addr:street" v="Crystal Hill Drive"/><tag k="addr:housenumber" v="3401"/><tag k="coa:place_id" v="3288886"/></node><node id="-447" lat="30.427204" lon="-97.898176" changeset="false"><tag k="addr:street" v="Arrowhead Drive"/><tag k="addr:housenumber" v="14744"/><tag k="coa:place_id" v="1111797"/></node><node id="-448" lat="30.479183" lon="-97.90634" changeset="false"><tag k="addr:street" v="North Darleen Drive"/><tag k="addr:housenumber" v="10303"/><tag k="coa:place_id" v="3426530"/></node><node id="-449" lat="30.440337" lon="-97.909895" changeset="false"><tag k="addr:street" v="Farm-to-Market Road 2769"/><tag k="addr:housenumber" v="15808"/><tag k="coa:place_id" v="3430127"/></node><node id="-450" lat="30.482936" lon="-97.894706" changeset="false"><tag k="addr:street" v="Lime Creek Road"/><tag k="addr:housenumber" v="11100 1/2"/><tag k="coa:place_id" v="5052586"/></node><node id="-451" lat="30.456698" lon="-97.846611" changeset="false"><tag k="addr:street" v="Lombardi Way"/><tag k="addr:housenumber" v="3108"/><tag k="coa:place_id" v="3127118"/></node><node id="-452" lat="30.47471" lon="-97.849135" changeset="false"><tag k="addr:street" v="Alta Monte Drive"/><tag k="addr:housenumber" v="2406"/><tag k="coa:place_id" v="3149462"/></node><node id="-453" lat="30.431467" lon="-97.884631" changeset="false"><tag k="addr:street" v="Geronimo Street"/><tag k="addr:housenumber" v="14201"/><tag k="coa:place_id" v="3131360"/></node><node id="-454" lat="30.431244" lon="-97.895995" changeset="false"><tag k="addr:street" v="Navajo Pass"/><tag k="addr:housenumber" v="7607"/><tag k="coa:place_id" v="1111728"/></node><node id="-455" lat="30.45868" lon="-97.856568" changeset="false"><tag k="addr:street" v="Feathergrass Court"/><tag k="addr:housenumber" v="2701"/><tag k="coa:place_id" v="3288697"/></node><node id="-456" lat="30.483216" lon="-97.8539" changeset="false"><tag k="addr:street" v="Ritter Drive"/><tag k="addr:housenumber" v="1202"/><tag k="coa:place_id" v="3150615"/></node><node id="-457" lat="30.43683" lon="-97.880572" changeset="false"><tag k="addr:street" v="Farm-to-Market Road 2769"/><tag k="addr:housenumber" v="14113"/><tag k="coa:place_id" v="1155088"/></node><node id="-458" lat="30.433135" lon="-97.886458" changeset="false"><tag k="addr:street" v="Farm-to-Market Road 2769"/><tag k="addr:housenumber" v="14300"/><tag k="coa:place_id" v="3076884"/></node><node id="-459" lat="30.465933" lon="-97.844658" changeset="false"><tag k="addr:street" v="Dies Ranch Road"/><tag k="addr:housenumber" v="2501"/><tag k="coa:place_id" v="5121774"/></node><node id="-460" lat="30.465876" lon="-97.844681" changeset="false"><tag k="addr:street" v="Dies Ranch Road"/><tag k="addr:housenumber" v="2505"/><tag k="coa:place_id" v="5121775"/></node><node id="-461" lat="30.476224" lon="-97.906817" changeset="false"><tag k="addr:street" v="East Darleen Drive"/><tag k="addr:housenumber" v="17017"/><tag k="coa:place_id" v="3393041"/></node><node id="-462" lat="30.466782" lon="-97.840153" changeset="false"><tag k="addr:street" v="Melba Pass"/><tag k="addr:housenumber" v="2604"/><tag k="coa:place_id" v="3151867"/></node><node id="-463" lat="30.445787" lon="-97.914141" changeset="false"><tag k="addr:street" v="Lakeview Street"/><tag k="addr:housenumber" v="7912"/><tag k="coa:place_id" v="1111705"/></node><node id="-464" lat="30.463506" lon="-97.854946" changeset="false"><tag k="addr:street" v="Welton Cliff Drive"/><tag k="addr:housenumber" v="3008"/><tag k="coa:place_id" v="3150697"/></node><node id="-465" lat="30.426939" lon="-97.899703" changeset="false"><tag k="addr:street" v="Arrowhead Drive"/><tag k="addr:housenumber" v="14802"/><tag k="coa:place_id" v="1111804"/></node><node id="-466" lat="30.427082" lon="-97.898877" changeset="false"><tag k="addr:street" v="Arrowhead Drive"/><tag k="addr:housenumber" v="14750"/><tag k="coa:place_id" v="1111801"/></node><node id="-467" lat="30.438665" lon="-97.893666" changeset="false"><tag k="addr:street" v="Navajo Pass"/><tag k="addr:housenumber" v="8034"/><tag k="coa:place_id" v="3041505"/></node><node id="-468" lat="30.446848" lon="-97.912532" changeset="false"><tag k="addr:street" v="Lakeview Street"/><tag k="addr:housenumber" v="8016"/><tag k="coa:place_id" v="3133656"/></node><node id="-469" lat="30.489549" lon="-97.861459" changeset="false"><tag k="addr:street" v="Lime Creek Road"/><tag k="addr:housenumber" v="12601"/><tag k="coa:place_id" v="1145031"/></node><node id="-470" lat="30.485566" lon="-97.857973" changeset="false"><tag k="addr:street" v="Lovett Lane"/><tag k="addr:housenumber" v="2715"/><tag k="coa:place_id" v="3141472"/></node><node id="-471" lat="30.465853" lon="-97.842699" changeset="false"><tag k="addr:street" v="Old Mill Road"/><tag k="addr:housenumber" v="2212"/><tag k="coa:place_id" v="3151956"/></node><node id="-472" lat="30.509075" lon="-97.867381" changeset="false"><tag k="addr:street" v="Cedar Lime Road"/><tag k="addr:housenumber" v="13303"/><tag k="coa:place_id" v="1105252"/></node><node id="-473" lat="30.508292" lon="-97.867556" changeset="false"><tag k="addr:street" v="Cedar Lime Road"/><tag k="addr:housenumber" v="13301"/><tag k="coa:place_id" v="1158756"/></node><node id="-474" lat="30.451393" lon="-97.913562" changeset="false"><tag k="addr:street" v="Sherman Street"/><tag k="addr:housenumber" v="16408"/><tag k="coa:place_id" v="227896"/></node><node id="-475" lat="30.429729" lon="-97.899382" changeset="false"><tag k="addr:street" v="Arrowhead Drive"/><tag k="addr:housenumber" v="14940"/><tag k="coa:place_id" v="66777"/></node><node id="-476" lat="30.429342" lon="-97.8997" changeset="false"><tag k="addr:street" v="Arrowhead Drive"/><tag k="addr:housenumber" v="14932"/><tag k="coa:place_id" v="66779"/></node><node id="-477" lat="30.428546" lon="-97.896701" changeset="false"><tag k="addr:street" v="Arrowhead Drive"/><tag k="addr:housenumber" v="14724"/><tag k="coa:place_id" v="1111782"/></node><node id="-478" lat="30.471191" lon="-97.854508" changeset="false"><tag k="addr:street" v="Zambia Drive"/><tag k="addr:housenumber" v="2712"/><tag k="coa:place_id" v="3151289"/></node><node id="-479" lat="30.500085" lon="-97.884685" changeset="false"><tag k="addr:street" v="Trails End Cove"/><tag k="addr:housenumber" v="16808"/><tag k="coa:place_id" v="3043215"/></node><node id="-480" lat="30.495514" lon="-97.885702" changeset="false"><tag k="addr:street" v="Red Wagon Lane"/><tag k="addr:housenumber" v="16504"/><tag k="coa:place_id" v="3029183"/></node><node id="-481" lat="30.453595" lon="-97.923045" changeset="false"><tag k="addr:street" v="Joy Road"/><tag k="addr:housenumber" v="8110"/><tag k="coa:place_id" v="3198193"/></node><node id="-482" lat="30.46998" lon="-97.846085" changeset="false"><tag k="addr:street" v="Powderham Lane"/><tag k="addr:housenumber" v="2400"/><tag k="coa:place_id" v="3150769"/></node><node id="-483" lat="30.428639" lon="-97.901343" changeset="false"><tag k="addr:street" v="Arrowhead Drive"/><tag k="addr:housenumber" v="14925"/><tag k="coa:place_id" v="3198117"/></node><node id="-484" lat="30.46591" lon="-97.850191" changeset="false"><tag k="addr:street" v="Tivoli Drive"/><tag k="addr:housenumber" v="2402"/><tag k="coa:place_id" v="3101137"/></node><node id="-485" lat="30.435032" lon="-97.879901" changeset="false"><tag k="addr:street" v="Farm-to-Market Road 2769"/><tag k="addr:housenumber" v="14009"/><tag k="coa:place_id" v="3079282"/></node><node id="-486" lat="30.462443" lon="-97.846902" changeset="false"><tag k="addr:street" v="Orsobello Place"/><tag k="addr:housenumber" v="2710"/><tag k="coa:place_id" v="3149235"/></node><node id="-487" lat="30.50874" lon="-97.863799" changeset="false"><tag k="addr:street" v="Wire Road"/><tag k="addr:housenumber" v="13400"/><tag k="coa:place_id" v="1145056"/></node><node id="-488" lat="30.429644" lon="-97.896473" changeset="false"><tag k="addr:street" v="Arrowhead Drive"/><tag k="addr:housenumber" v="14714"/><tag k="coa:place_id" v="1111775"/></node><node id="-489" lat="30.434199" lon="-97.906206" changeset="false"><tag k="addr:street" v="Reed Drive"/><tag k="addr:housenumber" v="7500"/><tag k="coa:place_id" v="1140289"/></node><node id="-490" lat="30.462232" lon="-97.866245" changeset="false"><tag k="addr:street" v="Farm-to-Market Road 2769"/><tag k="addr:housenumber" v="13414"/><tag k="coa:place_id" v="3150587"/></node><node id="-491" lat="30.464551" lon="-97.838958" changeset="false"><tag k="addr:street" v="Dagama Drive"/><tag k="addr:housenumber" v="2000"/><tag k="coa:place_id" v="3151810"/></node><node id="-492" lat="30.459069" lon="-97.834393" changeset="false"><tag k="addr:street" v="Windy Terrace"/><tag k="addr:housenumber" v="2007"/><tag k="coa:place_id" v="3152717"/></node><node id="-493" lat="30.463504" lon="-97.842066" changeset="false"><tag k="addr:street" v="Rathlin Drive"/><tag k="addr:housenumber" v="2807"/><tag k="coa:place_id" v="3151747"/></node><node id="-494" lat="30.446765" lon="-97.861757" changeset="false"><tag k="addr:street" v="Farm-to-Market Road 2769"/><tag k="addr:housenumber" v="13410"/><tag k="coa:place_id" v="3179602"/></node><node id="-495" lat="30.477423" lon="-97.852709" changeset="false"><tag k="addr:street" v="Purple Sage Drive"/><tag k="addr:housenumber" v="1600"/><tag k="coa:place_id" v="3154852"/></node><node id="-496" lat="30.466252" lon="-97.840417" changeset="false"><tag k="addr:street" v="Melba Pass"/><tag k="addr:housenumber" v="2607"/><tag k="coa:place_id" v="3151862"/></node><node id="-497" lat="30.475611" lon="-97.855741" changeset="false"><tag k="addr:street" v="Zambia Drive"/><tag k="addr:housenumber" v="2820"/><tag k="coa:place_id" v="3154729"/></node><node id="-498" lat="30.457913" lon="-97.84791" changeset="false"><tag k="addr:street" v="Azzuro Way"/><tag k="addr:housenumber" v="2708"/><tag k="coa:place_id" v="3151433"/></node><node id="-499" lat="30.463092" lon="-97.848533" changeset="false"><tag k="addr:street" v="Izoro Bend"/><tag k="addr:housenumber" v="2636"/><tag k="coa:place_id" v="3101172"/></node><node id="-500" lat="30.460165" lon="-97.834069" changeset="false"><tag k="addr:street" v="Windy Terrace"/><tag k="addr:housenumber" v="2003"/><tag k="coa:place_id" v="3152715"/></node><node id="-501" lat="30.442601" lon="-97.912768" changeset="false"><tag k="addr:street" v="Dodd Street"/><tag k="addr:housenumber" v="16107"/><tag k="coa:place_id" v="1111717"/></node><node id="-502" lat="30.429108" lon="-97.886684" changeset="false"><tag k="addr:street" v="Geronimo Street"/><tag k="addr:housenumber" v="14311"/><tag k="coa:place_id" v="3198149"/></node><node id="-503" lat="30.46082" lon="-97.851376" changeset="false"><tag k="addr:street" v="Lothian Drive"/><tag k="addr:housenumber" v="2716"/><tag k="coa:place_id" v="3116820"/></node><node id="-504" lat="30.460591" lon="-97.842827" changeset="false"><tag k="addr:street" v="Briona Wood Lane"/><tag k="addr:housenumber" v="2922"/><tag k="coa:place_id" v="3151659"/></node><node id="-505" lat="30.450753" lon="-97.915362" changeset="false"><tag k="addr:street" v="Sherman Street"/><tag k="addr:housenumber" v="16504"/><tag k="coa:place_id" v="227901"/></node><node id="-506" lat="30.447056" lon="-97.912237" changeset="false"><tag k="addr:street" v="Lakeview Street"/><tag k="addr:housenumber" v="8022"/><tag k="coa:place_id" v="3133659"/></node><node id="-507" lat="30.460089" lon="-97.843816" changeset="false"><tag k="addr:street" v="Wanakah Ridge Drive"/><tag k="addr:housenumber" v="2505"/><tag k="coa:place_id" v="3151635"/></node><node id="-508" lat="30.428656" lon="-97.89934" changeset="false"><tag k="addr:street" v="Navajo Pass"/><tag k="addr:housenumber" v="7304"/><tag k="coa:place_id" v="66786"/></node><node id="-509" lat="30.427775" lon="-97.900742" changeset="false"><tag k="addr:street" v="Arrowhead Drive"/><tag k="addr:housenumber" v="14916"/><tag k="coa:place_id" v="1111789"/></node><node id="-510" lat="30.455539" lon="-97.920637" changeset="false"><tag k="addr:street" v="Sharon Road"/><tag k="addr:housenumber" v="8123"/><tag k="coa:place_id" v="220939"/></node><node id="-511" lat="30.430024" lon="-97.90255" changeset="false"><tag k="addr:street" v="Blue Heron Cove"/><tag k="addr:housenumber" v="7321"/><tag k="coa:place_id" v="3198157"/></node><node id="-512" lat="30.455958" lon="-97.921454" changeset="false"><tag k="addr:street" v="Joy Road"/><tag k="addr:housenumber" v="8129"/><tag k="coa:place_id" v="3198206"/></node><node id="-513" lat="30.456087" lon="-97.921258" changeset="false"><tag k="addr:street" v="Joy Road"/><tag k="addr:housenumber" v="8131"/><tag k="coa:place_id" v="3198207"/></node><node id="-514" lat="30.463489" lon="-97.907663" changeset="false"><tag k="addr:street" v="Lime Creek Road"/><tag k="addr:housenumber" v="9010"/><tag k="coa:place_id" v="1105475"/></node><node id="-515" lat="30.43848" lon="-97.908186" changeset="false"><tag k="addr:street" v="Booth Circle"/><tag k="addr:housenumber" v="15716"/><tag k="coa:place_id" v="3198163"/></node><node id="-516" lat="30.436797" lon="-97.875731" changeset="false"><tag k="addr:street" v="Farm-to-Market Road 2769"/><tag k="addr:housenumber" v="13955"/><tag k="coa:place_id" v="3272073"/></node><node id="-517" lat="30.475162" lon="-97.909543" changeset="false"><tag k="addr:street" v="Trails End Road"/><tag k="addr:housenumber" v="9819"/><tag k="coa:place_id" v="3198340"/></node><node id="-518" lat="30.448957" lon="-97.908114" changeset="false"><tag k="addr:street" v="Lime Creek Road"/><tag k="addr:housenumber" v="8228"/><tag k="coa:place_id" v="3215560"/></node><node id="-519" lat="30.449011" lon="-97.908753" changeset="false"><tag k="addr:street" v="Lime Creek Road"/><tag k="addr:housenumber" v="8232"/><tag k="coa:place_id" v="3215561"/></node><node id="-520" lat="30.433024" lon="-97.902925" changeset="false"><tag k="addr:street" v="Farm-to-Market Road 2769"/><tag k="addr:housenumber" v="15215"/><tag k="coa:place_id" v="3214246"/></node><node id="-521" lat="30.436956" lon="-97.883369" changeset="false"><tag k="addr:street" v="Farm-to-Market Road 2769"/><tag k="addr:housenumber" v="14245"/><tag k="coa:place_id" v="3212229"/></node><node id="-522" lat="30.447924" lon="-97.908273" changeset="false"><tag k="addr:street" v="Lime Creek Road"/><tag k="addr:housenumber" v="8114"/><tag k="coa:place_id" v="3215556"/></node><node id="-523" lat="30.480105" lon="-97.85696" changeset="false"><tag k="addr:street" v="Rambler Valley Drive"/><tag k="addr:housenumber" v="2700"/><tag k="coa:place_id" v="3362531"/></node><node id="-524" lat="30.459563" lon="-97.835028" changeset="false"><tag k="addr:street" v="Anderson Mill Road,1100"/><tag k="addr:housenumber" v="12400"/><tag k="coa:place_id" v="3362950"/></node><node id="-525" lat="30.441062" lon="-97.910504" changeset="false"><tag k="addr:street" v="Mary Street"/><tag k="addr:housenumber" v="15907"/><tag k="coa:place_id" v="3313951"/></node><node id="-526" lat="30.478559" lon="-97.908148" changeset="false"><tag k="addr:street" v="North Darleen Drive"/><tag k="addr:housenumber" v="10204"/><tag k="coa:place_id" v="3335275"/></node><node id="-527" lat="30.484822" lon="-97.894156" changeset="false"><tag k="addr:street" v="Lime Creek Road"/><tag k="addr:housenumber" v="11236"/><tag k="coa:place_id" v="3374322"/></node><node id="-528" lat="30.482853" lon="-97.859487" changeset="false"><tag k="addr:street" v="Rhondstat Run"/><tag k="addr:housenumber" v="1101"/><tag k="coa:place_id" v="3362500"/></node><node id="-529" lat="30.456839" lon="-97.855486" changeset="false"><tag k="addr:street" v="Grand Oaks Loop"/><tag k="addr:housenumber" v="2738"/><tag k="coa:place_id" v="3288722"/></node><node id="-530" lat="30.457357" lon="-97.857909" changeset="false"><tag k="addr:street" v="Crystal Hill Drive"/><tag k="addr:housenumber" v="3303"/><tag k="coa:place_id" v="3288919"/></node><node id="-531" lat="30.467273" lon="-97.843571" changeset="false"><tag k="addr:street" v="Anderson Mill Road,1100"/><tag k="addr:housenumber" v="13406"/><tag k="coa:place_id" v="3381510"/></node><node id="-532" lat="30.46805" lon="-97.843864" changeset="false"><tag k="addr:street" v="Anderson Mill Road,1100"/><tag k="addr:housenumber" v="13442"/><tag k="coa:place_id" v="3381511"/></node><node id="-533" lat="30.456033" lon="-97.916089" changeset="false"><tag k="addr:street" v="Lime Creek Road"/><tag k="addr:housenumber" v="8320"/><tag k="coa:place_id" v="3214508"/></node><node id="-534" lat="30.462487" lon="-97.912884" changeset="false"><tag k="addr:street" v="Lime Creek Road"/><tag k="addr:housenumber" v="8714"/><tag k="coa:place_id" v="241151"/></node><node id="-535" lat="30.460506" lon="-97.856783" changeset="false"><tag k="addr:street" v="Twin Creeks Club Drive"/><tag k="addr:housenumber" v="3210"/><tag k="coa:place_id" v="3289296"/></node><node id="-536" lat="30.455442" lon="-97.855927" changeset="false"><tag k="addr:street" v="Grand Oaks Loop"/><tag k="addr:housenumber" v="2750"/><tag k="coa:place_id" v="3289310"/></node><node id="-537" lat="30.458465" lon="-97.856682" changeset="false"><tag k="addr:street" v="Feathergrass Court"/><tag k="addr:housenumber" v="2703"/><tag k="coa:place_id" v="3288698"/></node><node id="-538" lat="30.448333" lon="-97.916486" changeset="false"><tag k="addr:street" v="Jackson Street"/><tag k="addr:housenumber" v="16515"/><tag k="coa:place_id" v="3354718"/></node><node id="-539" lat="30.454559" lon="-97.8594" changeset="false"><tag k="addr:street" v="Granite Basin Court"/><tag k="addr:housenumber" v="3400"/><tag k="coa:place_id" v="3293745"/></node><node id="-540" lat="30.455925" lon="-97.920968" changeset="false"><tag k="addr:street" v="Sharon Road"/><tag k="addr:housenumber" v="8128"/><tag k="coa:place_id" v="3374354"/></node><node id="-541" lat="30.430018" lon="-97.89879" changeset="false"><tag k="addr:street" v="Arrowhead Drive"/><tag k="addr:housenumber" v="14946"/><tag k="coa:place_id" v="1111769"/></node><node id="-542" lat="30.428148" lon="-97.900541" changeset="false"><tag k="addr:street" v="Arrowhead Drive"/><tag k="addr:housenumber" v="14920"/><tag k="coa:place_id" v="1111785"/></node><node id="-543" lat="30.45562" lon="-97.921248" changeset="false"><tag k="addr:street" v="Sharon Road"/><tag k="addr:housenumber" v="8124"/><tag k="coa:place_id" v="3374331"/></node><node id="-544" lat="30.456482" lon="-97.85574" changeset="false"><tag k="addr:street" v="Grand Oaks Loop"/><tag k="addr:housenumber" v="2742"/><tag k="coa:place_id" v="3289306"/></node><node id="-545" lat="30.457827" lon="-97.856903" changeset="false"><tag k="addr:street" v="Mystic Summit Drive"/><tag k="addr:housenumber" v="3305"/><tag k="coa:place_id" v="3288703"/></node><node id="-546" lat="30.457294" lon="-97.856847" changeset="false"><tag k="addr:street" v="Mystic Summit Drive"/><tag k="addr:housenumber" v="3300"/><tag k="coa:place_id" v="3288707"/></node><node id="-547" lat="30.456929" lon="-97.855964" changeset="false"><tag k="addr:street" v="Mystic Summit Drive"/><tag k="addr:housenumber" v="3200"/><tag k="coa:place_id" v="3288712"/></node><node id="-548" lat="30.485396" lon="-97.863521" changeset="false"><tag k="addr:street" v="Lady Day Cove"/><tag k="addr:housenumber" v="2908"/><tag k="coa:place_id" v="3362429"/></node><node id="-549" lat="30.456284" lon="-97.857814" changeset="false"><tag k="addr:street" v="Prairie Mist Court"/><tag k="addr:housenumber" v="2801"/><tag k="coa:place_id" v="3293749"/></node><node id="-550" lat="30.455627" lon="-97.858702" changeset="false"><tag k="addr:street" v="Mossy Grove Court"/><tag k="addr:housenumber" v="3306"/><tag k="coa:place_id" v="3293756"/></node><node id="-551" lat="30.456633" lon="-97.859218" changeset="false"><tag k="addr:street" v="Grand Oaks Loop"/><tag k="addr:housenumber" v="2910"/><tag k="coa:place_id" v="3293758"/></node><node id="-552" lat="30.508058" lon="-97.865103" changeset="false"><tag k="addr:street" v="Wire Road"/><tag k="addr:housenumber" v="13372"/><tag k="coa:place_id" v="3316842"/></node><node id="-553" lat="30.436877" lon="-97.90756" changeset="false"><tag k="addr:street" v="Debbie Drive"/><tag k="addr:housenumber" v="7602"/><tag k="coa:place_id" v="3354856"/></node><node id="-554" lat="30.437297" lon="-97.902716" changeset="false"><tag k="addr:street" v="Farm-to-Market Road 2769"/><tag k="addr:housenumber" v="15420"/><tag k="coa:place_id" v="3302473"/></node><node id="-555" lat="30.434379" lon="-97.909049" changeset="false"><tag k="addr:street" v="Booth Circle"/><tag k="addr:housenumber" v="15749"/><tag k="coa:place_id" v="3337264"/></node><node id="-556" lat="30.480537" lon="-97.9062" changeset="false"><tag k="addr:street" v="Trails End Road"/><tag k="addr:housenumber" v="10401"/><tag k="coa:place_id" v="3335264"/></node><node id="-557" lat="30.476214" lon="-97.907018" changeset="false"><tag k="addr:street" v="East Darleen Drive"/><tag k="addr:housenumber" v="17103"/><tag k="coa:place_id" v="3335562"/></node><node id="-558" lat="30.460696" lon="-97.914564" changeset="false"><tag k="addr:street" v="Lime Creek Road"/><tag k="addr:housenumber" v="8514"/><tag k="coa:place_id" v="3374357"/></node><node id="-559" lat="30.456972" lon="-97.854195" changeset="false"><tag k="addr:street" v="Sugar Maple Court"/><tag k="addr:housenumber" v="2800"/><tag k="coa:place_id" v="3288869"/></node><node id="-560" lat="30.457749" lon="-97.858957" changeset="false"><tag k="addr:street" v="Crystal Hill Drive"/><tag k="addr:housenumber" v="3405"/><tag k="coa:place_id" v="3288888"/></node><node id="-561" lat="30.430578" lon="-97.891331" changeset="false"><tag k="addr:street" v="Old Anderson Mill Road"/><tag k="addr:housenumber" v="14505"/><tag k="coa:place_id" v="3390276"/></node><node id="-562" lat="30.48934" lon="-97.860468" changeset="false"><tag k="addr:street" v="Checker Drive"/><tag k="addr:housenumber" v="2829"/><tag k="coa:place_id" v="3312976"/></node><node id="-563" lat="30.478564" lon="-97.84831" changeset="false"><tag k="addr:street" v="Kerr Trail"/><tag k="addr:housenumber" v="2310"/><tag k="coa:place_id" v="3330963"/></node><node id="-564" lat="30.43791" lon="-97.91235" changeset="false"><tag k="addr:street" v="Booth Circle"/><tag k="addr:housenumber" v="15916"/><tag k="coa:place_id" v="5103384"/></node><node id="-565" lat="30.438227" lon="-97.8896" changeset="false"><tag k="addr:street" v="Lake Mountain Lane"/><tag k="addr:housenumber" v="8204"/><tag k="coa:place_id" v="3302481"/></node><node id="-566" lat="30.457965" lon="-97.855933" changeset="false"><tag k="addr:street" v="Feathergrass Court"/><tag k="addr:housenumber" v="2710"/><tag k="coa:place_id" v="3288693"/></node><node id="-567" lat="30.457224" lon="-97.856683" changeset="false"><tag k="addr:street" v="Mystic Summit Drive"/><tag k="addr:housenumber" v="3208"/><tag k="coa:place_id" v="3288716"/></node><node id="-568" lat="30.458722" lon="-97.831848" changeset="false"><tag k="addr:street" v="Anderson Mill Road,1100"/><tag k="addr:housenumber" v="12200"/><tag k="coa:place_id" v="5111203"/></node><node id="-569" lat="30.431419" lon="-97.890403" changeset="false"><tag k="addr:street" v="Pocohontas Trail"/><tag k="addr:housenumber" v="14514"/><tag k="coa:place_id" v="3392481"/></node><node id="-570" lat="30.457195" lon="-97.854607" changeset="false"><tag k="addr:street" v="Sugar Maple Court"/><tag k="addr:housenumber" v="2801"/><tag k="coa:place_id" v="3288873"/></node><node id="-571" lat="30.457029" lon="-97.854702" changeset="false"><tag k="addr:street" v="Sugar Maple Court"/><tag k="addr:housenumber" v="2803"/><tag k="coa:place_id" v="3288874"/></node><node id="-572" lat="30.458018" lon="-97.858074" changeset="false"><tag k="addr:street" v="Grand Oaks Loop"/><tag k="addr:housenumber" v="2923"/><tag k="coa:place_id" v="3288881"/></node><node id="-573" lat="30.457304" lon="-97.85915" changeset="false"><tag k="addr:street" v="Crystal Hill Drive"/><tag k="addr:housenumber" v="3404"/><tag k="coa:place_id" v="3288908"/></node><node id="-574" lat="30.457567" lon="-97.859408" changeset="false"><tag k="addr:street" v="Crystal Hill Drive"/><tag k="addr:housenumber" v="3408"/><tag k="coa:place_id" v="3288910"/></node><node id="-575" lat="30.457063" lon="-97.918799" changeset="false"><tag k="addr:street" v="West Darleen Drive,1100"/><tag k="addr:housenumber" v="8215"/><tag k="coa:place_id" v="3329343"/></node><node id="-576" lat="30.488186" lon="-97.861953" changeset="false"><tag k="addr:street" v="Basie Bend"/><tag k="addr:housenumber" v="618"/><tag k="coa:place_id" v="3312799"/></node><node id="-577" lat="30.454712" lon="-97.921175" changeset="false"><tag k="addr:street" v="Sharon Road"/><tag k="addr:housenumber" v="8113"/><tag k="coa:place_id" v="3205722"/></node><node id="-578" lat="30.430353" lon="-97.903487" changeset="false"><tag k="addr:street" v="Reed Drive"/><tag k="addr:housenumber" v="7306"/><tag k="coa:place_id" v="207915"/></node><node id="-579" lat="30.431969" lon="-97.898123" changeset="false"><tag k="addr:street" v="Arrowhead Drive"/><tag k="addr:housenumber" v="14973"/><tag k="coa:place_id" v="1111746"/></node><node id="-580" lat="30.431318" lon="-97.906121" changeset="false"><tag k="addr:street" v="Reed Drive"/><tag k="addr:housenumber" v="7326"/><tag k="coa:place_id" v="3083301"/></node><node id="-581" lat="30.430063" lon="-97.89785" changeset="false"><tag k="addr:street" v="Navajo Pass"/><tag k="addr:housenumber" v="7500"/><tag k="coa:place_id" v="1111767"/></node><node id="-582" lat="30.429335" lon="-97.895819" changeset="false"><tag k="addr:street" v="Arrowhead Drive"/><tag k="addr:housenumber" v="14713"/><tag k="coa:place_id" v="1111731"/></node><node id="-583" lat="30.510439" lon="-97.867785" changeset="false"><tag k="addr:street" v="Cedar Lime Road"/><tag k="addr:housenumber" v="13409"/><tag k="coa:place_id" v="1105246"/></node><node id="-584" lat="30.431223" lon="-97.893732" changeset="false"><tag k="addr:street" v="Deer Run Road"/><tag k="addr:housenumber" v="7620"/><tag k="coa:place_id" v="3191879"/></node><node id="-585" lat="30.452002" lon="-97.917272" changeset="false"><tag k="addr:street" v="Bernard Street"/><tag k="addr:housenumber" v="8108"/><tag k="coa:place_id" v="3354684"/></node><node id="-586" lat="30.448499" lon="-97.914065" changeset="false"><tag k="addr:street" v="Jackson Street"/><tag k="addr:housenumber" v="16413"/><tag k="coa:place_id" v="3354689"/></node><node id="-587" lat="30.485903" lon="-97.863723" changeset="false"><tag k="addr:street" v="Lady Day Cove"/><tag k="addr:housenumber" v="2911"/><tag k="coa:place_id" v="3362423"/></node><node id="-588" lat="30.471657" lon="-97.847672" changeset="false"><tag k="addr:street" v="Beeleigh Court"/><tag k="addr:housenumber" v="2403"/><tag k="coa:place_id" v="3150793"/></node><node id="-589" lat="30.464781" lon="-97.847511" changeset="false"><tag k="addr:street" v="Zennor Court"/><tag k="addr:housenumber" v="2503"/><tag k="coa:place_id" v="3101164"/></node><node id="-590" lat="30.454341" lon="-97.856017" changeset="false"><tag k="addr:street" v="Grand Oaks Loop"/><tag k="addr:housenumber" v="2758"/><tag k="coa:place_id" v="3289314"/></node><node id="-591" lat="30.448126" lon="-97.906758" changeset="false"><tag k="addr:street" v="Lime Creek Road"/><tag k="addr:housenumber" v="8130"/><tag k="coa:place_id" v="3215558"/></node><node id="-592" lat="30.450391" lon="-97.911399" changeset="false"><tag k="addr:street" v="Jackson Street"/><tag k="addr:housenumber" v="16307"/><tag k="coa:place_id" v="3691792"/></node><node id="-593" lat="30.461971" lon="-97.852901" changeset="false"><tag k="addr:street" v="Dunbar Court"/><tag k="addr:housenumber" v="2907"/><tag k="coa:place_id" v="3116841"/></node><node id="-594" lat="30.461949" lon="-97.854328" changeset="false"><tag k="addr:street" v="Ben Doran Court"/><tag k="addr:housenumber" v="2514"/><tag k="coa:place_id" v="3111187"/></node><node id="-595" lat="30.467267" lon="-97.847637" changeset="false"><tag k="addr:street" v="Dartford Bend"/><tag k="addr:housenumber" v="2508"/><tag k="coa:place_id" v="3155154"/></node><node id="-596" lat="30.461213" lon="-97.854797" changeset="false"><tag k="addr:street" v="Moray Lane"/><tag k="addr:housenumber" v="2520"/><tag k="coa:place_id" v="3111219"/></node><node id="-597" lat="30.432682" lon="-97.892305" changeset="false"><tag k="addr:street" v="Comanche Trail"/><tag k="addr:housenumber" v="7800"/><tag k="coa:place_id" v="3287742"/></node><node id="-598" lat="30.440319" lon="-97.909385" changeset="false"><tag k="addr:street" v="Farm-to-Market Road 2769"/><tag k="addr:housenumber" v="15804"/><tag k="coa:place_id" v="3313950"/></node><node id="-599" lat="30.458251" lon="-97.857985" changeset="false"><tag k="addr:street" v="Grand Oaks Loop"/><tag k="addr:housenumber" v="2925"/><tag k="coa:place_id" v="3288882"/></node><node id="-600" lat="30.457666" lon="-97.859582" changeset="false"><tag k="addr:street" v="Crystal Hill Drive"/><tag k="addr:housenumber" v="3410"/><tag k="coa:place_id" v="3288911"/></node><node id="-601" lat="30.446302" lon="-97.913348" changeset="false"><tag k="addr:street" v="Lakeview Street"/><tag k="addr:housenumber" v="8000"/><tag k="coa:place_id" v="3133647"/></node><node id="-602" lat="30.45544" lon="-97.859242" changeset="false"><tag k="addr:street" v="Grand Oaks Loop"/><tag k="addr:housenumber" v="2903"/><tag k="coa:place_id" v="3293739"/></node><node id="-603" lat="30.429073" lon="-97.896794" changeset="false"><tag k="addr:street" v="Arrowhead Drive"/><tag k="addr:housenumber" v="14720"/><tag k="coa:place_id" v="1111780"/></node><node id="-604" lat="30.427043" lon="-97.899108" changeset="false"><tag k="addr:street" v="Navajo Pass"/><tag k="addr:housenumber" v="7201"/><tag k="coa:place_id" v="256471"/></node><node id="-605" lat="30.457919" lon="-97.859818" changeset="false"><tag k="addr:street" v="Crystal Hill Drive"/><tag k="addr:housenumber" v="3414"/><tag k="coa:place_id" v="3288913"/></node><node id="-606" lat="30.437098" lon="-97.908843" changeset="false"><tag k="addr:street" v="Davy Drive"/><tag k="addr:housenumber" v="7500"/><tag k="coa:place_id" v="3354861"/></node><node id="-607" lat="30.455188" lon="-97.913429" changeset="false"><tag k="addr:street" v="Lime Creek Road"/><tag k="addr:housenumber" v="8301"/><tag k="coa:place_id" v="5109310"/></node><node id="-608" lat="30.446001" lon="-97.861799" changeset="false"><tag k="addr:street" v="Farm-to-Market Road 2769"/><tag k="addr:housenumber" v="13400"/><tag k="coa:place_id" v="1164483"/></node><node id="-609" lat="30.444673" lon="-97.866294" changeset="false"><tag k="addr:street" v="Farm-to-Market Road 2769"/><tag k="addr:housenumber" v="13500"/><tag k="coa:place_id" v="1161518"/></node><node id="-610" lat="30.439152" lon="-97.891449" changeset="false"><tag k="addr:street" v="Navajo Pass"/><tag k="addr:housenumber" v="8115"/><tag k="coa:place_id" v="3041504"/></node><node id="-611" lat="30.428123" lon="-97.896756" changeset="false"><tag k="addr:street" v="Arrowhead Drive"/><tag k="addr:housenumber" v="14728"/><tag k="coa:place_id" v="1111784"/></node><node id="-612" lat="30.435659" lon="-97.876828" changeset="false"><tag k="addr:street" v="Farm-to-Market Road 2769"/><tag k="addr:housenumber" v="13964"/><tag k="coa:place_id" v="3275405"/></node><node id="-613" lat="30.511684" lon="-97.880638" changeset="false"><tag k="addr:street" v="West Whitestone Boulevard"/><tag k="addr:housenumber" v="3500"/><tag k="coa:place_id" v="3363261"/></node><node id="-614" lat="30.452904" lon="-97.912794" changeset="false"><tag k="addr:street" v="Lime Creek Road"/><tag k="addr:housenumber" v="8279"/><tag k="coa:place_id" v="3367043"/></node><node id="-615" lat="30.459946" lon="-97.855984" changeset="false"><tag k="addr:street" v="Rolling Plains Court"/><tag k="addr:housenumber" v="2602"/><tag k="coa:place_id" v="3288649"/></node><node id="-616" lat="30.432806" lon="-97.909817" changeset="false"><tag k="addr:street" v="Booth Circle"/><tag k="addr:housenumber" v="15763"/><tag k="coa:place_id" v="3337277"/></node><node id="-617" lat="30.457788" lon="-97.85598" changeset="false"><tag k="addr:street" v="Feathergrass Court"/><tag k="addr:housenumber" v="2712"/><tag k="coa:place_id" v="3288694"/></node><node id="-618" lat="30.457013" lon="-97.856151" changeset="false"><tag k="addr:street" v="Mystic Summit Drive"/><tag k="addr:housenumber" v="3202"/><tag k="coa:place_id" v="3288713"/></node><node id="-619" lat="30.488355" lon="-97.861965" changeset="false"><tag k="addr:street" v="Basie Bend"/><tag k="addr:housenumber" v="616"/><tag k="coa:place_id" v="3312797"/></node><node id="-620" lat="30.436561" lon="-97.912973" changeset="false"><tag k="addr:street" v="Booth Circle"/><tag k="addr:housenumber" v="15907"/><tag k="coa:place_id" v="3258051"/></node><node id="-621" lat="30.481295" lon="-97.905867" changeset="false"><tag k="addr:street" v="Trails End Road"/><tag k="addr:housenumber" v="10405"/><tag k="coa:place_id" v="3335265"/></node><node id="-622" lat="30.432226" lon="-97.888569" changeset="false"><tag k="addr:street" v="Geronimo Street"/><tag k="addr:housenumber" v="14404"/><tag k="coa:place_id" v="3507687"/></node><node id="-623" lat="30.451785" lon="-97.913363" changeset="false"><tag k="addr:street" v="Sherman Street"/><tag k="addr:housenumber" v="16404"/><tag k="coa:place_id" v="227893"/></node><node id="-624" lat="30.450294" lon="-97.912307" changeset="false"><tag k="addr:street" v="Jackson Street"/><tag k="addr:housenumber" v="16308"/><tag k="coa:place_id" v="219192"/></node><node id="-625" lat="30.45677" lon="-97.854296" changeset="false"><tag k="addr:street" v="Sugar Maple Court"/><tag k="addr:housenumber" v="2802"/><tag k="coa:place_id" v="3288870"/></node><node id="-626" lat="30.455087" lon="-97.915345" changeset="false"><tag k="addr:street" v="Lime Creek Road"/><tag k="addr:housenumber" v="8308"/><tag k="coa:place_id" v="3214505"/></node><node id="-627" lat="30.455316" lon="-97.915684" changeset="false"><tag k="addr:street" v="Lime Creek Road"/><tag k="addr:housenumber" v="8312"/><tag k="coa:place_id" v="3214506"/></node><node id="-628" lat="30.459395" lon="-97.917346" changeset="false"><tag k="addr:street" v="Lime Creek Road"/><tag k="addr:housenumber" v="8412"/><tag k="coa:place_id" v="3374361"/></node><node id="-629" lat="30.430048" lon="-97.904454" changeset="false"><tag k="addr:street" v="Reed Drive"/><tag k="addr:housenumber" v="7312"/><tag k="coa:place_id" v="3083297"/></node><node id="-630" lat="30.42942" lon="-97.898716" changeset="false"><tag k="addr:street" v="Navajo Pass"/><tag k="addr:housenumber" v="7404"/><tag k="coa:place_id" v="66783"/></node><node id="-631" lat="30.457854" lon="-97.847638" changeset="false"><tag k="addr:street" v="Azzuro Way"/><tag k="addr:housenumber" v="2706"/><tag k="coa:place_id" v="3151432"/></node><node id="-632" lat="30.514673" lon="-97.872212" changeset="false"><tag k="addr:street" v="West Whitestone Boulevard"/><tag k="addr:housenumber" v="2820"/><tag k="coa:place_id" v="3363242"/></node><node id="-633" lat="30.458939" lon="-97.915581" changeset="false"><tag k="addr:street" v="Lime Creek Road"/><tag k="addr:housenumber" v="8417"/><tag k="coa:place_id" v="3374375"/></node><node id="-634" lat="30.453843" lon="-97.923181" changeset="false"><tag k="addr:street" v="Joy Road"/><tag k="addr:housenumber" v="8112"/><tag k="coa:place_id" v="3198194"/></node><node id="-635" lat="30.463814" lon="-97.854674" changeset="false"><tag k="addr:street" v="Welton Cliff Drive"/><tag k="addr:housenumber" v="3006"/><tag k="coa:place_id" v="3150696"/></node><node id="-636" lat="30.457476" lon="-97.848105" changeset="false"><tag k="addr:street" v="Brindisi Way"/><tag k="addr:housenumber" v="2709"/><tag k="coa:place_id" v="3127169"/></node><node id="-637" lat="30.435516" lon="-97.875998" changeset="false"><tag k="addr:street" v="Farm-to-Market Road 2769"/><tag k="addr:housenumber" v="13965"/><tag k="coa:place_id" v="3272076"/></node><node id="-638" lat="30.475698" lon="-97.909484" changeset="false"><tag k="addr:street" v="Trails End Road"/><tag k="addr:housenumber" v="9905"/><tag k="coa:place_id" v="3198342"/></node><node id="-639" lat="30.456894" lon="-97.858174" changeset="false"><tag k="addr:street" v="Crystal Hill Drive"/><tag k="addr:housenumber" v="3304"/><tag k="coa:place_id" v="3288936"/></node><node id="-640" lat="30.45696" lon="-97.858404" changeset="false"><tag k="addr:street" v="Crystal Hill Drive"/><tag k="addr:housenumber" v="3306"/><tag k="coa:place_id" v="3288937"/></node><node id="-641" lat="30.449468" lon="-97.912245" changeset="false"><tag k="addr:street" v="Jackson Street"/><tag k="addr:housenumber" v="16321"/><tag k="coa:place_id" v="5121991"/></node><node id="-642" lat="30.455357" lon="-97.920849" changeset="false"><tag k="addr:street" v="Sharon Road"/><tag k="addr:housenumber" v="8121"/><tag k="coa:place_id" v="3374351"/></node><node id="-643" lat="30.455767" lon="-97.921116" changeset="false"><tag k="addr:street" v="Sharon Road"/><tag k="addr:housenumber" v="8126"/><tag k="coa:place_id" v="3374353"/></node><node id="-644" lat="30.448427" lon="-97.916006" changeset="false"><tag k="addr:street" v="Jackson Street"/><tag k="addr:housenumber" v="16513"/><tag k="coa:place_id" v="3354717"/></node><node id="-645" lat="30.485985" lon="-97.887716" changeset="false"><tag k="addr:street" v="Lime Creek Road"/><tag k="addr:housenumber" v="11611"/><tag k="coa:place_id" v="3363309"/></node><node id="-646" lat="30.434185" lon="-97.883842" changeset="false"><tag k="addr:street" v="Farm-to-Market Road 2769"/><tag k="addr:housenumber" v="14270"/><tag k="coa:place_id" v="3032974"/></node><node id="-647" lat="30.433469" lon="-97.906434" changeset="false"><tag k="addr:street" v="Reed Drive"/><tag k="addr:housenumber" v="7410"/><tag k="coa:place_id" v="1140294"/></node><node id="-648" lat="30.455143" lon="-97.855831" changeset="false"><tag k="addr:street" v="Grand Oaks Loop"/><tag k="addr:housenumber" v="2752"/><tag k="coa:place_id" v="3289311"/></node><node id="-649" lat="30.450831" lon="-97.918117" changeset="false"><tag k="addr:street" v="Bernard Street"/><tag k="addr:housenumber" v="8010"/><tag k="coa:place_id" v="222365"/></node><node id="-650" lat="30.479331" lon="-97.848616" changeset="false"><tag k="addr:street" v="Serenity Springs Cove"/><tag k="addr:housenumber" v="1607"/><tag k="coa:place_id" v="3362686"/></node><node id="-651" lat="30.46648" lon="-97.842969" changeset="false"><tag k="addr:street" v="Grist Lane"/><tag k="addr:housenumber" v="2502"/><tag k="coa:place_id" v="3151958"/></node><node id="-652" lat="30.462451" lon="-97.909064" changeset="false"><tag k="addr:street" v="Schmid Drive"/><tag k="addr:housenumber" v="8714"/><tag k="coa:place_id" v="1136328"/></node><node id="-653" lat="30.455614" lon="-97.858024" changeset="false"><tag k="addr:street" v="Mossy Grove Court"/><tag k="addr:housenumber" v="3307"/><tag k="coa:place_id" v="3293760"/></node><node id="-654" lat="30.464207" lon="-97.8507" changeset="false"><tag k="addr:street" v="Culver Cliff Lane"/><tag k="addr:housenumber" v="2705"/><tag k="coa:place_id" v="3137880"/></node><node id="-655" lat="30.46055" lon="-97.833051" changeset="false"><tag k="addr:street" v="Windy Terrace"/><tag k="addr:housenumber" v="2002"/><tag k="coa:place_id" v="3152707"/></node><node id="-656" lat="30.458088" lon="-97.857407" changeset="false"><tag k="addr:street" v="Mystic Summit Drive"/><tag k="addr:housenumber" v="3311"/><tag k="coa:place_id" v="3288706"/></node><node id="-657" lat="30.434334" lon="-97.884658" changeset="false"><tag k="addr:street" v="Farm-to-Market Road 2769"/><tag k="addr:housenumber" v="14264"/><tag k="coa:place_id" v="3390646"/></node><node id="-658" lat="30.430595" lon="-97.89745" changeset="false"><tag k="addr:street" v="Navajo Pass"/><tag k="addr:housenumber" v="7506"/><tag k="coa:place_id" v="1111759"/></node><node id="-659" lat="30.453675" lon="-97.856873" changeset="false"><tag k="addr:street" v="Grand Oaks Loop"/><tag k="addr:housenumber" v="2806"/><tag k="coa:place_id" v="3289364"/></node><node id="-660" lat="30.441186" lon="-97.91099" changeset="false"><tag k="addr:street" v="Mary Street"/><tag k="addr:housenumber" v="15909"/><tag k="coa:place_id" v="3313952"/></node><node id="-661" lat="30.447994" lon="-97.917032" changeset="false"><tag k="addr:street" v="Jackson Street"/><tag k="addr:housenumber" v="16603"/><tag k="coa:place_id" v="3198176"/></node><node id="-662" lat="30.430242" lon="-97.897716" changeset="false"><tag k="addr:street" v="Navajo Pass"/><tag k="addr:housenumber" v="7502"/><tag k="coa:place_id" v="1111764"/></node><node id="-663" lat="30.426854" lon="-97.90017" changeset="false"><tag k="addr:street" v="Arrowhead Drive"/><tag k="addr:housenumber" v="14806"/><tag k="coa:place_id" v="1111806"/></node><node id="-664" lat="30.456849" lon="-97.854839" changeset="false"><tag k="addr:street" v="Sugar Maple Court"/><tag k="addr:housenumber" v="2805"/><tag k="coa:place_id" v="3288875"/></node><node id="-665" lat="30.457885" lon="-97.859075" changeset="false"><tag k="addr:street" v="Crystal Hill Drive"/><tag k="addr:housenumber" v="3407"/><tag k="coa:place_id" v="3288889"/></node><node id="-666" lat="30.458073" lon="-97.859141" changeset="false"><tag k="addr:street" v="Crystal Hill Drive"/><tag k="addr:housenumber" v="3409"/><tag k="coa:place_id" v="3288890"/></node><node id="-667" lat="30.512067" lon="-97.868508" changeset="false"><tag k="addr:street" v="Cedar Lime Road"/><tag k="addr:housenumber" v="13421"/><tag k="coa:place_id" v="1105241"/></node><node id="-668" lat="30.511583" lon="-97.868201" changeset="false"><tag k="addr:street" v="Cedar Lime Road"/><tag k="addr:housenumber" v="13417"/><tag k="coa:place_id" v="1105243"/></node><node id="-669" lat="30.505227" lon="-97.878422" changeset="false"><tag k="addr:street" v="Misty Bend"/><tag k="addr:housenumber" v="13228"/><tag k="coa:place_id" v="3306113"/></node><node id="-670" lat="30.45711" lon="-97.855282" changeset="false"><tag k="addr:street" v="Grand Oaks Loop"/><tag k="addr:housenumber" v="2734"/><tag k="coa:place_id" v="3288720"/></node><node id="-671" lat="30.43072" lon="-97.899182" changeset="false"><tag k="addr:street" v="Arrowhead Drive"/><tag k="addr:housenumber" v="14957"/><tag k="coa:place_id" v="3425706"/></node><node id="-672" lat="30.430514" lon="-97.895194" changeset="false"><tag k="addr:street" v="Pocohontas Trail"/><tag k="addr:housenumber" v="14704"/><tag k="coa:place_id" v="3034228"/></node><node id="-673" lat="30.442478" lon="-97.911524" changeset="false"><tag k="addr:street" v="Lime Creek Road"/><tag k="addr:housenumber" v="7803"/><tag k="coa:place_id" v="3367071"/></node><node id="-674" lat="30.454897" lon="-97.914121" changeset="false"><tag k="addr:street" v="Lime Creek Road"/><tag k="addr:housenumber" v="8306"/><tag k="coa:place_id" v="3319163"/></node><node id="-675" lat="30.502264" lon="-97.876546" changeset="false"><tag k="addr:street" v="Misty Bend"/><tag k="addr:housenumber" v="13206"/><tag k="coa:place_id" v="3306024"/></node><node id="-676" lat="30.457957" lon="-97.857035" changeset="false"><tag k="addr:street" v="Mystic Summit Drive"/><tag k="addr:housenumber" v="3307"/><tag k="coa:place_id" v="3288704"/></node><node id="-677" lat="30.450732" lon="-97.917729" changeset="false"><tag k="addr:street" v="Bernard Street"/><tag k="addr:housenumber" v="8011"/><tag k="coa:place_id" v="3523733"/></node><node id="-678" lat="30.45816" lon="-97.85478" changeset="false"><tag k="addr:street" v="Grand Oaks Loop"/><tag k="addr:housenumber" v="2726"/><tag k="coa:place_id" v="3288681"/></node><node id="-679" lat="30.458668" lon="-97.856108" changeset="false"><tag k="addr:street" v="Feathergrass Court"/><tag k="addr:housenumber" v="2702"/><tag k="coa:place_id" v="3288689"/></node><node id="-680" lat="30.457727" lon="-97.856759" changeset="false"><tag k="addr:street" v="Mystic Summit Drive"/><tag k="addr:housenumber" v="3303"/><tag k="coa:place_id" v="3288702"/></node><node id="-681" lat="30.453672" lon="-97.921553" changeset="false"><tag k="addr:street" v="Sharon Road"/><tag k="addr:housenumber" v="8009"/><tag k="coa:place_id" v="3317023"/></node><node id="-682" lat="30.474636" lon="-97.909612" changeset="false"><tag k="addr:street" v="Trails End Road"/><tag k="addr:housenumber" v="9813"/><tag k="coa:place_id" v="3198337"/></node><node id="-683" lat="30.438796" lon="-97.890103" changeset="false"><tag k="addr:street" v="Lake Mountain Lane"/><tag k="addr:housenumber" v="8212"/><tag k="coa:place_id" v="3302479"/></node><node id="-684" lat="30.49506" lon="-97.887909" changeset="false"><tag k="addr:street" v="Red Wagon Lane"/><tag k="addr:housenumber" v="16600"/><tag k="coa:place_id" v="5243562"/></node><node id="-685" lat="30.481753" lon="-97.85882" changeset="false"><tag k="addr:street" v="Mancini Cove"/><tag k="addr:housenumber" v="2800"/><tag k="coa:place_id" v="3362508"/></node><node id="-686" lat="30.513628" lon="-97.865857" changeset="false"><tag k="addr:street" v="West Whitestone Boulevard"/><tag k="addr:housenumber" v="2500"/><tag k="coa:place_id" v="3363236"/></node><node id="-687" lat="30.513735" lon="-97.869387" changeset="false"><tag k="addr:street" v="West Whitestone Boulevard"/><tag k="addr:housenumber" v="2600"/><tag k="coa:place_id" v="3363237"/></node><node id="-688" lat="30.447992" lon="-97.917509" changeset="false"><tag k="addr:street" v="Jackson Street"/><tag k="addr:housenumber" v="16607"/><tag k="coa:place_id" v="3198177"/></node><node id="-689" lat="30.436181" lon="-97.912044" changeset="false"><tag k="addr:street" v="Booth Circle"/><tag k="addr:housenumber" v="15826"/><tag k="coa:place_id" v="3430130"/></node><node id="-690" lat="30.463521" lon="-97.850846" changeset="false"><tag k="addr:street" v="Culver Cliff Lane"/><tag k="addr:housenumber" v="2710"/><tag k="coa:place_id" v="3317343"/></node><node id="-691" lat="30.454798" lon="-97.855844" changeset="false"><tag k="addr:street" v="Grand Oaks Loop"/><tag k="addr:housenumber" v="2754"/><tag k="coa:place_id" v="3289312"/></node><node id="-692" lat="30.429893" lon="-97.897978" changeset="false"><tag k="addr:street" v="Navajo Pass"/><tag k="addr:housenumber" v="7410"/><tag k="coa:place_id" v="1111771"/></node><node id="-693" lat="30.429258" lon="-97.896685" changeset="false"><tag k="addr:street" v="Arrowhead Drive"/><tag k="addr:housenumber" v="14718"/><tag k="coa:place_id" v="1111779"/></node><node id="-694" lat="30.455781" lon="-97.858006" changeset="false"><tag k="addr:street" v="Mossy Grove Court"/><tag k="addr:housenumber" v="3309"/><tag k="coa:place_id" v="3293750"/></node><node id="-695" lat="30.45627" lon="-97.858043" changeset="false"><tag k="addr:street" v="Prairie Mist Court"/><tag k="addr:housenumber" v="2803"/><tag k="coa:place_id" v="3293751"/></node><node id="-696" lat="30.455257" lon="-97.858711" changeset="false"><tag k="addr:street" v="Mossy Grove Court"/><tag k="addr:housenumber" v="3302"/><tag k="coa:place_id" v="3293754"/></node><node id="-697" lat="30.455454" lon="-97.858706" changeset="false"><tag k="addr:street" v="Mossy Grove Court"/><tag k="addr:housenumber" v="3304"/><tag k="coa:place_id" v="3293755"/></node><node id="-698" lat="30.458242" lon="-97.85661" changeset="false"><tag k="addr:street" v="Feathergrass Court"/><tag k="addr:housenumber" v="2705"/><tag k="coa:place_id" v="3288699"/></node><node id="-699" lat="30.433179" lon="-97.909724" changeset="false"><tag k="addr:street" v="Booth Circle"/><tag k="addr:housenumber" v="15761"/><tag k="coa:place_id" v="3337279"/></node><node id="-700" lat="30.429974" lon="-97.891283" changeset="false"><tag k="addr:street" v="Pocohontas Trail"/><tag k="addr:housenumber" v="14535"/><tag k="coa:place_id" v="3502532"/></node><node id="-701" lat="30.441015" lon="-97.911871" changeset="false"><tag k="addr:street" v="Farm-to-Market Road 2769"/><tag k="addr:housenumber" v="16001"/><tag k="coa:place_id" v="3429026"/></node><node id="-702" lat="30.431865" lon="-97.89054" changeset="false"><tag k="addr:street" v="Pocohontas Trail"/><tag k="addr:housenumber" v="14510"/><tag k="coa:place_id" v="3392480"/></node><node id="-703" lat="30.427576" lon="-97.899017" changeset="false"><tag k="addr:street" v="Navajo Pass"/><tag k="addr:housenumber" v="7205"/><tag k="coa:place_id" v="3390273"/></node><node id="-704" lat="30.428572" lon="-97.897323" changeset="false"><tag k="addr:street" v="Posada Cove"/><tag k="addr:housenumber" v="7407"/><tag k="coa:place_id" v="3390275"/></node><node id="-705" lat="30.43963" lon="-97.890636" changeset="false"><tag k="addr:street" v="Lake Mountain Lane"/><tag k="addr:housenumber" v="8220"/><tag k="coa:place_id" v="3431355"/></node><node id="-706" lat="30.437891" lon="-97.888843" changeset="false"><tag k="addr:street" v="Lake Mountain Lane"/><tag k="addr:housenumber" v="8150"/><tag k="coa:place_id" v="3432507"/></node><node id="-707" lat="30.43247" lon="-97.890447" changeset="false"><tag k="addr:street" v="Pocohontas Trail"/><tag k="addr:housenumber" v="14506"/><tag k="coa:place_id" v="5214823"/></node><node id="-708" lat="30.430997" lon="-97.892196" changeset="false"><tag k="addr:street" v="Leatherman Lane"/><tag k="addr:housenumber" v="7701"/><tag k="coa:place_id" v="3303552"/></node><node id="-709" lat="30.430427" lon="-97.892329" changeset="false"><tag k="addr:street" v="Leatherman Lane"/><tag k="addr:housenumber" v="7601"/><tag k="coa:place_id" v="3303554"/></node><node id="-710" lat="30.431364" lon="-97.89785" changeset="false"><tag k="addr:street" v="Arrowhead Drive"/><tag k="addr:housenumber" v="14962"/><tag k="coa:place_id" v="3430199"/></node><node id="-711" lat="30.457508" lon="-97.855554" changeset="false"><tag k="addr:street" v="Grand Oaks Loop"/><tag k="addr:housenumber" v="2729"/><tag k="coa:place_id" v="3288683"/></node><node id="-712" lat="30.457644" lon="-97.856579" changeset="false"><tag k="addr:street" v="Mystic Summit Drive"/><tag k="addr:housenumber" v="3301"/><tag k="coa:place_id" v="3288701"/></node><node id="-713" lat="30.481696" lon="-97.893895" changeset="false"><tag k="addr:street" v="Lime Creek Road"/><tag k="addr:housenumber" v="11005"/><tag k="coa:place_id" v="3222903"/></node><node id="-714" lat="30.487605" lon="-97.892241" changeset="false"><tag k="addr:street" v="Lime Creek Road"/><tag k="addr:housenumber" v="11416"/><tag k="coa:place_id" v="3390814"/></node><node id="-715" lat="30.455659" lon="-97.920636" changeset="false"><tag k="addr:street" v="Sharon Road"/><tag k="addr:housenumber" v="8125"/><tag k="coa:place_id" v="220938"/></node><node id="-716" lat="30.456821" lon="-97.828366" changeset="false"><tag k="addr:street" v="Anderson Mill Road,1100"/><tag k="addr:housenumber" v="11908"/><tag k="coa:place_id" v="218735"/></node><node id="-717" lat="30.434999" lon="-97.876213" changeset="false"><tag k="addr:street" v="Farm-to-Market Road 2769"/><tag k="addr:housenumber" v="13971"/><tag k="coa:place_id" v="3272079"/></node><node id="-718" lat="30.514519" lon="-97.870791" changeset="false"><tag k="addr:street" v="West Whitestone Boulevard"/><tag k="addr:housenumber" v="2700"/><tag k="coa:place_id" v="3363238"/></node><node id="-719" lat="30.454729" lon="-97.92179" changeset="false"><tag k="addr:street" v="Sharon Road"/><tag k="addr:housenumber" v="8114"/><tag k="coa:place_id" v="3374335"/></node><node id="-720" lat="30.459264" lon="-97.91516" changeset="false"><tag k="addr:street" v="Lime Creek Road"/><tag k="addr:housenumber" v="8501"/><tag k="coa:place_id" v="3430109"/></node><node id="-721" lat="30.456277" lon="-97.858421" changeset="false"><tag k="addr:street" v="Mossy Grove Court"/><tag k="addr:housenumber" v="3315"/><tag k="coa:place_id" v="3293762"/></node><node id="-722" lat="30.456519" lon="-97.858793" changeset="false"><tag k="addr:street" v="Mossy Grove Court"/><tag k="addr:housenumber" v="3319"/><tag k="coa:place_id" v="3293764"/></node><node id="-723" lat="30.440092" lon="-97.906962" changeset="false"><tag k="addr:street" v="Mary Street"/><tag k="addr:housenumber" v="15706"/><tag k="coa:place_id" v="3214171"/></node><node id="-724" lat="30.449019" lon="-97.907496" changeset="false"><tag k="addr:street" v="Lime Creek Road"/><tag k="addr:housenumber" v="8224"/><tag k="coa:place_id" v="3215559"/></node><node id="-725" lat="30.48436" lon="-97.885838" changeset="false"><tag k="addr:street" v="Lime Creek Road"/><tag k="addr:housenumber" v="11729"/><tag k="coa:place_id" v="3217599"/></node><node id="-726" lat="30.480876" lon="-97.886133" changeset="false"><tag k="addr:street" v="Fisher Hollow Trail"/><tag k="addr:housenumber" v="16101"/><tag k="coa:place_id" v="3217577"/></node><node id="-727" lat="30.438631" lon="-97.902408" changeset="false"><tag k="addr:street" v="Farm-to-Market Road 2769"/><tag k="addr:housenumber" v="15428"/><tag k="coa:place_id" v="3302475"/></node><node id="-728" lat="30.429796" lon="-97.892589" changeset="false"><tag k="addr:street" v="Pocohontas Trail"/><tag k="addr:housenumber" v="14603"/><tag k="coa:place_id" v="3502535"/></node><node id="-729" lat="30.435698" lon="-97.903981" changeset="false"><tag k="addr:street" v="Farm-to-Market Road 2769"/><tag k="addr:housenumber" v="15406"/><tag k="coa:place_id" v="3214235"/></node><node id="-730" lat="30.448773" lon="-97.914683" changeset="false"><tag k="addr:street" v="Jackson Street"/><tag k="addr:housenumber" v="16501"/><tag k="coa:place_id" v="3354690"/></node><node id="-731" lat="30.448177" lon="-97.90603" changeset="false"><tag k="addr:street" v="Lime Creek Road"/><tag k="addr:housenumber" v="8136"/><tag k="coa:place_id" v="3351757"/></node><node id="-732" lat="30.480249" lon="-97.89673" changeset="false"><tag k="addr:street" v="Lime Creek Road"/><tag k="addr:housenumber" v="10809 1/2"/><tag k="coa:place_id" v="5052584"/></node><node id="-733" lat="30.43118" lon="-97.887437" changeset="false"><tag k="addr:street" v="Geronimo Street"/><tag k="addr:housenumber" v="14324"/><tag k="coa:place_id" v="3587943"/></node><node id="-734" lat="30.452723" lon="-97.914778" changeset="false"><tag k="addr:street" v="Beauregard Drive"/><tag k="addr:housenumber" v="8120"/><tag k="coa:place_id" v="219208"/></node><node id="-735" lat="30.484119" lon="-97.885124" changeset="false"><tag k="addr:street" v="Lime Creek Road"/><tag k="addr:housenumber" v="11735"/><tag k="coa:place_id" v="3288966"/></node><node id="-736" lat="30.436215" lon="-97.887601" changeset="false"><tag k="addr:street" v="Lake Mountain Lane"/><tag k="addr:housenumber" v="8129"/><tag k="coa:place_id" v="3280349"/></node><node id="-737" lat="30.487579" lon="-97.888774" changeset="false"><tag k="addr:street" v="Commelina Drive"/><tag k="addr:housenumber" v="16414"/><tag k="coa:place_id" v="3363298"/></node><node id="-738" lat="30.454104" lon="-97.857592" changeset="false"><tag k="addr:street" v="Grand Oaks Loop"/><tag k="addr:housenumber" v="2807"/><tag k="coa:place_id" v="3293728"/></node><node id="-739" lat="30.454159" lon="-97.857905" changeset="false"><tag k="addr:street" v="Grand Oaks Loop"/><tag k="addr:housenumber" v="2809"/><tag k="coa:place_id" v="3293729"/></node><node id="-740" lat="30.432893" lon="-97.89752" changeset="false"><tag k="addr:street" v="Arrowhead Drive"/><tag k="addr:housenumber" v="14983"/><tag k="coa:place_id" v="1111741"/></node><node id="-741" lat="30.42607" lon="-97.900226" changeset="false"><tag k="addr:street" v="Arrowhead Drive"/><tag k="addr:housenumber" v="14811"/><tag k="coa:place_id" v="3351320"/></node><node id="-742" lat="30.455204" lon="-97.859205" changeset="false"><tag k="addr:street" v="Grand Oaks Loop"/><tag k="addr:housenumber" v="2901"/><tag k="coa:place_id" v="3293737"/></node><node id="-743" lat="30.455809" lon="-97.859782" changeset="false"><tag k="addr:street" v="Grand Oaks Loop"/><tag k="addr:housenumber" v="2904"/><tag k="coa:place_id" v="3293740"/></node><node id="-744" lat="30.456061" lon="-97.859725" changeset="false"><tag k="addr:street" v="Grand Oaks Loop"/><tag k="addr:housenumber" v="2906"/><tag k="coa:place_id" v="3293742"/></node><node id="-745" lat="30.457752" lon="-97.858119" changeset="false"><tag k="addr:street" v="Grand Oaks Loop"/><tag k="addr:housenumber" v="2921"/><tag k="coa:place_id" v="3288880"/></node><node id="-746" lat="30.457436" lon="-97.859274" changeset="false"><tag k="addr:street" v="Crystal Hill Drive"/><tag k="addr:housenumber" v="3406"/><tag k="coa:place_id" v="3288909"/></node><node id="-747" lat="30.436866" lon="-97.907153" changeset="false"><tag k="addr:street" v="Debbie Drive"/><tag k="addr:housenumber" v="7608"/><tag k="coa:place_id" v="3354857"/></node><node id="-748" lat="30.430019" lon="-97.896231" changeset="false"><tag k="addr:street" v="Arrowhead Drive"/><tag k="addr:housenumber" v="14710"/><tag k="coa:place_id" v="1111768"/></node><node id="-749" lat="30.437906" lon="-97.906638" changeset="false"><tag k="addr:street" v="Debbie Drive"/><tag k="addr:housenumber" v="7631"/><tag k="coa:place_id" v="3354850"/></node><node id="-750" lat="30.45223" lon="-97.911195" changeset="false"><tag k="addr:street" v="Lime Creek Road"/><tag k="addr:housenumber" v="8267"/><tag k="coa:place_id" v="3387744"/></node><node id="-751" lat="30.452409" lon="-97.911901" changeset="false"><tag k="addr:street" v="Lime Creek Road"/><tag k="addr:housenumber" v="8271"/><tag k="coa:place_id" v="3387746"/></node><node id="-752" lat="30.44856" lon="-97.915535" changeset="false"><tag k="addr:street" v="Jackson Street"/><tag k="addr:housenumber" v="16509"/><tag k="coa:place_id" v="3354715"/></node><node id="-753" lat="30.505002" lon="-97.875311" changeset="false"><tag k="addr:street" v="Misty Bend"/><tag k="addr:housenumber" v="13309"/><tag k="coa:place_id" v="3306065"/></node><node id="-754" lat="30.435101" lon="-97.886172" changeset="false"><tag k="addr:street" v="Lake Mountain Lane"/><tag k="addr:housenumber" v="8141"/><tag k="coa:place_id" v="3280352"/></node><node id="-755" lat="30.434214" lon="-97.89992" changeset="false"><tag k="addr:street" v="Farm-to-Market Road 2769"/><tag k="addr:housenumber" v="15100"/><tag k="coa:place_id" v="3374516"/></node><node id="-756" lat="30.501853" lon="-97.886026" changeset="false"><tag k="addr:street" v="Trails End Cove"/><tag k="addr:housenumber" v="16916"/><tag k="coa:place_id" v="3317332"/></node><node id="-757" lat="30.480746" lon="-97.895358" changeset="false"><tag k="addr:street" v="Lime Creek Road"/><tag k="addr:housenumber" v="10901"/><tag k="coa:place_id" v="3382502"/></node><node id="-758" lat="30.430341" lon="-97.887547" changeset="false"><tag k="addr:street" v="Geronimo Street"/><tag k="addr:housenumber" v="14321"/><tag k="coa:place_id" v="3198153"/></node><node id="-759" lat="30.450982" lon="-97.913815" changeset="false"><tag k="addr:street" v="Sherman Street"/><tag k="addr:housenumber" v="16412"/><tag k="coa:place_id" v="227897"/></node><node id="-760" lat="30.457979" lon="-97.848174" changeset="false"><tag k="addr:street" v="Azzuro Way"/><tag k="addr:housenumber" v="2710"/><tag k="coa:place_id" v="3151434"/></node><node id="-761" lat="30.466203" lon="-97.852755" changeset="false"><tag k="addr:street" v="Birchington Drive"/><tag k="addr:housenumber" v="2305"/><tag k="coa:place_id" v="3102220"/></node><node id="-762" lat="30.466046" lon="-97.852569" changeset="false"><tag k="addr:street" v="Birchington Drive"/><tag k="addr:housenumber" v="2307"/><tag k="coa:place_id" v="3102221"/></node><node id="-763" lat="30.465732" lon="-97.854499" changeset="false"><tag k="addr:street" v="Welton Cliff Drive"/><tag k="addr:housenumber" v="2905"/><tag k="coa:place_id" v="3137763"/></node><node id="-764" lat="30.449789" lon="-97.912862" changeset="false"><tag k="addr:street" v="Jackson Street"/><tag k="addr:housenumber" v="16400"/><tag k="coa:place_id" v="219193"/></node><node id="-765" lat="30.428844" lon="-97.901164" changeset="false"><tag k="addr:street" v="Arrowhead Drive"/><tag k="addr:housenumber" v="14927"/><tag k="coa:place_id" v="3198111"/></node><node id="-766" lat="30.449821" lon="-97.911971" changeset="false"><tag k="addr:street" v="Jackson Street"/><tag k="addr:housenumber" v="16319"/><tag k="coa:place_id" v="5121992"/></node><node id="-767" lat="30.454143" lon="-97.922928" changeset="false"><tag k="addr:street" v="Joy Road"/><tag k="addr:housenumber" v="8116"/><tag k="coa:place_id" v="3198196"/></node><node id="-768" lat="30.430086" lon="-97.896884" changeset="false"><tag k="addr:street" v="Navajo Pass"/><tag k="addr:housenumber" v="7505"/><tag k="coa:place_id" v="1111766"/></node><node id="-769" lat="30.437633" lon="-97.880299" changeset="false"><tag k="addr:street" v="Farm-to-Market Road 2769"/><tag k="addr:housenumber" v="14119"/><tag k="coa:place_id" v="3150500"/></node><node id="-770" lat="30.432652" lon="-97.895479" changeset="false"><tag k="addr:street" v="Navajo Pass"/><tag k="addr:housenumber" v="7704"/><tag k="coa:place_id" v="50336"/></node><node id="-771" lat="30.433094" lon="-97.897389" changeset="false"><tag k="addr:street" v="Arrowhead Drive"/><tag k="addr:housenumber" v="14985"/><tag k="coa:place_id" v="1111740"/></node><node id="-772" lat="30.431801" lon="-97.888178" changeset="false"><tag k="addr:street" v="Geronimo Street"/><tag k="addr:housenumber" v="14400"/><tag k="coa:place_id" v="3182849"/></node><node id="-773" lat="30.432911" lon="-97.889487" changeset="false"><tag k="addr:street" v="Geronimo Street"/><tag k="addr:housenumber" v="14431"/><tag k="coa:place_id" v="3182850"/></node><node id="-774" lat="30.46208" lon="-97.914337" changeset="false"><tag k="addr:street" v="Lime Creek Road"/><tag k="addr:housenumber" v="8706"/><tag k="coa:place_id" v="221742"/></node><node id="-775" lat="30.460132" lon="-97.843378" changeset="false"><tag k="addr:street" v="Wanakah Ridge Drive"/><tag k="addr:housenumber" v="2501"/><tag k="coa:place_id" v="3151633"/></node><node id="-776" lat="30.509407" lon="-97.868919" changeset="false"><tag k="addr:street" v="Cedar Lime Road"/><tag k="addr:housenumber" v="13404"/><tag k="coa:place_id" v="1105251"/></node><node id="-777" lat="30.432106" lon="-97.889709" changeset="false"><tag k="addr:street" v="Pocohontas Trail"/><tag k="addr:housenumber" v="14511"/><tag k="coa:place_id" v="3182851"/></node><node id="-778" lat="30.467393" lon="-97.846975" changeset="false"><tag k="addr:street" v="Dartford Bend"/><tag k="addr:housenumber" v="2502"/><tag k="coa:place_id" v="3155151"/></node><node id="-779" lat="30.430645" lon="-97.893886" changeset="false"><tag k="addr:street" v="Deer Run Road"/><tag k="addr:housenumber" v="7630"/><tag k="coa:place_id" v="1158135"/></node><node id="-780" lat="30.466783" lon="-97.845513" changeset="false"><tag k="addr:street" v="Guara Drive"/><tag k="addr:housenumber" v="2410"/><tag k="coa:place_id" v="3155213"/></node><node id="-781" lat="30.458858" lon="-97.848057" changeset="false"><tag k="addr:street" v="Giacomo Cove"/><tag k="addr:housenumber" v="2704"/><tag k="coa:place_id" v="3151422"/></node><node id="-782" lat="30.473798" lon="-97.852199" changeset="false"><tag k="addr:street" v="Purple Sage Drive"/><tag k="addr:housenumber" v="1806"/><tag k="coa:place_id" v="3154827"/></node><node id="-783" lat="30.47303" lon="-97.848475" changeset="false"><tag k="addr:street" v="Chula Vista Drive"/><tag k="addr:housenumber" v="2005"/><tag k="coa:place_id" v="3149504"/></node><node id="-784" lat="30.445512" lon="-97.91442" changeset="false"><tag k="addr:street" v="Lakeview Street"/><tag k="addr:housenumber" v="7908"/><tag k="coa:place_id" v="1111707"/></node><node id="-785" lat="30.475818" lon="-97.901233" changeset="false"><tag k="addr:street" v="Lime Creek Road"/><tag k="addr:housenumber" v="10203"/><tag k="coa:place_id" v="1144838"/></node><node id="-786" lat="30.467349" lon="-97.847196" changeset="false"><tag k="addr:street" v="Dartford Bend"/><tag k="addr:housenumber" v="2504"/><tag k="coa:place_id" v="3155152"/></node><node id="-787" lat="30.462523" lon="-97.842138" changeset="false"><tag k="addr:street" v="London Lane"/><tag k="addr:housenumber" v="2306"/><tag k="coa:place_id" v="3151705"/></node><node id="-788" lat="30.43096" lon="-97.885844" changeset="false"><tag k="addr:street" v="Geronimo Street"/><tag k="addr:housenumber" v="14301"/><tag k="coa:place_id" v="3198142"/></node><node id="-789" lat="30.433914" lon="-97.906302" changeset="false"><tag k="addr:street" v="Reed Drive"/><tag k="addr:housenumber" v="7416"/><tag k="coa:place_id" v="1140291"/></node><node id="-790" lat="30.433764" lon="-97.906345" changeset="false"><tag k="addr:street" v="Reed Drive"/><tag k="addr:housenumber" v="7414"/><tag k="coa:place_id" v="1140292"/></node><node id="-791" lat="30.426158" lon="-97.901347" changeset="false"><tag k="addr:street" v="Arrowhead Drive"/><tag k="addr:housenumber" v="14821"/><tag k="coa:place_id" v="3156250"/></node><node id="-792" lat="30.426055" lon="-97.900949" changeset="false"><tag k="addr:street" v="Arrowhead Drive"/><tag k="addr:housenumber" v="14817"/><tag k="coa:place_id" v="3073589"/></node><node id="-793" lat="30.463346" lon="-97.848212" changeset="false"><tag k="addr:street" v="Izoro Bend"/><tag k="addr:housenumber" v="2632"/><tag k="coa:place_id" v="3101170"/></node><node id="-794" lat="30.441733" lon="-97.911841" changeset="false"><tag k="addr:street" v="Farm-to-Market Road 2769"/><tag k="addr:housenumber" v="16000"/><tag k="coa:place_id" v="3050236"/></node><node id="-795" lat="30.459355" lon="-97.847489" changeset="false"><tag k="addr:street" v="Giacomo Cove"/><tag k="addr:housenumber" v="2701"/><tag k="coa:place_id" v="3151416"/></node><node id="-796" lat="30.431853" lon="-97.897227" changeset="false"><tag k="addr:street" v="Arrowhead Drive"/><tag k="addr:housenumber" v="14968"/><tag k="coa:place_id" v="1111747"/></node><node id="-797" lat="30.434772" lon="-97.905993" changeset="false"><tag k="addr:street" v="Reed Drive"/><tag k="addr:housenumber" v="7508"/><tag k="coa:place_id" v="1140287"/></node><node id="-798" lat="30.509614" lon="-97.86964" changeset="false"><tag k="addr:street" v="Cedar Lime Road"/><tag k="addr:housenumber" v="13408"/><tag k="coa:place_id" v="1105249"/></node><node id="-799" lat="30.455695" lon="-97.846777" changeset="false"><tag k="addr:street" v="Argento Place"/><tag k="addr:housenumber" v="3104"/><tag k="coa:place_id" v="3151501"/></node><node id="-800" lat="30.466824" lon="-97.847233" changeset="false"><tag k="addr:street" v="Guara Drive"/><tag k="addr:housenumber" v="2507"/><tag k="coa:place_id" v="3155190"/></node><node id="-801" lat="30.482842" lon="-97.899171" changeset="false"><tag k="addr:street" v="Lime Creek Road"/><tag k="addr:housenumber" v="11000"/><tag k="coa:place_id" v="1144834"/></node><node id="-802" lat="30.435999" lon="-97.908509" changeset="false"><tag k="addr:street" v="Booth Circle"/><tag k="addr:housenumber" v="15737"/><tag k="coa:place_id" v="3198164"/></node><node id="-803" lat="30.453118" lon="-97.922758" changeset="false"><tag k="addr:street" v="Joy Road"/><tag k="addr:housenumber" v="8104"/><tag k="coa:place_id" v="3198190"/></node><node id="-804" lat="30.450898" lon="-97.912186" changeset="false"><tag k="addr:street" v="Jackson Street"/><tag k="addr:housenumber" v="16404"/><tag k="coa:place_id" v="1136729"/></node><node id="-805" lat="30.463181" lon="-97.853407" changeset="false"><tag k="addr:street" v="Farleigh Lane"/><tag k="addr:housenumber" v="2503"/><tag k="coa:place_id" v="3143523"/></node><node id="-806" lat="30.50693" lon="-97.868742" changeset="false"><tag k="addr:street" v="Wire Road"/><tag k="addr:housenumber" v="13310"/><tag k="coa:place_id" v="1105255"/></node><node id="-807" lat="30.460368" lon="-97.852731" changeset="false"><tag k="addr:street" v="Kinloch Drive"/><tag k="addr:housenumber" v="2908"/><tag k="coa:place_id" v="3116798"/></node><node id="-808" lat="30.449951" lon="-97.916221" changeset="false"><tag k="addr:street" v="Sherman Street"/><tag k="addr:housenumber" v="16509"/><tag k="coa:place_id" v="219179"/></node><node id="-809" lat="30.514533" lon="-97.867365" changeset="false"><tag k="addr:street" v="West Whitestone Boulevard"/><tag k="addr:housenumber" v="2540"/><tag k="coa:place_id" v="3222280"/></node><node id="-810" lat="30.44507" lon="-97.914503" changeset="false"><tag k="addr:street" v="Lakeview Street"/><tag k="addr:housenumber" v="7900"/><tag k="coa:place_id" v="1111710"/></node><node id="-811" lat="30.444152" lon="-97.913353" changeset="false"><tag k="addr:street" v="Dodd Street"/><tag k="addr:housenumber" v="16205"/><tag k="coa:place_id" v="1111713"/></node><node id="-812" lat="30.513977" lon="-97.866737" changeset="false"><tag k="addr:street" v="West Whitestone Boulevard"/><tag k="addr:housenumber" v="2520"/><tag k="coa:place_id" v="3222279"/></node><node id="-813" lat="30.472496" lon="-97.854624" changeset="false"><tag k="addr:street" v="Oro Viejo Cove"/><tag k="addr:housenumber" v="2712"/><tag k="coa:place_id" v="3151310"/></node><node id="-814" lat="30.465877" lon="-97.850401" changeset="false"><tag k="addr:street" v="Tivoli Drive"/><tag k="addr:housenumber" v="2400"/><tag k="coa:place_id" v="3101136"/></node><node id="-815" lat="30.43366" lon="-97.87962" changeset="false"><tag k="addr:street" v="Farm-to-Market Road 2769"/><tag k="addr:housenumber" v="13991"/><tag k="coa:place_id" v="3054675"/></node><node id="-816" lat="30.429554" lon="-97.895776" changeset="false"><tag k="addr:street" v="Arrowhead Drive"/><tag k="addr:housenumber" v="14711"/><tag k="coa:place_id" v="1111730"/></node><node id="-817" lat="30.450183" lon="-97.908617" changeset="false"><tag k="addr:street" v="Lime Creek Road"/><tag k="addr:housenumber" v="8238"/><tag k="coa:place_id" v="3050239"/></node><node id="-818" lat="30.455054" lon="-97.922571" changeset="false"><tag k="addr:street" v="Joy Road"/><tag k="addr:housenumber" v="8124"/><tag k="coa:place_id" v="3099497"/></node><node id="-819" lat="30.429221" lon="-97.898986" changeset="false"><tag k="addr:street" v="Navajo Pass"/><tag k="addr:housenumber" v="7400"/><tag k="coa:place_id" v="66784"/></node><node id="-820" lat="30.428936" lon="-97.899155" changeset="false"><tag k="addr:street" v="Navajo Pass"/><tag k="addr:housenumber" v="7308"/><tag k="coa:place_id" v="66785"/></node><node id="-821" lat="30.472589" lon="-97.849759" changeset="false"><tag k="addr:street" v="Zambia Drive"/><tag k="addr:housenumber" v="2501"/><tag k="coa:place_id" v="3150948"/></node><node id="-822" lat="30.475809" lon="-97.855708" changeset="false"><tag k="addr:street" v="Zambia Drive"/><tag k="addr:housenumber" v="2900"/><tag k="coa:place_id" v="3154783"/></node><node id="-823" lat="30.458286" lon="-97.84722" changeset="false"><tag k="addr:street" v="Azzuro Way"/><tag k="addr:housenumber" v="2703"/><tag k="coa:place_id" v="3151424"/></node><node id="-824" lat="30.500229" lon="-97.887144" changeset="false"><tag k="addr:street" v="Trails End Cove"/><tag k="addr:housenumber" v="16709"/><tag k="coa:place_id" v="3070711"/></node><node id="-825" lat="30.430405" lon="-97.905408" changeset="false"><tag k="addr:street" v="Reed Drive"/><tag k="addr:housenumber" v="7318"/><tag k="coa:place_id" v="3083294"/></node><node id="-826" lat="30.470815" lon="-97.854868" changeset="false"><tag k="addr:street" v="Copford Lane"/><tag k="addr:housenumber" v="2801"/><tag k="coa:place_id" v="3151283"/></node><node id="-827" lat="30.479951" lon="-97.89953" changeset="false"><tag k="addr:street" v="Lime Creek Road"/><tag k="addr:housenumber" v="10523"/><tag k="coa:place_id" v="3161522"/></node><node id="-828" lat="30.475663" lon="-97.902061" changeset="false"><tag k="addr:street" v="Lime Creek Road"/><tag k="addr:housenumber" v="10202"/><tag k="coa:place_id" v="3185308"/></node><node id="-829" lat="30.462365" lon="-97.849313" changeset="false"><tag k="addr:street" v="Izoro Bend"/><tag k="addr:housenumber" v="2708"/><tag k="coa:place_id" v="3137854"/></node><node id="-830" lat="30.449284" lon="-97.912557" changeset="false"><tag k="addr:street" v="Jackson Street"/><tag k="addr:housenumber" v="16405"/><tag k="coa:place_id" v="1136731"/></node><node id="-831" lat="30.449673" lon="-97.913587" changeset="false"><tag k="addr:street" v="Jackson Street"/><tag k="addr:housenumber" v="16416"/><tag k="coa:place_id" v="219194"/></node><node id="-832" lat="30.471685" lon="-97.855332" changeset="false"><tag k="addr:street" v="Zambia Drive"/><tag k="addr:housenumber" v="2720"/><tag k="coa:place_id" v="3151293"/></node><node id="-833" lat="30.464315" lon="-97.848595" changeset="false"><tag k="addr:street" v="Mingus Drive"/><tag k="addr:housenumber" v="2600"/><tag k="coa:place_id" v="3101096"/></node><node id="-834" lat="30.433096" lon="-97.889969" changeset="false"><tag k="addr:street" v="Farm-to-Market Road 2769"/><tag k="addr:housenumber" v="14503"/><tag k="coa:place_id" v="3089706"/></node><node id="-835" lat="30.42868" lon="-97.895956" changeset="false"><tag k="addr:street" v="Arrowhead Drive"/><tag k="addr:housenumber" v="14719"/><tag k="coa:place_id" v="1111734"/></node><node id="-836" lat="30.427799" lon="-97.896054" changeset="false"><tag k="addr:street" v="Arrowhead Drive"/><tag k="addr:housenumber" v="14727"/><tag k="coa:place_id" v="1111738"/></node><node id="-837" lat="30.434622" lon="-97.906042" changeset="false"><tag k="addr:street" v="Reed Drive"/><tag k="addr:housenumber" v="7506"/><tag k="coa:place_id" v="112183"/></node><node id="-838" lat="30.465524" lon="-97.851756" changeset="false"><tag k="addr:street" v="Yalding Drive"/><tag k="addr:housenumber" v="2708"/><tag k="coa:place_id" v="3102213"/></node><node id="-839" lat="30.462031" lon="-97.84953" changeset="false"><tag k="addr:street" v="Izoro Bend"/><tag k="addr:housenumber" v="2712"/><tag k="coa:place_id" v="3137856"/></node><node id="-840" lat="30.481922" lon="-97.856004" changeset="false"><tag k="addr:street" v="Melekhin Bend"/><tag k="addr:housenumber" v="2610"/><tag k="coa:place_id" v="3150669"/></node><node id="-841" lat="30.460856" lon="-97.853523" changeset="false"><tag k="addr:street" v="Bonnyrigg Court"/><tag k="addr:housenumber" v="2605"/><tag k="coa:place_id" v="3116805"/></node><node id="-842" lat="30.512271" lon="-97.866014" changeset="false"><tag k="addr:street" v="Vista Oaks Drive"/><tag k="addr:housenumber" v="13467"/><tag k="coa:place_id" v="3051001"/></node><node id="-843" lat="30.44659" lon="-97.912944" changeset="false"><tag k="addr:street" v="Lakeview Street"/><tag k="addr:housenumber" v="8008"/><tag k="coa:place_id" v="3133651"/></node><node id="-844" lat="30.446248" lon="-97.913439" changeset="false"><tag k="addr:street" v="Lakeview Street"/><tag k="addr:housenumber" v="7920"/><tag k="coa:place_id" v="3133644"/></node><node id="-845" lat="30.430708" lon="-97.898189" changeset="false"><tag k="addr:street" v="Arrowhead Drive"/><tag k="addr:housenumber" v="14954"/><tag k="coa:place_id" v="1111758"/></node><node id="-846" lat="30.436244" lon="-97.908299" changeset="false"><tag k="addr:street" v="Booth Circle"/><tag k="addr:housenumber" v="15735"/><tag k="coa:place_id" v="3198166"/></node><node id="-847" lat="30.43041" lon="-97.897584" changeset="false"><tag k="addr:street" v="Navajo Pass"/><tag k="addr:housenumber" v="7504"/><tag k="coa:place_id" v="1111761"/></node><node id="-848" lat="30.434226" lon="-97.912972" changeset="false"><tag k="addr:street" v="Booth Circle"/><tag k="addr:housenumber" v="15813"/><tag k="coa:place_id" v="3081607"/></node><node id="-849" lat="30.432866" lon="-97.906412" changeset="false"><tag k="addr:street" v="Reed Drive"/><tag k="addr:housenumber" v="7404"/><tag k="coa:place_id" v="3083305"/></node><node id="-850" lat="30.465681" lon="-97.852228" changeset="false"><tag k="addr:street" v="Birchington Drive"/><tag k="addr:housenumber" v="2311"/><tag k="coa:place_id" v="3102223"/></node><node id="-851" lat="30.495091" lon="-97.885292" changeset="false"><tag k="addr:street" v="Red Wagon Lane"/><tag k="addr:housenumber" v="16510"/><tag k="coa:place_id" v="3029184"/></node><node id="-852" lat="30.466622" lon="-97.852448" changeset="false"><tag k="addr:street" v="Birchington Drive"/><tag k="addr:housenumber" v="2306"/><tag k="coa:place_id" v="3102216"/></node><node id="-853" lat="30.461322" lon="-97.854931" changeset="false"><tag k="addr:street" v="Moray Lane"/><tag k="addr:housenumber" v="2518"/><tag k="coa:place_id" v="3111218"/></node><node id="-854" lat="30.45103" lon="-97.917979" changeset="false"><tag k="addr:street" v="Bernard Street"/><tag k="addr:housenumber" v="8012"/><tag k="coa:place_id" v="222366"/></node><node id="-855" lat="30.438885" lon="-97.909631" changeset="false"><tag k="addr:street" v="Ray Vista Street"/><tag k="addr:housenumber" v="15800"/><tag k="coa:place_id" v="1133827"/></node><node id="-856" lat="30.457409" lon="-97.847834" changeset="false"><tag k="addr:street" v="Brindisi Way"/><tag k="addr:housenumber" v="2707"/><tag k="coa:place_id" v="3127124"/></node><node id="-857" lat="30.427195" lon="-97.90105" changeset="false"><tag k="addr:street" v="Arrowhead Drive"/><tag k="addr:housenumber" v="14910"/><tag k="coa:place_id" v="1111799"/></node><node id="-858" lat="30.509652" lon="-97.867628" changeset="false"><tag k="addr:street" v="Cedar Lime Road"/><tag k="addr:housenumber" v="13401"/><tag k="coa:place_id" v="1105250"/></node><node id="-859" lat="30.463276" lon="-97.856416" changeset="false"><tag k="addr:street" v="Welton Cliff Drive"/><tag k="addr:housenumber" v="3106"/><tag k="coa:place_id" v="3150701"/></node><node id="-860" lat="30.462801" lon="-97.850374" changeset="false"><tag k="addr:street" v="Terlingua Drive"/><tag k="addr:housenumber" v="2611"/><tag k="coa:place_id" v="3137838"/></node><node id="-861" lat="30.43422" lon="-97.904426" changeset="false"><tag k="addr:street" v="Farm-to-Market Road 2769"/><tag k="addr:housenumber" v="15311"/><tag k="coa:place_id" v="77241"/></node><node id="-862" lat="30.429728" lon="-97.897126" changeset="false"><tag k="addr:street" v="Navajo Pass"/><tag k="addr:housenumber" v="7501"/><tag k="coa:place_id" v="1111773"/></node><node id="-863" lat="30.466878" lon="-97.84784" changeset="false"><tag k="addr:street" v="Dervingham Drive"/><tag k="addr:housenumber" v="2310"/><tag k="coa:place_id" v="3155174"/></node><node id="-864" lat="30.477966" lon="-97.901097" changeset="false"><tag k="addr:street" v="Lime Creek Road"/><tag k="addr:housenumber" v="10409"/><tag k="coa:place_id" v="1144836"/></node><node id="-865" lat="30.46298" lon="-97.853133" changeset="false"><tag k="addr:street" v="Farleigh Lane"/><tag k="addr:housenumber" v="2507"/><tag k="coa:place_id" v="3143525"/></node><node id="-866" lat="30.449937" lon="-97.919259" changeset="false"><tag k="addr:street" v="Bernard Street"/><tag k="addr:housenumber" v="8002"/><tag k="coa:place_id" v="1136740"/></node><node id="-867" lat="30.456491" lon="-97.921723" changeset="false"><tag k="addr:street" v="Joy Road"/><tag k="addr:housenumber" v="8140"/><tag k="coa:place_id" v="3198203"/></node><node id="-868" lat="30.440617" lon="-97.87283" changeset="false"><tag k="addr:street" v="Farm-to-Market Road 2769"/><tag k="addr:housenumber" v="13830"/><tag k="coa:place_id" v="3068154"/></node><node id="-869" lat="30.460422" lon="-97.84284" changeset="false"><tag k="addr:street" v="Briona Wood Lane"/><tag k="addr:housenumber" v="3000"/><tag k="coa:place_id" v="3151629"/></node><node id="-870" lat="30.46586" lon="-97.852401" changeset="false"><tag k="addr:street" v="Birchington Drive"/><tag k="addr:housenumber" v="2309"/><tag k="coa:place_id" v="3102222"/></node><node id="-871" lat="30.432331" lon="-97.895765" changeset="false"><tag k="addr:street" v="Navajo Pass"/><tag k="addr:housenumber" v="7700"/><tag k="coa:place_id" v="50335"/></node><node id="-872" lat="30.432057" lon="-97.895403" changeset="false"><tag k="addr:street" v="Navajo Pass"/><tag k="addr:housenumber" v="7701"/><tag k="coa:place_id" v="50339"/></node><node id="-873" lat="30.43579" lon="-97.880501" changeset="false"><tag k="addr:street" v="Farm-to-Market Road 2769"/><tag k="addr:housenumber" v="14101"/><tag k="coa:place_id" v="3079287"/></node><node id="-874" lat="30.431073" lon="-97.896138" changeset="false"><tag k="addr:street" v="Navajo Pass"/><tag k="addr:housenumber" v="7605"/><tag k="coa:place_id" v="1111755"/></node><node id="-875" lat="30.443421" lon="-97.912962" changeset="false"><tag k="addr:street" v="Dodd Street"/><tag k="addr:housenumber" v="16109"/><tag k="coa:place_id" v="1111716"/></node><node id="-876" lat="30.452212" lon="-97.91592" changeset="false"><tag k="addr:street" v="Beauregard Drive"/><tag k="addr:housenumber" v="8108"/><tag k="coa:place_id" v="219211"/></node><node id="-877" lat="30.459205" lon="-97.843255" changeset="false"><tag k="addr:street" v="Vestavia Ridge Lane"/><tag k="addr:housenumber" v="2503"/><tag k="coa:place_id" v="3151591"/></node><node id="-878" lat="30.459039" lon="-97.849022" changeset="false"><tag k="addr:street" v="Appennini Way"/><tag k="addr:housenumber" v="3005"/><tag k="coa:place_id" v="3151414"/></node><node id="-879" lat="30.460881" lon="-97.852828" changeset="false"><tag k="addr:street" v="Bonnyrigg Court"/><tag k="addr:housenumber" v="2606"/><tag k="coa:place_id" v="3116803"/></node><node id="-880" lat="30.449222" lon="-97.916762" changeset="false"><tag k="addr:street" v="Jackson Street"/><tag k="addr:housenumber" v="16512"/><tag k="coa:place_id" v="219199"/></node><node id="-881" lat="30.445858" lon="-97.913985" changeset="false"><tag k="addr:street" v="Lakeview Street"/><tag k="addr:housenumber" v="7914"/><tag k="coa:place_id" v="1111704"/></node><node id="-882" lat="30.429136" lon="-97.899827" changeset="false"><tag k="addr:street" v="Arrowhead Drive"/><tag k="addr:housenumber" v="14930"/><tag k="coa:place_id" v="66780"/></node><node id="-883" lat="30.462207" lon="-97.851577" changeset="false"><tag k="addr:street" v="Lothian Drive"/><tag k="addr:housenumber" v="2702"/><tag k="coa:place_id" v="3116843"/></node><node id="-884" lat="30.455685" lon="-97.921901" changeset="false"><tag k="addr:street" v="Joy Road"/><tag k="addr:housenumber" v="8125"/><tag k="coa:place_id" v="3198204"/></node><node id="-885" lat="30.463749" lon="-97.853405" changeset="false"><tag k="addr:street" v="Farleigh Lane"/><tag k="addr:housenumber" v="2500"/><tag k="coa:place_id" v="3143515"/></node><node id="-886" lat="30.46161" lon="-97.833226" changeset="false"><tag k="addr:street" v="Windy Terrace"/><tag k="addr:housenumber" v="2000"/><tag k="coa:place_id" v="3152711"/></node><node id="-887" lat="30.428751" lon="-97.896663" changeset="false"><tag k="addr:street" v="Arrowhead Drive"/><tag k="addr:housenumber" v="14722"/><tag k="coa:place_id" v="1111781"/></node><node id="-888" lat="30.461312" lon="-97.853559" changeset="false"><tag k="addr:street" v="Bonnyrigg Court"/><tag k="addr:housenumber" v="2601"/><tag k="coa:place_id" v="3116826"/></node><node id="-889" lat="30.461236" lon="-97.852205" changeset="false"><tag k="addr:street" v="Kinloch Drive"/><tag k="addr:housenumber" v="2903"/><tag k="coa:place_id" v="3116828"/></node><node id="-890" lat="30.457523" lon="-97.917835" changeset="false"><tag k="addr:street" v="West Darleen Drive,1100"/><tag k="addr:housenumber" v="8305"/><tag k="coa:place_id" v="1104708"/></node><node id="-891" lat="30.454244" lon="-97.921757" changeset="false"><tag k="addr:street" v="Sharon Road"/><tag k="addr:housenumber" v="8110"/><tag k="coa:place_id" v="3198212"/></node><node id="-892" lat="30.432322" lon="-97.897892" changeset="false"><tag k="addr:street" v="Arrowhead Drive"/><tag k="addr:housenumber" v="14977"/><tag k="coa:place_id" v="1111744"/></node><node id="-893" lat="30.432121" lon="-97.906303" changeset="false"><tag k="addr:street" v="Reed Drive"/><tag k="addr:housenumber" v="7332"/><tag k="coa:place_id" v="3083298"/></node><node id="-894" lat="30.431818" lon="-97.89396" changeset="false"><tag k="addr:street" v="Deer Run Road"/><tag k="addr:housenumber" v="7614"/><tag k="coa:place_id" v="3181429"/></node><node id="-895" lat="30.471523" lon="-97.855186" changeset="false"><tag k="addr:street" v="Zambia Drive"/><tag k="addr:housenumber" v="2718"/><tag k="coa:place_id" v="3151292"/></node><node id="-896" lat="30.461275" lon="-97.852004" changeset="false"><tag k="addr:street" v="Kinloch Drive"/><tag k="addr:housenumber" v="2901"/><tag k="coa:place_id" v="3116827"/></node><node id="-897" lat="30.486175" lon="-97.858497" changeset="false"><tag k="addr:street" v="Lovett Lane"/><tag k="addr:housenumber" v="2725"/><tag k="coa:place_id" v="3150582"/></node><node id="-898" lat="30.457682" lon="-97.848685" changeset="false"><tag k="addr:street" v="Brindisi Way"/><tag k="addr:housenumber" v="2713"/><tag k="coa:place_id" v="3127171"/></node><node id="-899" lat="30.511165" lon="-97.885427" changeset="false"><tag k="addr:street" v="Trails End Road"/><tag k="addr:housenumber" v="12905"/><tag k="coa:place_id" v="3205607"/></node><node id="-900" lat="30.429116" lon="-97.900955" changeset="false"><tag k="addr:street" v="Arrowhead Drive"/><tag k="addr:housenumber" v="14931"/><tag k="coa:place_id" v="3198113"/></node><node id="-901" lat="30.500096" lon="-97.884042" changeset="false"><tag k="addr:street" v="Trails End Cove"/><tag k="addr:housenumber" v="16816"/><tag k="coa:place_id" v="3043214"/></node><node id="-902" lat="30.484014" lon="-97.892414" changeset="false"><tag k="addr:street" v="Lime Creek Road"/><tag k="addr:housenumber" v="11225"/><tag k="coa:place_id" v="1105325"/></node><node id="-903" lat="30.434524" lon="-97.905166" changeset="false"><tag k="addr:street" v="Reed Drive"/><tag k="addr:housenumber" v="7505"/><tag k="coa:place_id" v="77239"/></node><node id="-904" lat="30.431672" lon="-97.89738" changeset="false"><tag k="addr:street" v="Arrowhead Drive"/><tag k="addr:housenumber" v="14966"/><tag k="coa:place_id" v="1111749"/></node><node id="-905" lat="30.432096" lon="-97.896129" changeset="false"><tag k="addr:street" v="Navajo Pass"/><tag k="addr:housenumber" v="7612"/><tag k="coa:place_id" v="50334"/></node><node id="-906" lat="30.430188" lon="-97.898632" changeset="false"><tag k="addr:street" v="Arrowhead Drive"/><tag k="addr:housenumber" v="14948"/><tag k="coa:place_id" v="1111765"/></node><node id="-907" lat="30.462605" lon="-97.854316" changeset="false"><tag k="addr:street" v="KinClaven Court"/><tag k="addr:housenumber" v="2505"/><tag k="coa:place_id" v="3143545"/></node><node id="-908" lat="30.42915" lon="-97.893364" changeset="false"><tag k="addr:street" v="Pocohontas Trail"/><tag k="addr:housenumber" v="14615"/><tag k="coa:place_id" v="134221"/></node><node id="-909" lat="30.46075" lon="-97.842887" changeset="false"><tag k="addr:street" v="Briona Wood Lane"/><tag k="addr:housenumber" v="2920"/><tag k="coa:place_id" v="3151658"/></node><node id="-910" lat="30.459111" lon="-97.844254" changeset="false"><tag k="addr:street" v="Vestavia Ridge Lane"/><tag k="addr:housenumber" v="2513"/><tag k="coa:place_id" v="3151596"/></node><node id="-911" lat="30.511922" lon="-97.864406" changeset="false"><tag k="addr:street" v="West Whitestone Boulevard"/><tag k="addr:housenumber" v="2440"/><tag k="coa:place_id" v="93593"/></node><node id="-912" lat="30.511929" lon="-97.86992" changeset="false"><tag k="addr:street" v="Cedar Lime Road"/><tag k="addr:housenumber" v="13420"/><tag k="coa:place_id" v="1105242"/></node><node id="-913" lat="30.451873" lon="-97.918357" changeset="false"><tag k="addr:street" v="Bernard Street"/><tag k="addr:housenumber" v="8100"/><tag k="coa:place_id" v="1136738"/></node><node id="-914" lat="30.456281" lon="-97.847869" changeset="false"><tag k="addr:street" v="Di Santis Place"/><tag k="addr:housenumber" v="2709"/><tag k="coa:place_id" v="3151498"/></node><node id="-915" lat="30.466654" lon="-97.840703" changeset="false"><tag k="addr:street" v="Melba Pass"/><tag k="addr:housenumber" v="2601"/><tag k="coa:place_id" v="3151869"/></node><node id="-916" lat="30.46675" lon="-97.852656" changeset="false"><tag k="addr:street" v="Birchington Drive"/><tag k="addr:housenumber" v="2304"/><tag k="coa:place_id" v="3102215"/></node><node id="-917" lat="30.458999" lon="-97.844397" changeset="false"><tag k="addr:street" v="Vestavia Ridge Lane"/><tag k="addr:housenumber" v="2515"/><tag k="coa:place_id" v="3151597"/></node><node id="-918" lat="30.458554" lon="-97.84463" changeset="false"><tag k="addr:street" v="Cashell Wood Drive"/><tag k="addr:housenumber" v="3104"/><tag k="coa:place_id" v="3151572"/></node><node id="-919" lat="30.458608" lon="-97.848463" changeset="false"><tag k="addr:street" v="Azzuro Way"/><tag k="addr:housenumber" v="2711"/><tag k="coa:place_id" v="3151428"/></node><node id="-920" lat="30.441767" lon="-97.913478" changeset="false"><tag k="addr:street" v="Wharf Cove"/><tag k="addr:housenumber" v="16107"/><tag k="coa:place_id" v="1111718"/></node><node id="-921" lat="30.446179" lon="-97.913549" changeset="false"><tag k="addr:street" v="Lakeview Street"/><tag k="addr:housenumber" v="7918"/><tag k="coa:place_id" v="3133643"/></node><node id="-922" lat="30.427923" lon="-97.896806" changeset="false"><tag k="addr:street" v="Arrowhead Drive"/><tag k="addr:housenumber" v="14730"/><tag k="coa:place_id" v="1111786"/></node><node id="-923" lat="30.426978" lon="-97.899472" changeset="false"><tag k="addr:street" v="Arrowhead Drive"/><tag k="addr:housenumber" v="14800"/><tag k="coa:place_id" v="1111802"/></node><node id="-924" lat="30.454715" lon="-97.858846" changeset="false"><tag k="addr:street" v="Grand Oaks Loop"/><tag k="addr:housenumber" v="2815"/><tag k="coa:place_id" v="3293732"/></node><node id="-925" lat="30.430604" lon="-97.888285" changeset="false"><tag k="addr:street" v="Geronimo Street"/><tag k="addr:housenumber" v="14327"/><tag k="coa:place_id" v="3198146"/></node><node id="-926" lat="30.458908" lon="-97.833489" changeset="false"><tag k="addr:street" v="Windy Terrace"/><tag k="addr:housenumber" v="2008"/><tag k="coa:place_id" v="3152710"/></node><node id="-927" lat="30.484503" lon="-97.859664" changeset="false"><tag k="addr:street" v="Rhondstat Run"/><tag k="addr:housenumber" v="1002"/><tag k="coa:place_id" v="3362483"/></node><node id="-928" lat="30.484309" lon="-97.85952" changeset="false"><tag k="addr:street" v="Rhondstat Run"/><tag k="addr:housenumber" v="1004"/><tag k="coa:place_id" v="3362484"/></node><node id="-929" lat="30.439205" lon="-97.911114" changeset="false"><tag k="addr:street" v="Buddy Avenue"/><tag k="addr:housenumber" v="15900"/><tag k="coa:place_id" v="3198162"/></node><node id="-930" lat="30.427849" lon="-97.90178" changeset="false"><tag k="addr:street" v="Arrowhead Drive"/><tag k="addr:housenumber" v="14915"/><tag k="coa:place_id" v="3198118"/></node><node id="-931" lat="30.457371" lon="-97.858167" changeset="false"><tag k="addr:street" v="Crystal Hill Drive"/><tag k="addr:housenumber" v="3305"/><tag k="coa:place_id" v="3288920"/></node><node id="-932" lat="30.433292" lon="-97.897254" changeset="false"><tag k="addr:street" v="Arrowhead Drive"/><tag k="addr:housenumber" v="14987"/><tag k="coa:place_id" v="1111739"/></node><node id="-933" lat="30.432986" lon="-97.883102" changeset="false"><tag k="addr:street" v="Farm-to-Market Road 2769"/><tag k="addr:housenumber" v="14281"/><tag k="coa:place_id" v="3212321"/></node><node id="-934" lat="30.460163" lon="-97.856079" changeset="false"><tag k="addr:street" v="Rolling Plains Court"/><tag k="addr:housenumber" v="2600"/><tag k="coa:place_id" v="3288647"/></node><node id="-935" lat="30.456424" lon="-97.916271" changeset="false"><tag k="addr:street" v="Lime Creek Road"/><tag k="addr:housenumber" v="8324"/><tag k="coa:place_id" v="3214509"/></node><node id="-936" lat="30.434816" lon="-97.876322" changeset="false"><tag k="addr:street" v="Farm-to-Market Road 2769"/><tag k="addr:housenumber" v="13973"/><tag k="coa:place_id" v="3272080"/></node><node id="-937" lat="30.514156" lon="-97.870083" changeset="false"><tag k="addr:street" v="West Whitestone Boulevard"/><tag k="addr:housenumber" v="2620"/><tag k="coa:place_id" v="3363239"/></node><node id="-938" lat="30.487713" lon="-97.886593" changeset="false"><tag k="addr:street" v="Commelina Drive"/><tag k="addr:housenumber" v="16302"/><tag k="coa:place_id" v="3217607"/></node><node id="-939" lat="30.43915" lon="-97.912404" changeset="false"><tag k="addr:street" v="Booth Circle"/><tag k="addr:housenumber" v="15936"/><tag k="coa:place_id" v="3258570"/></node><node id="-940" lat="30.481076" lon="-97.893966" changeset="false"><tag k="addr:street" v="Lime Creek Road"/><tag k="addr:housenumber" v="11001"/><tag k="coa:place_id" v="3222902"/></node><node id="-941" lat="30.478007" lon="-97.908342" changeset="false"><tag k="addr:street" v="North Darleen Drive"/><tag k="addr:housenumber" v="10200"/><tag k="coa:place_id" v="3335273"/></node><node id="-942" lat="30.459916" lon="-97.835692" changeset="false"><tag k="addr:street" v="Anderson Mill Road,1100"/><tag k="addr:housenumber" v="12450"/><tag k="coa:place_id" v="3362951"/></node><node id="-943" lat="30.454979" lon="-97.922051" changeset="false"><tag k="addr:street" v="Joy Road"/><tag k="addr:housenumber" v="8119"/><tag k="coa:place_id" v="3374342"/></node><node id="-944" lat="30.436534" lon="-97.907048" changeset="false"><tag k="addr:street" v="Debbie Drive"/><tag k="addr:housenumber" v="7609"/><tag k="coa:place_id" v="3354853"/></node><node id="-945" lat="30.436725" lon="-97.90679" changeset="false"><tag k="addr:street" v="Debbie Drive"/><tag k="addr:housenumber" v="7611"/><tag k="coa:place_id" v="3354854"/></node><node id="-946" lat="30.436799" lon="-97.903222" changeset="false"><tag k="addr:street" v="Farm-to-Market Road 2769"/><tag k="addr:housenumber" v="15418"/><tag k="coa:place_id" v="3219215"/></node><node id="-947" lat="30.455723" lon="-97.855991" changeset="false"><tag k="addr:street" v="Grand Oaks Loop"/><tag k="addr:housenumber" v="2748"/><tag k="coa:place_id" v="3289309"/></node><node id="-948" lat="30.455835" lon="-97.921669" changeset="false"><tag k="addr:street" v="Joy Road"/><tag k="addr:housenumber" v="8127"/><tag k="coa:place_id" v="3198205"/></node><node id="-949" lat="30.479953" lon="-97.858999" changeset="false"><tag k="addr:street" v="Rambler Valley Drive"/><tag k="addr:housenumber" v="2807"/><tag k="coa:place_id" v="3362571"/></node><node id="-950" lat="30.456619" lon="-97.829497" changeset="false"><tag k="addr:street" v="Anderson Mill Road,1100"/><tag k="addr:housenumber" v="12006"/><tag k="coa:place_id" v="3363028"/></node><node id="-951" lat="30.454149" lon="-97.922169" changeset="false"><tag k="addr:street" v="Joy Road"/><tag k="addr:housenumber" v="8111"/><tag k="coa:place_id" v="3198211"/></node><node id="-952" lat="30.427459" lon="-97.897287" changeset="false"><tag k="addr:street" v="Arrowhead Drive"/><tag k="addr:housenumber" v="14736"/><tag k="coa:place_id" v="1111792"/></node><node id="-953" lat="30.427607" lon="-97.897118" changeset="false"><tag k="addr:street" v="Arrowhead Drive"/><tag k="addr:housenumber" v="14734"/><tag k="coa:place_id" v="1111790"/></node></osm>