<?xml version="1.0" encoding="UTF-8"?><osm version="0.6" generator="github.com/aaronlidman/osm-and-geojson"><node id="-1" lat="30.235402" lon="-97.723433" changeset="false"><tag k="addr:street" v="East Riverside Drive"/><tag k="addr:housenumber" v="2500"/><tag k="coa:place_id" v="3388199"/></node><node id="-2" lat="30.240395" lon="-97.723242" changeset="false"><tag k="addr:street" v="Elmont Drive"/><tag k="addr:housenumber" v="2301 1/2"/><tag k="coa:place_id" v="5217162"/></node><node id="-3" lat="30.238951" lon="-97.720749" changeset="false"><tag k="addr:street" v="Elmont Drive"/><tag k="addr:housenumber" v="2515"/><tag k="coa:place_id" v="5118260"/></node><node id="-4" lat="30.24032" lon="-97.724243" changeset="false"><tag k="addr:street" v="Town Lake Circle"/><tag k="addr:housenumber" v="2222"/><tag k="coa:place_id" v="251599"/></node><node id="-5" lat="30.238935" lon="-97.722072" changeset="false"><tag k="addr:street" v="Town Lake Circle"/><tag k="addr:housenumber" v="2439"/><tag k="coa:place_id" v="650774"/></node><node id="-6" lat="30.234606" lon="-97.722947" changeset="false"><tag k="addr:street" v="East Riverside Drive"/><tag k="addr:housenumber" v="2512"/><tag k="coa:place_id" v="726772"/></node><node id="-7" lat="30.235818" lon="-97.722616" changeset="false"><tag k="addr:street" v="East Riverside Drive"/><tag k="addr:housenumber" v="2508"/><tag k="coa:place_id" v="1002411"/></node><node id="-8" lat="30.238561" lon="-97.723197" changeset="false"><tag k="addr:street" v="Town Lake Circle"/><tag k="addr:housenumber" v="2409"/><tag k="coa:place_id" v="251603"/></node><node id="-9" lat="30.239124" lon="-97.725588" changeset="false"><tag k="addr:street" v="East Riverside Drive"/><tag k="addr:housenumber" v="2220"/><tag k="coa:place_id" v="3143851"/></node><node id="-10" lat="30.240934" lon="-97.724414" changeset="false"><tag k="addr:street" v="Elmont Drive"/><tag k="addr:housenumber" v="2217"/><tag k="coa:place_id" v="652508"/></node><node id="-11" lat="30.23434" lon="-97.722865" changeset="false"><tag k="addr:street" v="South Pleasant Valley Road"/><tag k="addr:housenumber" v="1950 1/2"/><tag k="coa:place_id" v="3350660"/></node><node id="-12" lat="30.239677" lon="-97.72585" changeset="false"><tag k="addr:street" v="East Riverside Drive"/><tag k="addr:housenumber" v="2200"/><tag k="coa:place_id" v="3279845"/></node><node id="-13" lat="30.238572" lon="-97.722416" changeset="false"><tag k="addr:street" v="Town Lake Circle"/><tag k="addr:housenumber" v="2423"/><tag k="coa:place_id" v="838364"/></node><node id="-14" lat="30.236781" lon="-97.724229" changeset="false"><tag k="addr:street" v="East Riverside Drive"/><tag k="addr:housenumber" v="2410"/><tag k="coa:place_id" v="182398"/></node><node id="-15" lat="30.240183" lon="-97.723442" changeset="false"><tag k="addr:street" v="Elmont Drive"/><tag k="addr:housenumber" v="2225"/><tag k="coa:place_id" v="500200"/></node><node id="-16" lat="30.237796" lon="-97.721434" changeset="false"><tag k="addr:street" v="South Pleasant Valley Road"/><tag k="addr:housenumber" v="1600"/><tag k="coa:place_id" v="582609"/></node><node id="-17" lat="30.238048" lon="-97.725328" changeset="false"><tag k="addr:street" v="East Riverside Drive"/><tag k="addr:housenumber" v="2308"/><tag k="coa:place_id" v="256193"/></node><node id="-18" lat="30.23947" lon="-97.722696" changeset="false"><tag k="addr:street" v="Town Lake Circle"/><tag k="addr:housenumber" v="2400"/><tag k="coa:place_id" v="171261"/></node><node id="-19" lat="30.237543" lon="-97.725209" changeset="false"><tag k="addr:street" v="East Riverside Drive"/><tag k="addr:housenumber" v="2320"/><tag k="coa:place_id" v="192543"/></node><node id="-20" lat="30.240767" lon="-97.724203" changeset="false"><tag k="addr:street" v="Elmont Drive"/><tag k="addr:housenumber" v="2221"/><tag k="coa:place_id" v="652952"/></node></osm>