<?xml version="1.0" encoding="UTF-8"?><osm version="0.6" generator="github.com/aaronlidman/osm-and-geojson"><node id="-1" lat="30.371327" lon="-97.746601" changeset="false"><tag k="addr:street" v="Steck Avenue"/><tag k="addr:housenumber" v="3718"/><tag k="addr:postcode" v="78759"/></node><node id="-2" lat="30.374706" lon="-97.743007" changeset="false"><tag k="addr:street" v="Serena Woods Court"/><tag k="addr:housenumber" v="3610"/><tag k="addr:postcode" v="78759"/></node><node id="-3" lat="30.376772" lon="-97.750108" changeset="false"><tag k="addr:street" v="Amy Circle"/><tag k="addr:housenumber" v="3907"/><tag k="addr:postcode" v="78759"/></node><node id="-4" lat="30.376673" lon="-97.745184" changeset="false"><tag k="addr:street" v="Oakmountain Circle"/><tag k="addr:housenumber" v="8605"/><tag k="addr:postcode" v="78759"/></node><node id="-5" lat="30.373074" lon="-97.746367" changeset="false"><tag k="addr:street" v="Summerwood Drive"/><tag k="addr:housenumber" v="8347"/><tag k="addr:postcode" v="78759"/></node><node id="-6" lat="30.371949" lon="-97.742002" changeset="false"><tag k="addr:street" v="North MoPac Expressway"/><tag k="addr:housenumber" v="8400"/><tag k="addr:postcode" v="78759"/></node><node id="-7" lat="30.375016" lon="-97.745006" changeset="false"><tag k="addr:street" v="Honeysuckle Trail"/><tag k="addr:housenumber" v="8509"/><tag k="addr:postcode" v="78759"/></node><node id="-8" lat="30.373701" lon="-97.747028" changeset="false"><tag k="addr:street" v="Summerwood Drive"/><tag k="addr:housenumber" v="8326"/><tag k="addr:postcode" v="78759"/></node><node id="-9" lat="30.371673" lon="-97.744123" changeset="false"><tag k="addr:street" v="Bent Tree Road"/><tag k="addr:housenumber" v="8308"/><tag k="addr:postcode" v="78759"/></node><node id="-10" lat="30.372103" lon="-97.74648" changeset="false"><tag k="addr:street" v="Summer Place Drive"/><tag k="addr:housenumber" v="8218"/><tag k="addr:postcode" v="78759"/></node><node id="-11" lat="30.371831" lon="-97.744705" changeset="false"><tag k="addr:street" v="Summer Side Drive"/><tag k="addr:housenumber" v="8300"/><tag k="addr:postcode" v="78759"/></node><node id="-12" lat="30.372724" lon="-97.744292" changeset="false"><tag k="addr:street" v="Kentfield Road"/><tag k="addr:housenumber" v="3610"/><tag k="addr:postcode" v="78759"/></node><node id="-13" lat="30.372719" lon="-97.745941" changeset="false"><tag k="addr:street" v="Summer Place Drive"/><tag k="addr:housenumber" v="8303"/><tag k="addr:postcode" v="78759"/></node><node id="-14" lat="30.372637" lon="-97.746485" changeset="false"><tag k="addr:street" v="Summer Place Drive"/><tag k="addr:housenumber" v="8230"/><tag k="addr:postcode" v="78759"/></node><node id="-15" lat="30.373858" lon="-97.744067" changeset="false"><tag k="addr:street" v="Claburn Drive"/><tag k="addr:housenumber" v="3618"/><tag k="addr:postcode" v="78759"/></node><node id="-16" lat="30.373168" lon="-97.750145" changeset="false"><tag k="addr:street" v="Steck Avenue"/><tag k="addr:housenumber" v="3838"/><tag k="addr:postcode" v="78759"/></node><node id="-17" lat="30.371874" lon="-97.746768" changeset="false"><tag k="addr:street" v="Summer Place Drive"/><tag k="addr:housenumber" v="8216"/><tag k="addr:postcode" v="78759"/></node><node id="-18" lat="30.375334" lon="-97.744816" changeset="false"><tag k="addr:street" v="Honeysuckle Trail"/><tag k="addr:housenumber" v="8603"/><tag k="addr:postcode" v="78759"/></node><node id="-19" lat="30.375407" lon="-97.744772" changeset="false"><tag k="addr:street" v="Honeysuckle Trail"/><tag k="addr:housenumber" v="8605"/><tag k="addr:postcode" v="78759"/></node><node id="-20" lat="30.376915" lon="-97.745612" changeset="false"><tag k="addr:street" v="Oakmountain Circle"/><tag k="addr:housenumber" v="8604"/><tag k="addr:postcode" v="78759"/></node><node id="-21" lat="30.373125" lon="-97.747236" changeset="false"><tag k="addr:street" v="Summerwood Drive"/><tag k="addr:housenumber" v="8309"/><tag k="addr:postcode" v="78759"/></node><node id="-22" lat="30.374328" lon="-97.744959" changeset="false"><tag k="addr:street" v="Cima Serena Court"/><tag k="addr:housenumber" v="3709"/><tag k="addr:postcode" v="78759"/></node><node id="-23" lat="30.371808" lon="-97.744246" changeset="false"><tag k="addr:street" v="Bent Tree Road"/><tag k="addr:housenumber" v="8310"/><tag k="addr:postcode" v="78759"/></node><node id="-24" lat="30.371731" lon="-97.744533" changeset="false"><tag k="addr:street" v="Summer Side Drive"/><tag k="addr:housenumber" v="8304"/><tag k="addr:postcode" v="78759"/></node><node id="-25" lat="30.373377" lon="-97.747855" changeset="false"><tag k="addr:street" v="Summerwood Drive"/><tag k="addr:housenumber" v="8310"/><tag k="addr:postcode" v="78759"/></node><node id="-26" lat="30.372569" lon="-97.747645" changeset="false"><tag k="addr:street" v="Summerwood Drive"/><tag k="addr:housenumber" v="8205"/><tag k="addr:postcode" v="78759"/></node><node id="-27" lat="30.372294" lon="-97.743287" changeset="false"><tag k="addr:street" v="Bent Tree Road"/><tag k="addr:housenumber" v="8405"/><tag k="addr:postcode" v="78759"/></node><node id="-28" lat="30.372209" lon="-97.745175" changeset="false"><tag k="addr:street" v="Branigan Lane"/><tag k="addr:housenumber" v="3612"/><tag k="addr:postcode" v="78759"/></node><node id="-29" lat="30.371546" lon="-97.746705" changeset="false"><tag k="addr:street" v="Summer Place Drive"/><tag k="addr:housenumber" v="8203"/><tag k="addr:postcode" v="78759"/></node><node id="-30" lat="30.371497" lon="-97.745612" changeset="false"><tag k="addr:street" v="Summer Side Drive"/><tag k="addr:housenumber" v="8234"/><tag k="addr:postcode" v="78759"/></node><node id="-31" lat="30.37014" lon="-97.745996" changeset="false"><tag k="addr:street" v="Summer Side Drive"/><tag k="addr:housenumber" v="8203"/><tag k="addr:postcode" v="78759"/></node><node id="-32" lat="30.368094" lon="-97.74221" changeset="false"><tag k="addr:street" v="North MoPac Expressway"/><tag k="addr:housenumber" v="8201"/><tag k="addr:postcode" v="78759"/></node><node id="-33" lat="30.374785" lon="-97.746494" changeset="false"><tag k="addr:street" v="Cima Serena Court"/><tag k="addr:housenumber" v="3730"/><tag k="addr:postcode" v="78759"/></node><node id="-34" lat="30.374957" lon="-97.745759" changeset="false"><tag k="addr:street" v="Cima Serena Court"/><tag k="addr:housenumber" v="3718"/><tag k="addr:postcode" v="78759"/></node><node id="-35" lat="30.374613" lon="-97.74457" changeset="false"><tag k="addr:street" v="Cima Serena Court"/><tag k="addr:housenumber" v="3706"/><tag k="addr:postcode" v="78759"/></node><node id="-36" lat="30.374776" lon="-97.74516" changeset="false"><tag k="addr:street" v="Honeysuckle Trail"/><tag k="addr:housenumber" v="8503"/><tag k="addr:postcode" v="78759"/></node><node id="-37" lat="30.375177" lon="-97.744902" changeset="false"><tag k="addr:street" v="Honeysuckle Trail"/><tag k="addr:housenumber" v="8513"/><tag k="addr:postcode" v="78759"/></node><node id="-38" lat="30.37292" lon="-97.747868" changeset="false"><tag k="addr:street" v="Summerwood Drive"/><tag k="addr:housenumber" v="8300"/><tag k="addr:postcode" v="78759"/></node><node id="-39" lat="30.372417" lon="-97.74721" changeset="false"><tag k="addr:street" v="Steck Avenue"/><tag k="addr:housenumber" v="3744"/><tag k="addr:postcode" v="78759"/></node><node id="-40" lat="30.372108" lon="-97.746739" changeset="false"><tag k="addr:street" v="Steck Avenue"/><tag k="addr:housenumber" v="3732"/><tag k="addr:postcode" v="78759"/></node><node id="-41" lat="30.372951" lon="-97.744638" changeset="false"><tag k="addr:street" v="Kentfield Road"/><tag k="addr:housenumber" v="3618"/><tag k="addr:postcode" v="78759"/></node><node id="-42" lat="30.372911" lon="-97.743332" changeset="false"><tag k="addr:street" v="Claburn Drive"/><tag k="addr:housenumber" v="3614"/><tag k="addr:postcode" v="78759"/></node><node id="-43" lat="30.371445" lon="-97.744593" changeset="false"><tag k="addr:street" v="Summer Side Drive"/><tag k="addr:housenumber" v="8303"/><tag k="addr:postcode" v="78759"/></node><node id="-44" lat="30.373266" lon="-97.747028" changeset="false"><tag k="addr:street" v="Summerwood Drive"/><tag k="addr:housenumber" v="8331"/><tag k="addr:postcode" v="78759"/></node><node id="-45" lat="30.376362" lon="-97.753912" changeset="false"><tag k="addr:street" v="Forest Mesa Drive"/><tag k="addr:housenumber" v="8403"/><tag k="addr:postcode" v="78759"/></node><node id="-46" lat="30.373989" lon="-97.743473" changeset="false"><tag k="addr:street" v="Cima Serena Court"/><tag k="addr:housenumber" v="3612"/><tag k="addr:postcode" v="78759"/></node><node id="-47" lat="30.371161" lon="-97.745583" changeset="false"><tag k="addr:street" v="Summer Side Drive"/><tag k="addr:housenumber" v="8228"/><tag k="addr:postcode" v="78759"/></node><node id="-48" lat="30.378524" lon="-97.748901" changeset="false"><tag k="addr:street" v="Hyridge Drive"/><tag k="addr:housenumber" v="3911"/><tag k="addr:postcode" v="78759"/></node><node id="-49" lat="30.374535" lon="-97.744391" changeset="false"><tag k="addr:street" v="Cima Serena Court"/><tag k="addr:housenumber" v="3704"/><tag k="addr:postcode" v="78759"/></node><node id="-50" lat="30.374861" lon="-97.745103" changeset="false"><tag k="addr:street" v="Honeysuckle Trail"/><tag k="addr:housenumber" v="8505"/><tag k="addr:postcode" v="78759"/></node><node id="-51" lat="30.37509" lon="-97.744957" changeset="false"><tag k="addr:street" v="Honeysuckle Trail"/><tag k="addr:housenumber" v="8511"/><tag k="addr:postcode" v="78759"/></node><node id="-52" lat="30.373666" lon="-97.747623" changeset="false"><tag k="addr:street" v="Summerwood Drive"/><tag k="addr:housenumber" v="8318"/><tag k="addr:postcode" v="78759"/></node><node id="-53" lat="30.372518" lon="-97.746048" changeset="false"><tag k="addr:street" v="Summer Place Drive"/><tag k="addr:housenumber" v="8229"/><tag k="addr:postcode" v="78759"/></node><node id="-54" lat="30.370419" lon="-97.745899" changeset="false"><tag k="addr:street" v="Summer Side Drive"/><tag k="addr:housenumber" v="8209"/><tag k="addr:postcode" v="78759"/></node><node id="-55" lat="30.371359" lon="-97.745735" changeset="false"><tag k="addr:street" v="Summer Side Drive"/><tag k="addr:housenumber" v="8230"/><tag k="addr:postcode" v="78759"/></node><node id="-56" lat="30.373234" lon="-97.746651" changeset="false"><tag k="addr:street" v="Summerwood Drive"/><tag k="addr:housenumber" v="8339"/><tag k="addr:postcode" v="78759"/></node><node id="-57" lat="30.373227" lon="-97.747938" changeset="false"><tag k="addr:street" v="Summerwood Drive"/><tag k="addr:housenumber" v="8306"/><tag k="addr:postcode" v="78759"/></node><node id="-58" lat="30.376329" lon="-97.744235" changeset="false"><tag k="addr:street" v="Honeysuckle Trail"/><tag k="addr:housenumber" v="8615"/><tag k="addr:postcode" v="78759"/></node><node id="-59" lat="30.371299" lon="-97.745478" changeset="false"><tag k="addr:street" v="Summer Side Drive"/><tag k="addr:housenumber" v="8232"/><tag k="addr:postcode" v="78759"/></node><node id="-60" lat="30.37039" lon="-97.744306" changeset="false"><tag k="addr:street" v="Bent Tree Road"/><tag k="addr:housenumber" v="8210"/><tag k="addr:postcode" v="78759"/></node><node id="-61" lat="30.372465" lon="-97.746584" changeset="false"><tag k="addr:street" v="Summer Place Drive"/><tag k="addr:housenumber" v="8224"/><tag k="addr:postcode" v="78759"/></node><node id="-62" lat="30.372936" lon="-97.746325" changeset="false"><tag k="addr:street" v="Summer Place Drive"/><tag k="addr:housenumber" v="8306"/><tag k="addr:postcode" v="78759"/></node><node id="-63" lat="30.372324" lon="-97.746672" changeset="false"><tag k="addr:street" v="Summer Place Drive"/><tag k="addr:housenumber" v="8220"/><tag k="addr:postcode" v="78759"/></node><node id="-64" lat="30.372329" lon="-97.747048" changeset="false"><tag k="addr:street" v="Steck Avenue"/><tag k="addr:housenumber" v="3740"/><tag k="addr:postcode" v="78759"/></node><node id="-65" lat="30.374933" lon="-97.745054" changeset="false"><tag k="addr:street" v="Honeysuckle Trail"/><tag k="addr:housenumber" v="8507"/><tag k="addr:postcode" v="78759"/></node><node id="-66" lat="30.372887" lon="-97.745412" changeset="false"><tag k="addr:street" v="Kentfield Road"/><tag k="addr:housenumber" v="3627"/><tag k="addr:postcode" v="78759"/></node><node id="-67" lat="30.372793" lon="-97.744155" changeset="false"><tag k="addr:street" v="Kentfield Road"/><tag k="addr:housenumber" v="3608"/><tag k="addr:postcode" v="78759"/></node><node id="-68" lat="30.372476" lon="-97.746289" changeset="false"><tag k="addr:street" v="Summer Place Drive"/><tag k="addr:housenumber" v="8228"/><tag k="addr:postcode" v="78759"/></node><node id="-69" lat="30.373368" lon="-97.747559" changeset="false"><tag k="addr:street" v="Summerwood Drive"/><tag k="addr:housenumber" v="8312"/><tag k="addr:postcode" v="78759"/></node><node id="-70" lat="30.374584" lon="-97.747698" changeset="false"><tag k="addr:street" v="Cima Serena Court"/><tag k="addr:housenumber" v="3805"/><tag k="addr:postcode" v="78759"/></node><node id="-71" lat="30.373812" lon="-97.747503" changeset="false"><tag k="addr:street" v="Summerwood Drive"/><tag k="addr:housenumber" v="8322"/><tag k="addr:postcode" v="78759"/></node><node id="-72" lat="30.375255" lon="-97.744858" changeset="false"><tag k="addr:street" v="Honeysuckle Trail"/><tag k="addr:housenumber" v="8601"/><tag k="addr:postcode" v="78759"/></node><node id="-73" lat="30.375506" lon="-97.744718" changeset="false"><tag k="addr:street" v="Honeysuckle Trail"/><tag k="addr:housenumber" v="8607"/><tag k="addr:postcode" v="78759"/></node><node id="-74" lat="30.376174" lon="-97.749339" changeset="false"><tag k="addr:street" v="Tallwood Drive"/><tag k="addr:housenumber" v="8405"/><tag k="addr:postcode" v="78759"/></node><node id="-75" lat="30.370706" lon="-97.746055" changeset="false"><tag k="addr:street" v="Summer Side Drive"/><tag k="addr:housenumber" v="8212"/><tag k="addr:postcode" v="78759"/></node><node id="-76" lat="30.371154" lon="-97.74104" changeset="false"><tag k="addr:street" v="North MoPac Expressway"/><tag k="addr:housenumber" v="8409"/><tag k="addr:postcode" v="78759"/></node><node id="-77" lat="30.373076" lon="-97.746701" changeset="false"><tag k="addr:street" v="Summerwood Drive"/><tag k="addr:housenumber" v="8341"/><tag k="addr:postcode" v="78759"/></node><node id="-78" lat="30.373001" lon="-97.743675" changeset="false"><tag k="addr:street" v="Claburn Drive"/><tag k="addr:housenumber" v="3623"/><tag k="addr:postcode" v="78759"/></node><node id="-79" lat="30.374671" lon="-97.745224" changeset="false"><tag k="addr:street" v="Honeysuckle Trail"/><tag k="addr:housenumber" v="8501"/><tag k="addr:postcode" v="78759"/></node><node id="-80" lat="30.372666" lon="-97.744001" changeset="false"><tag k="addr:street" v="Kentfield Road"/><tag k="addr:housenumber" v="3604"/><tag k="addr:postcode" v="78759"/></node><node id="-81" lat="30.372059" lon="-97.745659" changeset="false"><tag k="addr:street" v="Branigan Lane"/><tag k="addr:housenumber" v="3701"/><tag k="addr:postcode" v="78759"/></node><node id="-82" lat="30.372516" lon="-97.747707" changeset="false"><tag k="addr:street" v="Summerwood Drive"/><tag k="addr:housenumber" v="8209"/><tag k="addr:postcode" v="78759"/></node><node id="-83" lat="30.371973" lon="-97.744547" changeset="false"><tag k="addr:street" v="Summer Side Drive"/><tag k="addr:housenumber" v="8302"/><tag k="addr:postcode" v="78759"/></node><node id="-84" lat="30.37124" lon="-97.745841" changeset="false"><tag k="addr:street" v="Summer Side Drive"/><tag k="addr:housenumber" v="8226"/><tag k="addr:postcode" v="78759"/></node><node id="-85" lat="30.376532" lon="-97.743516" changeset="false"><tag k="addr:street" v="Willowick Drive"/><tag k="addr:housenumber" v="8618"/><tag k="addr:postcode" v="78759"/></node><node id="-86" lat="30.369759" lon="-97.743314" changeset="false"><tag k="addr:street" v="North MoPac Expressway"/><tag k="addr:housenumber" v="8200"/><tag k="addr:postcode" v="78759"/></node><node id="-87" lat="30.372865" lon="-97.744431" changeset="false"><tag k="addr:street" v="Kentfield Road"/><tag k="addr:housenumber" v="3614"/><tag k="addr:postcode" v="78759"/></node><node id="-88" lat="30.372578" lon="-97.743664" changeset="false"><tag k="addr:street" v="Bent Tree Road"/><tag k="addr:housenumber" v="8410"/><tag k="addr:postcode" v="78759"/></node><node id="-89" lat="30.372322" lon="-97.746138" changeset="false"><tag k="addr:street" v="Summer Place Drive"/><tag k="addr:housenumber" v="8225"/><tag k="addr:postcode" v="78759"/></node><node id="-90" lat="30.371707" lon="-97.744708" changeset="false"><tag k="addr:street" v="Branigan Lane"/><tag k="addr:housenumber" v="3600"/><tag k="addr:postcode" v="78759"/></node><node id="-91" lat="30.373328" lon="-97.743935" changeset="false"><tag k="addr:street" v="Claburn Drive"/><tag k="addr:housenumber" v="3613"/><tag k="addr:postcode" v="78759"/></node><node id="-92" lat="30.373679" lon="-97.743329" changeset="false"><tag k="addr:street" v="Cima Serena Court"/><tag k="addr:housenumber" v="3615"/><tag k="addr:postcode" v="78759"/></node><node id="-93" lat="30.371954" lon="-97.746704" changeset="false"><tag k="addr:street" v="Summer Place Drive"/><tag k="addr:housenumber" v="8226"/><tag k="addr:postcode" v="78759"/></node><node id="-94" lat="30.374201" lon="-97.743892" changeset="false"><tag k="addr:street" v="Cima Serena Court"/><tag k="addr:housenumber" v="3616"/><tag k="addr:postcode" v="78759"/></node><node id="-95" lat="30.373815" lon="-97.747787" changeset="false"><tag k="addr:street" v="Woodbrook Circle"/><tag k="addr:housenumber" v="3800"/><tag k="addr:postcode" v="78759"/></node><node id="-96" lat="30.372258" lon="-97.746418" changeset="false"><tag k="addr:street" v="Summer Place Drive"/><tag k="addr:housenumber" v="8222"/><tag k="addr:postcode" v="78759"/></node><node id="-97" lat="30.374414" lon="-97.747455" changeset="false"><tag k="addr:street" v="Cima Serena Court"/><tag k="addr:housenumber" v="3803"/><tag k="addr:postcode" v="78759"/></node><node id="-98" lat="30.370387" lon="-97.741367" changeset="false"><tag k="addr:street" v="North MoPac Expressway"/><tag k="addr:housenumber" v="8341"/><tag k="addr:postcode" v="78759"/></node><node id="-99" lat="30.369929" lon="-97.741548" changeset="false"><tag k="addr:street" v="North MoPac Expressway"/><tag k="addr:housenumber" v="8301"/><tag k="addr:postcode" v="78759"/></node><node id="-100" lat="30.374717" lon="-97.744726" changeset="false"><tag k="addr:street" v="Cima Serena Court"/><tag k="addr:housenumber" v="3708"/><tag k="addr:postcode" v="78759"/></node><node id="-101" lat="30.37327" lon="-97.743784" changeset="false"><tag k="addr:street" v="Claburn Drive"/><tag k="addr:housenumber" v="3611"/><tag k="addr:postcode" v="78759"/></node><node id="-102" lat="30.373709" lon="-97.744025" changeset="false"><tag k="addr:street" v="Claburn Drive"/><tag k="addr:housenumber" v="3616"/><tag k="addr:postcode" v="78759"/></node><node id="-103" lat="30.371879" lon="-97.744395" changeset="false"><tag k="addr:street" v="Summer Side Drive"/><tag k="addr:housenumber" v="8306"/><tag k="addr:postcode" v="78759"/></node><node id="-104" lat="30.371045" lon="-97.745708" changeset="false"><tag k="addr:street" v="Summer Side Drive"/><tag k="addr:housenumber" v="8224"/><tag k="addr:postcode" v="78759"/></node><node id="-105" lat="30.372132" lon="-97.746008" changeset="false"><tag k="addr:street" v="Summer Place Drive"/><tag k="addr:housenumber" v="8223"/><tag k="addr:postcode" v="78759"/></node><node id="-106" lat="30.372392" lon="-97.745946" changeset="false"><tag k="addr:street" v="Summer Place Drive"/><tag k="addr:housenumber" v="8227"/><tag k="addr:postcode" v="78759"/></node><node id="-107" lat="30.370323" lon="-97.746045" changeset="false"><tag k="addr:street" v="Summer Side Drive"/><tag k="addr:housenumber" v="8205"/><tag k="addr:postcode" v="78759"/></node><node id="-108" lat="30.373978" lon="-97.740944" changeset="false"><tag k="addr:street" v="Hyridge Drive"/><tag k="addr:housenumber" v="3503"/><tag k="addr:postcode" v="78759"/></node><node id="-109" lat="30.373918" lon="-97.740905" changeset="false"><tag k="addr:street" v="Hyridge Drive"/><tag k="addr:housenumber" v="3501"/><tag k="addr:postcode" v="78759"/></node><node id="-110" lat="30.374072" lon="-97.741244" changeset="false"><tag k="addr:street" v="Hyridge Drive"/><tag k="addr:housenumber" v="3507"/><tag k="addr:postcode" v="78759"/></node><node id="-111" lat="30.374275" lon="-97.741176" changeset="false"><tag k="addr:street" v="Hyridge Drive"/><tag k="addr:housenumber" v="3517"/><tag k="addr:postcode" v="78759"/></node><node id="-112" lat="30.374225" lon="-97.741193" changeset="false"><tag k="addr:street" v="Hyridge Drive"/><tag k="addr:housenumber" v="3515"/><tag k="addr:postcode" v="78759"/></node><node id="-113" lat="30.37417" lon="-97.741211" changeset="false"><tag k="addr:street" v="Hyridge Drive"/><tag k="addr:housenumber" v="3511"/><tag k="addr:postcode" v="78759"/></node><node id="-114" lat="30.374326" lon="-97.741158" changeset="false"><tag k="addr:street" v="Hyridge Drive"/><tag k="addr:housenumber" v="3519"/><tag k="addr:postcode" v="78759"/></node><node id="-115" lat="30.374121" lon="-97.741227" changeset="false"><tag k="addr:street" v="Hyridge Drive"/><tag k="addr:housenumber" v="3509"/><tag k="addr:postcode" v="78759"/></node><node id="-116" lat="30.372398" lon="-97.744358" changeset="false"><tag k="addr:street" v="Kentfield Road"/><tag k="addr:housenumber" v="3607"/><tag k="addr:postcode" v="78759"/></node><node id="-117" lat="30.372334" lon="-97.744146" changeset="false"><tag k="addr:street" v="Kentfield Road"/><tag k="addr:housenumber" v="3603"/><tag k="addr:postcode" v="78759"/></node><node id="-118" lat="30.37248" lon="-97.744567" changeset="false"><tag k="addr:street" v="Kentfield Road"/><tag k="addr:housenumber" v="3611"/><tag k="addr:postcode" v="78759"/></node><node id="-119" lat="30.372459" lon="-97.744216" changeset="false"><tag k="addr:street" v="Kentfield Road"/><tag k="addr:housenumber" v="3605"/><tag k="addr:postcode" v="78759"/></node><node id="-120" lat="30.372551" lon="-97.744433" changeset="false"><tag k="addr:street" v="Kentfield Road"/><tag k="addr:housenumber" v="3609"/><tag k="addr:postcode" v="78759"/></node><node id="-121" lat="30.372654" lon="-97.744645" changeset="false"><tag k="addr:street" v="Kentfield Road"/><tag k="addr:housenumber" v="3613"/><tag k="addr:postcode" v="78759"/></node><node id="-122" lat="30.372656" lon="-97.745005" changeset="false"><tag k="addr:street" v="Kentfield Road"/><tag k="addr:housenumber" v="3619"/><tag k="addr:postcode" v="78759"/></node><node id="-123" lat="30.372738" lon="-97.744854" changeset="false"><tag k="addr:street" v="Kentfield Road"/><tag k="addr:housenumber" v="3617"/><tag k="addr:postcode" v="78759"/></node><node id="-124" lat="30.372589" lon="-97.74479" changeset="false"><tag k="addr:street" v="Kentfield Road"/><tag k="addr:housenumber" v="3615"/><tag k="addr:postcode" v="78759"/></node><node id="-125" lat="30.372772" lon="-97.743802" changeset="false"><tag k="addr:street" v="Kentfield Road"/><tag k="addr:housenumber" v="3602"/><tag k="addr:postcode" v="78759"/></node><node id="-126" lat="30.372859" lon="-97.74401" changeset="false"><tag k="addr:street" v="Kentfield Road"/><tag k="addr:housenumber" v="3606"/><tag k="addr:postcode" v="78759"/></node><node id="-127" lat="30.373047" lon="-97.744476" changeset="false"><tag k="addr:street" v="Kentfield Road"/><tag k="addr:housenumber" v="3616"/><tag k="addr:postcode" v="78759"/></node><node id="-128" lat="30.37296" lon="-97.744267" changeset="false"><tag k="addr:street" v="Kentfield Road"/><tag k="addr:housenumber" v="3612"/><tag k="addr:postcode" v="78759"/></node><node id="-129" lat="30.373575" lon="-97.74366" changeset="false"><tag k="addr:street" v="Claburn Drive"/><tag k="addr:housenumber" v="3610"/><tag k="addr:postcode" v="78759"/></node><node id="-130" lat="30.373661" lon="-97.743799" changeset="false"><tag k="addr:street" v="Claburn Drive"/><tag k="addr:housenumber" v="3612"/><tag k="addr:postcode" v="78759"/></node><node id="-131" lat="30.373397" lon="-97.744216" changeset="false"><tag k="addr:street" v="Claburn Drive"/><tag k="addr:housenumber" v="3617"/><tag k="addr:postcode" v="78759"/></node><node id="-132" lat="30.373474" lon="-97.744391" changeset="false"><tag k="addr:street" v="Claburn Drive"/><tag k="addr:housenumber" v="3621"/><tag k="addr:postcode" v="78759"/></node><node id="-133" lat="30.373456" lon="-97.744032" changeset="false"><tag k="addr:street" v="Claburn Drive"/><tag k="addr:housenumber" v="3615"/><tag k="addr:postcode" v="78759"/></node><node id="-134" lat="30.373535" lon="-97.744242" changeset="false"><tag k="addr:street" v="Claburn Drive"/><tag k="addr:housenumber" v="3619"/><tag k="addr:postcode" v="78759"/></node><node id="-135" lat="30.373613" lon="-97.744874" changeset="false"><tag k="addr:street" v="Claburn Drive"/><tag k="addr:housenumber" v="3703"/><tag k="addr:postcode" v="78759"/></node><node id="-136" lat="30.373693" lon="-97.744702" changeset="false"><tag k="addr:street" v="Claburn Drive"/><tag k="addr:housenumber" v="3701"/><tag k="addr:postcode" v="78759"/></node><node id="-137" lat="30.374187" lon="-97.744785" changeset="false"><tag k="addr:street" v="Claburn Drive"/><tag k="addr:housenumber" v="3711"/><tag k="addr:postcode" v="78759"/></node><node id="-138" lat="30.373898" lon="-97.744946" changeset="false"><tag k="addr:street" v="Claburn Drive"/><tag k="addr:housenumber" v="3705"/><tag k="addr:postcode" v="78759"/></node><node id="-139" lat="30.374103" lon="-97.744871" changeset="false"><tag k="addr:street" v="Claburn Drive"/><tag k="addr:housenumber" v="3709"/><tag k="addr:postcode" v="78759"/></node><node id="-140" lat="30.374004" lon="-97.744888" changeset="false"><tag k="addr:street" v="Claburn Drive"/><tag k="addr:housenumber" v="3707"/><tag k="addr:postcode" v="78759"/></node><node id="-141" lat="30.373944" lon="-97.744227" changeset="false"><tag k="addr:street" v="Claburn Drive"/><tag k="addr:housenumber" v="3622"/><tag k="addr:postcode" v="78759"/></node><node id="-142" lat="30.373878" lon="-97.744369" changeset="false"><tag k="addr:street" v="Claburn Drive"/><tag k="addr:housenumber" v="3624"/><tag k="addr:postcode" v="78759"/></node><node id="-143" lat="30.374055" lon="-97.74441" changeset="false"><tag k="addr:street" v="Claburn Drive"/><tag k="addr:housenumber" v="3700"/><tag k="addr:postcode" v="78759"/></node><node id="-144" lat="30.371322" lon="-97.744149" changeset="false"><tag k="addr:street" v="Summer Side Drive"/><tag k="addr:housenumber" v="8313"/><tag k="addr:postcode" v="78759"/></node><node id="-145" lat="30.37146" lon="-97.74449" changeset="false"><tag k="addr:street" v="Summer Side Drive"/><tag k="addr:housenumber" v="8305"/><tag k="addr:postcode" v="78759"/></node><node id="-146" lat="30.371402" lon="-97.74434" changeset="false"><tag k="addr:street" v="Summer Side Drive"/><tag k="addr:housenumber" v="8309"/><tag k="addr:postcode" v="78759"/></node><node id="-147" lat="30.371405" lon="-97.744899" changeset="false"><tag k="addr:street" v="Summer Side Drive"/><tag k="addr:housenumber" v="8243"/><tag k="addr:postcode" v="78759"/></node><node id="-148" lat="30.371435" lon="-97.744709" changeset="false"><tag k="addr:street" v="Summer Side Drive"/><tag k="addr:housenumber" v="8301"/><tag k="addr:postcode" v="78759"/></node><node id="-149" lat="30.371976" lon="-97.743991" changeset="false"><tag k="addr:street" v="Bent Tree Road"/><tag k="addr:housenumber" v="8316"/><tag k="addr:postcode" v="78759"/></node><node id="-150" lat="30.372117" lon="-97.744065" changeset="false"><tag k="addr:street" v="Bent Tree Road"/><tag k="addr:housenumber" v="8318"/><tag k="addr:postcode" v="78759"/></node><node id="-151" lat="30.371828" lon="-97.744036" changeset="false"><tag k="addr:street" v="Bent Tree Road"/><tag k="addr:housenumber" v="8312"/><tag k="addr:postcode" v="78759"/></node><node id="-152" lat="30.37196" lon="-97.744165" changeset="false"><tag k="addr:street" v="Bent Tree Road"/><tag k="addr:housenumber" v="8314"/><tag k="addr:postcode" v="78759"/></node><node id="-153" lat="30.372904" lon="-97.745858" changeset="false"><tag k="addr:street" v="Summer Place Drive"/><tag k="addr:housenumber" v="8307"/><tag k="addr:postcode" v="78759"/></node><node id="-154" lat="30.372742" lon="-97.745727" changeset="false"><tag k="addr:street" v="Summer Place Drive"/><tag k="addr:housenumber" v="8305"/><tag k="addr:postcode" v="78759"/></node><node id="-155" lat="30.372976" lon="-97.746555" changeset="false"><tag k="addr:street" v="Summerwood Drive"/><tag k="addr:housenumber" v="8345"/><tag k="addr:postcode" v="78759"/></node><node id="-156" lat="30.373163" lon="-97.746522" changeset="false"><tag k="addr:street" v="Summerwood Drive"/><tag k="addr:housenumber" v="8343"/><tag k="addr:postcode" v="78759"/></node><node id="-157" lat="30.373119" lon="-97.74531" changeset="false"><tag k="addr:street" v="Kentfield Road"/><tag k="addr:housenumber" v="3629"/><tag k="addr:postcode" v="78759"/></node><node id="-158" lat="30.373367" lon="-97.745057" changeset="false"><tag k="addr:street" v="Kentfield Road"/><tag k="addr:housenumber" v="3635"/><tag k="addr:postcode" v="78759"/></node><node id="-159" lat="30.373185" lon="-97.745171" changeset="false"><tag k="addr:street" v="Kentfield Road"/><tag k="addr:housenumber" v="3631"/><tag k="addr:postcode" v="78759"/></node><node id="-160" lat="30.373296" lon="-97.745205" changeset="false"><tag k="addr:street" v="Kentfield Road"/><tag k="addr:housenumber" v="3633"/><tag k="addr:postcode" v="78759"/></node><node id="-161" lat="30.373136" lon="-97.746033" changeset="false"><tag k="addr:street" v="Summerwood Drive"/><tag k="addr:housenumber" v="8352"/><tag k="addr:postcode" v="78759"/></node><node id="-162" lat="30.37337" lon="-97.746323" changeset="false"><tag k="addr:street" v="Summerwood Drive"/><tag k="addr:housenumber" v="8344"/><tag k="addr:postcode" v="78759"/></node><node id="-163" lat="30.373222" lon="-97.745994" changeset="false"><tag k="addr:street" v="Summer Place Drive"/><tag k="addr:housenumber" v="8316"/><tag k="addr:postcode" v="78759"/></node><node id="-164" lat="30.37331" lon="-97.746049" changeset="false"><tag k="addr:street" v="Summerwood Drive"/><tag k="addr:housenumber" v="8350"/><tag k="addr:postcode" v="78759"/></node><node id="-165" lat="30.373536" lon="-97.746372" changeset="false"><tag k="addr:street" v="Summerwood Drive"/><tag k="addr:housenumber" v="8342"/><tag k="addr:postcode" v="78759"/></node><node id="-166" lat="30.373415" lon="-97.746208" changeset="false"><tag k="addr:street" v="Summerwood Drive"/><tag k="addr:housenumber" v="8346"/><tag k="addr:postcode" v="78759"/></node><node id="-167" lat="30.373238" lon="-97.746191" changeset="false"><tag k="addr:street" v="Summerwood Drive"/><tag k="addr:housenumber" v="8348"/><tag k="addr:postcode" v="78759"/></node><node id="-168" lat="30.37312" lon="-97.74575" changeset="false"><tag k="addr:street" v="Summer Place Drive"/><tag k="addr:housenumber" v="8311"/><tag k="addr:postcode" v="78759"/></node><node id="-169" lat="30.372944" lon="-97.745617" changeset="false"><tag k="addr:street" v="Summer Place Drive"/><tag k="addr:housenumber" v="8309"/><tag k="addr:postcode" v="78759"/></node><node id="-170" lat="30.373529" lon="-97.745644" changeset="false"><tag k="addr:street" v="Summer Place Drive"/><tag k="addr:housenumber" v="8323"/><tag k="addr:postcode" v="78759"/></node><node id="-171" lat="30.373528" lon="-97.745542" changeset="false"><tag k="addr:street" v="Summer Place Drive"/><tag k="addr:housenumber" v="8321"/><tag k="addr:postcode" v="78759"/></node><node id="-172" lat="30.373459" lon="-97.745675" changeset="false"><tag k="addr:street" v="Summer Place Drive"/><tag k="addr:housenumber" v="8319"/><tag k="addr:postcode" v="78759"/></node><node id="-173" lat="30.373382" lon="-97.745548" changeset="false"><tag k="addr:street" v="Summer Place Drive"/><tag k="addr:housenumber" v="8317"/><tag k="addr:postcode" v="78759"/></node><node id="-174" lat="30.373191" lon="-97.745618" changeset="false"><tag k="addr:street" v="Summer Place Drive"/><tag k="addr:housenumber" v="8313"/><tag k="addr:postcode" v="78759"/></node><node id="-175" lat="30.373297" lon="-97.745701" changeset="false"><tag k="addr:street" v="Summer Place Drive"/><tag k="addr:housenumber" v="8315"/><tag k="addr:postcode" v="78759"/></node><node id="-176" lat="30.373666" lon="-97.74652" changeset="false"><tag k="addr:street" v="Summerwood Drive"/><tag k="addr:housenumber" v="8336"/><tag k="addr:postcode" v="78759"/></node><node id="-177" lat="30.37373" lon="-97.746698" changeset="false"><tag k="addr:street" v="Summerwood Drive"/><tag k="addr:housenumber" v="8332"/><tag k="addr:postcode" v="78759"/></node><node id="-178" lat="30.373629" lon="-97.746853" changeset="false"><tag k="addr:street" v="Summerwood Drive"/><tag k="addr:housenumber" v="8330"/><tag k="addr:postcode" v="78759"/></node><node id="-179" lat="30.373562" lon="-97.746676" changeset="false"><tag k="addr:street" v="Summerwood Drive"/><tag k="addr:housenumber" v="8334"/><tag k="addr:postcode" v="78759"/></node><node id="-180" lat="30.373498" lon="-97.746521" changeset="false"><tag k="addr:street" v="Summerwood Drive"/><tag k="addr:housenumber" v="8338"/><tag k="addr:postcode" v="78759"/></node><node id="-181" lat="30.373807" lon="-97.746847" changeset="false"><tag k="addr:street" v="Summerwood Drive"/><tag k="addr:housenumber" v="8328"/><tag k="addr:postcode" v="78759"/></node><node id="-182" lat="30.373745" lon="-97.746097" changeset="false"><tag k="addr:street" v="Summer Place Drive"/><tag k="addr:housenumber" v="8322"/><tag k="addr:postcode" v="78759"/></node><node id="-183" lat="30.373611" lon="-97.745993" changeset="false"><tag k="addr:street" v="Summer Place Drive"/><tag k="addr:housenumber" v="8320"/><tag k="addr:postcode" v="78759"/></node><node id="-184" lat="30.373597" lon="-97.746219" changeset="false"><tag k="addr:street" v="Summer Place Drive"/><tag k="addr:housenumber" v="8318"/><tag k="addr:postcode" v="78759"/></node><node id="-185" lat="30.370976" lon="-97.746357" changeset="false"><tag k="addr:street" v="Steck Avenue"/><tag k="addr:housenumber" v="3708"/><tag k="addr:postcode" v="78759"/></node><node id="-186" lat="30.37115" lon="-97.746576" changeset="false"><tag k="addr:street" v="Steck Avenue"/><tag k="addr:housenumber" v="3714"/><tag k="addr:postcode" v="78759"/></node><node id="-187" lat="30.371274" lon="-97.746434" changeset="false"><tag k="addr:street" v="Steck Avenue"/><tag k="addr:housenumber" v="3716"/><tag k="addr:postcode" v="78759"/></node><node id="-188" lat="30.371007" lon="-97.746528" changeset="false"><tag k="addr:street" v="Steck Avenue"/><tag k="addr:housenumber" v="3710"/><tag k="addr:postcode" v="78759"/></node><node id="-189" lat="30.371114" lon="-97.746392" changeset="false"><tag k="addr:street" v="Steck Avenue"/><tag k="addr:housenumber" v="3712"/><tag k="addr:postcode" v="78759"/></node><node id="-190" lat="30.371443" lon="-97.745387" changeset="false"><tag k="addr:street" v="Summer Side Drive"/><tag k="addr:housenumber" v="8236"/><tag k="addr:postcode" v="78759"/></node><node id="-191" lat="30.371642" lon="-97.745436" changeset="false"><tag k="addr:street" v="Summer Side Drive"/><tag k="addr:housenumber" v="8238"/><tag k="addr:postcode" v="78759"/></node><node id="-192" lat="30.371829" lon="-97.745164" changeset="false"><tag k="addr:street" v="Summer Side Drive"/><tag k="addr:housenumber" v="8246"/><tag k="addr:postcode" v="78759"/></node><node id="-193" lat="30.371716" lon="-97.745297" changeset="false"><tag k="addr:street" v="Summer Side Drive"/><tag k="addr:housenumber" v="8242"/><tag k="addr:postcode" v="78759"/></node><node id="-194" lat="30.371677" lon="-97.74513" changeset="false"><tag k="addr:street" v="Summer Side Drive"/><tag k="addr:housenumber" v="8244"/><tag k="addr:postcode" v="78759"/></node><node id="-195" lat="30.371578" lon="-97.745266" changeset="false"><tag k="addr:street" v="Summer Side Drive"/><tag k="addr:housenumber" v="8240"/><tag k="addr:postcode" v="78759"/></node><node id="-196" lat="30.371733" lon="-97.746267" changeset="false"><tag k="addr:street" v="Summer Place Drive"/><tag k="addr:housenumber" v="8213"/><tag k="addr:postcode" v="78759"/></node><node id="-197" lat="30.371609" lon="-97.746402" changeset="false"><tag k="addr:street" v="Summer Place Drive"/><tag k="addr:housenumber" v="8209"/><tag k="addr:postcode" v="78759"/></node><node id="-198" lat="30.371892" lon="-97.746396" changeset="false"><tag k="addr:street" v="Summer Place Drive"/><tag k="addr:housenumber" v="8215"/><tag k="addr:postcode" v="78759"/></node><node id="-199" lat="30.371759" lon="-97.746493" changeset="false"><tag k="addr:street" v="Summer Place Drive"/><tag k="addr:housenumber" v="8211"/><tag k="addr:postcode" v="78759"/></node><node id="-200" lat="30.371657" lon="-97.746608" changeset="false"><tag k="addr:street" v="Summer Place Drive"/><tag k="addr:housenumber" v="8207"/><tag k="addr:postcode" v="78759"/></node><node id="-201" lat="30.372525" lon="-97.745585" changeset="false"><tag k="addr:street" v="Branigan Lane"/><tag k="addr:housenumber" v="3704"/><tag k="addr:postcode" v="78759"/></node><node id="-202" lat="30.372447" lon="-97.745423" changeset="false"><tag k="addr:street" v="Branigan Lane"/><tag k="addr:housenumber" v="3700"/><tag k="addr:postcode" v="78759"/></node><node id="-203" lat="30.372394" lon="-97.745252" changeset="false"><tag k="addr:street" v="Branigan Lane"/><tag k="addr:housenumber" v="3614"/><tag k="addr:postcode" v="78759"/></node><node id="-204" lat="30.372348" lon="-97.745553" changeset="false"><tag k="addr:street" v="Branigan Lane"/><tag k="addr:housenumber" v="3702"/><tag k="addr:postcode" v="78759"/></node><node id="-205" lat="30.372274" lon="-97.745398" changeset="false"><tag k="addr:street" v="Branigan Lane"/><tag k="addr:housenumber" v="3616"/><tag k="addr:postcode" v="78759"/></node><node id="-206" lat="30.372415" lon="-97.745715" changeset="false"><tag k="addr:street" v="Branigan Lane"/><tag k="addr:housenumber" v="3706"/><tag k="addr:postcode" v="78759"/></node><node id="-207" lat="30.372068" lon="-97.744761" changeset="false"><tag k="addr:street" v="Branigan Lane"/><tag k="addr:housenumber" v="3602"/><tag k="addr:postcode" v="78759"/></node><node id="-208" lat="30.37228" lon="-97.745031" changeset="false"><tag k="addr:street" v="Branigan Lane"/><tag k="addr:housenumber" v="3610"/><tag k="addr:postcode" v="78759"/></node><node id="-209" lat="30.371997" lon="-97.74493" changeset="false"><tag k="addr:street" v="Branigan Lane"/><tag k="addr:housenumber" v="3604"/><tag k="addr:postcode" v="78759"/></node><node id="-210" lat="30.372115" lon="-97.745041" changeset="false"><tag k="addr:street" v="Branigan Lane"/><tag k="addr:housenumber" v="3608"/><tag k="addr:postcode" v="78759"/></node><node id="-211" lat="30.372195" lon="-97.744896" changeset="false"><tag k="addr:street" v="Branigan Lane"/><tag k="addr:housenumber" v="3606"/><tag k="addr:postcode" v="78759"/></node><node id="-212" lat="30.371938" lon="-97.7461" changeset="false"><tag k="addr:street" v="Summer Place Drive"/><tag k="addr:housenumber" v="8219"/><tag k="addr:postcode" v="78759"/></node><node id="-213" lat="30.372095" lon="-97.746242" changeset="false"><tag k="addr:street" v="Summer Place Drive"/><tag k="addr:housenumber" v="8221"/><tag k="addr:postcode" v="78759"/></node><node id="-214" lat="30.372775" lon="-97.746409" changeset="false"><tag k="addr:street" v="Summer Place Drive"/><tag k="addr:housenumber" v="8302"/><tag k="addr:postcode" v="78759"/></node><node id="-215" lat="30.372795" lon="-97.746164" changeset="false"><tag k="addr:street" v="Summer Place Drive"/><tag k="addr:housenumber" v="8304"/><tag k="addr:postcode" v="78759"/></node><node id="-216" lat="30.372637" lon="-97.74624" changeset="false"><tag k="addr:street" v="Summer Place Drive"/><tag k="addr:housenumber" v="8300"/><tag k="addr:postcode" v="78759"/></node><node id="-217" lat="30.372893" lon="-97.745163" changeset="false"><tag k="addr:street" v="Kentfield Road"/><tag k="addr:housenumber" v="3625"/><tag k="addr:postcode" v="78759"/></node><node id="-218" lat="30.372718" lon="-97.745202" changeset="false"><tag k="addr:street" v="Kentfield Road"/><tag k="addr:housenumber" v="3623"/><tag k="addr:postcode" v="78759"/></node><node id="-219" lat="30.370572" lon="-97.745717" changeset="false"><tag k="addr:street" v="Summer Side Drive"/><tag k="addr:housenumber" v="8215"/><tag k="addr:postcode" v="78759"/></node><node id="-220" lat="30.370837" lon="-97.74551" changeset="false"><tag k="addr:street" v="Summer Side Drive"/><tag k="addr:housenumber" v="8223"/><tag k="addr:postcode" v="78759"/></node><node id="-221" lat="30.370699" lon="-97.745618" changeset="false"><tag k="addr:street" v="Summer Side Drive"/><tag k="addr:housenumber" v="8219"/><tag k="addr:postcode" v="78759"/></node><node id="-222" lat="30.370734" lon="-97.746255" changeset="false"><tag k="addr:street" v="Steck Avenue"/><tag k="addr:housenumber" v="3702"/><tag k="addr:postcode" v="78759"/></node><node id="-223" lat="30.37061" lon="-97.746228" changeset="false"><tag k="addr:street" v="Steck Avenue"/><tag k="addr:housenumber" v="3700"/><tag k="addr:postcode" v="78759"/></node><node id="-224" lat="30.37069" lon="-97.746398" changeset="false"><tag k="addr:street" v="Steck Avenue"/><tag k="addr:housenumber" v="3704"/><tag k="addr:postcode" v="78759"/></node><node id="-225" lat="30.370847" lon="-97.746408" changeset="false"><tag k="addr:street" v="Steck Avenue"/><tag k="addr:housenumber" v="3706"/><tag k="addr:postcode" v="78759"/></node><node id="-226" lat="30.370897" lon="-97.745869" changeset="false"><tag k="addr:street" v="Summer Side Drive"/><tag k="addr:housenumber" v="8218"/><tag k="addr:postcode" v="78759"/></node><node id="-227" lat="30.370956" lon="-97.746092" changeset="false"><tag k="addr:street" v="Summer Side Drive"/><tag k="addr:housenumber" v="8216"/><tag k="addr:postcode" v="78759"/></node><node id="-228" lat="30.3711" lon="-97.745977" changeset="false"><tag k="addr:street" v="Summer Side Drive"/><tag k="addr:housenumber" v="8220"/><tag k="addr:postcode" v="78759"/></node><node id="-229" lat="30.370783" lon="-97.745957" changeset="false"><tag k="addr:street" v="Summer Side Drive"/><tag k="addr:housenumber" v="8214"/><tag k="addr:postcode" v="78759"/></node><node id="-230" lat="30.370906" lon="-97.745364" changeset="false"><tag k="addr:street" v="Summer Side Drive"/><tag k="addr:housenumber" v="8227"/><tag k="addr:postcode" v="78759"/></node><node id="-231" lat="30.371118" lon="-97.745254" changeset="false"><tag k="addr:street" v="Summer Side Drive"/><tag k="addr:housenumber" v="8233"/><tag k="addr:postcode" v="78759"/></node><node id="-232" lat="30.371159" lon="-97.745111" changeset="false"><tag k="addr:street" v="Summer Side Drive"/><tag k="addr:housenumber" v="8235"/><tag k="addr:postcode" v="78759"/></node><node id="-233" lat="30.371256" lon="-97.745119" changeset="false"><tag k="addr:street" v="Summer Side Drive"/><tag k="addr:housenumber" v="8237"/><tag k="addr:postcode" v="78759"/></node><node id="-234" lat="30.371016" lon="-97.745221" changeset="false"><tag k="addr:street" v="Summer Side Drive"/><tag k="addr:housenumber" v="8231"/><tag k="addr:postcode" v="78759"/></node><node id="-235" lat="30.371005" lon="-97.745349" changeset="false"><tag k="addr:street" v="Summer Side Drive"/><tag k="addr:housenumber" v="8229"/><tag k="addr:postcode" v="78759"/></node><node id="-236" lat="30.373773" lon="-97.748833" changeset="false"><tag k="addr:street" v="Greenslope Drive"/><tag k="addr:housenumber" v="8303"/><tag k="addr:postcode" v="78759"/></node><node id="-237" lat="30.373659" lon="-97.748649" changeset="false"><tag k="addr:street" v="Greenslope Drive"/><tag k="addr:housenumber" v="8301"/><tag k="addr:postcode" v="78759"/></node><node id="-238" lat="30.373841" lon="-97.748637" changeset="false"><tag k="addr:street" v="Greenslope Drive"/><tag k="addr:housenumber" v="8305"/><tag k="addr:postcode" v="78759"/></node><node id="-239" lat="30.374151" lon="-97.74872" changeset="false"><tag k="addr:street" v="Greenslope Drive"/><tag k="addr:housenumber" v="8307"/><tag k="addr:postcode" v="78759"/></node><node id="-240" lat="30.374167" lon="-97.748723" changeset="false"><tag k="addr:street" v="Woodbrook Circle"/><tag k="addr:housenumber" v="3809"/><tag k="addr:postcode" v="78759"/></node><node id="-241" lat="30.372868" lon="-97.747992" changeset="false"><tag k="addr:street" v="Steck Avenue"/><tag k="addr:housenumber" v="3766"/><tag k="addr:postcode" v="78759"/></node><node id="-242" lat="30.372739" lon="-97.748282" changeset="false"><tag k="addr:street" v="Steck Avenue"/><tag k="addr:housenumber" v="3802"/><tag k="addr:postcode" v="78759"/></node><node id="-243" lat="30.372714" lon="-97.74798" changeset="false"><tag k="addr:street" v="Summerwood Drive"/><tag k="addr:housenumber" v="8210"/><tag k="addr:postcode" v="78759"/></node><node id="-244" lat="30.372719" lon="-97.748105" changeset="false"><tag k="addr:street" v="Steck Avenue"/><tag k="addr:housenumber" v="3768"/><tag k="addr:postcode" v="78759"/></node><node id="-245" lat="30.372894" lon="-97.748183" changeset="false"><tag k="addr:street" v="Steck Avenue"/><tag k="addr:housenumber" v="3800"/><tag k="addr:postcode" v="78759"/></node><node id="-246" lat="30.37199" lon="-97.746881" changeset="false"><tag k="addr:street" v="Steck Avenue"/><tag k="addr:housenumber" v="3734"/><tag k="addr:postcode" v="78759"/></node><node id="-247" lat="30.372106" lon="-97.747019" changeset="false"><tag k="addr:street" v="Steck Avenue"/><tag k="addr:housenumber" v="3738"/><tag k="addr:postcode" v="78759"/></node><node id="-248" lat="30.372229" lon="-97.746877" changeset="false"><tag k="addr:street" v="Steck Avenue"/><tag k="addr:housenumber" v="3736"/><tag k="addr:postcode" v="78759"/></node><node id="-249" lat="30.372186" lon="-97.747189" changeset="false"><tag k="addr:street" v="Steck Avenue"/><tag k="addr:housenumber" v="3742"/><tag k="addr:postcode" v="78759"/></node><node id="-250" lat="30.372822" lon="-97.747233" changeset="false"><tag k="addr:street" v="Summerwood Drive"/><tag k="addr:housenumber" v="8303"/><tag k="addr:postcode" v="78759"/></node><node id="-251" lat="30.372936" lon="-97.747133" changeset="false"><tag k="addr:street" v="Summerwood Drive"/><tag k="addr:housenumber" v="8307"/><tag k="addr:postcode" v="78759"/></node><node id="-252" lat="30.372871" lon="-97.747446" changeset="false"><tag k="addr:street" v="Summerwood Drive"/><tag k="addr:housenumber" v="8301"/><tag k="addr:postcode" v="78759"/></node><node id="-253" lat="30.373046" lon="-97.747025" changeset="false"><tag k="addr:street" v="Summerwood Drive"/><tag k="addr:housenumber" v="8311"/><tag k="addr:postcode" v="78759"/></node><node id="-254" lat="30.373" lon="-97.747327" changeset="false"><tag k="addr:street" v="Summerwood Drive"/><tag k="addr:housenumber" v="8305"/><tag k="addr:postcode" v="78759"/></node><node id="-255" lat="30.373072" lon="-97.747767" changeset="false"><tag k="addr:street" v="Summerwood Drive"/><tag k="addr:housenumber" v="8304"/><tag k="addr:postcode" v="78759"/></node><node id="-256" lat="30.373203" lon="-97.74769" changeset="false"><tag k="addr:street" v="Summerwood Drive"/><tag k="addr:housenumber" v="8308"/><tag k="addr:postcode" v="78759"/></node><node id="-257" lat="30.373086" lon="-97.748034" changeset="false"><tag k="addr:street" v="Summerwood Drive"/><tag k="addr:housenumber" v="8302"/><tag k="addr:postcode" v="78759"/></node><node id="-258" lat="30.372402" lon="-97.747678" changeset="false"><tag k="addr:street" v="Summerwood Drive"/><tag k="addr:housenumber" v="8201"/><tag k="addr:postcode" v="78759"/></node><node id="-259" lat="30.372491" lon="-97.747566" changeset="false"><tag k="addr:street" v="Summerwood Drive"/><tag k="addr:housenumber" v="8203"/><tag k="addr:postcode" v="78759"/></node><node id="-260" lat="30.372671" lon="-97.747494" changeset="false"><tag k="addr:street" v="Summerwood Drive"/><tag k="addr:housenumber" v="8207"/><tag k="addr:postcode" v="78759"/></node><node id="-261" lat="30.373086" lon="-97.74873" changeset="false"><tag k="addr:street" v="Steck Avenue"/><tag k="addr:housenumber" v="3816"/><tag k="addr:postcode" v="78759"/></node><node id="-262" lat="30.373151" lon="-97.748921" changeset="false"><tag k="addr:street" v="Steck Avenue"/><tag k="addr:housenumber" v="3820"/><tag k="addr:postcode" v="78759"/></node><node id="-263" lat="30.373012" lon="-97.748595" changeset="false"><tag k="addr:street" v="Steck Avenue"/><tag k="addr:housenumber" v="3812"/><tag k="addr:postcode" v="78759"/></node><node id="-264" lat="30.372914" lon="-97.748761" changeset="false"><tag k="addr:street" v="Steck Avenue"/><tag k="addr:housenumber" v="3814"/><tag k="addr:postcode" v="78759"/></node><node id="-265" lat="30.372841" lon="-97.748574" changeset="false"><tag k="addr:street" v="Steck Avenue"/><tag k="addr:housenumber" v="3810"/><tag k="addr:postcode" v="78759"/></node><node id="-266" lat="30.373049" lon="-97.749073" changeset="false"><tag k="addr:street" v="Steck Avenue"/><tag k="addr:housenumber" v="3822"/><tag k="addr:postcode" v="78759"/></node><node id="-267" lat="30.372999" lon="-97.748912" changeset="false"><tag k="addr:street" v="Steck Avenue"/><tag k="addr:housenumber" v="3818"/><tag k="addr:postcode" v="78759"/></node><node id="-268" lat="30.373368" lon="-97.746881" changeset="false"><tag k="addr:street" v="Summerwood Drive"/><tag k="addr:housenumber" v="8333"/><tag k="addr:postcode" v="78759"/></node><node id="-269" lat="30.373308" lon="-97.747092" changeset="false"><tag k="addr:street" v="Summerwood Drive"/><tag k="addr:housenumber" v="8325"/><tag k="addr:postcode" v="78759"/></node><node id="-270" lat="30.37329" lon="-97.746713" changeset="false"><tag k="addr:street" v="Summerwood Drive"/><tag k="addr:housenumber" v="8337"/><tag k="addr:postcode" v="78759"/></node><node id="-271" lat="30.373443" lon="-97.747043" changeset="false"><tag k="addr:street" v="Summerwood Drive"/><tag k="addr:housenumber" v="8329"/><tag k="addr:postcode" v="78759"/></node><node id="-272" lat="30.373342" lon="-97.747213" changeset="false"><tag k="addr:street" v="Summerwood Drive"/><tag k="addr:housenumber" v="8327"/><tag k="addr:postcode" v="78759"/></node><node id="-273" lat="30.373189" lon="-97.746869" changeset="false"><tag k="addr:street" v="Summerwood Drive"/><tag k="addr:housenumber" v="8335"/><tag k="addr:postcode" v="78759"/></node><node id="-274" lat="30.373309" lon="-97.74874" changeset="false"><tag k="addr:street" v="Greenslope Drive"/><tag k="addr:housenumber" v="8207"/><tag k="addr:postcode" v="78759"/></node><node id="-275" lat="30.373422" lon="-97.748883" changeset="false"><tag k="addr:street" v="Greenslope Drive"/><tag k="addr:housenumber" v="8209"/><tag k="addr:postcode" v="78759"/></node><node id="-276" lat="30.373266" lon="-97.748918" changeset="false"><tag k="addr:street" v="Greenslope Drive"/><tag k="addr:housenumber" v="8205"/><tag k="addr:postcode" v="78759"/></node><node id="-277" lat="30.373589" lon="-97.748845" changeset="false"><tag k="addr:street" v="Greenslope Drive"/><tag k="addr:housenumber" v="8213"/><tag k="addr:postcode" v="78759"/></node><node id="-278" lat="30.373456" lon="-97.748663" changeset="false"><tag k="addr:street" v="Greenslope Drive"/><tag k="addr:housenumber" v="8211"/><tag k="addr:postcode" v="78759"/></node><node id="-279" lat="30.373539" lon="-97.747729" changeset="false"><tag k="addr:street" v="Summerwood Drive"/><tag k="addr:housenumber" v="8314"/><tag k="addr:postcode" v="78759"/></node><node id="-280" lat="30.373498" lon="-97.747466" changeset="false"><tag k="addr:street" v="Summerwood Drive"/><tag k="addr:housenumber" v="8316"/><tag k="addr:postcode" v="78759"/></node><node id="-281" lat="30.373639" lon="-97.747362" changeset="false"><tag k="addr:street" v="Summerwood Drive"/><tag k="addr:housenumber" v="8320"/><tag k="addr:postcode" v="78759"/></node></osm>