<?xml version="1.0" encoding="UTF-8"?><osm version="0.6" generator="github.com/aaronlidman/osm-and-geojson"><node id="-1" lat="30.49473" lon="-97.762074" changeset="false"><tag k="addr:street" v="Morgan Creek Drive"/><tag k="addr:housenumber" v="9717"/><tag k="addr:postcode" v="78717"/></node><node id="-2" lat="30.497803" lon="-97.768258" changeset="false"><tag k="addr:street" v="Morgan Creek Court"/><tag k="addr:housenumber" v="15300 1/2"/><tag k="addr:postcode" v="78717"/></node><node id="-3" lat="30.483616" lon="-97.740623" changeset="false"><tag k="addr:street" v="Ranch-to-Market Road 620"/><tag k="addr:housenumber" v="15230"/><tag k="addr:postcode" v="78717"/></node><node id="-4" lat="30.49729" lon="-97.769771" changeset="false"><tag k="addr:street" v="Calaveras Drive"/><tag k="addr:housenumber" v="15243"/><tag k="addr:postcode" v="78717"/></node><node id="-5" lat="30.496346" lon="-97.766734" changeset="false"><tag k="addr:street" v="Whistling Straits Drive"/><tag k="addr:housenumber" v="15317 1/2"/><tag k="addr:postcode" v="78717"/></node><node id="-6" lat="30.500949" lon="-97.756012" changeset="false"><tag k="addr:street" v="Double Eagle Pass"/><tag k="addr:housenumber" v="10017"/><tag k="addr:postcode" v="78717"/></node><node id="-7" lat="30.484748" lon="-97.740692" changeset="false"><tag k="addr:street" v="Shady Lane"/><tag k="addr:housenumber" v="15418"/><tag k="addr:postcode" v="78717"/></node><node id="-8" lat="30.495169" lon="-97.744038" changeset="false"><tag k="addr:street" v="Dorman Drive"/><tag k="addr:housenumber" v="15831"/><tag k="addr:postcode" v="78717"/></node><node id="-9" lat="30.483237" lon="-97.741857" changeset="false"><tag k="addr:street" v="Ranch-to-Market Road 620"/><tag k="addr:housenumber" v="15218"/><tag k="addr:postcode" v="78717"/></node><node id="-10" lat="30.497233" lon="-97.771496" changeset="false"><tag k="addr:street" v="Interlachen Drive"/><tag k="addr:housenumber" v="15420"/><tag k="addr:postcode" v="78717"/></node><node id="-11" lat="30.485504" lon="-97.764483" changeset="false"><tag k="addr:street" v="Olive Hill Drive"/><tag k="addr:housenumber" v="14514"/><tag k="addr:postcode" v="78717"/></node><node id="-12" lat="30.504961" lon="-97.747819" changeset="false"><tag k="addr:street" v="Avery Ranch Boulevard"/><tag k="addr:housenumber" v="16301"/><tag k="addr:postcode" v="78717"/></node><node id="-13" lat="30.485312" lon="-97.739613" changeset="false"><tag k="addr:street" v="Oak Court"/><tag k="addr:housenumber" v="8000"/><tag k="addr:postcode" v="78717"/></node><node id="-14" lat="30.486341" lon="-97.762587" changeset="false"><tag k="addr:street" v="Altona Way"/><tag k="addr:housenumber" v="9427"/><tag k="addr:postcode" v="78717"/></node><node id="-15" lat="30.500067" lon="-97.755634" changeset="false"><tag k="addr:street" v="Double Eagle Pass"/><tag k="addr:housenumber" v="9915"/><tag k="addr:postcode" v="78717"/></node><node id="-16" lat="30.49041" lon="-97.752854" changeset="false"><tag k="addr:street" v="Neenah Avenue"/><tag k="addr:housenumber" v="9149"/><tag k="addr:postcode" v="78717"/></node><node id="-17" lat="30.486679" lon="-97.743114" changeset="false"><tag k="addr:street" v="Oconto Drive"/><tag k="addr:housenumber" v="15349"/><tag k="addr:postcode" v="78717"/></node><node id="-18" lat="30.49534" lon="-97.743951" changeset="false"><tag k="addr:street" v="Dorman Drive"/><tag k="addr:housenumber" v="15833"/><tag k="addr:postcode" v="78717"/></node><node id="-19" lat="30.506567" lon="-97.742081" changeset="false"><tag k="addr:street" v="Pocono Drive"/><tag k="addr:housenumber" v="16518"/><tag k="addr:postcode" v="78717"/></node><node id="-20" lat="30.498464" lon="-97.773631" changeset="false"><tag k="addr:street" v="Avery Ranch Boulevard"/><tag k="addr:housenumber" v="15021"/><tag k="addr:postcode" v="78717"/></node><node id="-21" lat="30.507206" lon="-97.744981" changeset="false"><tag k="addr:street" v="Meyrick Park Trail"/><tag k="addr:housenumber" v="9117"/><tag k="addr:postcode" v="78717"/></node><node id="-22" lat="30.498962" lon="-97.772288" changeset="false"><tag k="addr:street" v="Avery Ranch Boulevard"/><tag k="addr:housenumber" v="15117"/><tag k="addr:postcode" v="78717"/></node><node id="-23" lat="30.507719" lon="-97.744255" changeset="false"><tag k="addr:street" v="Corbin Creek Cove"/><tag k="addr:housenumber" v="9116"/><tag k="addr:postcode" v="78717"/></node><node id="-24" lat="30.505606" lon="-97.747588" changeset="false"><tag k="addr:street" v="Meyrick Park Trail"/><tag k="addr:housenumber" v="9437 1/2"/><tag k="addr:postcode" v="78717"/></node><node id="-25" lat="30.483088" lon="-97.742508" changeset="false"><tag k="addr:street" v="Ranch-to-Market Road 620"/><tag k="addr:housenumber" v="15212"/><tag k="addr:postcode" v="78717"/></node><node id="-26" lat="30.482606" lon="-97.745373" changeset="false"><tag k="addr:street" v="Ranch-to-Market Road 620"/><tag k="addr:housenumber" v="15016"/><tag k="addr:postcode" v="78717"/></node><node id="-27" lat="30.483868" lon="-97.739852" changeset="false"><tag k="addr:street" v="Shady Lane"/><tag k="addr:housenumber" v="15304"/><tag k="addr:postcode" v="78717"/></node><node id="-28" lat="30.484993" lon="-97.7392" changeset="false"><tag k="addr:street" v="Oak Court"/><tag k="addr:housenumber" v="8001"/><tag k="addr:postcode" v="78717"/></node><node id="-29" lat="30.484288" lon="-97.740229" changeset="false"><tag k="addr:street" v="Shady Lane"/><tag k="addr:housenumber" v="15410"/><tag k="addr:postcode" v="78717"/></node><node id="-30" lat="30.500226" lon="-97.755695" changeset="false"><tag k="addr:street" v="Double Eagle Pass"/><tag k="addr:housenumber" v="9919"/><tag k="addr:postcode" v="78717"/></node><node id="-31" lat="30.506687" lon="-97.746725" changeset="false"><tag k="addr:street" v="Fowler Mill Cove"/><tag k="addr:housenumber" v="16500"/><tag k="addr:postcode" v="78717"/></node><node id="-32" lat="30.503679" lon="-97.749523" changeset="false"><tag k="addr:street" v="Avery Ranch Boulevard"/><tag k="addr:housenumber" v="16221"/><tag k="addr:postcode" v="78717"/></node><node id="-33" lat="30.4971" lon="-97.770844" changeset="false"><tag k="addr:street" v="Calaveras Drive"/><tag k="addr:housenumber" v="15224"/><tag k="addr:postcode" v="78717"/></node><node id="-34" lat="30.501109" lon="-97.75615" changeset="false"><tag k="addr:street" v="Double Eagle Pass"/><tag k="addr:housenumber" v="10021"/><tag k="addr:postcode" v="78717"/></node><node id="-35" lat="30.482994" lon="-97.743198" changeset="false"><tag k="addr:street" v="Ranch-to-Market Road 620"/><tag k="addr:housenumber" v="15204"/><tag k="addr:postcode" v="78717"/></node><node id="-36" lat="30.494999" lon="-97.744139" changeset="false"><tag k="addr:street" v="Dorman Drive"/><tag k="addr:housenumber" v="15829"/><tag k="addr:postcode" v="78717"/></node><node id="-37" lat="30.505378" lon="-97.745559" changeset="false"><tag k="addr:street" v="Brimstone Lane"/><tag k="addr:housenumber" v="9116"/><tag k="addr:postcode" v="78717"/></node><node id="-38" lat="30.482229" lon="-97.746888" changeset="false"><tag k="addr:street" v="Ranch-to-Market Road 620"/><tag k="addr:housenumber" v="15006"/><tag k="addr:postcode" v="78717"/></node><node id="-39" lat="30.487039" lon="-97.770212" changeset="false"><tag k="addr:street" v="West Parmer Lane"/><tag k="addr:housenumber" v="9900"/><tag k="addr:postcode" v="78717"/></node><node id="-40" lat="30.489649" lon="-97.757733" changeset="false"><tag k="addr:street" v="Neenah Avenue"/><tag k="addr:housenumber" v="9300"/><tag k="addr:postcode" v="78717"/></node><node id="-41" lat="30.500419" lon="-97.755731" changeset="false"><tag k="addr:street" v="Double Eagle Pass"/><tag k="addr:housenumber" v="10001"/><tag k="addr:postcode" v="78717"/></node><node id="-42" lat="30.49826" lon="-97.774373" changeset="false"><tag k="addr:street" v="Avery Ranch Boulevard"/><tag k="addr:housenumber" v="15017"/><tag k="addr:postcode" v="78717"/></node><node id="-43" lat="30.493751" lon="-97.76131" changeset="false"><tag k="addr:street" v="Eagle Knoll Drive"/><tag k="addr:housenumber" v="9705 1/2"/><tag k="addr:postcode" v="78717"/></node><node id="-44" lat="30.507596" lon="-97.744565" changeset="false"><tag k="addr:street" v="Corbin Creek Cove"/><tag k="addr:housenumber" v="9120"/><tag k="addr:postcode" v="78717"/></node><node id="-45" lat="30.494592" lon="-97.746045" changeset="false"><tag k="addr:street" v="Joachim Lane"/><tag k="addr:housenumber" v="8922"/><tag k="addr:postcode" v="78717"/></node><node id="-46" lat="30.497376" lon="-97.773947" changeset="false"><tag k="addr:street" v="West Parmer Lane"/><tag k="addr:housenumber" v="10526"/><tag k="addr:postcode" v="78717"/></node><node id="-47" lat="30.501286" lon="-97.756246" changeset="false"><tag k="addr:street" v="Double Eagle Pass"/><tag k="addr:housenumber" v="10101"/><tag k="addr:postcode" v="78717"/></node><node id="-48" lat="30.501621" lon="-97.756392" changeset="false"><tag k="addr:street" v="Double Eagle Pass"/><tag k="addr:housenumber" v="10109"/><tag k="addr:postcode" v="78717"/></node><node id="-49" lat="30.500552" lon="-97.755788" changeset="false"><tag k="addr:street" v="Double Eagle Pass"/><tag k="addr:housenumber" v="10005"/><tag k="addr:postcode" v="78717"/></node><node id="-50" lat="30.500682" lon="-97.755838" changeset="false"><tag k="addr:street" v="Double Eagle Pass"/><tag k="addr:housenumber" v="10009"/><tag k="addr:postcode" v="78717"/></node><node id="-51" lat="30.49973" lon="-97.755572" changeset="false"><tag k="addr:street" v="Double Eagle Pass"/><tag k="addr:housenumber" v="9907"/><tag k="addr:postcode" v="78717"/></node><node id="-52" lat="30.499901" lon="-97.75559" changeset="false"><tag k="addr:street" v="Double Eagle Pass"/><tag k="addr:housenumber" v="9911"/><tag k="addr:postcode" v="78717"/></node><node id="-53" lat="30.488976" lon="-97.76122" changeset="false"><tag k="addr:street" v="Neenah Avenue"/><tag k="addr:housenumber" v="9400"/><tag k="addr:postcode" v="78717"/></node><node id="-54" lat="30.494674" lon="-97.744287" changeset="false"><tag k="addr:street" v="Dorman Drive"/><tag k="addr:housenumber" v="15825"/><tag k="addr:postcode" v="78717"/></node><node id="-55" lat="30.501472" lon="-97.756324" changeset="false"><tag k="addr:street" v="Double Eagle Pass"/><tag k="addr:housenumber" v="10105"/><tag k="addr:postcode" v="78717"/></node><node id="-56" lat="30.492571" lon="-97.746056" changeset="false"><tag k="addr:street" v="Joachim Lane"/><tag k="addr:housenumber" v="8903"/><tag k="addr:postcode" v="78717"/></node><node id="-57" lat="30.493842" lon="-97.760008" changeset="false"><tag k="addr:street" v="Fernhill Drive"/><tag k="addr:housenumber" v="14909"/><tag k="addr:postcode" v="78717"/></node><node id="-58" lat="30.500821" lon="-97.75591" changeset="false"><tag k="addr:street" v="Double Eagle Pass"/><tag k="addr:housenumber" v="10013"/><tag k="addr:postcode" v="78717"/></node><node id="-59" lat="30.485024" lon="-97.740858" changeset="false"><tag k="addr:street" v="Shady Lane"/><tag k="addr:housenumber" v="15420"/><tag k="addr:postcode" v="78717"/></node><node id="-60" lat="30.495989" lon="-97.762345" changeset="false"><tag k="addr:street" v="Morgan Creek Drive"/><tag k="addr:housenumber" v="9625 1/2"/><tag k="addr:postcode" v="78717"/></node><node id="-61" lat="30.487283" lon="-97.76654" changeset="false"><tag k="addr:street" v="Olive Hill Drive"/><tag k="addr:housenumber" v="14741"/><tag k="addr:postcode" v="78717"/></node><node id="-62" lat="30.498017" lon="-97.769425" changeset="false"><tag k="addr:street" v="Interlachen Drive"/><tag k="addr:housenumber" v="15236"/><tag k="addr:postcode" v="78717"/></node><node id="-63" lat="30.493265" lon="-97.767119" changeset="false"><tag k="addr:street" v="Valderrama Drive"/><tag k="addr:housenumber" v="9800"/><tag k="addr:postcode" v="78717"/></node><node id="-64" lat="30.496353" lon="-97.76854" changeset="false"><tag k="addr:street" v="Valderrama Drive"/><tag k="addr:housenumber" v="10104"/><tag k="addr:postcode" v="78717"/></node><node id="-65" lat="30.482198" lon="-97.747179" changeset="false"><tag k="addr:street" v="Ranch-to-Market Road 620"/><tag k="addr:housenumber" v="15000"/><tag k="addr:postcode" v="78717"/></node><node id="-66" lat="30.482524" lon="-97.745764" changeset="false"><tag k="addr:street" v="Ranch-to-Market Road 620"/><tag k="addr:housenumber" v="15012"/><tag k="addr:postcode" v="78717"/></node><node id="-67" lat="30.4895" lon="-97.768302" changeset="false"><tag k="addr:street" v="Thatcher Drive"/><tag k="addr:housenumber" v="14814"/><tag k="addr:postcode" v="78717"/></node><node id="-68" lat="30.487897" lon="-97.765293" changeset="false"><tag k="addr:street" v="Neenah Avenue"/><tag k="addr:housenumber" v="9500 1/2"/><tag k="addr:postcode" v="78717"/></node><node id="-69" lat="30.485663" lon="-97.765834" changeset="false"><tag k="addr:street" v="Olive Hill Drive"/><tag k="addr:housenumber" v="14620"/><tag k="addr:postcode" v="78717"/></node><node id="-70" lat="30.493253" lon="-97.764205" changeset="false"><tag k="addr:street" v="Morgan Creek Drive"/><tag k="addr:housenumber" v="9904 1/2"/><tag k="addr:postcode" v="78717"/></node><node id="-71" lat="30.49691" lon="-97.767284" changeset="false"><tag k="addr:street" v="Morgan Creek Drive"/><tag k="addr:housenumber" v="10108"/><tag k="addr:postcode" v="78717"/></node><node id="-72" lat="30.482264" lon="-97.747734" changeset="false"><tag k="addr:street" v="Ranch-to-Market Road 620"/><tag k="addr:housenumber" v="14926"/><tag k="addr:postcode" v="78717"/></node><node id="-73" lat="30.488667" lon="-97.766429" changeset="false"><tag k="addr:street" v="Neenah Avenue"/><tag k="addr:housenumber" v="9700"/><tag k="addr:postcode" v="78717"/></node><node id="-74" lat="30.506562" lon="-97.745588" changeset="false"><tag k="addr:street" v="Fowler Mill Cove"/><tag k="addr:housenumber" v="16609"/><tag k="addr:postcode" v="78717"/></node><node id="-75" lat="30.506912" lon="-97.746159" changeset="false"><tag k="addr:street" v="Fowler Mill Cove"/><tag k="addr:housenumber" v="16600"/><tag k="addr:postcode" v="78717"/></node><node id="-76" lat="30.483186" lon="-97.747098" changeset="false"><tag k="addr:street" v="Ranch-to-Market Road 620"/><tag k="addr:housenumber" v="15014"/><tag k="addr:postcode" v="78717"/></node><node id="-77" lat="30.498893" lon="-97.772486" changeset="false"><tag k="addr:street" v="Avery Ranch Boulevard"/><tag k="addr:housenumber" v="15111"/><tag k="addr:postcode" v="78717"/></node><node id="-78" lat="30.494823" lon="-97.744219" changeset="false"><tag k="addr:street" v="Dorman Drive"/><tag k="addr:housenumber" v="15827"/><tag k="addr:postcode" v="78717"/></node><node id="-79" lat="30.49497" lon="-97.747108" changeset="false"><tag k="addr:street" v="Neenah Avenue"/><tag k="addr:housenumber" v="8811"/><tag k="addr:postcode" v="78717"/></node><node id="-80" lat="30.495133" lon="-97.767408" changeset="false"><tag k="addr:street" v="Valderrama Court"/><tag k="addr:housenumber" v="15301"/><tag k="addr:postcode" v="78717"/></node><node id="-81" lat="30.488957" lon="-97.761115" changeset="false"><tag k="addr:street" v="Neenah Avenue"/><tag k="addr:housenumber" v="9400 1/2"/><tag k="addr:postcode" v="78717"/></node><node id="-82" lat="30.507277" lon="-97.744862" changeset="false"><tag k="addr:street" v="Meyrick Park Trail"/><tag k="addr:housenumber" v="9109"/><tag k="addr:postcode" v="78717"/></node><node id="-83" lat="30.49636" lon="-97.766647" changeset="false"><tag k="addr:street" v="Whistling Straits Drive"/><tag k="addr:housenumber" v="15317"/><tag k="addr:postcode" v="78717"/></node><node id="-84" lat="30.49595" lon="-97.762238" changeset="false"><tag k="addr:street" v="Morgan Creek Drive"/><tag k="addr:housenumber" v="9625"/><tag k="addr:postcode" v="78717"/></node><node id="-85" lat="30.497904" lon="-97.768363" changeset="false"><tag k="addr:street" v="Morgan Creek Court"/><tag k="addr:housenumber" v="15300"/><tag k="addr:postcode" v="78717"/></node><node id="-86" lat="30.50679" lon="-97.744687" changeset="false"><tag k="addr:street" v="Meyrick Park Trail"/><tag k="addr:housenumber" v="9205"/><tag k="addr:postcode" v="78717"/></node><node id="-87" lat="30.506743" lon="-97.744768" changeset="false"><tag k="addr:street" v="Meyrick Park Trail"/><tag k="addr:housenumber" v="9213"/><tag k="addr:postcode" v="78717"/></node></osm>