<?xml version="1.0" encoding="UTF-8"?><osm version="0.6" generator="github.com/aaronlidman/osm-and-geojson"><node id="-1" lat="30.296096" lon="-97.718325" changeset="false"><tag k="addr:street" v="North Interstate Highway 35 Service Road"/><tag k="addr:housenumber" v="3921"/><tag k="addr:postcode" v="78722"/></node><node id="-2" lat="30.295905" lon="-97.71845" changeset="false"><tag k="addr:street" v="North Interstate Highway 35 Service Road"/><tag k="addr:housenumber" v="3903"/><tag k="addr:postcode" v="78722"/></node><node id="-3" lat="30.291177" lon="-97.710756" changeset="false"><tag k="addr:street" v="Willowbrook Drive"/><tag k="addr:housenumber" v="3805"/><tag k="addr:postcode" v="78722"/></node><node id="-4" lat="30.292158" lon="-97.709167" changeset="false"><tag k="addr:street" v="East 40th Street"/><tag k="addr:housenumber" v="1806"/><tag k="addr:postcode" v="78722"/></node><node id="-5" lat="30.300529" lon="-97.715548" changeset="false"><tag k="addr:street" v="North Interstate Highway 35 Service Road"/><tag k="addr:housenumber" v="4307"/><tag k="addr:postcode" v="78722"/></node><node id="-6" lat="30.292196" lon="-97.709667" changeset="false"><tag k="addr:street" v="East 40th Street"/><tag k="addr:housenumber" v="1805"/><tag k="addr:postcode" v="78722"/></node><node id="-7" lat="30.295643" lon="-97.711832" changeset="false"><tag k="addr:street" v="Schieffer Avenue"/><tag k="addr:housenumber" v="1701"/><tag k="addr:postcode" v="78722"/></node><node id="-8" lat="30.294976" lon="-97.719108" changeset="false"><tag k="addr:street" v="North Interstate Highway 35 Service Road"/><tag k="addr:housenumber" v="3811"/><tag k="addr:postcode" v="78722"/></node><node id="-9" lat="30.299512" lon="-97.711647" changeset="false"><tag k="addr:street" v="Airport Boulevard"/><tag k="addr:housenumber" v="4322"/><tag k="addr:postcode" v="78722"/></node><node id="-10" lat="30.299935" lon="-97.710901" changeset="false"><tag k="addr:street" v="Airport Boulevard"/><tag k="addr:housenumber" v="4319"/><tag k="addr:postcode" v="78722"/></node><node id="-11" lat="30.298182" lon="-97.717007" changeset="false"><tag k="addr:street" v="North Interstate Highway 35 Service Road"/><tag k="addr:housenumber" v="4109"/><tag k="addr:postcode" v="78722"/></node><node id="-12" lat="30.295869" lon="-97.710978" changeset="false"><tag k="addr:street" v="Wilshire Boulevard"/><tag k="addr:housenumber" v="1507"/><tag k="addr:postcode" v="78722"/></node><node id="-13" lat="30.292491" lon="-97.709546" changeset="false"><tag k="addr:street" v="East 40th Street"/><tag k="addr:housenumber" v="1804"/><tag k="addr:postcode" v="78722"/></node><node id="-14" lat="30.2922" lon="-97.709281" changeset="false"><tag k="addr:street" v="Vineland Drive"/><tag k="addr:housenumber" v="4000"/><tag k="addr:postcode" v="78722"/></node><node id="-15" lat="30.296138" lon="-97.718297" changeset="false"><tag k="addr:street" v="North Interstate Highway 35 Service Road"/><tag k="addr:housenumber" v="3925"/><tag k="addr:postcode" v="78722"/></node><node id="-16" lat="30.295137" lon="-97.709842" changeset="false"><tag k="addr:street" v="Schieffer Avenue"/><tag k="addr:housenumber" v="1714 1/2"/><tag k="addr:postcode" v="78722"/></node><node id="-17" lat="30.296662" lon="-97.717966" changeset="false"><tag k="addr:street" v="North Interstate Highway 35 Service Road"/><tag k="addr:housenumber" v="4001"/><tag k="addr:postcode" v="78722"/></node><node id="-18" lat="30.297761" lon="-97.717281" changeset="false"><tag k="addr:street" v="North Interstate Highway 35 Service Road"/><tag k="addr:housenumber" v="4103"/><tag k="addr:postcode" v="78722"/></node><node id="-19" lat="30.299585" lon="-97.711804" changeset="false"><tag k="addr:street" v="Airport Boulevard"/><tag k="addr:housenumber" v="4324"/><tag k="addr:postcode" v="78722"/></node><node id="-20" lat="30.299775" lon="-97.712212" changeset="false"><tag k="addr:street" v="Airport Boulevard"/><tag k="addr:housenumber" v="4328"/><tag k="addr:postcode" v="78722"/></node><node id="-21" lat="30.304349" lon="-97.713016" changeset="false"><tag k="addr:street" v="North Interstate Highway 35 Service Road"/><tag k="addr:housenumber" v="4607"/><tag k="addr:postcode" v="78722"/></node><node id="-22" lat="30.295884" lon="-97.718463" changeset="false"><tag k="addr:street" v="North Interstate Highway 35 Service Road"/><tag k="addr:housenumber" v="3901"/><tag k="addr:postcode" v="78722"/></node><node id="-23" lat="30.294986" lon="-97.71907" changeset="false"><tag k="addr:street" v="North Interstate Highway 35 Service Road"/><tag k="addr:housenumber" v="3813"/><tag k="addr:postcode" v="78722"/></node><node id="-24" lat="30.292598" lon="-97.714428" changeset="false"><tag k="addr:street" v="Maplewood Avenue"/><tag k="addr:housenumber" v="3808"/><tag k="addr:postcode" v="78722"/></node><node id="-25" lat="30.297386" lon="-97.711355" changeset="false"><tag k="addr:street" v="Wilshire Boulevard"/><tag k="addr:housenumber" v="1602"/><tag k="addr:postcode" v="78722"/></node><node id="-26" lat="30.297157" lon="-97.715087" changeset="false"><tag k="addr:street" v="Wilshire Boulevard"/><tag k="addr:housenumber" v="1301"/><tag k="addr:postcode" v="78722"/></node><node id="-27" lat="30.29618" lon="-97.718269" changeset="false"><tag k="addr:street" v="North Interstate Highway 35 Service Road"/><tag k="addr:housenumber" v="3929"/><tag k="addr:postcode" v="78722"/></node><node id="-28" lat="30.29599" lon="-97.718394" changeset="false"><tag k="addr:street" v="North Interstate Highway 35 Service Road"/><tag k="addr:housenumber" v="3911"/><tag k="addr:postcode" v="78722"/></node><node id="-29" lat="30.2994" lon="-97.711416" changeset="false"><tag k="addr:street" v="Airport Boulevard"/><tag k="addr:housenumber" v="4320"/><tag k="addr:postcode" v="78722"/></node><node id="-30" lat="30.298092" lon="-97.717103" changeset="false"><tag k="addr:street" v="North Interstate Highway 35 Service Road"/><tag k="addr:housenumber" v="4107"/><tag k="addr:postcode" v="78722"/></node><node id="-31" lat="30.304674" lon="-97.712803" changeset="false"><tag k="addr:street" v="North Interstate Highway 35 Service Road"/><tag k="addr:housenumber" v="4611"/><tag k="addr:postcode" v="78722"/></node><node id="-32" lat="30.295035" lon="-97.715922" changeset="false"><tag k="addr:street" v="Wrightwood Road"/><tag k="addr:housenumber" v="3906"/><tag k="addr:postcode" v="78722"/></node><node id="-33" lat="30.295097" lon="-97.713385" changeset="false"><tag k="addr:street" v="Maplewood Avenue"/><tag k="addr:housenumber" v="4002"/><tag k="addr:postcode" v="78722"/></node><node id="-34" lat="30.297658" lon="-97.717348" changeset="false"><tag k="addr:street" v="North Interstate Highway 35 Service Road"/><tag k="addr:housenumber" v="4101"/><tag k="addr:postcode" v="78722"/></node><node id="-35" lat="30.292682" lon="-97.713231" changeset="false"><tag k="addr:street" v="Cherrywood Road"/><tag k="addr:housenumber" v="3816"/><tag k="addr:postcode" v="78722"/></node><node id="-36" lat="30.29768" lon="-97.709161" changeset="false"><tag k="addr:street" v="Wilshire Boulevard"/><tag k="addr:housenumber" v="1621"/><tag k="addr:postcode" v="78722"/></node><node id="-37" lat="30.295021" lon="-97.719071" changeset="false"><tag k="addr:street" v="North Interstate Highway 35 Service Road"/><tag k="addr:housenumber" v="3815"/><tag k="addr:postcode" v="78722"/></node><node id="-38" lat="30.296011" lon="-97.71838" changeset="false"><tag k="addr:street" v="North Interstate Highway 35 Service Road"/><tag k="addr:housenumber" v="3913"/><tag k="addr:postcode" v="78722"/></node><node id="-39" lat="30.293114" lon="-97.708164" changeset="false"><tag k="addr:street" v="Airport Boulevard"/><tag k="addr:housenumber" v="4020"/><tag k="addr:postcode" v="78722"/></node><node id="-40" lat="30.297914" lon="-97.710306" changeset="false"><tag k="addr:street" v="Wilshire Boulevard"/><tag k="addr:housenumber" v="1608"/><tag k="addr:postcode" v="78722"/></node><node id="-41" lat="30.297947" lon="-97.710147" changeset="false"><tag k="addr:street" v="Wilshire Boulevard"/><tag k="addr:housenumber" v="1610"/><tag k="addr:postcode" v="78722"/></node><node id="-42" lat="30.302471" lon="-97.712927" changeset="false"><tag k="addr:street" v="Fairwood Road"/><tag k="addr:housenumber" v="1201"/><tag k="addr:postcode" v="78722"/></node><node id="-43" lat="30.302537" lon="-97.713084" changeset="false"><tag k="addr:street" v="Elwood Road"/><tag k="addr:housenumber" v="4507"/><tag k="addr:postcode" v="78722"/></node><node id="-44" lat="30.295904" lon="-97.713007" changeset="false"><tag k="addr:street" v="Lullwood Road"/><tag k="addr:housenumber" v="4009"/><tag k="addr:postcode" v="78722"/></node><node id="-45" lat="30.295951" lon="-97.713005" changeset="false"><tag k="addr:street" v="Lullwood Road"/><tag k="addr:housenumber" v="4009"/><tag k="addr:postcode" v="78722"/></node><node id="-46" lat="30.294821" lon="-97.718969" changeset="false"><tag k="addr:street" v="North Interstate Highway 35 Service Road"/><tag k="addr:housenumber" v="3807"/><tag k="addr:postcode" v="78722"/></node><node id="-47" lat="30.294879" lon="-97.719052" changeset="false"><tag k="addr:street" v="North Interstate Highway 35 Service Road"/><tag k="addr:housenumber" v="3809"/><tag k="addr:postcode" v="78722"/></node></osm>