<?xml version="1.0" encoding="UTF-8"?><osm version="0.6" generator="github.com/aaronlidman/osm-and-geojson"><node id="-1" lat="30.380924" lon="-97.790968" changeset="false"><tag k="addr:street" v="Lakewood Drive"/><tag k="addr:housenumber" v="7857"/><tag k="addr:postcode" v="78750"/></node><node id="-2" lat="30.377784" lon="-97.795006" changeset="false"><tag k="addr:street" v="Lakewood Drive"/><tag k="addr:housenumber" v="7894"/><tag k="addr:postcode" v="78750"/></node><node id="-3" lat="30.382019" lon="-97.796246" changeset="false"><tag k="addr:street" v="Foxtree Cove"/><tag k="addr:housenumber" v="7300"/><tag k="addr:postcode" v="78750"/></node><node id="-4" lat="30.369591" lon="-97.78892" changeset="false"><tag k="addr:street" v="Capital of Texas Highway"/><tag k="addr:housenumber" v="6804"/><tag k="addr:postcode" v="78750"/></node><node id="-5" lat="30.381384" lon="-97.789188" changeset="false"><tag k="addr:street" v="Almond Cove"/><tag k="addr:housenumber" v="7607"/><tag k="addr:postcode" v="78750"/></node><node id="-6" lat="30.373216" lon="-97.788659" changeset="false"><tag k="addr:street" v="Winecup Hollow"/><tag k="addr:housenumber" v="7200"/><tag k="addr:postcode" v="78750"/></node><node id="-7" lat="30.368176" lon="-97.790259" changeset="false"><tag k="addr:street" v="Capital of Texas Highway"/><tag k="addr:housenumber" v="6708"/><tag k="addr:postcode" v="78750"/></node><node id="-8" lat="30.379158" lon="-97.788573" changeset="false"><tag k="addr:street" v="Hiridge Hollow Drive"/><tag k="addr:housenumber" v="6501"/><tag k="addr:postcode" v="78750"/></node><node id="-9" lat="30.371874" lon="-97.791176" changeset="false"><tag k="addr:street" v="Gardenridge Hollow"/><tag k="addr:housenumber" v="7001"/><tag k="addr:postcode" v="78750"/></node><node id="-10" lat="30.38242" lon="-97.794405" changeset="false"><tag k="addr:street" v="Foxtree Cove"/><tag k="addr:housenumber" v="7112"/><tag k="addr:postcode" v="78750"/></node><node id="-11" lat="30.372761" lon="-97.787044" changeset="false"><tag k="addr:street" v="Waldon Drive"/><tag k="addr:housenumber" v="7205"/><tag k="addr:postcode" v="78750"/></node><node id="-12" lat="30.373147" lon="-97.79176" changeset="false"><tag k="addr:street" v="Twin Creek Hollow"/><tag k="addr:housenumber" v="6505"/><tag k="addr:postcode" v="78750"/></node><node id="-13" lat="30.381316" lon="-97.794934" changeset="false"><tag k="addr:street" v="Foxtree Cove"/><tag k="addr:housenumber" v="7203"/><tag k="addr:postcode" v="78750"/></node><node id="-14" lat="30.378279" lon="-97.794462" changeset="false"><tag k="addr:street" v="Lakewood Drive"/><tag k="addr:housenumber" v="7888"/><tag k="addr:postcode" v="78750"/></node><node id="-15" lat="30.381063" lon="-97.790736" changeset="false"><tag k="addr:street" v="Lakewood Drive"/><tag k="addr:housenumber" v="7855"/><tag k="addr:postcode" v="78750"/></node><node id="-16" lat="30.380732" lon="-97.786967" changeset="false"><tag k="addr:street" v="Lakewood Drive"/><tag k="addr:housenumber" v="7712"/><tag k="addr:postcode" v="78750"/></node><node id="-17" lat="30.380036" lon="-97.790275" changeset="false"><tag k="addr:street" v="Lakewood Point Cove"/><tag k="addr:housenumber" v="6711"/><tag k="addr:postcode" v="78750"/></node><node id="-18" lat="30.379778" lon="-97.787389" changeset="false"><tag k="addr:street" v="Hillside Hollow Drive"/><tag k="addr:housenumber" v="6501"/><tag k="addr:postcode" v="78750"/></node><node id="-19" lat="30.375153" lon="-97.789107" changeset="false"><tag k="addr:street" v="Lakewood Drive"/><tag k="addr:housenumber" v="7317"/><tag k="addr:postcode" v="78750"/></node><node id="-20" lat="30.368556" lon="-97.789731" changeset="false"><tag k="addr:street" v="Capital of Texas Highway"/><tag k="addr:housenumber" v="6720"/><tag k="addr:postcode" v="78750"/></node><node id="-21" lat="30.373558" lon="-97.786056" changeset="false"><tag k="addr:street" v="Creekbluff Drive"/><tag k="addr:housenumber" v="7312"/><tag k="addr:postcode" v="78750"/></node><node id="-22" lat="30.381978" lon="-97.795837" changeset="false"><tag k="addr:street" v="Foxtree Cove"/><tag k="addr:housenumber" v="7206"/><tag k="addr:postcode" v="78750"/></node><node id="-23" lat="30.370261" lon="-97.79358" changeset="false"><tag k="addr:street" v="Winterberry Drive"/><tag k="addr:housenumber" v="6505"/><tag k="addr:postcode" v="78750"/></node><node id="-24" lat="30.381017" lon="-97.788965" changeset="false"><tag k="addr:street" v="Lakewood Point Cove"/><tag k="addr:housenumber" v="6606"/><tag k="addr:postcode" v="78750"/></node><node id="-25" lat="30.378299" lon="-97.795216" changeset="false"><tag k="addr:street" v="Lakewood Drive"/><tag k="addr:housenumber" v="7893"/><tag k="addr:postcode" v="78750"/></node><node id="-26" lat="30.373362" lon="-97.790625" changeset="false"><tag k="addr:street" v="Wallace Cove"/><tag k="addr:housenumber" v="6410"/><tag k="addr:postcode" v="78750"/></node><node id="-27" lat="30.375293" lon="-97.789363" changeset="false"><tag k="addr:street" v="Lakewood Drive"/><tag k="addr:housenumber" v="7318"/><tag k="addr:postcode" v="78750"/></node><node id="-28" lat="30.373503" lon="-97.792441" changeset="false"><tag k="addr:street" v="Twin Creek Hollow"/><tag k="addr:housenumber" v="6518"/><tag k="addr:postcode" v="78750"/></node><node id="-29" lat="30.373449" lon="-97.799119" changeset="false"><tag k="addr:street" v="Jester Boulevard"/><tag k="addr:housenumber" v="6803"/><tag k="addr:postcode" v="78750"/></node><node id="-30" lat="30.382906" lon="-97.79341" changeset="false"><tag k="addr:street" v="Foxtree Cove"/><tag k="addr:housenumber" v="7104"/><tag k="addr:postcode" v="78750"/></node><node id="-31" lat="30.368055" lon="-97.790448" changeset="false"><tag k="addr:street" v="Capital of Texas Highway"/><tag k="addr:housenumber" v="6704"/><tag k="addr:postcode" v="78750"/></node><node id="-32" lat="30.382683" lon="-97.793922" changeset="false"><tag k="addr:street" v="Foxtree Cove"/><tag k="addr:housenumber" v="7108"/><tag k="addr:postcode" v="78750"/></node><node id="-33" lat="30.381182" lon="-97.787987" changeset="false"><tag k="addr:street" v="Lakewood Point Cove"/><tag k="addr:housenumber" v="6600"/><tag k="addr:postcode" v="78750"/></node><node id="-34" lat="30.373901" lon="-97.789907" changeset="false"><tag k="addr:street" v="Paintbrush Hollow"/><tag k="addr:housenumber" v="6408"/><tag k="addr:postcode" v="78750"/></node><node id="-35" lat="30.380278" lon="-97.787201" changeset="false"><tag k="addr:street" v="Hillside Hollow Drive"/><tag k="addr:housenumber" v="6504"/><tag k="addr:postcode" v="78750"/></node><node id="-36" lat="30.372084" lon="-97.798281" changeset="false"><tag k="addr:street" v="Jester Boulevard"/><tag k="addr:housenumber" v="6713"/><tag k="addr:postcode" v="78750"/></node><node id="-37" lat="30.37884" lon="-97.794995" changeset="false"><tag k="addr:street" v="Lakewood Drive"/><tag k="addr:housenumber" v="7889"/><tag k="addr:postcode" v="78750"/></node><node id="-38" lat="30.38279" lon="-97.79366" changeset="false"><tag k="addr:street" v="Foxtree Cove"/><tag k="addr:housenumber" v="7106"/><tag k="addr:postcode" v="78750"/></node><node id="-39" lat="30.382026" lon="-97.795371" changeset="false"><tag k="addr:street" v="Foxtree Cove"/><tag k="addr:housenumber" v="7202"/><tag k="addr:postcode" v="78750"/></node><node id="-40" lat="30.37296" lon="-97.792084" changeset="false"><tag k="addr:street" v="Twin Creek Hollow"/><tag k="addr:housenumber" v="6509"/><tag k="addr:postcode" v="78750"/></node><node id="-41" lat="30.381564" lon="-97.794391" changeset="false"><tag k="addr:street" v="Foxtree Cove"/><tag k="addr:housenumber" v="7117"/><tag k="addr:postcode" v="78750"/></node><node id="-42" lat="30.368274" lon="-97.790038" changeset="false"><tag k="addr:street" v="Capital of Texas Highway"/><tag k="addr:housenumber" v="6712"/><tag k="addr:postcode" v="78750"/></node><node id="-43" lat="30.368241" lon="-97.790611" changeset="false"><tag k="addr:street" v="Capital of Texas Highway"/><tag k="addr:housenumber" v="6706"/><tag k="addr:postcode" v="78750"/></node><node id="-44" lat="30.377347" lon="-97.787267" changeset="false"><tag k="addr:street" v="Waldon Drive"/><tag k="addr:housenumber" v="7511"/><tag k="addr:postcode" v="78750"/></node><node id="-45" lat="30.376345" lon="-97.788487" changeset="false"><tag k="addr:street" v="Cascada Drive"/><tag k="addr:housenumber" v="6408"/><tag k="addr:postcode" v="78750"/></node><node id="-46" lat="30.371297" lon="-97.790095" changeset="false"><tag k="addr:street" v="Dogwood Hollow"/><tag k="addr:housenumber" v="6907"/><tag k="addr:postcode" v="78750"/></node><node id="-47" lat="30.380568" lon="-97.786984" changeset="false"><tag k="addr:street" v="Lakewood Drive"/><tag k="addr:housenumber" v="7708"/><tag k="addr:postcode" v="78750"/></node><node id="-48" lat="30.381733" lon="-97.787487" changeset="false"><tag k="addr:street" v="Lakewood Drive"/><tag k="addr:housenumber" v="7804"/><tag k="addr:postcode" v="78750"/></node><node id="-49" lat="30.374997" lon="-97.789856" changeset="false"><tag k="addr:street" v="Cave Hollow"/><tag k="addr:housenumber" v="7312"/><tag k="addr:postcode" v="78750"/></node><node id="-50" lat="30.377571" lon="-97.789288" changeset="false"><tag k="addr:street" v="Lakewood Drive"/><tag k="addr:housenumber" v="7500"/><tag k="addr:postcode" v="78750"/></node><node id="-51" lat="30.376667" lon="-97.781194" changeset="false"><tag k="addr:street" v="Capital of Texas Highway"/><tag k="addr:housenumber" v="7700"/><tag k="addr:postcode" v="78750"/></node><node id="-52" lat="30.378807" lon="-97.788931" changeset="false"><tag k="addr:street" v="Mesa Hollow Drive"/><tag k="addr:housenumber" v="6600"/><tag k="addr:postcode" v="78750"/></node><node id="-53" lat="30.363121" lon="-97.791621" changeset="false"><tag k="addr:street" v="Champion Grandview Way"/><tag k="addr:housenumber" v="6435 1/2"/><tag k="addr:postcode" v="78750"/></node><node id="-54" lat="30.364561" lon="-97.791143" changeset="false"><tag k="addr:street" v="Champion Grandview Way"/><tag k="addr:housenumber" v="6500 1/2"/><tag k="addr:postcode" v="78750"/></node><node id="-55" lat="30.371115" lon="-97.790582" changeset="false"><tag k="addr:street" v="Dogwood Hollow"/><tag k="addr:housenumber" v="6900"/><tag k="addr:postcode" v="78750"/></node><node id="-56" lat="30.364352" lon="-97.792317" changeset="false"><tag k="addr:street" v="Champion Grandview Way"/><tag k="addr:housenumber" v="6500"/><tag k="addr:postcode" v="78750"/></node><node id="-57" lat="30.378102" lon="-97.780141" changeset="false"><tag k="addr:street" v="Capital of Texas Highway"/><tag k="addr:housenumber" v="7806"/><tag k="addr:postcode" v="78750"/></node><node id="-58" lat="30.380242" lon="-97.787509" changeset="false"><tag k="addr:street" v="Hillside Hollow Drive"/><tag k="addr:housenumber" v="6510"/><tag k="addr:postcode" v="78750"/></node><node id="-59" lat="30.373131" lon="-97.790209" changeset="false"><tag k="addr:street" v="Wallace Cove"/><tag k="addr:housenumber" v="6402"/><tag k="addr:postcode" v="78750"/></node><node id="-60" lat="30.372313" lon="-97.790186" changeset="false"><tag k="addr:street" v="Gardenridge Hollow"/><tag k="addr:housenumber" v="7019"/><tag k="addr:postcode" v="78750"/></node><node id="-61" lat="30.3809" lon="-97.786961" changeset="false"><tag k="addr:street" v="Lakewood Drive"/><tag k="addr:housenumber" v="7716"/><tag k="addr:postcode" v="78750"/></node><node id="-62" lat="30.377101" lon="-97.79287" changeset="false"><tag k="addr:street" v="Beauford Drive"/><tag k="addr:housenumber" v="6712"/><tag k="addr:postcode" v="78750"/></node><node id="-63" lat="30.382442" lon="-97.796342" changeset="false"><tag k="addr:street" v="Rockberry Cove"/><tag k="addr:housenumber" v="7401"/><tag k="addr:postcode" v="78750"/></node><node id="-64" lat="30.371073" lon="-97.798587" changeset="false"><tag k="addr:street" v="Jester Boulevard"/><tag k="addr:housenumber" v="6701"/><tag k="addr:postcode" v="78750"/></node><node id="-65" lat="30.380696" lon="-97.791792" changeset="false"><tag k="addr:street" v="Cat Tail Cove"/><tag k="addr:housenumber" v="7603"/><tag k="addr:postcode" v="78750"/></node><node id="-66" lat="30.379524" lon="-97.788439" changeset="false"><tag k="addr:street" v="Hiridge Hollow Drive"/><tag k="addr:housenumber" v="6511"/><tag k="addr:postcode" v="78750"/></node><node id="-67" lat="30.376443" lon="-97.792991" changeset="false"><tag k="addr:street" v="Beauford Drive"/><tag k="addr:housenumber" v="6714"/><tag k="addr:postcode" v="78750"/></node><node id="-68" lat="30.375606" lon="-97.781988" changeset="false"><tag k="addr:street" v="Capital of Texas Highway"/><tag k="addr:housenumber" v="7600"/><tag k="addr:postcode" v="78750"/></node><node id="-69" lat="30.377717" lon="-97.791618" changeset="false"><tag k="addr:street" v="Beauford Drive"/><tag k="addr:housenumber" v="6702"/><tag k="addr:postcode" v="78750"/></node><node id="-70" lat="30.377549" lon="-97.789" changeset="false"><tag k="addr:street" v="Lakewood Drive"/><tag k="addr:housenumber" v="7501"/><tag k="addr:postcode" v="78750"/></node><node id="-71" lat="30.375082" lon="-97.789396" changeset="false"><tag k="addr:street" v="Lakewood Drive"/><tag k="addr:housenumber" v="7316"/><tag k="addr:postcode" v="78750"/></node><node id="-72" lat="30.381669" lon="-97.794151" changeset="false"><tag k="addr:street" v="Foxtree Cove"/><tag k="addr:housenumber" v="7115"/><tag k="addr:postcode" v="78750"/></node><node id="-73" lat="30.379014" lon="-97.789801" changeset="false"><tag k="addr:street" v="Mesa Hollow Drive"/><tag k="addr:housenumber" v="6619"/><tag k="addr:postcode" v="78750"/></node><node id="-74" lat="30.371895" lon="-97.791383" changeset="false"><tag k="addr:street" v="Gardenridge Hollow"/><tag k="addr:housenumber" v="6915"/><tag k="addr:postcode" v="78750"/></node><node id="-75" lat="30.37538" lon="-97.792662" changeset="false"><tag k="addr:street" v="Tree Fern Lane"/><tag k="addr:housenumber" v="6703"/><tag k="addr:postcode" v="78750"/></node><node id="-76" lat="30.382" lon="-97.796555" changeset="false"><tag k="addr:street" v="Foxtree Cove"/><tag k="addr:housenumber" v="7302"/><tag k="addr:postcode" v="78750"/></node><node id="-77" lat="30.381368" lon="-97.787123" changeset="false"><tag k="addr:street" v="Lakewood Drive"/><tag k="addr:housenumber" v="7726"/><tag k="addr:postcode" v="78750"/></node><node id="-78" lat="30.379417" lon="-97.788579" changeset="false"><tag k="addr:street" v="Hiridge Hollow Drive"/><tag k="addr:housenumber" v="6507"/><tag k="addr:postcode" v="78750"/></node><node id="-79" lat="30.378642" lon="-97.788908" changeset="false"><tag k="addr:street" v="Lakewood Drive"/><tag k="addr:housenumber" v="7514"/><tag k="addr:postcode" v="78750"/></node><node id="-80" lat="30.365659" lon="-97.796105" changeset="false"><tag k="addr:street" v="Ranch to Market Road 2222"/><tag k="addr:housenumber" v="6500"/><tag k="addr:postcode" v="78750"/></node><node id="-81" lat="30.379738" lon="-97.785737" changeset="false"><tag k="addr:street" v="Waldon Drive"/><tag k="addr:housenumber" v="7713"/><tag k="addr:postcode" v="78750"/></node><node id="-82" lat="30.382322" lon="-97.794624" changeset="false"><tag k="addr:street" v="Foxtree Cove"/><tag k="addr:housenumber" v="7114"/><tag k="addr:postcode" v="78750"/></node><node id="-83" lat="30.380087" lon="-97.787598" changeset="false"><tag k="addr:street" v="Hillside Hollow Drive"/><tag k="addr:housenumber" v="6509"/><tag k="addr:postcode" v="78750"/></node><node id="-84" lat="30.381687" lon="-97.787403" changeset="false"><tag k="addr:street" v="Lakewood Drive"/><tag k="addr:housenumber" v="7802"/><tag k="addr:postcode" v="78750"/></node><node id="-85" lat="30.381647" lon="-97.78731" changeset="false"><tag k="addr:street" v="Lakewood Drive"/><tag k="addr:housenumber" v="7800"/><tag k="addr:postcode" v="78750"/></node><node id="-86" lat="30.368369" lon="-97.79044" changeset="false"><tag k="addr:street" v="Capital of Texas Highway"/><tag k="addr:housenumber" v="6710"/><tag k="addr:postcode" v="78750"/></node><node id="-87" lat="30.37992" lon="-97.785679" changeset="false"><tag k="addr:street" v="Waldon Drive"/><tag k="addr:housenumber" v="7715"/><tag k="addr:postcode" v="78750"/></node><node id="-88" lat="30.372228" lon="-97.785969" changeset="false"><tag k="addr:street" v="Creekbluff Drive"/><tag k="addr:housenumber" v="7301"/><tag k="addr:postcode" v="78750"/></node><node id="-89" lat="30.375221" lon="-97.785057" changeset="false"><tag k="addr:street" v="Creekbluff Drive"/><tag k="addr:housenumber" v="7501"/><tag k="addr:postcode" v="78750"/></node><node id="-90" lat="30.380716" lon="-97.791418" changeset="false"><tag k="addr:street" v="Lakewood Drive"/><tag k="addr:housenumber" v="7861"/><tag k="addr:postcode" v="78750"/></node><node id="-91" lat="30.374929" lon="-97.7875" changeset="false"><tag k="addr:street" v="Turkey Hollow"/><tag k="addr:housenumber" v="6204"/><tag k="addr:postcode" v="78750"/></node><node id="-92" lat="30.367839" lon="-97.790226" changeset="false"><tag k="addr:street" v="Capital of Texas Highway"/><tag k="addr:housenumber" v="6702"/><tag k="addr:postcode" v="78750"/></node><node id="-93" lat="30.371675" lon="-97.785917" changeset="false"><tag k="addr:street" v="Lakewood Drive"/><tag k="addr:housenumber" v="7200"/><tag k="addr:postcode" v="78750"/></node><node id="-94" lat="30.37809" lon="-97.797685" changeset="false"><tag k="addr:street" v="Guava Cove"/><tag k="addr:housenumber" v="7200"/><tag k="addr:postcode" v="78750"/></node><node id="-95" lat="30.375345" lon="-97.786719" changeset="false"><tag k="addr:street" v="Big Oak Hollow"/><tag k="addr:housenumber" v="6205"/><tag k="addr:postcode" v="78750"/></node><node id="-96" lat="30.374956" lon="-97.787083" changeset="false"><tag k="addr:street" v="Waldon Drive"/><tag k="addr:housenumber" v="7404"/><tag k="addr:postcode" v="78750"/></node><node id="-97" lat="30.378473" lon="-97.789115" changeset="false"><tag k="addr:street" v="Mesa Hollow Drive"/><tag k="addr:housenumber" v="6601"/><tag k="addr:postcode" v="78750"/></node><node id="-98" lat="30.379621" lon="-97.788217" changeset="false"><tag k="addr:street" v="Hiridge Hollow Drive"/><tag k="addr:housenumber" v="6517"/><tag k="addr:postcode" v="78750"/></node><node id="-99" lat="30.37925" lon="-97.788636" changeset="false"><tag k="addr:street" v="Hiridge Hollow Drive"/><tag k="addr:housenumber" v="6503"/><tag k="addr:postcode" v="78750"/></node><node id="-100" lat="30.371224" lon="-97.795155" changeset="false"><tag k="addr:street" v="Winterberry Drive"/><tag k="addr:housenumber" v="6701"/><tag k="addr:postcode" v="78750"/></node><node id="-101" lat="30.373344" lon="-97.795373" changeset="false"><tag k="addr:street" v="Winterberry Drive"/><tag k="addr:housenumber" v="6802"/><tag k="addr:postcode" v="78750"/></node><node id="-102" lat="30.380854" lon="-97.787975" changeset="false"><tag k="addr:street" v="Lakewood Point Cove"/><tag k="addr:housenumber" v="6601"/><tag k="addr:postcode" v="78750"/></node><node id="-103" lat="30.369761" lon="-97.800426" changeset="false"><tag k="addr:street" v="Jester Boulevard"/><tag k="addr:housenumber" v="6507"/><tag k="addr:postcode" v="78750"/></node><node id="-104" lat="30.373213" lon="-97.787941" changeset="false"><tag k="addr:street" v="Grass Hollow"/><tag k="addr:housenumber" v="6108"/><tag k="addr:postcode" v="78750"/></node><node id="-105" lat="30.375645" lon="-97.792152" changeset="false"><tag k="addr:street" v="Tree Fern Lane"/><tag k="addr:housenumber" v="6700"/><tag k="addr:postcode" v="78750"/></node><node id="-106" lat="30.379659" lon="-97.788027" changeset="false"><tag k="addr:street" v="Hiridge Hollow Drive"/><tag k="addr:housenumber" v="6521"/><tag k="addr:postcode" v="78750"/></node><node id="-107" lat="30.371933" lon="-97.790922" changeset="false"><tag k="addr:street" v="Gardenridge Hollow"/><tag k="addr:housenumber" v="7005"/><tag k="addr:postcode" v="78750"/></node><node id="-108" lat="30.363076" lon="-97.792997" changeset="false"><tag k="addr:street" v="Champion Grandview Way"/><tag k="addr:housenumber" v="6433"/><tag k="addr:postcode" v="78750"/></node><node id="-109" lat="30.370481" lon="-97.799839" changeset="false"><tag k="addr:street" v="Jester Boulevard"/><tag k="addr:housenumber" v="6601"/><tag k="addr:postcode" v="78750"/></node><node id="-110" lat="30.36192" lon="-97.79142" changeset="false"><tag k="addr:street" v="Capital of Texas Highway"/><tag k="addr:housenumber" v="6200 1/2"/><tag k="addr:postcode" v="78750"/></node><node id="-111" lat="30.382893" lon="-97.792727" changeset="false"><tag k="addr:street" v="Foxtree Cove"/><tag k="addr:housenumber" v="7100"/><tag k="addr:postcode" v="78750"/></node><node id="-112" lat="30.373155" lon="-97.792794" changeset="false"><tag k="addr:street" v="Twin Creek Hollow"/><tag k="addr:housenumber" v="6521"/><tag k="addr:postcode" v="78750"/></node><node id="-113" lat="30.382542" lon="-97.794178" changeset="false"><tag k="addr:street" v="Foxtree Cove"/><tag k="addr:housenumber" v="7110"/><tag k="addr:postcode" v="78750"/></node><node id="-114" lat="30.380178" lon="-97.787018" changeset="false"><tag k="addr:street" v="Hillside Hollow Drive"/><tag k="addr:housenumber" v="6500"/><tag k="addr:postcode" v="78750"/></node><node id="-115" lat="30.380063" lon="-97.789955" changeset="false"><tag k="addr:street" v="Lakewood Point Cove"/><tag k="addr:housenumber" v="6709"/><tag k="addr:postcode" v="78750"/></node><node id="-116" lat="30.381237" lon="-97.795371" changeset="false"><tag k="addr:street" v="Foxtree Cove"/><tag k="addr:housenumber" v="7205"/><tag k="addr:postcode" v="78750"/></node><node id="-117" lat="30.380816" lon="-97.791185" changeset="false"><tag k="addr:street" v="Lakewood Drive"/><tag k="addr:housenumber" v="7859"/><tag k="addr:postcode" v="78750"/></node><node id="-118" lat="30.37351" lon="-97.78973" changeset="false"><tag k="addr:street" v="Paintbrush Hollow"/><tag k="addr:housenumber" v="6409"/><tag k="addr:postcode" v="78750"/></node><node id="-119" lat="30.373167" lon="-97.786171" changeset="false"><tag k="addr:street" v="Creekbluff Drive"/><tag k="addr:housenumber" v="7310"/><tag k="addr:postcode" v="78750"/></node><node id="-120" lat="30.381445" lon="-97.794637" changeset="false"><tag k="addr:street" v="Foxtree Cove"/><tag k="addr:housenumber" v="7201"/><tag k="addr:postcode" v="78750"/></node><node id="-121" lat="30.370583" lon="-97.793728" changeset="false"><tag k="addr:street" v="Winterberry Drive"/><tag k="addr:housenumber" v="6507"/><tag k="addr:postcode" v="78750"/></node><node id="-122" lat="30.373814" lon="-97.798952" changeset="false"><tag k="addr:street" v="Jester Boulevard"/><tag k="addr:housenumber" v="6733"/><tag k="addr:postcode" v="78750"/></node><node id="-123" lat="30.382402" lon="-97.797525" changeset="false"><tag k="addr:street" v="Kolache Cove"/><tag k="addr:housenumber" v="7505"/><tag k="addr:postcode" v="78750"/></node><node id="-124" lat="30.379897" lon="-97.78756" changeset="false"><tag k="addr:street" v="Hillside Hollow Drive"/><tag k="addr:housenumber" v="6505"/><tag k="addr:postcode" v="78750"/></node><node id="-125" lat="30.371116" lon="-97.790227" changeset="false"><tag k="addr:street" v="Dogwood Hollow"/><tag k="addr:housenumber" v="6903"/><tag k="addr:postcode" v="78750"/></node><node id="-126" lat="30.373379" lon="-97.789098" changeset="false"><tag k="addr:street" v="Lakewood Drive"/><tag k="addr:housenumber" v="7248"/><tag k="addr:postcode" v="78750"/></node><node id="-127" lat="30.380235" lon="-97.787122" changeset="false"><tag k="addr:street" v="Hillside Hollow Drive"/><tag k="addr:housenumber" v="6502"/><tag k="addr:postcode" v="78750"/></node><node id="-128" lat="30.380485" lon="-97.786994" changeset="false"><tag k="addr:street" v="Lakewood Drive"/><tag k="addr:housenumber" v="7706"/><tag k="addr:postcode" v="78750"/></node><node id="-129" lat="30.380815" lon="-97.786962" changeset="false"><tag k="addr:street" v="Lakewood Drive"/><tag k="addr:housenumber" v="7714"/><tag k="addr:postcode" v="78750"/></node><node id="-130" lat="30.381285" lon="-97.787092" changeset="false"><tag k="addr:street" v="Lakewood Drive"/><tag k="addr:housenumber" v="7724"/><tag k="addr:postcode" v="78750"/></node><node id="-131" lat="30.379652" lon="-97.78812" changeset="false"><tag k="addr:street" v="Hiridge Hollow Drive"/><tag k="addr:housenumber" v="6519"/><tag k="addr:postcode" v="78750"/></node><node id="-132" lat="30.381786" lon="-97.78756" changeset="false"><tag k="addr:street" v="Lakewood Drive"/><tag k="addr:housenumber" v="7806"/><tag k="addr:postcode" v="78750"/></node><node id="-133" lat="30.380005" lon="-97.787599" changeset="false"><tag k="addr:street" v="Hillside Hollow Drive"/><tag k="addr:housenumber" v="6507"/><tag k="addr:postcode" v="78750"/></node><node id="-134" lat="30.379476" lon="-97.788522" changeset="false"><tag k="addr:street" v="Hiridge Hollow Drive"/><tag k="addr:housenumber" v="6509"/><tag k="addr:postcode" v="78750"/></node><node id="-135" lat="30.379579" lon="-97.788299" changeset="false"><tag k="addr:street" v="Hiridge Hollow Drive"/><tag k="addr:housenumber" v="6515"/><tag k="addr:postcode" v="78750"/></node><node id="-136" lat="30.379377" lon="-97.788672" changeset="false"><tag k="addr:street" v="Hiridge Hollow Drive"/><tag k="addr:housenumber" v="6505"/><tag k="addr:postcode" v="78750"/></node><node id="-137" lat="30.377559" lon="-97.788934" changeset="false"><tag k="addr:street" v="Lakewood Drive"/><tag k="addr:housenumber" v="7421"/><tag k="addr:postcode" v="78750"/></node><node id="-138" lat="30.375074" lon="-97.789835" changeset="false"><tag k="addr:street" v="Cave Hollow"/><tag k="addr:housenumber" v="7314"/><tag k="addr:postcode" v="78750"/></node><node id="-139" lat="30.37308" lon="-97.790105" changeset="false"><tag k="addr:street" v="Wallace Cove"/><tag k="addr:housenumber" v="6400"/><tag k="addr:postcode" v="78750"/></node><node id="-140" lat="30.373803" lon="-97.789949" changeset="false"><tag k="addr:street" v="Paintbrush Hollow"/><tag k="addr:housenumber" v="6410"/><tag k="addr:postcode" v="78750"/></node><node id="-141" lat="30.373411" lon="-97.792394" changeset="false"><tag k="addr:street" v="Twin Creek Hollow"/><tag k="addr:housenumber" v="6516"/><tag k="addr:postcode" v="78750"/></node><node id="-142" lat="30.372951" lon="-97.792197" changeset="false"><tag k="addr:street" v="Twin Creek Hollow"/><tag k="addr:housenumber" v="6511"/><tag k="addr:postcode" v="78750"/></node><node id="-143" lat="30.381202" lon="-97.787061" changeset="false"><tag k="addr:street" v="Lakewood Drive"/><tag k="addr:housenumber" v="7722"/><tag k="addr:postcode" v="78750"/></node><node id="-144" lat="30.381137" lon="-97.787015" changeset="false"><tag k="addr:street" v="Lakewood Drive"/><tag k="addr:housenumber" v="7720"/><tag k="addr:postcode" v="78750"/></node><node id="-145" lat="30.381513" lon="-97.787204" changeset="false"><tag k="addr:street" v="Lakewood Drive"/><tag k="addr:housenumber" v="7730"/><tag k="addr:postcode" v="78750"/></node><node id="-146" lat="30.381446" lon="-97.787159" changeset="false"><tag k="addr:street" v="Lakewood Drive"/><tag k="addr:housenumber" v="7728"/><tag k="addr:postcode" v="78750"/></node><node id="-147" lat="30.380296" lon="-97.787415" changeset="false"><tag k="addr:street" v="Hillside Hollow Drive"/><tag k="addr:housenumber" v="6508"/><tag k="addr:postcode" v="78750"/></node><node id="-148" lat="30.380288" lon="-97.787316" changeset="false"><tag k="addr:street" v="Hillside Hollow Drive"/><tag k="addr:housenumber" v="6506"/><tag k="addr:postcode" v="78750"/></node><node id="-149" lat="30.381854" lon="-97.787802" changeset="false"><tag k="addr:street" v="Lakewood Drive"/><tag k="addr:housenumber" v="7810"/><tag k="addr:postcode" v="78750"/></node><node id="-150" lat="30.381892" lon="-97.787882" changeset="false"><tag k="addr:street" v="Lakewood Drive"/><tag k="addr:housenumber" v="7812"/><tag k="addr:postcode" v="78750"/></node><node id="-151" lat="30.381932" lon="-97.787963" changeset="false"><tag k="addr:street" v="Lakewood Drive"/><tag k="addr:housenumber" v="7814"/><tag k="addr:postcode" v="78750"/></node><node id="-152" lat="30.381969" lon="-97.788053" changeset="false"><tag k="addr:street" v="Lakewood Drive"/><tag k="addr:housenumber" v="7816"/><tag k="addr:postcode" v="78750"/></node><node id="-153" lat="30.382028" lon="-97.788231" changeset="false"><tag k="addr:street" v="Lakewood Drive"/><tag k="addr:housenumber" v="7820"/><tag k="addr:postcode" v="78750"/></node><node id="-154" lat="30.381996" lon="-97.788138" changeset="false"><tag k="addr:street" v="Lakewood Drive"/><tag k="addr:housenumber" v="7818"/><tag k="addr:postcode" v="78750"/></node><node id="-155" lat="30.379256" lon="-97.789481" changeset="false"><tag k="addr:street" v="Mesa Hollow Drive"/><tag k="addr:housenumber" v="6614"/><tag k="addr:postcode" v="78750"/></node><node id="-156" lat="30.37924" lon="-97.789394" changeset="false"><tag k="addr:street" v="Mesa Hollow Drive"/><tag k="addr:housenumber" v="6612"/><tag k="addr:postcode" v="78750"/></node><node id="-157" lat="30.379088" lon="-97.789345" changeset="false"><tag k="addr:street" v="Mesa Hollow Drive"/><tag k="addr:housenumber" v="6610"/><tag k="addr:postcode" v="78750"/></node><node id="-158" lat="30.379034" lon="-97.789255" changeset="false"><tag k="addr:street" v="Mesa Hollow Drive"/><tag k="addr:housenumber" v="6608"/><tag k="addr:postcode" v="78750"/></node><node id="-159" lat="30.378943" lon="-97.789085" changeset="false"><tag k="addr:street" v="Mesa Hollow Drive"/><tag k="addr:housenumber" v="6604"/><tag k="addr:postcode" v="78750"/></node><node id="-160" lat="30.378985" lon="-97.789153" changeset="false"><tag k="addr:street" v="Mesa Hollow Drive"/><tag k="addr:housenumber" v="6606"/><tag k="addr:postcode" v="78750"/></node><node id="-161" lat="30.378872" lon="-97.789018" changeset="false"><tag k="addr:street" v="Mesa Hollow Drive"/><tag k="addr:housenumber" v="6602"/><tag k="addr:postcode" v="78750"/></node><node id="-162" lat="30.378583" lon="-97.789402" changeset="false"><tag k="addr:street" v="Mesa Hollow Drive"/><tag k="addr:housenumber" v="6607"/><tag k="addr:postcode" v="78750"/></node><node id="-163" lat="30.378554" lon="-97.789333" changeset="false"><tag k="addr:street" v="Mesa Hollow Drive"/><tag k="addr:housenumber" v="6605"/><tag k="addr:postcode" v="78750"/></node><node id="-164" lat="30.378495" lon="-97.789244" changeset="false"><tag k="addr:street" v="Mesa Hollow Drive"/><tag k="addr:housenumber" v="6603"/><tag k="addr:postcode" v="78750"/></node><node id="-165" lat="30.378712" lon="-97.78955" changeset="false"><tag k="addr:street" v="Mesa Hollow Drive"/><tag k="addr:housenumber" v="6611"/><tag k="addr:postcode" v="78750"/></node><node id="-166" lat="30.378651" lon="-97.789481" changeset="false"><tag k="addr:street" v="Mesa Hollow Drive"/><tag k="addr:housenumber" v="6609"/><tag k="addr:postcode" v="78750"/></node><node id="-167" lat="30.379216" lon="-97.789697" changeset="false"><tag k="addr:street" v="Mesa Hollow Drive"/><tag k="addr:housenumber" v="6621"/><tag k="addr:postcode" v="78750"/></node><node id="-168" lat="30.379245" lon="-97.789617" changeset="false"><tag k="addr:street" v="Mesa Hollow Drive"/><tag k="addr:housenumber" v="6616"/><tag k="addr:postcode" v="78750"/></node><node id="-169" lat="30.371252" lon="-97.787931" changeset="false"><tag k="addr:street" v="Gardenridge Hollow"/><tag k="addr:housenumber" v="6100"/><tag k="addr:postcode" v="78750"/></node><node id="-170" lat="30.371345" lon="-97.788061" changeset="false"><tag k="addr:street" v="Gardenridge Hollow"/><tag k="addr:housenumber" v="6102"/><tag k="addr:postcode" v="78750"/></node><node id="-171" lat="30.378775" lon="-97.789669" changeset="false"><tag k="addr:street" v="Mesa Hollow Drive"/><tag k="addr:housenumber" v="6613"/><tag k="addr:postcode" v="78750"/></node><node id="-172" lat="30.378923" lon="-97.78978" changeset="false"><tag k="addr:street" v="Mesa Hollow Drive"/><tag k="addr:housenumber" v="6617"/><tag k="addr:postcode" v="78750"/></node><node id="-173" lat="30.378851" lon="-97.789746" changeset="false"><tag k="addr:street" v="Mesa Hollow Drive"/><tag k="addr:housenumber" v="6615"/><tag k="addr:postcode" v="78750"/></node><node id="-174" lat="30.375787" lon="-97.7996" changeset="false"><tag k="addr:street" v="Halbert Drive"/><tag k="addr:housenumber" v="7202"/><tag k="addr:postcode" v="78750"/></node><node id="-175" lat="30.375685" lon="-97.799615" changeset="false"><tag k="addr:street" v="Halbert Drive"/><tag k="addr:housenumber" v="7208"/><tag k="addr:postcode" v="78750"/></node><node id="-176" lat="30.373031" lon="-97.790012" changeset="false"><tag k="addr:street" v="Wallace Cove"/><tag k="addr:housenumber" v="6304"/><tag k="addr:postcode" v="78750"/></node><node id="-177" lat="30.372983" lon="-97.789927" changeset="false"><tag k="addr:street" v="Wallace Cove"/><tag k="addr:housenumber" v="6300"/><tag k="addr:postcode" v="78750"/></node><node id="-178" lat="30.373234" lon="-97.790406" changeset="false"><tag k="addr:street" v="Wallace Cove"/><tag k="addr:housenumber" v="6406"/><tag k="addr:postcode" v="78750"/></node><node id="-179" lat="30.373183" lon="-97.790311" changeset="false"><tag k="addr:street" v="Wallace Cove"/><tag k="addr:housenumber" v="6404"/><tag k="addr:postcode" v="78750"/></node><node id="-180" lat="30.373696" lon="-97.789964" changeset="false"><tag k="addr:street" v="Paintbrush Hollow"/><tag k="addr:housenumber" v="6412"/><tag k="addr:postcode" v="78750"/></node><node id="-181" lat="30.373601" lon="-97.789893" changeset="false"><tag k="addr:street" v="Paintbrush Hollow"/><tag k="addr:housenumber" v="6413"/><tag k="addr:postcode" v="78750"/></node><node id="-182" lat="30.374082" lon="-97.789585" changeset="false"><tag k="addr:street" v="Paintbrush Hollow"/><tag k="addr:housenumber" v="6402"/><tag k="addr:postcode" v="78750"/></node><node id="-183" lat="30.37401" lon="-97.789438" changeset="false"><tag k="addr:street" v="Paintbrush Hollow"/><tag k="addr:housenumber" v="6400"/><tag k="addr:postcode" v="78750"/></node><node id="-184" lat="30.374015" lon="-97.789683" changeset="false"><tag k="addr:street" v="Paintbrush Hollow"/><tag k="addr:housenumber" v="6404"/><tag k="addr:postcode" v="78750"/></node><node id="-185" lat="30.374045" lon="-97.789808" changeset="false"><tag k="addr:street" v="Paintbrush Hollow"/><tag k="addr:housenumber" v="6406"/><tag k="addr:postcode" v="78750"/></node><node id="-186" lat="30.372994" lon="-97.792452" changeset="false"><tag k="addr:street" v="Twin Creek Hollow"/><tag k="addr:housenumber" v="6515"/><tag k="addr:postcode" v="78750"/></node><node id="-187" lat="30.372973" lon="-97.792351" changeset="false"><tag k="addr:street" v="Twin Creek Hollow"/><tag k="addr:housenumber" v="6513"/><tag k="addr:postcode" v="78750"/></node><node id="-188" lat="30.373114" lon="-97.792685" changeset="false"><tag k="addr:street" v="Twin Creek Hollow"/><tag k="addr:housenumber" v="6519"/><tag k="addr:postcode" v="78750"/></node><node id="-189" lat="30.373077" lon="-97.792582" changeset="false"><tag k="addr:street" v="Twin Creek Hollow"/><tag k="addr:housenumber" v="6517"/><tag k="addr:postcode" v="78750"/></node><node id="-190" lat="30.372226" lon="-97.791029" changeset="false"><tag k="addr:street" v="Gardenridge Hollow"/><tag k="addr:housenumber" v="7004"/><tag k="addr:postcode" v="78750"/></node><node id="-191" lat="30.37228" lon="-97.790941" changeset="false"><tag k="addr:street" v="Gardenridge Hollow"/><tag k="addr:housenumber" v="7006"/><tag k="addr:postcode" v="78750"/></node><node id="-192" lat="30.372394" lon="-97.790741" changeset="false"><tag k="addr:street" v="Gardenridge Hollow"/><tag k="addr:housenumber" v="7010"/><tag k="addr:postcode" v="78750"/></node><node id="-193" lat="30.372333" lon="-97.790842" changeset="false"><tag k="addr:street" v="Gardenridge Hollow"/><tag k="addr:housenumber" v="7008"/><tag k="addr:postcode" v="78750"/></node><node id="-194" lat="30.372176" lon="-97.791134" changeset="false"><tag k="addr:street" v="Gardenridge Hollow"/><tag k="addr:housenumber" v="7002"/><tag k="addr:postcode" v="78750"/></node><node id="-195" lat="30.372121" lon="-97.791244" changeset="false"><tag k="addr:street" v="Gardenridge Hollow"/><tag k="addr:housenumber" v="7000"/><tag k="addr:postcode" v="78750"/></node></osm>