<?xml version="1.0" encoding="UTF-8"?><osm version="0.6" generator="github.com/aaronlidman/osm-and-geojson"><node id="-1" lat="30.266441" lon="-97.723603" changeset="false"><tag k="addr:street" v="East 10th Street"/><tag k="addr:housenumber" v="1616"/><tag k="coa:place_id" v="403322"/></node><node id="-2" lat="30.264169" lon="-97.724524" changeset="false"><tag k="addr:street" v="East 8th Street"/><tag k="addr:housenumber" v="1617"/><tag k="coa:place_id" v="402944"/></node><node id="-3" lat="30.266371" lon="-97.723297" changeset="false"><tag k="addr:street" v="East 10th Street"/><tag k="addr:housenumber" v="1620"/><tag k="coa:place_id" v="619726"/></node><node id="-4" lat="30.268258" lon="-97.728265" changeset="false"><tag k="addr:street" v="Lydia Street"/><tag k="addr:housenumber" v="1004"/><tag k="coa:place_id" v="3041273"/></node><node id="-5" lat="30.268192" lon="-97.729575" changeset="false"><tag k="addr:street" v="East 10th Street"/><tag k="addr:housenumber" v="1101"/><tag k="coa:place_id" v="443720"/></node><node id="-6" lat="30.266712" lon="-97.733633" changeset="false"><tag k="addr:street" v="North Interstate Highway 35 Service Road"/><tag k="addr:housenumber" v="701"/><tag k="coa:place_id" v="443198"/></node><node id="-7" lat="30.269357" lon="-97.730105" changeset="false"><tag k="addr:street" v="East 11th Street"/><tag k="addr:housenumber" v="1009"/><tag k="coa:place_id" v="932432"/></node><node id="-8" lat="30.266559" lon="-97.728195" changeset="false"><tag k="addr:street" v="East 9th Street"/><tag k="addr:housenumber" v="1203"/><tag k="coa:place_id" v="241592"/></node><node id="-9" lat="30.268023" lon="-97.732681" changeset="false"><tag k="addr:street" v="East 9th Street"/><tag k="addr:housenumber" v="811"/><tag k="coa:place_id" v="443240"/></node><node id="-10" lat="30.267964" lon="-97.730587" changeset="false"><tag k="addr:street" v="East 9th Street"/><tag k="addr:housenumber" v="1008"/><tag k="coa:place_id" v="443630"/></node><node id="-11" lat="30.265589" lon="-97.720253" changeset="false"><tag k="addr:street" v="College Row"/><tag k="addr:housenumber" v="1904"/><tag k="coa:place_id" v="603722"/></node><node id="-12" lat="30.26403" lon="-97.725411" changeset="false"><tag k="addr:street" v="East 7th Street"/><tag k="addr:housenumber" v="1606"/><tag k="coa:place_id" v="402860"/></node><node id="-13" lat="30.268539" lon="-97.729305" changeset="false"><tag k="addr:street" v="Waller Street"/><tag k="addr:housenumber" v="1005"/><tag k="coa:place_id" v="3134313"/></node><node id="-14" lat="30.26496" lon="-97.727987" changeset="false"><tag k="addr:street" v="East 7th Street"/><tag k="addr:housenumber" v="1308"/><tag k="coa:place_id" v="401798"/></node><node id="-15" lat="30.264545" lon="-97.725596" changeset="false"><tag k="addr:street" v="East 8th Street"/><tag k="addr:housenumber" v="1601"/><tag k="coa:place_id" v="402914"/></node><node id="-16" lat="30.266555" lon="-97.729474" changeset="false"><tag k="addr:street" v="East 8th Street"/><tag k="addr:housenumber" v="1104"/><tag k="coa:place_id" v="443054"/></node><node id="-17" lat="30.265381" lon="-97.723424" changeset="false"><tag k="addr:street" v="Chalmers Avenue"/><tag k="addr:housenumber" v="902"/><tag k="coa:place_id" v="403172"/></node><node id="-18" lat="30.268642" lon="-97.728378" changeset="false"><tag k="addr:street" v="East 11th Street"/><tag k="addr:housenumber" v="1123"/><tag k="coa:place_id" v="444158"/></node><node id="-19" lat="30.265823" lon="-97.720423" changeset="false"><tag k="addr:street" v="East 11th Street"/><tag k="addr:housenumber" v="1901"/><tag k="coa:place_id" v="604208"/></node><node id="-20" lat="30.264125" lon="-97.724391" changeset="false"><tag k="addr:street" v="East 8th Street"/><tag k="addr:housenumber" v="1619"/><tag k="coa:place_id" v="402956"/></node><node id="-21" lat="30.266798" lon="-97.72454" changeset="false"><tag k="addr:street" v="East 10th Street"/><tag k="addr:housenumber" v="1602"/><tag k="coa:place_id" v="403262"/></node><node id="-22" lat="30.266119" lon="-97.731295" changeset="false"><tag k="addr:street" v="East 7th Street"/><tag k="addr:housenumber" v="1004"/><tag k="coa:place_id" v="401930"/></node><node id="-23" lat="30.267164" lon="-97.732243" changeset="false"><tag k="addr:street" v="Embassy Drive"/><tag k="addr:housenumber" v="801 1/2"/><tag k="coa:place_id" v="3190145"/></node><node id="-24" lat="30.265454" lon="-97.728521" changeset="false"><tag k="addr:street" v="Lydia Street"/><tag k="addr:housenumber" v="705"/><tag k="coa:place_id" v="3271984"/></node><node id="-25" lat="30.266428" lon="-97.722081" changeset="false"><tag k="addr:street" v="East 11th Street"/><tag k="addr:housenumber" v="1705"/><tag k="coa:place_id" v="5118931"/></node><node id="-26" lat="30.266301" lon="-97.727533" changeset="false"><tag k="addr:street" v="East 9th Street"/><tag k="addr:housenumber" v="1211"/><tag k="coa:place_id" v="443396"/></node><node id="-27" lat="30.26678" lon="-97.728787" changeset="false"><tag k="addr:street" v="East 9th Street"/><tag k="addr:housenumber" v="1113"/><tag k="coa:place_id" v="443354"/></node><node id="-28" lat="30.268303" lon="-97.727275" changeset="false"><tag k="addr:street" v="East 11th Street"/><tag k="addr:housenumber" v="1205"/><tag k="coa:place_id" v="444194"/></node><node id="-29" lat="30.265443" lon="-97.730165" changeset="false"><tag k="addr:street" v="Waller Street"/><tag k="addr:housenumber" v="701"/><tag k="coa:place_id" v="401870"/></node><node id="-30" lat="30.268066" lon="-97.730898" changeset="false"><tag k="addr:street" v="East 9th Street"/><tag k="addr:housenumber" v="1002"/><tag k="coa:place_id" v="443642"/></node><node id="-31" lat="30.267926" lon="-97.731421" changeset="false"><tag k="addr:street" v="San Marcos Street"/><tag k="addr:housenumber" v="900"/><tag k="coa:place_id" v="443660"/></node><node id="-32" lat="30.265743" lon="-97.723611" changeset="false"><tag k="addr:street" v="East 10th Street"/><tag k="addr:housenumber" v="1621"/><tag k="coa:place_id" v="403304"/></node><node id="-33" lat="30.267047" lon="-97.732743" changeset="false"><tag k="addr:street" v="East 8th Street"/><tag k="addr:housenumber" v="901"/><tag k="coa:place_id" v="241563"/></node><node id="-34" lat="30.26457" lon="-97.723716" changeset="false"><tag k="addr:street" v="Chalmers Avenue"/><tag k="addr:housenumber" v="804"/><tag k="coa:place_id" v="402986"/></node><node id="-35" lat="30.263711" lon="-97.724483" changeset="false"><tag k="addr:street" v="East 7th Street"/><tag k="addr:housenumber" v="1618"/><tag k="coa:place_id" v="402836"/></node><node id="-36" lat="30.2653" lon="-97.725357" changeset="false"><tag k="addr:street" v="Comal Street"/><tag k="addr:housenumber" v="813"/><tag k="coa:place_id" v="1163455"/></node><node id="-37" lat="30.268843" lon="-97.728952" changeset="false"><tag k="addr:street" v="East 11th Street"/><tag k="addr:housenumber" v="1111"/><tag k="coa:place_id" v="444122"/></node><node id="-38" lat="30.265663" lon="-97.725156" changeset="false"><tag k="addr:street" v="Comal Street"/><tag k="addr:housenumber" v="901"/><tag k="coa:place_id" v="403178"/></node><node id="-39" lat="30.265192" lon="-97.72543" changeset="false"><tag k="addr:street" v="Comal Street"/><tag k="addr:housenumber" v="807"/><tag k="coa:place_id" v="403070"/></node><node id="-40" lat="30.267355" lon="-97.727983" changeset="false"><tag k="addr:street" v="Lydia Street"/><tag k="addr:housenumber" v="909"/><tag k="coa:place_id" v="443414"/></node><node id="-41" lat="30.267935" lon="-97.732407" changeset="false"><tag k="addr:street" v="East 9th Street"/><tag k="addr:housenumber" v="817"/><tag k="coa:place_id" v="443246"/></node><node id="-42" lat="30.267544" lon="-97.729307" changeset="false"><tag k="addr:street" v="East 9th Street"/><tag k="addr:housenumber" v="1104"/><tag k="coa:place_id" v="443558"/></node><node id="-43" lat="30.266041" lon="-97.727464" changeset="false"><tag k="addr:street" v="Inks Avenue"/><tag k="addr:housenumber" v="1220"/><tag k="coa:place_id" v="402122"/></node><node id="-44" lat="30.266743" lon="-97.724707" changeset="false"><tag k="addr:street" v="Comal Street"/><tag k="addr:housenumber" v="1001"/><tag k="coa:place_id" v="604215"/></node><node id="-45" lat="30.26412" lon="-97.725668" changeset="false"><tag k="addr:street" v="East 7th Street"/><tag k="addr:housenumber" v="1602"/><tag k="coa:place_id" v="205876"/></node><node id="-46" lat="30.266267" lon="-97.723019" changeset="false"><tag k="addr:street" v="East 10th Street"/><tag k="addr:housenumber" v="1624"/><tag k="coa:place_id" v="403112"/></node><node id="-47" lat="30.266371" lon="-97.728954" changeset="false"><tag k="addr:street" v="East 8th Street"/><tag k="addr:housenumber" v="1112"/><tag k="coa:place_id" v="443030"/></node><node id="-48" lat="30.26771" lon="-97.733135" changeset="false"><tag k="addr:street" v="East 8th Street"/><tag k="addr:housenumber" v="808"/><tag k="coa:place_id" v="5216574"/></node><node id="-49" lat="30.266138" lon="-97.731906" changeset="false"><tag k="addr:street" v="East 7th Street"/><tag k="addr:housenumber" v="924"/><tag k="coa:place_id" v="3342648"/></node><node id="-50" lat="30.265832" lon="-97.727865" changeset="false"><tag k="addr:street" v="Inks Avenue"/><tag k="addr:housenumber" v="1213"/><tag k="coa:place_id" v="402068"/></node><node id="-51" lat="30.267352" lon="-97.730517" changeset="false"><tag k="addr:street" v="East 9th Street"/><tag k="addr:housenumber" v="1009"/><tag k="coa:place_id" v="443270"/></node><node id="-52" lat="30.264173" lon="-97.72582" changeset="false"><tag k="addr:street" v="East 7th Street"/><tag k="addr:housenumber" v="1600"/><tag k="coa:place_id" v="402890"/></node><node id="-53" lat="30.267894" lon="-97.730387" changeset="false"><tag k="addr:street" v="East 9th Street"/><tag k="addr:housenumber" v="1010"/><tag k="coa:place_id" v="443624"/></node><node id="-54" lat="30.267149" lon="-97.728054" changeset="false"><tag k="addr:street" v="Lydia Street"/><tag k="addr:housenumber" v="905"/><tag k="coa:place_id" v="443408"/></node><node id="-55" lat="30.267739" lon="-97.731458" changeset="false"><tag k="addr:street" v="San Marcos Street"/><tag k="addr:housenumber" v="814"/><tag k="coa:place_id" v="443138"/></node><node id="-56" lat="30.267216" lon="-97.731151" changeset="false"><tag k="addr:street" v="San Marcos Street"/><tag k="addr:housenumber" v="809"/><tag k="coa:place_id" v="443114"/></node><node id="-57" lat="30.267427" lon="-97.72895" changeset="false"><tag k="addr:street" v="East 9th Street"/><tag k="addr:housenumber" v="1108"/><tag k="coa:place_id" v="443546"/></node><node id="-58" lat="30.265019" lon="-97.725427" changeset="false"><tag k="addr:street" v="Comal Street"/><tag k="addr:housenumber" v="805"/><tag k="coa:place_id" v="403058"/></node><node id="-59" lat="30.266505" lon="-97.729336" changeset="false"><tag k="addr:street" v="East 8th Street"/><tag k="addr:housenumber" v="1106"/><tag k="coa:place_id" v="443048"/></node><node id="-60" lat="30.266444" lon="-97.729165" changeset="false"><tag k="addr:street" v="East 8th Street"/><tag k="addr:housenumber" v="1110"/><tag k="coa:place_id" v="443036"/></node><node id="-61" lat="30.263776" lon="-97.724753" changeset="false"><tag k="addr:street" v="East 7th Street"/><tag k="addr:housenumber" v="1614"/><tag k="coa:place_id" v="325557"/></node><node id="-62" lat="30.265786" lon="-97.72316" changeset="false"><tag k="addr:street" v="East 10th Street"/><tag k="addr:housenumber" v="1627"/><tag k="coa:place_id" v="403202"/></node><node id="-63" lat="30.266968" lon="-97.732603" changeset="false"><tag k="addr:street" v="East 8th Street"/><tag k="addr:housenumber" v="903"/><tag k="coa:place_id" v="128499"/></node><node id="-64" lat="30.264997" lon="-97.720384" changeset="false"><tag k="addr:street" v="East 10th Street"/><tag k="addr:housenumber" v="1906"/><tag k="coa:place_id" v="604388"/></node><node id="-65" lat="30.269186" lon="-97.729523" changeset="false"><tag k="addr:street" v="East 11th Street"/><tag k="addr:housenumber" v="1021 1/2"/><tag k="coa:place_id" v="3095214"/></node><node id="-66" lat="30.266902" lon="-97.730561" changeset="false"><tag k="addr:street" v="East 8th Street"/><tag k="addr:housenumber" v="1010"/><tag k="coa:place_id" v="443090"/></node><node id="-67" lat="30.264917" lon="-97.725587" changeset="false"><tag k="addr:street" v="East 8th Street"/><tag k="addr:housenumber" v="1600"/><tag k="coa:place_id" v="403046"/></node><node id="-68" lat="30.269283" lon="-97.72988" changeset="false"><tag k="addr:street" v="East 11th Street"/><tag k="addr:housenumber" v="1013"/><tag k="coa:place_id" v="738226"/></node><node id="-69" lat="30.268378" lon="-97.728756" changeset="false"><tag k="addr:street" v="East 10th Street"/><tag k="addr:housenumber" v="1106"/><tag k="coa:place_id" v="443858"/></node><node id="-70" lat="30.266313" lon="-97.722913" changeset="false"><tag k="addr:street" v="Chalmers Avenue"/><tag k="addr:housenumber" v="1006"/><tag k="coa:place_id" v="403292"/></node><node id="-71" lat="30.265459" lon="-97.729414" changeset="false"><tag k="addr:street" v="East 7th Street"/><tag k="addr:housenumber" v="1210"/><tag k="coa:place_id" v="401852"/></node><node id="-72" lat="30.264327" lon="-97.725829" changeset="false"><tag k="addr:street" v="Comal Street"/><tag k="addr:housenumber" v="709"/><tag k="coa:place_id" v="402908"/></node><node id="-73" lat="30.265012" lon="-97.725282" changeset="false"><tag k="addr:street" v="East 8th Street"/><tag k="addr:housenumber" v="1602"/><tag k="coa:place_id" v="403040"/></node><node id="-74" lat="30.264822" lon="-97.724739" changeset="false"><tag k="addr:street" v="East 8th Street"/><tag k="addr:housenumber" v="1610"/><tag k="coa:place_id" v="966500"/></node><node id="-75" lat="30.26722" lon="-97.728508" changeset="false"><tag k="addr:street" v="Lydia Street"/><tag k="addr:housenumber" v="900"/><tag k="coa:place_id" v="443450"/></node><node id="-76" lat="30.268205" lon="-97.728265" changeset="false"><tag k="addr:street" v="East 10th Street"/><tag k="addr:housenumber" v="1112"/><tag k="coa:place_id" v="443840"/></node><node id="-77" lat="30.265493" lon="-97.72337" changeset="false"><tag k="addr:street" v="Chalmers Avenue"/><tag k="addr:housenumber" v="904"/><tag k="coa:place_id" v="403154"/></node><node id="-78" lat="30.266765" lon="-97.724377" changeset="false"><tag k="addr:street" v="East 10th Street"/><tag k="addr:housenumber" v="1604"/><tag k="coa:place_id" v="403388"/></node><node id="-79" lat="30.268604" lon="-97.728246" changeset="false"><tag k="addr:street" v="East 11th Street"/><tag k="addr:housenumber" v="1129"/><tag k="coa:place_id" v="444164"/></node><node id="-80" lat="30.269684" lon="-97.730772" changeset="false"><tag k="addr:street" v="East 11th Street"/><tag k="addr:housenumber" v="1001"/><tag k="coa:place_id" v="444080"/></node><node id="-81" lat="30.266992" lon="-97.730824" changeset="false"><tag k="addr:street" v="East 8th Street"/><tag k="addr:housenumber" v="1006"/><tag k="coa:place_id" v="241566"/></node><node id="-82" lat="30.266937" lon="-97.730666" changeset="false"><tag k="addr:street" v="East 8th Street"/><tag k="addr:housenumber" v="1008"/><tag k="coa:place_id" v="443096"/></node><node id="-83" lat="30.265531" lon="-97.729574" changeset="false"><tag k="addr:street" v="East 7th Street"/><tag k="addr:housenumber" v="1208"/><tag k="coa:place_id" v="414448"/></node><node id="-84" lat="30.264905" lon="-97.727689" changeset="false"><tag k="addr:street" v="Navasota Street"/><tag k="addr:housenumber" v="709"/><tag k="coa:place_id" v="549272"/></node><node id="-85" lat="30.266602" lon="-97.729612" changeset="false"><tag k="addr:street" v="East 8th Street"/><tag k="addr:housenumber" v="1102"/><tag k="coa:place_id" v="443060"/></node><node id="-86" lat="30.266331" lon="-97.728205" changeset="false"><tag k="addr:street" v="Lydia Street"/><tag k="addr:housenumber" v="805"/><tag k="coa:place_id" v="247560"/></node><node id="-87" lat="30.267664" lon="-97.7329" changeset="false"><tag k="addr:street" v="East 8th Street"/><tag k="addr:housenumber" v="812"/><tag k="coa:place_id" v="443222"/></node><node id="-88" lat="30.265409" lon="-97.729229" changeset="false"><tag k="addr:street" v="East 7th Street"/><tag k="addr:housenumber" v="1214"/><tag k="coa:place_id" v="401846"/></node><node id="-89" lat="30.26537" lon="-97.727891" changeset="false"><tag k="addr:street" v="Navasota Street"/><tag k="addr:housenumber" v="706"/><tag k="coa:place_id" v="402044"/></node><node id="-90" lat="30.265995" lon="-97.731049" changeset="false"><tag k="addr:street" v="East 7th Street"/><tag k="addr:housenumber" v="1006"/><tag k="coa:place_id" v="401918"/></node><node id="-91" lat="30.268465" lon="-97.727794" changeset="false"><tag k="addr:street" v="East 11th Street"/><tag k="addr:housenumber" v="1201"/><tag k="coa:place_id" v="444188"/></node><node id="-92" lat="30.265916" lon="-97.730845" changeset="false"><tag k="addr:street" v="East 7th Street"/><tag k="addr:housenumber" v="1008"/><tag k="coa:place_id" v="3351510"/></node><node id="-93" lat="30.265113" lon="-97.728423" changeset="false"><tag k="addr:street" v="East 7th Street"/><tag k="addr:housenumber" v="1302"/><tag k="coa:place_id" v="3298602"/></node><node id="-94" lat="30.265178" lon="-97.728593" changeset="false"><tag k="addr:street" v="East 7th Street"/><tag k="addr:housenumber" v="1300"/><tag k="coa:place_id" v="401816"/></node><node id="-95" lat="30.265009" lon="-97.728133" changeset="false"><tag k="addr:street" v="East 7th Street"/><tag k="addr:housenumber" v="1306"/><tag k="coa:place_id" v="820443"/></node><node id="-96" lat="30.264872" lon="-97.724877" changeset="false"><tag k="addr:street" v="East 8th Street"/><tag k="addr:housenumber" v="1608"/><tag k="coa:place_id" v="403022"/></node><node id="-97" lat="30.26779" lon="-97.727166" changeset="false"><tag k="addr:street" v="East 10th Street"/><tag k="addr:housenumber" v="1208"/><tag k="coa:place_id" v="443780"/></node><node id="-98" lat="30.267661" lon="-97.731682" changeset="false"><tag k="addr:street" v="San Marcos Street"/><tag k="addr:housenumber" v="810"/><tag k="coa:place_id" v="931394"/></node><node id="-99" lat="30.266338" lon="-97.723141" changeset="false"><tag k="addr:street" v="East 10th Street"/><tag k="addr:housenumber" v="1622"/><tag k="coa:place_id" v="403118"/></node><node id="-100" lat="30.268288" lon="-97.730178" changeset="false"><tag k="addr:street" v="East 10th Street"/><tag k="addr:housenumber" v="1015"/><tag k="coa:place_id" v="443714"/></node><node id="-101" lat="30.264219" lon="-97.725866" changeset="false"><tag k="addr:street" v="Comal Street"/><tag k="addr:housenumber" v="707"/><tag k="coa:place_id" v="402902"/></node><node id="-102" lat="30.265441" lon="-97.728008" changeset="false"><tag k="addr:street" v="East 8th Street"/><tag k="addr:housenumber" v="1209"/><tag k="coa:place_id" v="402050"/></node><node id="-103" lat="30.266624" lon="-97.724081" changeset="false"><tag k="addr:street" v="East 10th Street"/><tag k="addr:housenumber" v="1608"/><tag k="coa:place_id" v="403346"/></node><node id="-104" lat="30.26665" lon="-97.72693" changeset="false"><tag k="addr:street" v="Navasota Street"/><tag k="addr:housenumber" v="901"/><tag k="coa:place_id" v="549278"/></node><node id="-105" lat="30.266574" lon="-97.723914" changeset="false"><tag k="addr:street" v="East 10th Street"/><tag k="addr:housenumber" v="1610"/><tag k="coa:place_id" v="403274"/></node><node id="-106" lat="30.265313" lon="-97.72938" changeset="false"><tag k="addr:street" v="East 7th Street"/><tag k="addr:housenumber" v="1212"/><tag k="coa:place_id" v="222688"/></node><node id="-107" lat="30.268718" lon="-97.728586" changeset="false"><tag k="addr:street" v="East 11th Street"/><tag k="addr:housenumber" v="1119"/><tag k="coa:place_id" v="444152"/></node><node id="-108" lat="30.265338" lon="-97.729023" changeset="false"><tag k="addr:street" v="East 7th Street"/><tag k="addr:housenumber" v="1216"/><tag k="coa:place_id" v="401840"/></node><node id="-109" lat="30.26688" lon="-97.730164" changeset="false"><tag k="addr:street" v="Waller Street"/><tag k="addr:housenumber" v="804"/><tag k="coa:place_id" v="443012"/></node><node id="-110" lat="30.266687" lon="-97.72422" changeset="false"><tag k="addr:street" v="East 10th Street"/><tag k="addr:housenumber" v="1606"/><tag k="coa:place_id" v="403364"/></node><node id="-111" lat="30.264074" lon="-97.725532" changeset="false"><tag k="addr:street" v="East 7th Street"/><tag k="addr:housenumber" v="1604"/><tag k="coa:place_id" v="402866"/></node><node id="-112" lat="30.266298" lon="-97.728745" changeset="false"><tag k="addr:street" v="East 8th Street"/><tag k="addr:housenumber" v="1114"/><tag k="coa:place_id" v="443018"/></node><node id="-113" lat="30.268477" lon="-97.727618" changeset="false"><tag k="addr:street" v="East 11th Street"/><tag k="addr:housenumber" v="1203"/><tag k="coa:place_id" v="3185739"/></node><node id="-114" lat="30.267696" lon="-97.726895" changeset="false"><tag k="addr:street" v="East 10th Street"/><tag k="addr:housenumber" v="1212"/><tag k="coa:place_id" v="443768"/></node><node id="-115" lat="30.267649" lon="-97.728089" changeset="false"><tag k="addr:street" v="East 10th Street"/><tag k="addr:housenumber" v="1203"/><tag k="coa:place_id" v="443750"/></node><node id="-116" lat="30.267554" lon="-97.726803" changeset="false"><tag k="addr:street" v="East 10th Street"/><tag k="addr:housenumber" v="1214"/><tag k="coa:place_id" v="443762"/></node><node id="-117" lat="30.267483" lon="-97.729106" changeset="false"><tag k="addr:street" v="East 9th Street"/><tag k="addr:housenumber" v="1106"/><tag k="coa:place_id" v="443552"/></node><node id="-118" lat="30.267518" lon="-97.729618" changeset="false"><tag k="addr:street" v="Waller Street"/><tag k="addr:housenumber" v="903"/><tag k="coa:place_id" v="251999"/></node><node id="-119" lat="30.264417" lon="-97.725237" changeset="false"><tag k="addr:street" v="East 8th Street"/><tag k="addr:housenumber" v="1605"/><tag k="coa:place_id" v="402932"/></node><node id="-120" lat="30.265629" lon="-97.72333" changeset="false"><tag k="addr:street" v="Chalmers Avenue"/><tag k="addr:housenumber" v="906"/><tag k="coa:place_id" v="403148"/></node><node id="-121" lat="30.266129" lon="-97.727706" changeset="false"><tag k="addr:street" v="Inks Avenue"/><tag k="addr:housenumber" v="1214"/><tag k="coa:place_id" v="89526"/></node><node id="-122" lat="30.266943" lon="-97.729739" changeset="false"><tag k="addr:street" v="Waller Street"/><tag k="addr:housenumber" v="807"/><tag k="coa:place_id" v="3290968"/></node><node id="-123" lat="30.268019" lon="-97.730759" changeset="false"><tag k="addr:street" v="East 9th Street"/><tag k="addr:housenumber" v="1004"/><tag k="coa:place_id" v="443636"/></node><node id="-124" lat="30.268218" lon="-97.727657" changeset="false"><tag k="addr:street" v="Wheeless Street"/><tag k="addr:housenumber" v="1008"/><tag k="coa:place_id" v="443816"/></node><node id="-125" lat="30.26871" lon="-97.72877" changeset="false"><tag k="addr:street" v="East 11th Street"/><tag k="addr:housenumber" v="1117"/><tag k="coa:place_id" v="444146"/></node><node id="-126" lat="30.263609" lon="-97.724304" changeset="false"><tag k="addr:street" v="East 7th Street"/><tag k="addr:housenumber" v="1624"/><tag k="coa:place_id" v="402812"/></node><node id="-127" lat="30.270249" lon="-97.732399" changeset="false"><tag k="addr:street" v="North Interstate Highway 35 Service Road"/><tag k="addr:housenumber" v="1099 1/2"/><tag k="coa:place_id" v="3312908"/></node><node id="-128" lat="30.267453" lon="-97.732383" changeset="false"><tag k="addr:street" v="Embassy Drive"/><tag k="addr:housenumber" v="800"/><tag k="coa:place_id" v="5091483"/></node><node id="-129" lat="30.266257" lon="-97.727302" changeset="false"><tag k="addr:street" v="East 9th Street"/><tag k="addr:housenumber" v="1223"/><tag k="coa:place_id" v="89524"/></node><node id="-130" lat="30.265059" lon="-97.728281" changeset="false"><tag k="addr:street" v="East 7th Street"/><tag k="addr:housenumber" v="1304"/><tag k="coa:place_id" v="401810"/></node><node id="-131" lat="30.266175" lon="-97.731544" changeset="false"><tag k="addr:street" v="East 7th Street"/><tag k="addr:housenumber" v="1000"/><tag k="coa:place_id" v="433954"/></node><node id="-132" lat="30.265062" lon="-97.725419" changeset="false"><tag k="addr:street" v="Comal Street"/><tag k="addr:housenumber" v="803"/><tag k="coa:place_id" v="403052"/></node><node id="-133" lat="30.266775" lon="-97.733421" changeset="false"><tag k="addr:street" v="East 7th Street"/><tag k="addr:housenumber" v="814"/><tag k="coa:place_id" v="144204"/></node><node id="-134" lat="30.264668" lon="-97.721364" changeset="false"><tag k="addr:street" v="Chicon Street"/><tag k="addr:housenumber" v="900"/><tag k="coa:place_id" v="606524"/></node><node id="-135" lat="30.267837" lon="-97.731442" changeset="false"><tag k="addr:street" v="San Marcos Street"/><tag k="addr:housenumber" v="816"/><tag k="coa:place_id" v="443132"/></node><node id="-136" lat="30.267746" lon="-97.72703" changeset="false"><tag k="addr:street" v="East 10th Street"/><tag k="addr:housenumber" v="1210"/><tag k="coa:place_id" v="443774"/></node><node id="-137" lat="30.265459" lon="-97.719965" changeset="false"><tag k="addr:street" v="College Row"/><tag k="addr:housenumber" v="1908"/><tag k="coa:place_id" v="226245"/></node><node id="-138" lat="30.264075" lon="-97.724255" changeset="false"><tag k="addr:street" v="East 8th Street"/><tag k="addr:housenumber" v="1621"/><tag k="coa:place_id" v="402962"/></node><node id="-139" lat="30.26425" lon="-97.724701" changeset="false"><tag k="addr:street" v="East 8th Street"/><tag k="addr:housenumber" v="1615"/><tag k="coa:place_id" v="1163452"/></node><node id="-140" lat="30.268484" lon="-97.730737" changeset="false"><tag k="addr:street" v="East 10th Street"/><tag k="addr:housenumber" v="1005"/><tag k="coa:place_id" v="443678"/></node><node id="-141" lat="30.268335" lon="-97.730318" changeset="false"><tag k="addr:street" v="East 10th Street"/><tag k="addr:housenumber" v="1013"/><tag k="coa:place_id" v="443708"/></node><node id="-142" lat="30.267898" lon="-97.732247" changeset="false"><tag k="addr:street" v="East 9th Street"/><tag k="addr:housenumber" v="819"/><tag k="coa:place_id" v="3174424"/></node><node id="-143" lat="30.267843" lon="-97.72777" changeset="false"><tag k="addr:street" v="Wheeless Street"/><tag k="addr:housenumber" v="1000"/><tag k="coa:place_id" v="443822"/></node><node id="-144" lat="30.268187" lon="-97.72711" changeset="false"><tag k="addr:street" v="East 11th Street"/><tag k="addr:housenumber" v="1207"/><tag k="coa:place_id" v="444212"/></node><node id="-145" lat="30.266666" lon="-97.729784" changeset="false"><tag k="addr:street" v="East 8th Street"/><tag k="addr:housenumber" v="1100"/><tag k="coa:place_id" v="443066"/></node><node id="-146" lat="30.269315" lon="-97.729993" changeset="false"><tag k="addr:street" v="East 11th Street"/><tag k="addr:housenumber" v="1011"/><tag k="coa:place_id" v="263007"/></node><node id="-147" lat="30.264638" lon="-97.726066" changeset="false"><tag k="addr:street" v="Comal Street"/><tag k="addr:housenumber" v="804"/><tag k="coa:place_id" v="549266"/></node><node id="-148" lat="30.266569" lon="-97.732747" changeset="false"><tag k="addr:street" v="East 7th Street"/><tag k="addr:housenumber" v="904"/><tag k="coa:place_id" v="443168"/></node><node id="-149" lat="30.267131" lon="-97.732259" changeset="false"><tag k="addr:street" v="Embassy Drive"/><tag k="addr:housenumber" v="801"/><tag k="coa:place_id" v="443210"/></node><node id="-150" lat="30.267343" lon="-97.732401" changeset="false"><tag k="addr:street" v="Embassy Drive"/><tag k="addr:housenumber" v="800 1/2"/><tag k="coa:place_id" v="3067529"/></node><node id="-151" lat="30.263665" lon="-97.724351" changeset="false"><tag k="addr:street" v="East 7th Street"/><tag k="addr:housenumber" v="1620"/><tag k="coa:place_id" v="402824"/></node><node id="-152" lat="30.267405" lon="-97.728552" changeset="false"><tag k="addr:street" v="Lydia Street"/><tag k="addr:housenumber" v="904"/><tag k="coa:place_id" v="443444"/></node><node id="-153" lat="30.267579" lon="-97.727905" changeset="false"><tag k="addr:street" v="Lydia Street"/><tag k="addr:housenumber" v="913"/><tag k="coa:place_id" v="443426"/></node><node id="-154" lat="30.269422" lon="-97.730279" changeset="false"><tag k="addr:street" v="East 11th Street"/><tag k="addr:housenumber" v="1005"/><tag k="coa:place_id" v="444086"/></node><node id="-155" lat="30.264991" lon="-97.720805" changeset="false"><tag k="addr:street" v="Chicon Street"/><tag k="addr:housenumber" v="1001"/><tag k="coa:place_id" v="604400"/></node><node id="-156" lat="30.267637" lon="-97.729526" changeset="false"><tag k="addr:street" v="East 9th Street"/><tag k="addr:housenumber" v="1100"/><tag k="coa:place_id" v="241589"/></node><node id="-157" lat="30.265684" lon="-97.720041" changeset="false"><tag k="addr:street" v="East 11th Street"/><tag k="addr:housenumber" v="1907"/><tag k="coa:place_id" v="604214"/></node><node id="-158" lat="30.263936" lon="-97.725142" changeset="false"><tag k="addr:street" v="East 7th Street"/><tag k="addr:housenumber" v="1612"/><tag k="coa:place_id" v="402854"/></node><node id="-159" lat="30.266402" lon="-97.723448" changeset="false"><tag k="addr:street" v="East 10th Street"/><tag k="addr:housenumber" v="1618"/><tag k="coa:place_id" v="403310"/></node><node id="-160" lat="30.264472" lon="-97.725393" changeset="false"><tag k="addr:street" v="East 8th Street"/><tag k="addr:housenumber" v="1603"/><tag k="coa:place_id" v="402926"/></node><node id="-161" lat="30.266658" lon="-97.727548" changeset="false"><tag k="addr:street" v="East 9th Street"/><tag k="addr:housenumber" v="1212"/><tag k="coa:place_id" v="880022"/></node><node id="-162" lat="30.268497" lon="-97.729097" changeset="false"><tag k="addr:street" v="East 10th Street"/><tag k="addr:housenumber" v="1102"/><tag k="coa:place_id" v="443870"/></node><node id="-163" lat="30.264918" lon="-97.725012" changeset="false"><tag k="addr:street" v="East 8th Street"/><tag k="addr:housenumber" v="1606"/><tag k="coa:place_id" v="403028"/></node><node id="-164" lat="30.266613" lon="-97.732883" changeset="false"><tag k="addr:street" v="East 7th Street"/><tag k="addr:housenumber" v="902"/><tag k="coa:place_id" v="443180"/></node><node id="-165" lat="30.264028" lon="-97.724118" changeset="false"><tag k="addr:street" v="East 8th Street"/><tag k="addr:housenumber" v="1623"/><tag k="coa:place_id" v="402968"/></node><node id="-166" lat="30.263982" lon="-97.723984" changeset="false"><tag k="addr:street" v="East 8th Street"/><tag k="addr:housenumber" v="1625"/><tag k="coa:place_id" v="402974"/></node><node id="-167" lat="30.265496" lon="-97.728261" changeset="false"><tag k="addr:street" v="East 8th Street"/><tag k="addr:housenumber" v="1205"/><tag k="coa:place_id" v="402032"/></node><node id="-168" lat="30.265888" lon="-97.730628" changeset="false"><tag k="addr:street" v="East 7th Street"/><tag k="addr:housenumber" v="1010"/><tag k="coa:place_id" v="401900"/></node><node id="-169" lat="30.263755" lon="-97.724615" changeset="false"><tag k="addr:street" v="East 7th Street"/><tag k="addr:housenumber" v="1616"/><tag k="coa:place_id" v="681567"/></node><node id="-170" lat="30.268234" lon="-97.73102" changeset="false"><tag k="addr:street" v="San Marcos Street"/><tag k="addr:housenumber" v="903"/><tag k="coa:place_id" v="443654"/></node><node id="-171" lat="30.266657" lon="-97.733019" changeset="false"><tag k="addr:street" v="East 7th Street"/><tag k="addr:housenumber" v="900"/><tag k="coa:place_id" v="443186"/></node><node id="-172" lat="30.264527" lon="-97.723893" changeset="false"><tag k="addr:street" v="East 8th Street"/><tag k="addr:housenumber" v="1622"/><tag k="coa:place_id" v="241569"/></node><node id="-173" lat="30.268454" lon="-97.728164" changeset="false"><tag k="addr:street" v="Lydia Street"/><tag k="addr:housenumber" v="1010"/><tag k="coa:place_id" v="443834"/></node><node id="-174" lat="30.268569" lon="-97.728173" changeset="false"><tag k="addr:street" v="East 11th Street"/><tag k="addr:housenumber" v="1131"/><tag k="coa:place_id" v="444170"/></node><node id="-175" lat="30.268566" lon="-97.728106" changeset="false"><tag k="addr:street" v="East 11th Street"/><tag k="addr:housenumber" v="1133"/><tag k="coa:place_id" v="444176"/></node><node id="-176" lat="30.267699" lon="-97.728394" changeset="false"><tag k="addr:street" v="Lydia Street"/><tag k="addr:housenumber" v="912"/><tag k="coa:place_id" v="659883"/></node><node id="-177" lat="30.267538" lon="-97.72842" changeset="false"><tag k="addr:street" v="Lydia Street"/><tag k="addr:housenumber" v="908"/><tag k="coa:place_id" v="443438"/></node><node id="-178" lat="30.267357" lon="-97.728822" changeset="false"><tag k="addr:street" v="East 9th Street"/><tag k="addr:housenumber" v="1110"/><tag k="coa:place_id" v="443540"/></node><node id="-179" lat="30.267245" lon="-97.728762" changeset="false"><tag k="addr:street" v="East 9th Street"/><tag k="addr:housenumber" v="1112"/><tag k="coa:place_id" v="241591"/></node><node id="-180" lat="30.26905" lon="-97.729267" changeset="false"><tag k="addr:street" v="East 11th Street"/><tag k="addr:housenumber" v="1103"/><tag k="coa:place_id" v="444110"/></node><node id="-181" lat="30.268942" lon="-97.72921" changeset="false"><tag k="addr:street" v="East 11th Street"/><tag k="addr:housenumber" v="1101"/><tag k="coa:place_id" v="444104"/></node><node id="-182" lat="30.267747" lon="-97.729956" changeset="false"><tag k="addr:street" v="East 9th Street"/><tag k="addr:housenumber" v="1014"/><tag k="coa:place_id" v="443612"/></node><node id="-183" lat="30.267576" lon="-97.729937" changeset="false"><tag k="addr:street" v="Waller Street"/><tag k="addr:housenumber" v="902"/><tag k="coa:place_id" v="443504"/></node><node id="-184" lat="30.268524" lon="-97.732447" changeset="false"><tag k="addr:street" v="East 9th Street"/><tag k="addr:housenumber" v="812"/><tag k="coa:place_id" v="443666"/></node><node id="-185" lat="30.268568" lon="-97.732591" changeset="false"><tag k="addr:street" v="East 9th Street"/><tag k="addr:housenumber" v="810"/><tag k="coa:place_id" v="443672"/></node><node id="-186" lat="30.269084" lon="-97.731402" changeset="false"><tag k="addr:street" v="San Marcos Street"/><tag k="addr:housenumber" v="1000"/><tag k="coa:place_id" v="3127280"/></node><node id="-187" lat="30.269354" lon="-97.732159" changeset="false"><tag k="addr:street" v="East 10th Street"/><tag k="addr:housenumber" v="814"/><tag k="coa:place_id" v="444026"/></node><node id="-188" lat="30.26969" lon="-97.732452" changeset="false"><tag k="addr:street" v="North Interstate Highway 35 Service Road"/><tag k="addr:housenumber" v="1001"/><tag k="coa:place_id" v="3033345"/></node><node id="-189" lat="30.269824" lon="-97.73169" changeset="false"><tag k="addr:street" v="East 11th Street"/><tag k="addr:housenumber" v="811"/><tag k="coa:place_id" v="444068"/></node><node id="-190" lat="30.267085" lon="-97.732875" changeset="false"><tag k="addr:street" v="East 8th Street"/><tag k="addr:housenumber" v="819"/><tag k="coa:place_id" v="241561"/></node><node id="-191" lat="30.267119" lon="-97.733007" changeset="false"><tag k="addr:street" v="East 8th Street"/><tag k="addr:housenumber" v="813"/><tag k="coa:place_id" v="443204"/></node><node id="-192" lat="30.266251" lon="-97.727391" changeset="false"><tag k="addr:street" v="East 9th Street"/><tag k="addr:housenumber" v="1215"/><tag k="coa:place_id" v="443402"/></node><node id="-193" lat="30.266262" lon="-97.727343" changeset="false"><tag k="addr:street" v="East 9th Street"/><tag k="addr:housenumber" v="1221"/><tag k="coa:place_id" v="89523"/></node><node id="-194" lat="30.266156" lon="-97.727795" changeset="false"><tag k="addr:street" v="Inks Avenue"/><tag k="addr:housenumber" v="1212"/><tag k="coa:place_id" v="89525"/></node><node id="-195" lat="30.266178" lon="-97.727851" changeset="false"><tag k="addr:street" v="Inks Avenue"/><tag k="addr:housenumber" v="1208"/><tag k="coa:place_id" v="246462"/></node><node id="-196" lat="30.265754" lon="-97.73007" changeset="false"><tag k="addr:street" v="Waller Street"/><tag k="addr:housenumber" v="705"/><tag k="coa:place_id" v="401882"/></node><node id="-197" lat="30.26577" lon="-97.729968" changeset="false"><tag k="addr:street" v="Waller Street"/><tag k="addr:housenumber" v="703"/><tag k="coa:place_id" v="401876"/></node></osm>