<?xml version="1.0" encoding="UTF-8"?><osm version="0.6" generator="github.com/aaronlidman/osm-and-geojson"><node id="-1" lat="30.268053" lon="-97.726729" changeset="false"><tag k="addr:street" v="East 11th Street"/><tag k="addr:housenumber" v="1211"/><tag k="addr:postcode" v="78702"/></node><node id="-2" lat="30.266924" lon="-97.723684" changeset="false"><tag k="addr:street" v="East 11th Street"/><tag k="addr:housenumber" v="1611"/><tag k="addr:postcode" v="78702"/></node><node id="-3" lat="30.26703" lon="-97.724031" changeset="false"><tag k="addr:street" v="East 11th Street"/><tag k="addr:housenumber" v="1607"/><tag k="addr:postcode" v="78702"/></node><node id="-4" lat="30.26698" lon="-97.723882" changeset="false"><tag k="addr:street" v="East 11th Street"/><tag k="addr:housenumber" v="1609"/><tag k="addr:postcode" v="78702"/></node><node id="-5" lat="30.26714" lon="-97.724313" changeset="false"><tag k="addr:street" v="East 11th Street"/><tag k="addr:housenumber" v="1603"/><tag k="addr:postcode" v="78702"/></node><node id="-6" lat="30.267082" lon="-97.724175" changeset="false"><tag k="addr:street" v="East 11th Street"/><tag k="addr:housenumber" v="1605"/><tag k="addr:postcode" v="78702"/></node><node id="-7" lat="30.267187" lon="-97.724448" changeset="false"><tag k="addr:street" v="East 11th Street"/><tag k="addr:housenumber" v="1601"/><tag k="addr:postcode" v="78702"/></node><node id="-8" lat="30.2675" lon="-97.726839" changeset="false"><tag k="addr:street" v="East 10th Street"/><tag k="addr:housenumber" v="1214"/><tag k="addr:postcode" v="78702"/></node><node id="-9" lat="30.267719" lon="-97.72672" changeset="false"><tag k="addr:street" v="Navasota Street"/><tag k="addr:housenumber" v="1002"/><tag k="addr:postcode" v="78702"/></node><node id="-10" lat="30.266694" lon="-97.723054" changeset="false"><tag k="addr:street" v="East 11th Street"/><tag k="addr:housenumber" v="1623"/><tag k="addr:postcode" v="78702"/></node><node id="-11" lat="30.266777" lon="-97.723348" changeset="false"><tag k="addr:street" v="East 11th Street"/><tag k="addr:housenumber" v="1619"/><tag k="addr:postcode" v="78702"/></node><node id="-12" lat="30.267289" lon="-97.726493" changeset="false"><tag k="addr:street" v="Navasota Street"/><tag k="addr:housenumber" v="909"/><tag k="addr:postcode" v="78702"/></node><node id="-13" lat="30.266749" lon="-97.724406" changeset="false"><tag k="addr:street" v="East 10th Street"/><tag k="addr:housenumber" v="1604"/><tag k="addr:postcode" v="78702"/></node><node id="-14" lat="30.266741" lon="-97.723193" changeset="false"><tag k="addr:street" v="East 11th Street"/><tag k="addr:housenumber" v="1621"/><tag k="addr:postcode" v="78702"/></node><node id="-15" lat="30.266767" lon="-97.724571" changeset="false"><tag k="addr:street" v="East 10th Street"/><tag k="addr:housenumber" v="1602"/><tag k="addr:postcode" v="78702"/></node><node id="-16" lat="30.266611" lon="-97.724659" changeset="false"><tag k="addr:street" v="East 10th Street"/><tag k="addr:housenumber" v="1600"/><tag k="addr:postcode" v="78702"/></node><node id="-17" lat="30.266472" lon="-97.722832" changeset="false"><tag k="addr:street" v="Chalmers Avenue"/><tag k="addr:housenumber" v="1008"/><tag k="addr:postcode" v="78702"/></node><node id="-18" lat="30.266434" lon="-97.723445" changeset="false"><tag k="addr:street" v="East 10th Street"/><tag k="addr:housenumber" v="1618"/><tag k="addr:postcode" v="78702"/></node><node id="-19" lat="30.266557" lon="-97.72411" changeset="false"><tag k="addr:street" v="East 10th Street"/><tag k="addr:housenumber" v="1608"/><tag k="addr:postcode" v="78702"/></node><node id="-20" lat="30.266478" lon="-97.723582" changeset="false"><tag k="addr:street" v="East 10th Street"/><tag k="addr:housenumber" v="1616"/><tag k="addr:postcode" v="78702"/></node><node id="-21" lat="30.2666" lon="-97.722793" changeset="false"><tag k="addr:street" v="East 11th Street"/><tag k="addr:housenumber" v="1627"/><tag k="addr:postcode" v="78702"/></node><node id="-22" lat="30.266644" lon="-97.722926" changeset="false"><tag k="addr:street" v="East 11th Street"/><tag k="addr:housenumber" v="1625"/><tag k="addr:postcode" v="78702"/></node><node id="-23" lat="30.268423" lon="-97.727807" changeset="false"><tag k="addr:street" v="East 11th Street"/><tag k="addr:housenumber" v="1201"/><tag k="addr:postcode" v="78702"/></node><node id="-24" lat="30.26834" lon="-97.728289" changeset="false"><tag k="addr:street" v="Lydia Street"/><tag k="addr:housenumber" v="1004"/><tag k="addr:postcode" v="78702"/></node><node id="-25" lat="30.268303" lon="-97.72881" changeset="false"><tag k="addr:street" v="East 10th Street"/><tag k="addr:housenumber" v="1106"/><tag k="addr:postcode" v="78702"/></node><node id="-26" lat="30.268725" lon="-97.728652" changeset="false"><tag k="addr:street" v="East 11th Street"/><tag k="addr:housenumber" v="1119"/><tag k="addr:postcode" v="78702"/></node><node id="-27" lat="30.268322" lon="-97.728601" changeset="false"><tag k="addr:street" v="East 10th Street"/><tag k="addr:housenumber" v="1108"/><tag k="addr:postcode" v="78702"/></node><node id="-28" lat="30.268835" lon="-97.728736" changeset="false"><tag k="addr:street" v="East 11th Street"/><tag k="addr:housenumber" v="1115"/><tag k="addr:postcode" v="78702"/></node><node id="-29" lat="30.268114" lon="-97.7269" changeset="false"><tag k="addr:street" v="East 11th Street"/><tag k="addr:housenumber" v="1209"/><tag k="addr:postcode" v="78702"/></node><node id="-30" lat="30.267939" lon="-97.727432" changeset="false"><tag k="addr:street" v="Wheeless Street"/><tag k="addr:housenumber" v="1005"/><tag k="addr:postcode" v="78702"/></node><node id="-31" lat="30.267881" lon="-97.72786" changeset="false"><tag k="addr:street" v="Lydia Street"/><tag k="addr:housenumber" v="1001"/><tag k="addr:postcode" v="78702"/></node><node id="-32" lat="30.268136" lon="-97.727309" changeset="false"><tag k="addr:street" v="Wheeless Street"/><tag k="addr:housenumber" v="1009"/><tag k="addr:postcode" v="78702"/></node><node id="-33" lat="30.267972" lon="-97.72776" changeset="false"><tag k="addr:street" v="Wheeless Street"/><tag k="addr:housenumber" v="1002"/><tag k="addr:postcode" v="78702"/></node><node id="-34" lat="30.268117" lon="-97.727836" changeset="false"><tag k="addr:street" v="Lydia Street"/><tag k="addr:housenumber" v="1005"/><tag k="addr:postcode" v="78702"/></node><node id="-35" lat="30.268145" lon="-97.728323" changeset="false"><tag k="addr:street" v="East 10th Street"/><tag k="addr:housenumber" v="1112"/><tag k="addr:postcode" v="78702"/></node><node id="-36" lat="30.268269" lon="-97.728446" changeset="false"><tag k="addr:street" v="East 10th Street"/><tag k="addr:housenumber" v="1110"/><tag k="addr:postcode" v="78702"/></node><node id="-37" lat="30.268165" lon="-97.727657" changeset="false"><tag k="addr:street" v="Wheeless Street"/><tag k="addr:housenumber" v="1008"/><tag k="addr:postcode" v="78702"/></node><node id="-38" lat="30.267734" lon="-97.727053" changeset="false"><tag k="addr:street" v="East 10th Street"/><tag k="addr:housenumber" v="1210"/><tag k="addr:postcode" v="78702"/></node><node id="-39" lat="30.267336" lon="-97.727941" changeset="false"><tag k="addr:street" v="Lydia Street"/><tag k="addr:housenumber" v="909"/><tag k="addr:postcode" v="78702"/></node><node id="-40" lat="30.267363" lon="-97.728488" changeset="false"><tag k="addr:street" v="Lydia Street"/><tag k="addr:housenumber" v="904"/><tag k="addr:postcode" v="78702"/></node><node id="-41" lat="30.267776" lon="-97.72731" changeset="false"><tag k="addr:street" v="East 10th Street"/><tag k="addr:housenumber" v="1206"/><tag k="addr:postcode" v="78702"/></node><node id="-42" lat="30.267718" lon="-97.72745" changeset="false"><tag k="addr:street" v="East 10th Street"/><tag k="addr:housenumber" v="1204"/><tag k="addr:postcode" v="78702"/></node><node id="-43" lat="30.267831" lon="-97.728775" changeset="false"><tag k="addr:street" v="East 10th Street"/><tag k="addr:housenumber" v="1111"/><tag k="addr:postcode" v="78702"/></node><node id="-44" lat="30.267772" lon="-97.728604" changeset="false"><tag k="addr:street" v="East 10th Street"/><tag k="addr:housenumber" v="1115"/><tag k="addr:postcode" v="78702"/></node><node id="-45" lat="30.267716" lon="-97.727188" changeset="false"><tag k="addr:street" v="East 10th Street"/><tag k="addr:housenumber" v="1208"/><tag k="addr:postcode" v="78702"/></node><node id="-46" lat="30.26653" lon="-97.728694" changeset="false"><tag k="addr:street" v="Lydia Street"/><tag k="addr:housenumber" v="810"/><tag k="addr:postcode" v="78702"/></node><node id="-47" lat="30.266703" lon="-97.727835" changeset="false"><tag k="addr:street" v="East 9th Street"/><tag k="addr:housenumber" v="1206"/><tag k="addr:postcode" v="78702"/></node><node id="-48" lat="30.266774" lon="-97.728683" changeset="false"><tag k="addr:street" v="East 9th Street"/><tag k="addr:housenumber" v="1113"/><tag k="addr:postcode" v="78702"/></node><node id="-49" lat="30.267202" lon="-97.727912" changeset="false"><tag k="addr:street" v="Lydia Street"/><tag k="addr:housenumber" v="905"/><tag k="addr:postcode" v="78702"/></node><node id="-50" lat="30.26843" lon="-97.728914" changeset="false"><tag k="addr:street" v="East 10th Street"/><tag k="addr:housenumber" v="1104"/><tag k="addr:postcode" v="78702"/></node><node id="-51" lat="30.268353" lon="-97.730118" changeset="false"><tag k="addr:street" v="East 10th Street"/><tag k="addr:housenumber" v="1015"/><tag k="addr:postcode" v="78702"/></node><node id="-52" lat="30.268414" lon="-97.72914" changeset="false"><tag k="addr:street" v="East 10th Street"/><tag k="addr:housenumber" v="1102"/><tag k="addr:postcode" v="78702"/></node><node id="-53" lat="30.268761" lon="-97.729971" changeset="false"><tag k="addr:street" v="East 10th Street"/><tag k="addr:housenumber" v="1014"/><tag k="addr:postcode" v="78702"/></node><node id="-54" lat="30.268884" lon="-97.729054" changeset="false"><tag k="addr:street" v="East 11th Street"/><tag k="addr:housenumber" v="1107"/><tag k="addr:postcode" v="78702"/></node><node id="-55" lat="30.268646" lon="-97.729282" changeset="false"><tag k="addr:street" v="Waller Street"/><tag k="addr:housenumber" v="1007"/><tag k="addr:postcode" v="78702"/></node><node id="-56" lat="30.268808" lon="-97.728841" changeset="false"><tag k="addr:street" v="East 11th Street"/><tag k="addr:housenumber" v="1113"/><tag k="addr:postcode" v="78702"/></node><node id="-57" lat="30.268991" lon="-97.729591" changeset="false"><tag k="addr:street" v="Waller Street"/><tag k="addr:housenumber" v="1006"/><tag k="addr:postcode" v="78702"/></node><node id="-58" lat="30.267821" lon="-97.730173" changeset="false"><tag k="addr:street" v="East 9th Street"/><tag k="addr:housenumber" v="1012"/><tag k="addr:postcode" v="78702"/></node><node id="-59" lat="30.26788" lon="-97.728914" changeset="false"><tag k="addr:street" v="East 10th Street"/><tag k="addr:housenumber" v="1109"/><tag k="addr:postcode" v="78702"/></node><node id="-60" lat="30.268032" lon="-97.72933" changeset="false"><tag k="addr:street" v="East 10th Street"/><tag k="addr:housenumber" v="1105"/><tag k="addr:postcode" v="78702"/></node><node id="-61" lat="30.26793" lon="-97.729054" changeset="false"><tag k="addr:street" v="East 10th Street"/><tag k="addr:housenumber" v="1107"/><tag k="addr:postcode" v="78702"/></node><node id="-62" lat="30.268177" lon="-97.729856" changeset="false"><tag k="addr:street" v="Waller Street"/><tag k="addr:housenumber" v="916"/><tag k="addr:postcode" v="78702"/></node><node id="-63" lat="30.266868" lon="-97.729028" changeset="false"><tag k="addr:street" v="East 9th Street"/><tag k="addr:housenumber" v="1109"/><tag k="addr:postcode" v="78702"/></node><node id="-64" lat="30.267031" lon="-97.729493" changeset="false"><tag k="addr:street" v="East 9th Street"/><tag k="addr:housenumber" v="1103"/><tag k="addr:postcode" v="78702"/></node><node id="-65" lat="30.26714" lon="-97.729711" changeset="false"><tag k="addr:street" v="East 9th Street"/><tag k="addr:housenumber" v="1101"/><tag k="addr:postcode" v="78702"/></node><node id="-66" lat="30.266917" lon="-97.729176" changeset="false"><tag k="addr:street" v="East 9th Street"/><tag k="addr:housenumber" v="1107"/><tag k="addr:postcode" v="78702"/></node><node id="-67" lat="30.266973" lon="-97.729332" changeset="false"><tag k="addr:street" v="East 9th Street"/><tag k="addr:housenumber" v="1105"/><tag k="addr:postcode" v="78702"/></node><node id="-68" lat="30.267206" lon="-97.730102" changeset="false"><tag k="addr:street" v="East 9th Street"/><tag k="addr:housenumber" v="1013"/><tag k="addr:postcode" v="78702"/></node><node id="-69" lat="30.267287" lon="-97.730307" changeset="false"><tag k="addr:street" v="East 9th Street"/><tag k="addr:housenumber" v="1011"/><tag k="addr:postcode" v="78702"/></node><node id="-70" lat="30.267396" lon="-97.72914" changeset="false"><tag k="addr:street" v="East 9th Street"/><tag k="addr:housenumber" v="1106"/><tag k="addr:postcode" v="78702"/></node><node id="-71" lat="30.266821" lon="-97.728888" changeset="false"><tag k="addr:street" v="East 9th Street"/><tag k="addr:housenumber" v="1111"/><tag k="addr:postcode" v="78702"/></node><node id="-72" lat="30.266699" lon="-97.730207" changeset="false"><tag k="addr:street" v="East 8th Street"/><tag k="addr:housenumber" v="1014"/><tag k="addr:postcode" v="78702"/></node><node id="-73" lat="30.266666" lon="-97.729616" changeset="false"><tag k="addr:street" v="East 8th Street"/><tag k="addr:housenumber" v="1102"/><tag k="addr:postcode" v="78702"/></node><node id="-74" lat="30.266841" lon="-97.730125" changeset="false"><tag k="addr:street" v="Waller Street"/><tag k="addr:housenumber" v="804"/><tag k="addr:postcode" v="78702"/></node><node id="-75" lat="30.268073" lon="-97.732835" changeset="false"><tag k="addr:street" v="East 9th Street"/><tag k="addr:housenumber" v="809"/><tag k="addr:postcode" v="78702"/></node><node id="-76" lat="30.268132" lon="-97.730857" changeset="false"><tag k="addr:street" v="East 9th Street"/><tag k="addr:housenumber" v="1002"/><tag k="addr:postcode" v="78702"/></node><node id="-77" lat="30.268428" lon="-97.730578" changeset="false"><tag k="addr:street" v="East 10th Street"/><tag k="addr:housenumber" v="1009"/><tag k="addr:postcode" v="78702"/></node><node id="-78" lat="30.268484" lon="-97.730737" changeset="false"><tag k="addr:street" v="East 10th Street"/><tag k="addr:housenumber" v="1005"/><tag k="addr:postcode" v="78702"/></node><node id="-79" lat="30.268843" lon="-97.730464" changeset="false"><tag k="addr:street" v="East 10th Street"/><tag k="addr:housenumber" v="1010"/><tag k="addr:postcode" v="78702"/></node><node id="-80" lat="30.268379" lon="-97.730445" changeset="false"><tag k="addr:street" v="East 10th Street"/><tag k="addr:housenumber" v="1011"/><tag k="addr:postcode" v="78702"/></node><node id="-81" lat="30.269453" lon="-97.730731" changeset="false"><tag k="addr:street" v="San Marcos Street"/><tag k="addr:housenumber" v="1011"/><tag k="addr:postcode" v="78702"/></node><node id="-82" lat="30.267457" lon="-97.730833" changeset="false"><tag k="addr:street" v="East 9th Street"/><tag k="addr:housenumber" v="1005"/><tag k="addr:postcode" v="78702"/></node><node id="-83" lat="30.267653" lon="-97.731127" changeset="false"><tag k="addr:street" v="San Marcos Street"/><tag k="addr:housenumber" v="815"/><tag k="addr:postcode" v="78702"/></node><node id="-84" lat="30.267667" lon="-97.731497" changeset="false"><tag k="addr:street" v="San Marcos Street"/><tag k="addr:housenumber" v="812"/><tag k="addr:postcode" v="78702"/></node><node id="-85" lat="30.268053" lon="-97.73106" changeset="false"><tag k="addr:street" v="East 9th Street"/><tag k="addr:housenumber" v="1000"/><tag k="addr:postcode" v="78702"/></node><node id="-86" lat="30.26751" lon="-97.730974" changeset="false"><tag k="addr:street" v="East 9th Street"/><tag k="addr:housenumber" v="1003"/><tag k="addr:postcode" v="78702"/></node><node id="-87" lat="30.26792" lon="-97.730776" changeset="false"><tag k="addr:street" v="East 9th Street"/><tag k="addr:housenumber" v="1004"/><tag k="addr:postcode" v="78702"/></node><node id="-88" lat="30.26704" lon="-97.731153" changeset="false"><tag k="addr:street" v="East 8th Street"/><tag k="addr:housenumber" v="1000"/><tag k="addr:postcode" v="78702"/></node><node id="-89" lat="30.267414" lon="-97.730488" changeset="false"><tag k="addr:street" v="East 9th Street"/><tag k="addr:housenumber" v="1009"/><tag k="addr:postcode" v="78702"/></node><node id="-90" lat="30.267407" lon="-97.73069" changeset="false"><tag k="addr:street" v="East 9th Street"/><tag k="addr:housenumber" v="1007"/><tag k="addr:postcode" v="78702"/></node><node id="-91" lat="30.267461" lon="-97.731172" changeset="false"><tag k="addr:street" v="San Marcos Street"/><tag k="addr:housenumber" v="811"/><tag k="addr:postcode" v="78702"/></node><node id="-92" lat="30.266458" lon="-97.730941" changeset="false"><tag k="addr:street" v="East 8th Street"/><tag k="addr:housenumber" v="1005"/><tag k="addr:postcode" v="78702"/></node><node id="-93" lat="30.266531" lon="-97.731149" changeset="false"><tag k="addr:street" v="East 8th Street"/><tag k="addr:housenumber" v="1003"/><tag k="addr:postcode" v="78702"/></node><node id="-94" lat="30.266564" lon="-97.733031" changeset="false"><tag k="addr:street" v="East 7th Street"/><tag k="addr:housenumber" v="900"/><tag k="addr:postcode" v="78702"/></node><node id="-95" lat="30.266763" lon="-97.733332" changeset="false"><tag k="addr:street" v="East 7th Street"/><tag k="addr:housenumber" v="814"/><tag k="addr:postcode" v="78702"/></node><node id="-96" lat="30.266849" lon="-97.730402" changeset="false"><tag k="addr:street" v="East 8th Street"/><tag k="addr:housenumber" v="1012"/><tag k="addr:postcode" v="78702"/></node><node id="-97" lat="30.266604" lon="-97.73136" changeset="false"><tag k="addr:street" v="East 8th Street"/><tag k="addr:housenumber" v="1001"/><tag k="addr:postcode" v="78702"/></node><node id="-98" lat="30.265453" lon="-97.720608" changeset="false"><tag k="addr:street" v="Chicon Street"/><tag k="addr:housenumber" v="1007"/><tag k="addr:postcode" v="78702"/></node><node id="-99" lat="30.265368" lon="-97.720353" changeset="false"><tag k="addr:street" v="College Row"/><tag k="addr:housenumber" v="1905"/><tag k="addr:postcode" v="78702"/></node><node id="-100" lat="30.265415" lon="-97.720487" changeset="false"><tag k="addr:street" v="College Row"/><tag k="addr:housenumber" v="1903"/><tag k="addr:postcode" v="78702"/></node><node id="-101" lat="30.265607" lon="-97.719787" changeset="false"><tag k="addr:street" v="East 11th Street"/><tag k="addr:housenumber" v="1911"/><tag k="addr:postcode" v="78702"/></node><node id="-102" lat="30.265557" lon="-97.719643" changeset="false"><tag k="addr:street" v="East 11th Street"/><tag k="addr:housenumber" v="1915"/><tag k="addr:postcode" v="78702"/></node><node id="-103" lat="30.26551" lon="-97.719512" changeset="false"><tag k="addr:street" v="East 11th Street"/><tag k="addr:housenumber" v="1917"/><tag k="addr:postcode" v="78702"/></node><node id="-104" lat="30.265189" lon="-97.719806" changeset="false"><tag k="addr:street" v="College Row"/><tag k="addr:housenumber" v="1913"/><tag k="addr:postcode" v="78702"/></node><node id="-105" lat="30.265242" lon="-97.719962" changeset="false"><tag k="addr:street" v="College Row"/><tag k="addr:housenumber" v="1911"/><tag k="addr:postcode" v="78702"/></node><node id="-106" lat="30.265145" lon="-97.719679" changeset="false"><tag k="addr:street" v="College Row"/><tag k="addr:housenumber" v="1915"/><tag k="addr:postcode" v="78702"/></node><node id="-107" lat="30.265289" lon="-97.720107" changeset="false"><tag k="addr:street" v="College Row"/><tag k="addr:housenumber" v="1909"/><tag k="addr:postcode" v="78702"/></node><node id="-108" lat="30.26533" lon="-97.720234" changeset="false"><tag k="addr:street" v="College Row"/><tag k="addr:housenumber" v="1907"/><tag k="addr:postcode" v="78702"/></node><node id="-109" lat="30.264857" lon="-97.71984" changeset="false"><tag k="addr:street" v="East 10th Street"/><tag k="addr:housenumber" v="1918"/><tag k="addr:postcode" v="78702"/></node><node id="-110" lat="30.264644" lon="-97.72166" changeset="false"><tag k="addr:street" v="Chicon Street"/><tag k="addr:housenumber" v="900"/><tag k="addr:postcode" v="78702"/></node><node id="-111" lat="30.264959" lon="-97.720231" changeset="false"><tag k="addr:street" v="East 10th Street"/><tag k="addr:housenumber" v="1910"/><tag k="addr:postcode" v="78702"/></node><node id="-112" lat="30.264925" lon="-97.720093" changeset="false"><tag k="addr:street" v="East 10th Street"/><tag k="addr:housenumber" v="1914"/><tag k="addr:postcode" v="78702"/></node><node id="-113" lat="30.264898" lon="-97.719956" changeset="false"><tag k="addr:street" v="East 10th Street"/><tag k="addr:housenumber" v="1916"/><tag k="addr:postcode" v="78702"/></node><node id="-114" lat="30.265031" lon="-97.720524" changeset="false"><tag k="addr:street" v="East 10th Street"/><tag k="addr:housenumber" v="1904"/><tag k="addr:postcode" v="78702"/></node><node id="-115" lat="30.265047" lon="-97.720337" changeset="false"><tag k="addr:street" v="East 10th Street"/><tag k="addr:housenumber" v="1906"/><tag k="addr:postcode" v="78702"/></node><node id="-116" lat="30.266193" lon="-97.724639" changeset="false"><tag k="addr:street" v="East 10th Street"/><tag k="addr:housenumber" v="1605"/><tag k="addr:postcode" v="78702"/></node><node id="-117" lat="30.266266" lon="-97.72475" changeset="false"><tag k="addr:street" v="East 10th Street"/><tag k="addr:housenumber" v="1603"/><tag k="addr:postcode" v="78702"/></node><node id="-118" lat="30.266335" lon="-97.723167" changeset="false"><tag k="addr:street" v="East 10th Street"/><tag k="addr:housenumber" v="1622"/><tag k="addr:postcode" v="78702"/></node><node id="-119" lat="30.266321" lon="-97.72332" changeset="false"><tag k="addr:street" v="East 10th Street"/><tag k="addr:housenumber" v="1620"/><tag k="addr:postcode" v="78702"/></node><node id="-120" lat="30.26642" lon="-97.724729" changeset="false"><tag k="addr:street" v="East 10th Street"/><tag k="addr:housenumber" v="1601"/><tag k="addr:postcode" v="78702"/></node><node id="-121" lat="30.266274" lon="-97.722994" changeset="false"><tag k="addr:street" v="East 10th Street"/><tag k="addr:housenumber" v="1624"/><tag k="addr:postcode" v="78702"/></node><node id="-122" lat="30.265909" lon="-97.724787" changeset="false"><tag k="addr:street" v="East 9th Street"/><tag k="addr:housenumber" v="1604"/><tag k="addr:postcode" v="78702"/></node><node id="-123" lat="30.265904" lon="-97.723683" changeset="false"><tag k="addr:street" v="East 10th Street"/><tag k="addr:housenumber" v="1619"/><tag k="addr:postcode" v="78702"/></node><node id="-124" lat="30.266075" lon="-97.724151" changeset="false"><tag k="addr:street" v="East 10th Street"/><tag k="addr:housenumber" v="1611"/><tag k="addr:postcode" v="78702"/></node><node id="-125" lat="30.265951" lon="-97.723829" changeset="false"><tag k="addr:street" v="East 10th Street"/><tag k="addr:housenumber" v="1617"/><tag k="addr:postcode" v="78702"/></node><node id="-126" lat="30.266056" lon="-97.723069" changeset="false"><tag k="addr:street" v="East 10th Street"/><tag k="addr:housenumber" v="1626"/><tag k="addr:postcode" v="78702"/></node><node id="-127" lat="30.266131" lon="-97.724313" changeset="false"><tag k="addr:street" v="East 10th Street"/><tag k="addr:housenumber" v="1609"/><tag k="addr:postcode" v="78702"/></node><node id="-128" lat="30.266156" lon="-97.724479" changeset="false"><tag k="addr:street" v="East 10th Street"/><tag k="addr:housenumber" v="1607"/><tag k="addr:postcode" v="78702"/></node><node id="-129" lat="30.26527" lon="-97.724718" changeset="false"><tag k="addr:street" v="East 9th Street"/><tag k="addr:housenumber" v="1609"/><tag k="addr:postcode" v="78702"/></node><node id="-130" lat="30.265718" lon="-97.72432" changeset="false"><tag k="addr:street" v="East 9th Street"/><tag k="addr:housenumber" v="1610"/><tag k="addr:postcode" v="78702"/></node><node id="-131" lat="30.265715" lon="-97.723186" changeset="false"><tag k="addr:street" v="East 10th Street"/><tag k="addr:housenumber" v="1627"/><tag k="addr:postcode" v="78702"/></node><node id="-132" lat="30.265835" lon="-97.724626" changeset="false"><tag k="addr:street" v="East 9th Street"/><tag k="addr:housenumber" v="1606"/><tag k="addr:postcode" v="78702"/></node><node id="-133" lat="30.265774" lon="-97.723598" changeset="false"><tag k="addr:street" v="East 10th Street"/><tag k="addr:housenumber" v="1621"/><tag k="addr:postcode" v="78702"/></node><node id="-134" lat="30.265766" lon="-97.724484" changeset="false"><tag k="addr:street" v="East 9th Street"/><tag k="addr:housenumber" v="1608"/><tag k="addr:postcode" v="78702"/></node><node id="-135" lat="30.265772" lon="-97.723434" changeset="false"><tag k="addr:street" v="East 10th Street"/><tag k="addr:housenumber" v="1623"/><tag k="addr:postcode" v="78702"/></node><node id="-136" lat="30.265736" lon="-97.723294" changeset="false"><tag k="addr:street" v="East 10th Street"/><tag k="addr:housenumber" v="1625"/><tag k="addr:postcode" v="78702"/></node><node id="-137" lat="30.263615" lon="-97.724426" changeset="false"><tag k="addr:street" v="East 7th Street"/><tag k="addr:housenumber" v="1620"/><tag k="addr:postcode" v="78702"/></node><node id="-138" lat="30.265217" lon="-97.724555" changeset="false"><tag k="addr:street" v="East 9th Street"/><tag k="addr:housenumber" v="1611"/><tag k="addr:postcode" v="78702"/></node><node id="-139" lat="30.266278" lon="-97.728304" changeset="false"><tag k="addr:street" v="Lydia Street"/><tag k="addr:housenumber" v="805"/><tag k="addr:postcode" v="78702"/></node><node id="-140" lat="30.266283" lon="-97.727585" changeset="false"><tag k="addr:street" v="East 9th Street"/><tag k="addr:housenumber" v="1211"/><tag k="addr:postcode" v="78702"/></node><node id="-141" lat="30.266363" lon="-97.727643" changeset="false"><tag k="addr:street" v="East 9th Street"/><tag k="addr:housenumber" v="1209 1/2"/><tag k="addr:postcode" v="78702"/></node><node id="-142" lat="30.266421" lon="-97.72788" changeset="false"><tag k="addr:street" v="East 9th Street"/><tag k="addr:housenumber" v="1207"/><tag k="addr:postcode" v="78702"/></node><node id="-143" lat="30.266483" lon="-97.72799" changeset="false"><tag k="addr:street" v="East 9th Street"/><tag k="addr:housenumber" v="1205"/><tag k="addr:postcode" v="78702"/></node><node id="-144" lat="30.266393" lon="-97.728703" changeset="false"><tag k="addr:street" v="Lydia Street"/><tag k="addr:housenumber" v="802"/><tag k="addr:postcode" v="78702"/></node><node id="-145" lat="30.266377" lon="-97.72776" changeset="false"><tag k="addr:street" v="East 9th Street"/><tag k="addr:housenumber" v="1209"/><tag k="addr:postcode" v="78702"/></node><node id="-146" lat="30.265885" lon="-97.728342" changeset="false"><tag k="addr:street" v="East 8th Street"/><tag k="addr:housenumber" v="1202"/><tag k="addr:postcode" v="78702"/></node><node id="-147" lat="30.26594" lon="-97.724951" changeset="false"><tag k="addr:street" v="East 9th Street"/><tag k="addr:housenumber" v="1602"/><tag k="addr:postcode" v="78702"/></node><node id="-148" lat="30.266067" lon="-97.727546" changeset="false"><tag k="addr:street" v="Inks Avenue"/><tag k="addr:housenumber" v="1218"/><tag k="addr:postcode" v="78702"/></node><node id="-149" lat="30.266097" lon="-97.727631" changeset="false"><tag k="addr:street" v="Inks Avenue"/><tag k="addr:housenumber" v="1216"/><tag k="addr:postcode" v="78702"/></node><node id="-150" lat="30.266129" lon="-97.728276" changeset="false"><tag k="addr:street" v="Lydia Street"/><tag k="addr:housenumber" v="803"/><tag k="addr:postcode" v="78702"/></node><node id="-151" lat="30.265982" lon="-97.728326" changeset="false"><tag k="addr:street" v="Lydia Street"/><tag k="addr:housenumber" v="801"/><tag k="addr:postcode" v="78702"/></node><node id="-152" lat="30.265295" lon="-97.724882" changeset="false"><tag k="addr:street" v="East 9th Street"/><tag k="addr:housenumber" v="1607"/><tag k="addr:postcode" v="78702"/></node><node id="-153" lat="30.265331" lon="-97.725034" changeset="false"><tag k="addr:street" v="East 9th Street"/><tag k="addr:housenumber" v="1605"/><tag k="addr:postcode" v="78702"/></node><node id="-154" lat="30.265444" lon="-97.728113" changeset="false"><tag k="addr:street" v="East 8th Street"/><tag k="addr:housenumber" v="1207"/><tag k="addr:postcode" v="78702"/></node><node id="-155" lat="30.2654" lon="-97.725181" changeset="false"><tag k="addr:street" v="East 9th Street"/><tag k="addr:housenumber" v="1603"/><tag k="addr:postcode" v="78702"/></node><node id="-156" lat="30.265629" lon="-97.72844" changeset="false"><tag k="addr:street" v="East 8th Street"/><tag k="addr:housenumber" v="1201"/><tag k="addr:postcode" v="78702"/></node><node id="-157" lat="30.265573" lon="-97.725125" changeset="false"><tag k="addr:street" v="East 9th Street"/><tag k="addr:housenumber" v="1601"/><tag k="addr:postcode" v="78702"/></node><node id="-158" lat="30.265745" lon="-97.725058" changeset="false"><tag k="addr:street" v="East 9th Street"/><tag k="addr:housenumber" v="1600"/><tag k="addr:postcode" v="78702"/></node><node id="-159" lat="30.26575" lon="-97.727621" changeset="false"><tag k="addr:street" v="Inks Avenue"/><tag k="addr:housenumber" v="1219"/><tag k="addr:postcode" v="78702"/></node><node id="-160" lat="30.265791" lon="-97.727743" changeset="false"><tag k="addr:street" v="Inks Avenue"/><tag k="addr:housenumber" v="1215"/><tag k="addr:postcode" v="78702"/></node><node id="-161" lat="30.265872" lon="-97.72797" changeset="false"><tag k="addr:street" v="Inks Avenue"/><tag k="addr:housenumber" v="1211"/><tag k="addr:postcode" v="78702"/></node><node id="-162" lat="30.26409" lon="-97.725927" changeset="false"><tag k="addr:street" v="Comal Street"/><tag k="addr:housenumber" v="705"/><tag k="addr:postcode" v="78702"/></node><node id="-163" lat="30.263983" lon="-97.725276" changeset="false"><tag k="addr:street" v="East 7th Street"/><tag k="addr:housenumber" v="1610"/><tag k="addr:postcode" v="78702"/></node><node id="-164" lat="30.264936" lon="-97.72804" changeset="false"><tag k="addr:street" v="East 7th Street"/><tag k="addr:housenumber" v="1308"/><tag k="addr:postcode" v="78702"/></node><node id="-165" lat="30.266326" lon="-97.730538" changeset="false"><tag k="addr:street" v="East 8th Street"/><tag k="addr:housenumber" v="1009"/><tag k="addr:postcode" v="78702"/></node><node id="-166" lat="30.266388" lon="-97.730735" changeset="false"><tag k="addr:street" v="East 8th Street"/><tag k="addr:housenumber" v="1007"/><tag k="addr:postcode" v="78702"/></node><node id="-167" lat="30.26646" lon="-97.73248" changeset="false"><tag k="addr:street" v="East 7th Street"/><tag k="addr:housenumber" v="914"/><tag k="addr:postcode" v="78702"/></node><node id="-168" lat="30.266505" lon="-97.732626" changeset="false"><tag k="addr:street" v="East 7th Street"/><tag k="addr:housenumber" v="908"/><tag k="addr:postcode" v="78702"/></node><node id="-169" lat="30.266077" lon="-97.729789" changeset="false"><tag k="addr:street" v="East 8th Street"/><tag k="addr:housenumber" v="1103"/><tag k="addr:postcode" v="78702"/></node><node id="-170" lat="30.266133" lon="-97.729945" changeset="false"><tag k="addr:street" v="East 8th Street"/><tag k="addr:housenumber" v="1101"/><tag k="addr:postcode" v="78702"/></node><node id="-171" lat="30.266245" lon="-97.73034" changeset="false"><tag k="addr:street" v="East 8th Street"/><tag k="addr:housenumber" v="1011"/><tag k="addr:postcode" v="78702"/></node><node id="-172" lat="30.265832" lon="-97.729092" changeset="false"><tag k="addr:street" v="East 8th Street"/><tag k="addr:housenumber" v="1115"/><tag k="addr:postcode" v="78702"/></node><node id="-173" lat="30.265911" lon="-97.731044" changeset="false"><tag k="addr:street" v="East 7th Street"/><tag k="addr:housenumber" v="1006"/><tag k="addr:postcode" v="78702"/></node><node id="-174" lat="30.265905" lon="-97.729299" changeset="false"><tag k="addr:street" v="East 8th Street"/><tag k="addr:housenumber" v="1113"/><tag k="addr:postcode" v="78702"/></node><node id="-175" lat="30.265882" lon="-97.730383" changeset="false"><tag k="addr:street" v="Waller Street"/><tag k="addr:housenumber" v="704"/><tag k="addr:postcode" v="78702"/></node><node id="-176" lat="30.265895" lon="-97.730668" changeset="false"><tag k="addr:street" v="East 7th Street"/><tag k="addr:housenumber" v="1010"/><tag k="addr:postcode" v="78702"/></node><node id="-177" lat="30.265969" lon="-97.729478" changeset="false"><tag k="addr:street" v="East 8th Street"/><tag k="addr:housenumber" v="1111"/><tag k="addr:postcode" v="78702"/></node><node id="-178" lat="30.26525" lon="-97.729062" changeset="false"><tag k="addr:street" v="East 7th Street"/><tag k="addr:housenumber" v="1216"/><tag k="addr:postcode" v="78702"/></node><node id="-179" lat="30.265481" lon="-97.729831" changeset="false"><tag k="addr:street" v="East 7th Street"/><tag k="addr:housenumber" v="1204"/><tag k="addr:postcode" v="78702"/></node><node id="-180" lat="30.265306" lon="-97.729258" changeset="false"><tag k="addr:street" v="East 7th Street"/><tag k="addr:housenumber" v="1214"/><tag k="addr:postcode" v="78702"/></node><node id="-181" lat="30.265449" lon="-97.729518" changeset="false"><tag k="addr:street" v="East 7th Street"/><tag k="addr:housenumber" v="1208"/><tag k="addr:postcode" v="78702"/></node><node id="-182" lat="30.265759" lon="-97.728884" changeset="false"><tag k="addr:street" v="Lydia Street"/><tag k="addr:housenumber" v="710"/><tag k="addr:postcode" v="78702"/></node><node id="-183" lat="30.265573" lon="-97.730015" changeset="false"><tag k="addr:street" v="East 7th Street"/><tag k="addr:housenumber" v="1202"/><tag k="addr:postcode" v="78702"/></node><node id="-184" lat="30.265695" lon="-97.730455" changeset="false"><tag k="addr:street" v="East 7th Street"/><tag k="addr:housenumber" v="1022"/><tag k="addr:postcode" v="78702"/></node></osm>