<?xml version="1.0" encoding="UTF-8"?><osm version="0.6" generator="github.com/aaronlidman/osm-and-geojson"><node id="-1" lat="30.329023" lon="-97.7389" changeset="false"><tag k="addr:street" v="Clay Avenue"/><tag k="addr:housenumber" v="5503"/><tag k="addr:postcode" v="78756"/></node><node id="-2" lat="30.333988" lon="-97.738989" changeset="false"><tag k="addr:street" v="Laird Drive"/><tag k="addr:housenumber" v="5806"/><tag k="addr:postcode" v="78756"/></node><node id="-3" lat="30.333789" lon="-97.739622" changeset="false"><tag k="addr:street" v="Burnet Road"/><tag k="addr:housenumber" v="5809"/><tag k="addr:postcode" v="78756"/></node><node id="-4" lat="30.32861" lon="-97.738816" changeset="false"><tag k="addr:street" v="Houston Street"/><tag k="addr:housenumber" v="1710"/><tag k="addr:postcode" v="78756"/></node><node id="-5" lat="30.327637" lon="-97.735018" changeset="false"><tag k="addr:street" v="Joe Sayers Avenue"/><tag k="addr:housenumber" v="5509"/><tag k="addr:postcode" v="78756"/></node><node id="-6" lat="30.329118" lon="-97.739163" changeset="false"><tag k="addr:street" v="Clay Avenue"/><tag k="addr:housenumber" v="5514"/><tag k="addr:postcode" v="78756"/></node><node id="-7" lat="30.332489" lon="-97.736798" changeset="false"><tag k="addr:street" v="Ullrich Avenue"/><tag k="addr:housenumber" v="1708"/><tag k="addr:postcode" v="78756"/></node><node id="-8" lat="30.33344" lon="-97.739626" changeset="false"><tag k="addr:street" v="Burnet Road"/><tag k="addr:housenumber" v="5801"/><tag k="addr:postcode" v="78756"/></node><node id="-9" lat="30.327994" lon="-97.739585" changeset="false"><tag k="addr:street" v="Burnet Road"/><tag k="addr:housenumber" v="5337"/><tag k="addr:postcode" v="78756"/></node><node id="-10" lat="30.329092" lon="-97.732825" changeset="false"><tag k="addr:street" v="Woodrow Avenue"/><tag k="addr:housenumber" v="5700"/><tag k="addr:postcode" v="78756"/></node><node id="-11" lat="30.327767" lon="-97.734622" changeset="false"><tag k="addr:street" v="Joe Sayers Avenue"/><tag k="addr:housenumber" v="5513"/><tag k="addr:postcode" v="78756"/></node><node id="-12" lat="30.327665" lon="-97.738574" changeset="false"><tag k="addr:street" v="Jeff Davis Avenue"/><tag k="addr:housenumber" v="5404"/><tag k="addr:postcode" v="78756"/></node><node id="-13" lat="30.331678" lon="-97.734342" changeset="false"><tag k="addr:street" v="Ullrich Avenue"/><tag k="addr:housenumber" v="1520"/><tag k="addr:postcode" v="78756"/></node><node id="-14" lat="30.326155" lon="-97.739076" changeset="false"><tag k="addr:street" v="Jeff Davis Avenue"/><tag k="addr:housenumber" v="5315"/><tag k="addr:postcode" v="78756"/></node><node id="-15" lat="30.325991" lon="-97.736035" changeset="false"><tag k="addr:street" v="Joe Sayers Avenue"/><tag k="addr:housenumber" v="5401"/><tag k="addr:postcode" v="78756"/></node><node id="-16" lat="30.334067" lon="-97.739599" changeset="false"><tag k="addr:street" v="Burnet Road"/><tag k="addr:housenumber" v="5819"/><tag k="addr:postcode" v="78756"/></node><node id="-17" lat="30.328061" lon="-97.739583" changeset="false"><tag k="addr:street" v="Burnet Road"/><tag k="addr:housenumber" v="5357"/><tag k="addr:postcode" v="78756"/></node><node id="-18" lat="30.324895" lon="-97.737034" changeset="false"><tag k="addr:street" v="North Loop Boulevard"/><tag k="addr:housenumber" v="1500"/><tag k="addr:postcode" v="78756"/></node><node id="-19" lat="30.325537" lon="-97.73628" changeset="false"><tag k="addr:street" v="Joe Sayers Avenue"/><tag k="addr:housenumber" v="5311"/><tag k="addr:postcode" v="78756"/></node><node id="-20" lat="30.329542" lon="-97.739589" changeset="false"><tag k="addr:street" v="Burnet Road"/><tag k="addr:housenumber" v="5435"/><tag k="addr:postcode" v="78756"/></node><node id="-21" lat="30.327027" lon="-97.735423" changeset="false"><tag k="addr:street" v="Joe Sayers Avenue"/><tag k="addr:housenumber" v="5501"/><tag k="addr:postcode" v="78756"/></node><node id="-22" lat="30.33157" lon="-97.738738" changeset="false"><tag k="addr:street" v="Adams Avenue"/><tag k="addr:housenumber" v="5619"/><tag k="addr:postcode" v="78756"/></node><node id="-23" lat="30.326108" lon="-97.735946" changeset="false"><tag k="addr:street" v="Joe Sayers Avenue"/><tag k="addr:housenumber" v="5403"/><tag k="addr:postcode" v="78756"/></node><node id="-24" lat="30.329147" lon="-97.73456" changeset="false"><tag k="addr:street" v="Joe Sayers Avenue"/><tag k="addr:housenumber" v="5606 1/2"/><tag k="addr:postcode" v="78756"/></node><node id="-25" lat="30.329068" lon="-97.737877" changeset="false"><tag k="addr:street" v="Jeff Davis Avenue"/><tag k="addr:housenumber" v="5512"/><tag k="addr:postcode" v="78756"/></node><node id="-26" lat="30.334422" lon="-97.739614" changeset="false"><tag k="addr:street" v="Burnet Road"/><tag k="addr:housenumber" v="5829"/><tag k="addr:postcode" v="78756"/></node><node id="-27" lat="30.332411" lon="-97.739942" changeset="false"><tag k="addr:street" v="Burnet Road"/><tag k="addr:housenumber" v="5701"/><tag k="addr:postcode" v="78756"/></node><node id="-28" lat="30.328067" lon="-97.739583" changeset="false"><tag k="addr:street" v="Burnet Road"/><tag k="addr:housenumber" v="5359"/><tag k="addr:postcode" v="78756"/></node><node id="-29" lat="30.327135" lon="-97.736381" changeset="false"><tag k="addr:street" v="Houston Street"/><tag k="addr:housenumber" v="1511"/><tag k="addr:postcode" v="78756"/></node><node id="-30" lat="30.326503" lon="-97.735003" changeset="false"><tag k="addr:street" v="Houston Street"/><tag k="addr:housenumber" v="1405"/><tag k="addr:postcode" v="78756"/></node><node id="-31" lat="30.328028" lon="-97.739545" changeset="false"><tag k="addr:street" v="Burnet Road"/><tag k="addr:housenumber" v="5355"/><tag k="addr:postcode" v="78756"/></node><node id="-32" lat="30.333878" lon="-97.739644" changeset="false"><tag k="addr:street" v="Burnet Road"/><tag k="addr:housenumber" v="5811"/><tag k="addr:postcode" v="78756"/></node><node id="-33" lat="30.32761" lon="-97.737864" changeset="false"><tag k="addr:street" v="Houston Street"/><tag k="addr:housenumber" v="1609"/><tag k="addr:postcode" v="78756"/></node><node id="-34" lat="30.328019" lon="-97.739221" changeset="false"><tag k="addr:street" v="Clay Avenue"/><tag k="addr:housenumber" v="5403"/><tag k="addr:postcode" v="78756"/></node><node id="-35" lat="30.325918" lon="-97.735078" changeset="false"><tag k="addr:street" v="Woodrow Avenue"/><tag k="addr:housenumber" v="5404"/><tag k="addr:postcode" v="78756"/></node><node id="-36" lat="30.328346" lon="-97.738033" changeset="false"><tag k="addr:street" v="Jeff Davis Avenue"/><tag k="addr:housenumber" v="5502"/><tag k="addr:postcode" v="78756"/></node><node id="-37" lat="30.333366" lon="-97.739087" changeset="false"><tag k="addr:street" v="Laird Drive"/><tag k="addr:housenumber" v="5800"/><tag k="addr:postcode" v="78756"/></node><node id="-38" lat="30.329252" lon="-97.733951" changeset="false"><tag k="addr:street" v="Joe Sayers Avenue"/><tag k="addr:housenumber" v="5613"/><tag k="addr:postcode" v="78756"/></node><node id="-39" lat="30.328655" lon="-97.733088" changeset="false"><tag k="addr:street" v="Woodrow Avenue"/><tag k="addr:housenumber" v="5612"/><tag k="addr:postcode" v="78756"/></node><node id="-40" lat="30.327195" lon="-97.73743" changeset="false"><tag k="addr:street" v="Houston Street"/><tag k="addr:housenumber" v="1601"/><tag k="addr:postcode" v="78756"/></node><node id="-41" lat="30.334155" lon="-97.738932" changeset="false"><tag k="addr:street" v="West Koenig Lane"/><tag k="addr:housenumber" v="2011"/><tag k="addr:postcode" v="78756"/></node><node id="-42" lat="30.328967" lon="-97.734658" changeset="false"><tag k="addr:street" v="Joe Sayers Avenue"/><tag k="addr:housenumber" v="5606"/><tag k="addr:postcode" v="78756"/></node><node id="-43" lat="30.32818" lon="-97.73858" changeset="false"><tag k="addr:street" v="Houston Street"/><tag k="addr:housenumber" v="1705"/><tag k="addr:postcode" v="78756"/></node><node id="-44" lat="30.327357" lon="-97.738031" changeset="false"><tag k="addr:street" v="Jeff Davis Avenue"/><tag k="addr:housenumber" v="5407"/><tag k="addr:postcode" v="78756"/></node><node id="-45" lat="30.328059" lon="-97.736708" changeset="false"><tag k="addr:street" v="Jim Hogg Avenue"/><tag k="addr:housenumber" v="5504"/><tag k="addr:postcode" v="78756"/></node><node id="-46" lat="30.328" lon="-97.739584" changeset="false"><tag k="addr:street" v="Burnet Road"/><tag k="addr:housenumber" v="5339"/><tag k="addr:postcode" v="78756"/></node><node id="-47" lat="30.331438" lon="-97.738799" changeset="false"><tag k="addr:street" v="Adams Avenue"/><tag k="addr:housenumber" v="5617"/><tag k="addr:postcode" v="78756"/></node><node id="-48" lat="30.331097" lon="-97.738135" changeset="false"><tag k="addr:street" v="Clay Avenue"/><tag k="addr:housenumber" v="5610"/><tag k="addr:postcode" v="78756"/></node><node id="-49" lat="30.327432" lon="-97.738892" changeset="false"><tag k="addr:street" v="Jeff Davis Avenue"/><tag k="addr:housenumber" v="5400"/><tag k="addr:postcode" v="78756"/></node><node id="-50" lat="30.333205" lon="-97.73921" changeset="false"><tag k="addr:street" v="Ullrich Avenue"/><tag k="addr:housenumber" v="1909"/><tag k="addr:postcode" v="78756"/></node><node id="-51" lat="30.325714" lon="-97.736221" changeset="false"><tag k="addr:street" v="Joe Sayers Avenue"/><tag k="addr:housenumber" v="5313"/><tag k="addr:postcode" v="78756"/></node><node id="-52" lat="30.326936" lon="-97.734775" changeset="false"><tag k="addr:street" v="Houston Street"/><tag k="addr:housenumber" v="1414"/><tag k="addr:postcode" v="78756"/></node><node id="-53" lat="30.328007" lon="-97.739584" changeset="false"><tag k="addr:street" v="Burnet Road"/><tag k="addr:housenumber" v="5341"/><tag k="addr:postcode" v="78756"/></node><node id="-54" lat="30.326609" lon="-97.738723" changeset="false"><tag k="addr:street" v="Jeff Davis Avenue"/><tag k="addr:housenumber" v="5311"/><tag k="addr:postcode" v="78756"/></node><node id="-55" lat="30.328012" lon="-97.738288" changeset="false"><tag k="addr:street" v="Jeff Davis Avenue"/><tag k="addr:housenumber" v="5408"/><tag k="addr:postcode" v="78756"/></node><node id="-56" lat="30.328134" lon="-97.734678" changeset="false"><tag k="addr:street" v="Joe Sayers Avenue"/><tag k="addr:housenumber" v="5517"/><tag k="addr:postcode" v="78756"/></node><node id="-57" lat="30.328534" lon="-97.734873" changeset="false"><tag k="addr:street" v="Joe Sayers Avenue"/><tag k="addr:housenumber" v="5600"/><tag k="addr:postcode" v="78756"/></node><node id="-58" lat="30.328466" lon="-97.734905" changeset="false"><tag k="addr:street" v="Joe Sayers Avenue"/><tag k="addr:housenumber" v="5518"/><tag k="addr:postcode" v="78756"/></node><node id="-59" lat="30.333625" lon="-97.738017" changeset="false"><tag k="addr:street" v="West Koenig Lane"/><tag k="addr:housenumber" v="2001"/><tag k="addr:postcode" v="78756"/></node><node id="-60" lat="30.333556" lon="-97.737863" changeset="false"><tag k="addr:street" v="West Koenig Lane"/><tag k="addr:housenumber" v="1911"/><tag k="addr:postcode" v="78756"/></node><node id="-61" lat="30.333575" lon="-97.739076" changeset="false"><tag k="addr:street" v="Laird Drive"/><tag k="addr:housenumber" v="5802"/><tag k="addr:postcode" v="78756"/></node><node id="-62" lat="30.333783" lon="-97.739036" changeset="false"><tag k="addr:street" v="Laird Drive"/><tag k="addr:housenumber" v="5804"/><tag k="addr:postcode" v="78756"/></node><node id="-63" lat="30.331257" lon="-97.739643" changeset="false"><tag k="addr:street" v="Burnet Road"/><tag k="addr:housenumber" v="5525"/><tag k="addr:postcode" v="78756"/></node><node id="-64" lat="30.33142" lon="-97.739663" changeset="false"><tag k="addr:street" v="Burnet Road"/><tag k="addr:housenumber" v="5531"/><tag k="addr:postcode" v="78756"/></node><node id="-65" lat="30.330656" lon="-97.73932" changeset="false"><tag k="addr:street" v="Adams Avenue"/><tag k="addr:housenumber" v="5607"/><tag k="addr:postcode" v="78756"/></node><node id="-66" lat="30.330661" lon="-97.739261" changeset="false"><tag k="addr:street" v="Adams Avenue"/><tag k="addr:housenumber" v="5609"/><tag k="addr:postcode" v="78756"/></node><node id="-67" lat="30.330354" lon="-97.739466" changeset="false"><tag k="addr:street" v="Adams Avenue"/><tag k="addr:housenumber" v="5603"/><tag k="addr:postcode" v="78756"/></node><node id="-68" lat="30.324962" lon="-97.736679" changeset="false"><tag k="addr:street" v="North Loop Boulevard"/><tag k="addr:housenumber" v="1410"/><tag k="addr:postcode" v="78756"/></node><node id="-69" lat="30.324912" lon="-97.736515" changeset="false"><tag k="addr:street" v="North Loop Boulevard"/><tag k="addr:housenumber" v="1408"/><tag k="addr:postcode" v="78756"/></node><node id="-70" lat="30.328557" lon="-97.738704" changeset="false"><tag k="addr:street" v="Houston Street"/><tag k="addr:housenumber" v="1708"/><tag k="addr:postcode" v="78756"/></node><node id="-71" lat="30.328558" lon="-97.738604" changeset="false"><tag k="addr:street" v="Houston Street"/><tag k="addr:housenumber" v="1706"/><tag k="addr:postcode" v="78756"/></node><node id="-72" lat="30.327693" lon="-97.73941" changeset="false"><tag k="addr:street" v="Burnet Road"/><tag k="addr:housenumber" v="5353"/><tag k="addr:postcode" v="78756"/></node><node id="-73" lat="30.327879" lon="-97.739466" changeset="false"><tag k="addr:street" v="Clay Avenue"/><tag k="addr:housenumber" v="5401"/><tag k="addr:postcode" v="78756"/></node></osm>