<?xml version="1.0" encoding="UTF-8"?><osm version="0.6" generator="github.com/aaronlidman/osm-and-geojson"><node id="-1" lat="30.38585" lon="-97.521676" changeset="false"><tag k="addr:street" v="Schmidt Lane"/><tag k="addr:housenumber" v="15301"/><tag k="addr:postcode" v="78653"/></node><node id="-2" lat="30.405489" lon="-97.506946" changeset="false"><tag k="addr:street" v="New Sweden Church Road"/><tag k="addr:housenumber" v="11717"/><tag k="addr:postcode" v="78653"/></node><node id="-3" lat="30.394566" lon="-97.488085" changeset="false"><tag k="addr:street" v="Jacobson Road"/><tag k="addr:housenumber" v="13201"/><tag k="addr:postcode" v="78653"/></node><node id="-4" lat="30.390262" lon="-97.507157" changeset="false"><tag k="addr:street" v="Sparks Road"/><tag k="addr:housenumber" v="12306"/><tag k="addr:postcode" v="78653"/></node><node id="-5" lat="30.366427" lon="-97.491015" changeset="false"><tag k="addr:street" v="Old Kimbro Road"/><tag k="addr:housenumber" v="13358"/><tag k="addr:postcode" v="78653"/></node><node id="-6" lat="30.362579" lon="-97.493703" changeset="false"><tag k="addr:street" v="Old Kimbro Road"/><tag k="addr:housenumber" v="13354"/><tag k="addr:postcode" v="78653"/></node><node id="-7" lat="30.381081" lon="-97.521342" changeset="false"><tag k="addr:street" v="Arnhamn Lane"/><tag k="addr:housenumber" v="11901"/><tag k="addr:postcode" v="78653"/></node><node id="-8" lat="30.373889" lon="-97.475902" changeset="false"><tag k="addr:street" v="Kimbro West Road"/><tag k="addr:housenumber" v="14600"/><tag k="addr:postcode" v="78653"/></node><node id="-9" lat="30.366294" lon="-97.522765" changeset="false"><tag k="addr:street" v="Stoneridge Gap Lane"/><tag k="addr:housenumber" v="12213"/><tag k="addr:postcode" v="78653"/></node><node id="-10" lat="30.365562" lon="-97.52119" changeset="false"><tag k="addr:street" v="Stoneridge Gap Lane"/><tag k="addr:housenumber" v="12315"/><tag k="addr:postcode" v="78653"/></node><node id="-11" lat="30.374556" lon="-97.516203" changeset="false"><tag k="addr:street" v="Johnson Road"/><tag k="addr:housenumber" v="12301"/><tag k="addr:postcode" v="78653"/></node><node id="-12" lat="30.365152" lon="-97.521319" changeset="false"><tag k="addr:street" v="Waterford Run Way"/><tag k="addr:housenumber" v="12400"/><tag k="addr:postcode" v="78653"/></node><node id="-13" lat="30.36522" lon="-97.519258" changeset="false"><tag k="addr:street" v="Stoneridge Gap Lane"/><tag k="addr:housenumber" v="12418"/><tag k="addr:postcode" v="78653"/></node><node id="-14" lat="30.353282" lon="-97.512727" changeset="false"><tag k="addr:street" v="James Manor Street"/><tag k="addr:housenumber" v="19324"/><tag k="addr:postcode" v="78653"/></node><node id="-15" lat="30.353467" lon="-97.512492" changeset="false"><tag k="addr:street" v="James Manor Street"/><tag k="addr:housenumber" v="19332"/><tag k="addr:postcode" v="78653"/></node><node id="-16" lat="30.353985" lon="-97.511597" changeset="false"><tag k="addr:street" v="James Manor Street"/><tag k="addr:housenumber" v="19424"/><tag k="addr:postcode" v="78653"/></node><node id="-17" lat="30.364859" lon="-97.520721" changeset="false"><tag k="addr:street" v="Waterford Run Way"/><tag k="addr:housenumber" v="12410"/><tag k="addr:postcode" v="78653"/></node><node id="-18" lat="30.366741" lon="-97.521077" changeset="false"><tag k="addr:street" v="Pebble Run Path"/><tag k="addr:housenumber" v="14313"/><tag k="addr:postcode" v="78653"/></node><node id="-19" lat="30.369025" lon="-97.520253" changeset="false"><tag k="addr:street" v="Jamie Drive"/><tag k="addr:housenumber" v="12309"/><tag k="addr:postcode" v="78653"/></node><node id="-20" lat="30.368973" lon="-97.52013" changeset="false"><tag k="addr:street" v="Jamie Drive"/><tag k="addr:housenumber" v="12311"/><tag k="addr:postcode" v="78653"/></node><node id="-21" lat="30.368922" lon="-97.520019" changeset="false"><tag k="addr:street" v="Jamie Drive"/><tag k="addr:housenumber" v="12313"/><tag k="addr:postcode" v="78653"/></node><node id="-22" lat="30.354269" lon="-97.511833" changeset="false"><tag k="addr:street" v="Smith Gin Street"/><tag k="addr:housenumber" v="19417"/><tag k="addr:postcode" v="78653"/></node><node id="-23" lat="30.354348" lon="-97.511682" changeset="false"><tag k="addr:street" v="Smith Gin Street"/><tag k="addr:housenumber" v="19421"/><tag k="addr:postcode" v="78653"/></node><node id="-24" lat="30.390906" lon="-97.516462" changeset="false"><tag k="addr:street" v="Schmidt Lane"/><tag k="addr:housenumber" v="15617"/><tag k="addr:postcode" v="78653"/></node><node id="-25" lat="30.352817" lon="-97.512627" changeset="false"><tag k="addr:street" v="James Manor Street"/><tag k="addr:housenumber" v="19321"/><tag k="addr:postcode" v="78653"/></node><node id="-26" lat="30.367763" lon="-97.520913" changeset="false"><tag k="addr:street" v="Pebble Run Path"/><tag k="addr:housenumber" v="14406"/><tag k="addr:postcode" v="78653"/></node><node id="-27" lat="30.352302" lon="-97.512685" changeset="false"><tag k="addr:street" v="Wt Gallaway Street"/><tag k="addr:housenumber" v="19312"/><tag k="addr:postcode" v="78653"/></node><node id="-28" lat="30.352382" lon="-97.512585" changeset="false"><tag k="addr:street" v="Wt Gallaway Street"/><tag k="addr:housenumber" v="19316"/><tag k="addr:postcode" v="78653"/></node><node id="-29" lat="30.352618" lon="-97.51042" changeset="false"><tag k="addr:street" v="Tayshas Street"/><tag k="addr:housenumber" v="19420"/><tag k="addr:postcode" v="78653"/></node><node id="-30" lat="30.352042" lon="-97.510423" changeset="false"><tag k="addr:street" v="Tayshas Street"/><tag k="addr:housenumber" v="19417"/><tag k="addr:postcode" v="78653"/></node><node id="-31" lat="30.382475" lon="-97.504363" changeset="false"><tag k="addr:street" v="Johnson Road"/><tag k="addr:housenumber" v="12802"/><tag k="addr:postcode" v="78653"/></node><node id="-32" lat="30.382108" lon="-97.50345" changeset="false"><tag k="addr:street" v="Johnson Road"/><tag k="addr:housenumber" v="12804"/><tag k="addr:postcode" v="78653"/></node><node id="-33" lat="30.377889" lon="-97.501878" changeset="false"><tag k="addr:street" v="Johnson Road"/><tag k="addr:housenumber" v="13014"/><tag k="addr:postcode" v="78653"/></node><node id="-34" lat="30.391276" lon="-97.509348" changeset="false"><tag k="addr:street" v="Sparks Road"/><tag k="addr:housenumber" v="12200"/><tag k="addr:postcode" v="78653"/></node><node id="-35" lat="30.35267" lon="-97.513371" changeset="false"><tag k="addr:street" v="Nelson Houser Street"/><tag k="addr:housenumber" v="13225"/><tag k="addr:postcode" v="78653"/></node><node id="-36" lat="30.352863" lon="-97.513893" changeset="false"><tag k="addr:street" v="Nelson Houser Street"/><tag k="addr:housenumber" v="13300"/><tag k="addr:postcode" v="78653"/></node><node id="-37" lat="30.352518" lon="-97.515043" changeset="false"><tag k="addr:street" v="Cabinet Dr"/><tag k="addr:housenumber" v="13209"/><tag k="addr:postcode" v="78653"/></node><node id="-38" lat="30.3528" lon="-97.515496" changeset="false"><tag k="addr:street" v="Cabinet Dr"/><tag k="addr:housenumber" v="13208"/><tag k="addr:postcode" v="78653"/></node><node id="-39" lat="30.370485" lon="-97.519426" changeset="false"><tag k="addr:street" v="Walter Vaughn Dr"/><tag k="addr:housenumber" v="12215"/><tag k="addr:postcode" v="78653"/></node><node id="-40" lat="30.370372" lon="-97.519183" changeset="false"><tag k="addr:street" v="Walter Vaughn Dr"/><tag k="addr:housenumber" v="12219"/><tag k="addr:postcode" v="78653"/></node><node id="-41" lat="30.370405" lon="-97.521256" changeset="false"><tag k="addr:street" v="Timber Arch Ln"/><tag k="addr:housenumber" v="12105"/><tag k="addr:postcode" v="78653"/></node><node id="-42" lat="30.37037" lon="-97.520218" changeset="false"><tag k="addr:street" v="Timber Arch Ln"/><tag k="addr:housenumber" v="12202"/><tag k="addr:postcode" v="78653"/></node><node id="-43" lat="30.369984" lon="-97.520336" changeset="false"><tag k="addr:street" v="Timber Arch Ln"/><tag k="addr:housenumber" v="12205"/><tag k="addr:postcode" v="78653"/></node><node id="-44" lat="30.370093" lon="-97.519679" changeset="false"><tag k="addr:street" v="Timber Arch Ln"/><tag k="addr:housenumber" v="12212"/><tag k="addr:postcode" v="78653"/></node><node id="-45" lat="30.370056" lon="-97.519563" changeset="false"><tag k="addr:street" v="Timber Arch Ln"/><tag k="addr:housenumber" v="12214"/><tag k="addr:postcode" v="78653"/></node><node id="-46" lat="30.370005" lon="-97.519465" changeset="false"><tag k="addr:street" v="Timber Arch Ln"/><tag k="addr:housenumber" v="12216"/><tag k="addr:postcode" v="78653"/></node><node id="-47" lat="30.380151" lon="-97.485167" changeset="false"><tag k="addr:street" v="Kimbro West Road"/><tag k="addr:housenumber" v="13810"/><tag k="addr:postcode" v="78653"/></node><node id="-48" lat="30.352769" lon="-97.511973" changeset="false"><tag k="addr:street" v="Wt Gallaway Street"/><tag k="addr:housenumber" v="19336"/><tag k="addr:postcode" v="78653"/></node><node id="-49" lat="30.352922" lon="-97.51169" changeset="false"><tag k="addr:street" v="Wt Gallaway Street"/><tag k="addr:housenumber" v="19400"/><tag k="addr:postcode" v="78653"/></node><node id="-50" lat="30.353001" lon="-97.511566" changeset="false"><tag k="addr:street" v="Wt Gallaway Street"/><tag k="addr:housenumber" v="19404"/><tag k="addr:postcode" v="78653"/></node><node id="-51" lat="30.35275" lon="-97.51112" changeset="false"><tag k="addr:street" v="Wt Gallaway Street"/><tag k="addr:housenumber" v="19409"/><tag k="addr:postcode" v="78653"/></node><node id="-52" lat="30.353736" lon="-97.513813" changeset="false"><tag k="addr:street" v="Nelson Houser Street"/><tag k="addr:housenumber" v="13324"/><tag k="addr:postcode" v="78653"/></node><node id="-53" lat="30.369958" lon="-97.518419" changeset="false"><tag k="addr:street" v="Walter Vaughn Dr"/><tag k="addr:housenumber" v="12309"/><tag k="addr:postcode" v="78653"/></node><node id="-54" lat="30.369266" lon="-97.516915" changeset="false"><tag k="addr:street" v="Joy Lee Lane"/><tag k="addr:housenumber" v="14609"/><tag k="addr:postcode" v="78653"/></node><node id="-55" lat="30.369738" lon="-97.51661" changeset="false"><tag k="addr:street" v="Joy Lee Lane"/><tag k="addr:housenumber" v="14705"/><tag k="addr:postcode" v="78653"/></node><node id="-56" lat="30.370241" lon="-97.516212" changeset="false"><tag k="addr:street" v="Joy Lee Lane"/><tag k="addr:housenumber" v="14715"/><tag k="addr:postcode" v="78653"/></node><node id="-57" lat="30.37023" lon="-97.516904" changeset="false"><tag k="addr:street" v="Joy Lee Lane"/><tag k="addr:housenumber" v="14710"/><tag k="addr:postcode" v="78653"/></node><node id="-58" lat="30.369225" lon="-97.518848" changeset="false"><tag k="addr:street" v="Timber Arch Ln"/><tag k="addr:housenumber" v="12309"/><tag k="addr:postcode" v="78653"/></node><node id="-59" lat="30.36932" lon="-97.518026" changeset="false"><tag k="addr:street" v="Timber Arch Ln"/><tag k="addr:housenumber" v="12406"/><tag k="addr:postcode" v="78653"/></node><node id="-60" lat="30.368856" lon="-97.517992" changeset="false"><tag k="addr:street" v="Timber Arch Ln"/><tag k="addr:housenumber" v="12411"/><tag k="addr:postcode" v="78653"/></node><node id="-61" lat="30.3706" lon="-97.518901" changeset="false"><tag k="addr:street" v="Walter Vaughn Dr"/><tag k="addr:housenumber" v="12220"/><tag k="addr:postcode" v="78653"/></node><node id="-62" lat="30.370009" lon="-97.517549" changeset="false"><tag k="addr:street" v="Walter Vaughn Dr"/><tag k="addr:housenumber" v="12410"/><tag k="addr:postcode" v="78653"/></node><node id="-63" lat="30.355597" lon="-97.511215" changeset="false"><tag k="addr:street" v="Nelson Houser Street"/><tag k="addr:housenumber" v="13717"/><tag k="addr:postcode" v="78653"/></node><node id="-64" lat="30.356379" lon="-97.510707" changeset="false"><tag k="addr:street" v="Nelson Houser Street"/><tag k="addr:housenumber" v="13816"/><tag k="addr:postcode" v="78653"/></node><node id="-65" lat="30.35603" lon="-97.51039" changeset="false"><tag k="addr:street" v="Nelson Houser Street"/><tag k="addr:housenumber" v="13817"/><tag k="addr:postcode" v="78653"/></node><node id="-66" lat="30.355442" lon="-97.509613" changeset="false"><tag k="addr:street" v="Smith Gin Street"/><tag k="addr:housenumber" v="19621"/><tag k="addr:postcode" v="78653"/></node><node id="-67" lat="30.355704" lon="-97.509196" changeset="false"><tag k="addr:street" v="Smith Gin Street"/><tag k="addr:housenumber" v="19701"/><tag k="addr:postcode" v="78653"/></node><node id="-68" lat="30.354397" lon="-97.509848" changeset="false"><tag k="addr:street" v="James Manor Street"/><tag k="addr:housenumber" v="19601"/><tag k="addr:postcode" v="78653"/></node><node id="-69" lat="30.353768" lon="-97.510332" changeset="false"><tag k="addr:street" v="Wt Gallaway Street"/><tag k="addr:housenumber" v="19504"/><tag k="addr:postcode" v="78653"/></node><node id="-70" lat="30.353715" lon="-97.509616" changeset="false"><tag k="addr:street" v="Wt Gallaway Street"/><tag k="addr:housenumber" v="19517"/><tag k="addr:postcode" v="78653"/></node><node id="-71" lat="30.354006" lon="-97.50901" changeset="false"><tag k="addr:street" v="Wt Gallaway Street"/><tag k="addr:housenumber" v="19609"/><tag k="addr:postcode" v="78653"/></node><node id="-72" lat="30.354924" lon="-97.510755" changeset="false"><tag k="addr:street" v="Smith Gin Street"/><tag k="addr:housenumber" v="19517"/><tag k="addr:postcode" v="78653"/></node><node id="-73" lat="30.35292" lon="-97.510831" changeset="false"><tag k="addr:street" v="Wt Gallaway Street"/><tag k="addr:housenumber" v="19417"/><tag k="addr:postcode" v="78653"/></node><node id="-74" lat="30.351964" lon="-97.513602" changeset="false"><tag k="addr:street" v="Nelson Houser Street"/><tag k="addr:housenumber" v="13208"/><tag k="addr:postcode" v="78653"/></node><node id="-75" lat="30.352066" lon="-97.513687" changeset="false"><tag k="addr:street" v="Nelson Houser Street"/><tag k="addr:housenumber" v="13212"/><tag k="addr:postcode" v="78653"/></node><node id="-76" lat="30.352352" lon="-97.513882" changeset="false"><tag k="addr:street" v="Nelson Houser Street"/><tag k="addr:housenumber" v="13220"/><tag k="addr:postcode" v="78653"/></node><node id="-77" lat="30.38282" lon="-97.51479" changeset="false"><tag k="addr:street" v="Johnson Road"/><tag k="addr:housenumber" v="12466"/><tag k="addr:postcode" v="78653"/></node><node id="-78" lat="30.354291" lon="-97.513823" changeset="false"><tag k="addr:street" v="Nelson Houser Street"/><tag k="addr:housenumber" v="13412"/><tag k="addr:postcode" v="78653"/></node><node id="-79" lat="30.355039" lon="-97.513051" changeset="false"><tag k="addr:street" v="Nelson Houser Street"/><tag k="addr:housenumber" v="13516"/><tag k="addr:postcode" v="78653"/></node><node id="-80" lat="30.355312" lon="-97.512502" changeset="false"><tag k="addr:street" v="Nelson Houser Street"/><tag k="addr:housenumber" v="13612"/><tag k="addr:postcode" v="78653"/></node><node id="-81" lat="30.375588" lon="-97.515297" changeset="false"><tag k="addr:street" v="Johnson Road"/><tag k="addr:housenumber" v="12331"/><tag k="addr:postcode" v="78653"/></node><node id="-82" lat="30.389836" lon="-97.50742" changeset="false"><tag k="addr:street" v="Sparks Road"/><tag k="addr:housenumber" v="12309"/><tag k="addr:postcode" v="78653"/></node><node id="-83" lat="30.355422" lon="-97.505845" changeset="false"><tag k="addr:street" v="Gunn Lane"/><tag k="addr:housenumber" v="13323"/><tag k="addr:postcode" v="78653"/></node><node id="-84" lat="30.380859" lon="-97.517985" changeset="false"><tag k="addr:street" v="Arnhamn Lane"/><tag k="addr:housenumber" v="12100"/><tag k="addr:postcode" v="78653"/></node><node id="-85" lat="30.383826" lon="-97.521581" changeset="false"><tag k="addr:street" v="Farm-to-Market Road 973"/><tag k="addr:housenumber" v="15219"/><tag k="addr:postcode" v="78653"/></node><node id="-86" lat="30.369434" lon="-97.474349" changeset="false"><tag k="addr:street" v="Farm-to-Market Road 1100"/><tag k="addr:housenumber" v="14122"/><tag k="addr:postcode" v="78653"/></node><node id="-87" lat="30.365735" lon="-97.521575" changeset="false"><tag k="addr:street" v="Stoneridge Gap Lane"/><tag k="addr:housenumber" v="12309"/><tag k="addr:postcode" v="78653"/></node><node id="-88" lat="30.366415" lon="-97.523007" changeset="false"><tag k="addr:street" v="Stoneridge Gap Lane"/><tag k="addr:housenumber" v="12209"/><tag k="addr:postcode" v="78653"/></node><node id="-89" lat="30.366364" lon="-97.522896" changeset="false"><tag k="addr:street" v="Stoneridge Gap Lane"/><tag k="addr:housenumber" v="12211"/><tag k="addr:postcode" v="78653"/></node><node id="-90" lat="30.366091" lon="-97.523228" changeset="false"><tag k="addr:street" v="Waterford Run Way"/><tag k="addr:housenumber" v="12206"/><tag k="addr:postcode" v="78653"/></node><node id="-91" lat="30.365451" lon="-97.520959" changeset="false"><tag k="addr:street" v="Stoneridge Gap Lane"/><tag k="addr:housenumber" v="12401"/><tag k="addr:postcode" v="78653"/></node><node id="-92" lat="30.366164" lon="-97.520875" changeset="false"><tag k="addr:street" v="Cummins Way"/><tag k="addr:housenumber" v="14304"/><tag k="addr:postcode" v="78653"/></node><node id="-93" lat="30.354072" lon="-97.513005" changeset="false"><tag k="addr:street" v="Smith Gin Street"/><tag k="addr:housenumber" v="19312"/><tag k="addr:postcode" v="78653"/></node><node id="-94" lat="30.354226" lon="-97.512728" changeset="false"><tag k="addr:street" v="Smith Gin Street"/><tag k="addr:housenumber" v="19320"/><tag k="addr:postcode" v="78653"/></node><node id="-95" lat="30.352272" lon="-97.510978" changeset="false"><tag k="addr:street" v="Tayshas Street"/><tag k="addr:housenumber" v="19404"/><tag k="addr:postcode" v="78653"/></node><node id="-96" lat="30.364978" lon="-97.520949" changeset="false"><tag k="addr:street" v="Waterford Run Way"/><tag k="addr:housenumber" v="12406"/><tag k="addr:postcode" v="78653"/></node><node id="-97" lat="30.364702" lon="-97.521158" changeset="false"><tag k="addr:street" v="Waterford Run Way"/><tag k="addr:housenumber" v="12407"/><tag k="addr:postcode" v="78653"/></node><node id="-98" lat="30.365613" lon="-97.522284" changeset="false"><tag k="addr:street" v="Waterford Run Way"/><tag k="addr:housenumber" v="12300"/><tag k="addr:postcode" v="78653"/></node><node id="-99" lat="30.365325" lon="-97.522459" changeset="false"><tag k="addr:street" v="Waterford Run Way"/><tag k="addr:housenumber" v="12301"/><tag k="addr:postcode" v="78653"/></node><node id="-100" lat="30.365262" lon="-97.522342" changeset="false"><tag k="addr:street" v="Waterford Run Way"/><tag k="addr:housenumber" v="12303"/><tag k="addr:postcode" v="78653"/></node><node id="-101" lat="30.365089" lon="-97.521182" changeset="false"><tag k="addr:street" v="Waterford Run Way"/><tag k="addr:housenumber" v="12402"/><tag k="addr:postcode" v="78653"/></node><node id="-102" lat="30.375203" lon="-97.528609" changeset="false"><tag k="addr:street" v="Farm-to-Market Road 973"/><tag k="addr:housenumber" v="14625"/><tag k="addr:postcode" v="78653"/></node><node id="-103" lat="30.364871" lon="-97.519703" changeset="false"><tag k="addr:street" v="Stoneridge Gap Lane"/><tag k="addr:housenumber" v="12500"/><tag k="addr:postcode" v="78653"/></node><node id="-104" lat="30.364356" lon="-97.520019" changeset="false"><tag k="addr:street" v="Stoneridge Gap Lane"/><tag k="addr:housenumber" v="12510"/><tag k="addr:postcode" v="78653"/></node><node id="-105" lat="30.364241" lon="-97.520101" changeset="false"><tag k="addr:street" v="Stoneridge Gap Lane"/><tag k="addr:housenumber" v="12512"/><tag k="addr:postcode" v="78653"/></node><node id="-106" lat="30.390451" lon="-97.516535" changeset="false"><tag k="addr:street" v="Schmidt Lane"/><tag k="addr:housenumber" v="15613"/><tag k="addr:postcode" v="78653"/></node><node id="-107" lat="30.353343" lon="-97.511881" changeset="false"><tag k="addr:street" v="James Manor Street"/><tag k="addr:housenumber" v="19409"/><tag k="addr:postcode" v="78653"/></node><node id="-108" lat="30.394371" lon="-97.487399" changeset="false"><tag k="addr:street" v="Jacobson Road"/><tag k="addr:housenumber" v="13217"/><tag k="addr:postcode" v="78653"/></node><node id="-109" lat="30.352611" lon="-97.512234" changeset="false"><tag k="addr:street" v="Wt Gallaway Street"/><tag k="addr:housenumber" v="19328"/><tag k="addr:postcode" v="78653"/></node><node id="-110" lat="30.353923" lon="-97.511707" changeset="false"><tag k="addr:street" v="James Manor Street"/><tag k="addr:housenumber" v="19420"/><tag k="addr:postcode" v="78653"/></node><node id="-111" lat="30.353573" lon="-97.513007" changeset="false"><tag k="addr:street" v="Smith Gin Street"/><tag k="addr:housenumber" v="19309"/><tag k="addr:postcode" v="78653"/></node><node id="-112" lat="30.38006" lon="-97.502738" changeset="false"><tag k="addr:street" v="Johnson Road"/><tag k="addr:housenumber" v="12910"/><tag k="addr:postcode" v="78653"/></node><node id="-113" lat="30.351786" lon="-97.512693" changeset="false"><tag k="addr:street" v="Wt Gallaway Street"/><tag k="addr:housenumber" v="19313"/><tag k="addr:postcode" v="78653"/></node><node id="-114" lat="30.353405" lon="-97.513354" changeset="false"><tag k="addr:street" v="Nelson Houser Street"/><tag k="addr:housenumber" v="13313"/><tag k="addr:postcode" v="78653"/></node><node id="-115" lat="30.352907" lon="-97.512511" changeset="false"><tag k="addr:street" v="James Manor Street"/><tag k="addr:housenumber" v="19325"/><tag k="addr:postcode" v="78653"/></node><node id="-116" lat="30.353155" lon="-97.512144" changeset="false"><tag k="addr:street" v="James Manor Street"/><tag k="addr:housenumber" v="19401"/><tag k="addr:postcode" v="78653"/></node><node id="-117" lat="30.375854" lon="-97.479286" changeset="false"><tag k="addr:street" v="Kimbro West Road"/><tag k="addr:housenumber" v="14312"/><tag k="addr:postcode" v="78653"/></node><node id="-118" lat="30.364051" lon="-97.520229" changeset="false"><tag k="addr:street" v="Stoneridge Gap Lane"/><tag k="addr:housenumber" v="12516"/><tag k="addr:postcode" v="78653"/></node><node id="-119" lat="30.353889" lon="-97.512471" changeset="false"><tag k="addr:street" v="Smith Gin Street"/><tag k="addr:housenumber" v="19325"/><tag k="addr:postcode" v="78653"/></node><node id="-120" lat="30.351781" lon="-97.510844" changeset="false"><tag k="addr:street" v="Tayshas Street"/><tag k="addr:housenumber" v="19405"/><tag k="addr:postcode" v="78653"/></node><node id="-121" lat="30.353889" lon="-97.513816" changeset="false"><tag k="addr:street" v="Nelson Houser Street"/><tag k="addr:housenumber" v="13400"/><tag k="addr:postcode" v="78653"/></node><node id="-122" lat="30.354023" lon="-97.513785" changeset="false"><tag k="addr:street" v="Nelson Houser Street"/><tag k="addr:housenumber" v="13404"/><tag k="addr:postcode" v="78653"/></node><node id="-123" lat="30.354668" lon="-97.512958" changeset="false"><tag k="addr:street" v="Nelson Houser Street"/><tag k="addr:housenumber" v="13513"/><tag k="addr:postcode" v="78653"/></node><node id="-124" lat="30.354808" lon="-97.512649" changeset="false"><tag k="addr:street" v="Nelson Houser Street"/><tag k="addr:housenumber" v="13601"/><tag k="addr:postcode" v="78653"/></node><node id="-125" lat="30.354962" lon="-97.512391" changeset="false"><tag k="addr:street" v="Nelson Houser Street"/><tag k="addr:housenumber" v="13609"/><tag k="addr:postcode" v="78653"/></node><node id="-126" lat="30.377869" lon="-97.514041" changeset="false"><tag k="addr:street" v="Johnson Road"/><tag k="addr:housenumber" v="12367"/><tag k="addr:postcode" v="78653"/></node><node id="-127" lat="30.368875" lon="-97.517175" changeset="false"><tag k="addr:street" v="Joy Lee Lane"/><tag k="addr:housenumber" v="14601"/><tag k="addr:postcode" v="78653"/></node><node id="-128" lat="30.370146" lon="-97.516308" changeset="false"><tag k="addr:street" v="Joy Lee Lane"/><tag k="addr:housenumber" v="14713"/><tag k="addr:postcode" v="78653"/></node><node id="-129" lat="30.370122" lon="-97.516953" changeset="false"><tag k="addr:street" v="Joy Lee Lane"/><tag k="addr:housenumber" v="14708"/><tag k="addr:postcode" v="78653"/></node><node id="-130" lat="30.370589" lon="-97.516651" changeset="false"><tag k="addr:street" v="Joy Lee Lane"/><tag k="addr:housenumber" v="14716"/><tag k="addr:postcode" v="78653"/></node><node id="-131" lat="30.36953" lon="-97.518519" changeset="false"><tag k="addr:street" v="Timber Arch Ln"/><tag k="addr:housenumber" v="12310"/><tag k="addr:postcode" v="78653"/></node><node id="-132" lat="30.369412" lon="-97.518279" changeset="false"><tag k="addr:street" v="Timber Arch Ln"/><tag k="addr:housenumber" v="12402"/><tag k="addr:postcode" v="78653"/></node><node id="-133" lat="30.369259" lon="-97.51789" changeset="false"><tag k="addr:street" v="Timber Arch Ln"/><tag k="addr:housenumber" v="12408"/><tag k="addr:postcode" v="78653"/></node><node id="-134" lat="30.369024" lon="-97.518346" changeset="false"><tag k="addr:street" v="Timber Arch Ln"/><tag k="addr:housenumber" v="12405"/><tag k="addr:postcode" v="78653"/></node><node id="-135" lat="30.368964" lon="-97.518231" changeset="false"><tag k="addr:street" v="Timber Arch Ln"/><tag k="addr:housenumber" v="12407"/><tag k="addr:postcode" v="78653"/></node><node id="-136" lat="30.369774" lon="-97.51806" changeset="false"><tag k="addr:street" v="Walter Vaughn Dr"/><tag k="addr:housenumber" v="12405"/><tag k="addr:postcode" v="78653"/></node><node id="-137" lat="30.37045" lon="-97.518501" changeset="false"><tag k="addr:street" v="Walter Vaughn Dr"/><tag k="addr:housenumber" v="12304"/><tag k="addr:postcode" v="78653"/></node><node id="-138" lat="30.370268" lon="-97.518107" changeset="false"><tag k="addr:street" v="Walter Vaughn Dr"/><tag k="addr:housenumber" v="12400"/><tag k="addr:postcode" v="78653"/></node><node id="-139" lat="30.35574" lon="-97.511906" changeset="false"><tag k="addr:street" v="Nelson Houser Street"/><tag k="addr:housenumber" v="13704"/><tag k="addr:postcode" v="78653"/></node><node id="-140" lat="30.355886" lon="-97.511656" changeset="false"><tag k="addr:street" v="Nelson Houser Street"/><tag k="addr:housenumber" v="13712"/><tag k="addr:postcode" v="78653"/></node><node id="-141" lat="30.356083" lon="-97.511246" changeset="false"><tag k="addr:street" v="Nelson Houser Street"/><tag k="addr:housenumber" v="13800"/><tag k="addr:postcode" v="78653"/></node><node id="-142" lat="30.355437" lon="-97.510696" changeset="false"><tag k="addr:street" v="Smith Gin Street"/><tag k="addr:housenumber" v="19524"/><tag k="addr:postcode" v="78653"/></node><node id="-143" lat="30.355048" lon="-97.510473" changeset="false"><tag k="addr:street" v="Smith Gin Street"/><tag k="addr:housenumber" v="19525"/><tag k="addr:postcode" v="78653"/></node><node id="-144" lat="30.355585" lon="-97.510424" changeset="false"><tag k="addr:street" v="Smith Gin Street"/><tag k="addr:housenumber" v="19604"/><tag k="addr:postcode" v="78653"/></node><node id="-145" lat="30.355812" lon="-97.510018" changeset="false"><tag k="addr:street" v="Smith Gin Street"/><tag k="addr:housenumber" v="19616"/><tag k="addr:postcode" v="78653"/></node><node id="-146" lat="30.355176" lon="-97.510184" changeset="false"><tag k="addr:street" v="Smith Gin Street"/><tag k="addr:housenumber" v="19605"/><tag k="addr:postcode" v="78653"/></node><node id="-147" lat="30.355521" lon="-97.509496" changeset="false"><tag k="addr:street" v="Smith Gin Street"/><tag k="addr:housenumber" v="19625"/><tag k="addr:postcode" v="78653"/></node><node id="-148" lat="30.354755" lon="-97.510237" changeset="false"><tag k="addr:street" v="James Manor Street"/><tag k="addr:housenumber" v="19520"/><tag k="addr:postcode" v="78653"/></node><node id="-149" lat="30.354754" lon="-97.50915" changeset="false"><tag k="addr:street" v="James Manor Street"/><tag k="addr:housenumber" v="19621"/><tag k="addr:postcode" v="78653"/></node><node id="-150" lat="30.393299" lon="-97.513101" changeset="false"><tag k="addr:street" v="Sparks Road"/><tag k="addr:housenumber" v="11816"/><tag k="addr:postcode" v="78653"/></node><node id="-151" lat="30.35172" lon="-97.513413" changeset="false"><tag k="addr:street" v="Nelson Houser Street"/><tag k="addr:housenumber" v="13200"/><tag k="addr:postcode" v="78653"/></node><node id="-152" lat="30.377186" lon="-97.520239" changeset="false"><tag k="addr:street" v="Johnson Road"/><tag k="addr:housenumber" v="12100"/><tag k="addr:postcode" v="78653"/></node><node id="-153" lat="30.352849" lon="-97.511875" changeset="false"><tag k="addr:street" v="Wt Gallaway Street"/><tag k="addr:housenumber" v="19340"/><tag k="addr:postcode" v="78653"/></node><node id="-154" lat="30.353523" lon="-97.510759" changeset="false"><tag k="addr:street" v="Wt Gallaway Street"/><tag k="addr:housenumber" v="19428"/><tag k="addr:postcode" v="78653"/></node><node id="-155" lat="30.353595" lon="-97.513838" changeset="false"><tag k="addr:street" v="Nelson Houser Street"/><tag k="addr:housenumber" v="13320"/><tag k="addr:postcode" v="78653"/></node><node id="-156" lat="30.399586" lon="-97.517089" changeset="false"><tag k="addr:street" v="Farm-to-Market Road 973"/><tag k="addr:housenumber" v="16205"/><tag k="addr:postcode" v="78653"/></node><node id="-157" lat="30.352666" lon="-97.515589" changeset="false"><tag k="addr:street" v="Cabinet Dr"/><tag k="addr:housenumber" v="13204"/><tag k="addr:postcode" v="78653"/></node><node id="-158" lat="30.371834" lon="-97.521204" changeset="false"><tag k="addr:street" v="Walter Vaughn Dr"/><tag k="addr:housenumber" v="12100"/><tag k="addr:postcode" v="78653"/></node><node id="-159" lat="30.371368" lon="-97.521142" changeset="false"><tag k="addr:street" v="Walter Vaughn Dr"/><tag k="addr:housenumber" v="12105"/><tag k="addr:postcode" v="78653"/></node><node id="-160" lat="30.371212" lon="-97.520823" changeset="false"><tag k="addr:street" v="Walter Vaughn Dr"/><tag k="addr:housenumber" v="12111"/><tag k="addr:postcode" v="78653"/></node><node id="-161" lat="30.371115" lon="-97.520602" changeset="false"><tag k="addr:street" v="Walter Vaughn Dr"/><tag k="addr:housenumber" v="12115"/><tag k="addr:postcode" v="78653"/></node><node id="-162" lat="30.370966" lon="-97.519586" changeset="false"><tag k="addr:street" v="Walter Vaughn Dr"/><tag k="addr:housenumber" v="12208"/><tag k="addr:postcode" v="78653"/></node><node id="-163" lat="30.370594" lon="-97.519639" changeset="false"><tag k="addr:street" v="Walter Vaughn Dr"/><tag k="addr:housenumber" v="12211"/><tag k="addr:postcode" v="78653"/></node><node id="-164" lat="30.37081" lon="-97.52144" changeset="false"><tag k="addr:street" v="Timber Arch Ln"/><tag k="addr:housenumber" v="12100"/><tag k="addr:postcode" v="78653"/></node><node id="-165" lat="30.370817" lon="-97.520945" changeset="false"><tag k="addr:street" v="Timber Arch Ln"/><tag k="addr:housenumber" v="12106"/><tag k="addr:postcode" v="78653"/></node><node id="-166" lat="30.369926" lon="-97.520228" changeset="false"><tag k="addr:street" v="Timber Arch Ln"/><tag k="addr:housenumber" v="12207"/><tag k="addr:postcode" v="78653"/></node><node id="-167" lat="30.369868" lon="-97.520126" changeset="false"><tag k="addr:street" v="Timber Arch Ln"/><tag k="addr:housenumber" v="12209"/><tag k="addr:postcode" v="78653"/></node><node id="-168" lat="30.369765" lon="-97.519912" changeset="false"><tag k="addr:street" v="Timber Arch Ln"/><tag k="addr:housenumber" v="12213"/><tag k="addr:postcode" v="78653"/></node><node id="-169" lat="30.369674" lon="-97.519674" changeset="false"><tag k="addr:street" v="Timber Arch Ln"/><tag k="addr:housenumber" v="12217"/><tag k="addr:postcode" v="78653"/></node><node id="-170" lat="30.379803" lon="-97.51998" changeset="false"><tag k="addr:street" v="Johnson Road Trail"/><tag k="addr:housenumber" v="14919"/><tag k="addr:postcode" v="78653"/></node><node id="-171" lat="30.383618" lon="-97.522996" changeset="false"><tag k="addr:street" v="Arnhamn Lane"/><tag k="addr:housenumber" v="11700"/><tag k="addr:postcode" v="78653"/></node><node id="-172" lat="30.365633" lon="-97.47781" changeset="false"><tag k="addr:street" v="Farm-to-Market Road 1100"/><tag k="addr:housenumber" v="13910"/><tag k="addr:postcode" v="78653"/></node><node id="-173" lat="30.407469" lon="-97.511041" changeset="false"><tag k="addr:street" v="New Sweden Church Road"/><tag k="addr:housenumber" v="11417"/><tag k="addr:postcode" v="78653"/></node><node id="-174" lat="30.365694" lon="-97.521465" changeset="false"><tag k="addr:street" v="Stoneridge Gap Lane"/><tag k="addr:housenumber" v="12311"/><tag k="addr:postcode" v="78653"/></node><node id="-175" lat="30.365446" lon="-97.521922" changeset="false"><tag k="addr:street" v="Waterford Run Way"/><tag k="addr:housenumber" v="12306"/><tag k="addr:postcode" v="78653"/></node><node id="-176" lat="30.365386" lon="-97.521802" changeset="false"><tag k="addr:street" v="Waterford Run Way"/><tag k="addr:housenumber" v="12308"/><tag k="addr:postcode" v="78653"/></node><node id="-177" lat="30.365037" lon="-97.52107" changeset="false"><tag k="addr:street" v="Waterford Run Way"/><tag k="addr:housenumber" v="12404"/><tag k="addr:postcode" v="78653"/></node><node id="-178" lat="30.368576" lon="-97.518478" changeset="false"><tag k="addr:street" v="Jamie Drive"/><tag k="addr:housenumber" v="12406"/><tag k="addr:postcode" v="78653"/></node><node id="-179" lat="30.364537" lon="-97.519891" changeset="false"><tag k="addr:street" v="Stoneridge Gap Lane"/><tag k="addr:housenumber" v="12506"/><tag k="addr:postcode" v="78653"/></node><node id="-180" lat="30.364766" lon="-97.519762" changeset="false"><tag k="addr:street" v="Stoneridge Gap Lane"/><tag k="addr:housenumber" v="12502"/><tag k="addr:postcode" v="78653"/></node><node id="-181" lat="30.364451" lon="-97.51995" changeset="false"><tag k="addr:street" v="Stoneridge Gap Lane"/><tag k="addr:housenumber" v="12508"/><tag k="addr:postcode" v="78653"/></node><node id="-182" lat="30.364757" lon="-97.521274" changeset="false"><tag k="addr:street" v="Waterford Run Way"/><tag k="addr:housenumber" v="12405"/><tag k="addr:postcode" v="78653"/></node><node id="-183" lat="30.366243" lon="-97.522666" changeset="false"><tag k="addr:street" v="Stoneridge Gap Lane"/><tag k="addr:housenumber" v="12215"/><tag k="addr:postcode" v="78653"/></node><node id="-184" lat="30.3659" lon="-97.523781" changeset="false"><tag k="addr:street" v="Waterford Run Way"/><tag k="addr:housenumber" v="12201"/><tag k="addr:postcode" v="78653"/></node><node id="-185" lat="30.365658" lon="-97.52333" changeset="false"><tag k="addr:street" v="Waterford Run Way"/><tag k="addr:housenumber" v="12209"/><tag k="addr:postcode" v="78653"/></node><node id="-186" lat="30.365979" lon="-97.522986" changeset="false"><tag k="addr:street" v="Waterford Run Way"/><tag k="addr:housenumber" v="12210"/><tag k="addr:postcode" v="78653"/></node><node id="-187" lat="30.365556" lon="-97.52311" changeset="false"><tag k="addr:street" v="Waterford Run Way"/><tag k="addr:housenumber" v="12213"/><tag k="addr:postcode" v="78653"/></node><node id="-188" lat="30.365167" lon="-97.520364" changeset="false"><tag k="addr:street" v="Stoneridge Gap Lane"/><tag k="addr:housenumber" v="12411"/><tag k="addr:postcode" v="78653"/></node><node id="-189" lat="30.353974" lon="-97.512334" changeset="false"><tag k="addr:street" v="Smith Gin Street"/><tag k="addr:housenumber" v="19401"/><tag k="addr:postcode" v="78653"/></node><node id="-190" lat="30.353668" lon="-97.512111" changeset="false"><tag k="addr:street" v="James Manor Street"/><tag k="addr:housenumber" v="19408"/><tag k="addr:postcode" v="78653"/></node><node id="-191" lat="30.351902" lon="-97.510712" changeset="false"><tag k="addr:street" v="Tayshas Street"/><tag k="addr:housenumber" v="19409"/><tag k="addr:postcode" v="78653"/></node><node id="-192" lat="30.380088" lon="-97.518398" changeset="false"><tag k="addr:street" v="Arnhamn Lane"/><tag k="addr:housenumber" v="12015"/><tag k="addr:postcode" v="78653"/></node><node id="-193" lat="30.351761" lon="-97.511264" changeset="false"><tag k="addr:street" v="John Rector Street"/><tag k="addr:housenumber" v="13200"/><tag k="addr:postcode" v="78653"/></node><node id="-194" lat="30.352175" lon="-97.51111" changeset="false"><tag k="addr:street" v="Tayshas Street"/><tag k="addr:housenumber" v="19400"/><tag k="addr:postcode" v="78653"/></node><node id="-195" lat="30.389848" lon="-97.519551" changeset="false"><tag k="addr:street" v="Schmidt Lane"/><tag k="addr:housenumber" v="15601"/><tag k="addr:postcode" v="78653"/></node><node id="-196" lat="30.352023" lon="-97.513045" changeset="false"><tag k="addr:street" v="Nelson Houser Street"/><tag k="addr:housenumber" v="13201"/><tag k="addr:postcode" v="78653"/></node><node id="-197" lat="30.352742" lon="-97.512902" changeset="false"><tag k="addr:street" v="James Manor Street"/><tag k="addr:housenumber" v="19313"/><tag k="addr:postcode" v="78653"/></node><node id="-198" lat="30.377439" lon="-97.503762" changeset="false"><tag k="addr:street" v="Johnson Road"/><tag k="addr:housenumber" v="13001"/><tag k="addr:postcode" v="78653"/></node><node id="-199" lat="30.353341" lon="-97.511021" changeset="false"><tag k="addr:street" v="Wt Gallaway Street"/><tag k="addr:housenumber" v="19420"/><tag k="addr:postcode" v="78653"/></node><node id="-200" lat="30.352835" lon="-97.510969" changeset="false"><tag k="addr:street" v="Wt Gallaway Street"/><tag k="addr:housenumber" v="19413"/><tag k="addr:postcode" v="78653"/></node><node id="-201" lat="30.353437" lon="-97.513849" changeset="false"><tag k="addr:street" v="Nelson Houser Street"/><tag k="addr:housenumber" v="13316"/><tag k="addr:postcode" v="78653"/></node><node id="-202" lat="30.380934" lon="-97.512238" changeset="false"><tag k="addr:street" v="Johnson Road"/><tag k="addr:housenumber" v="12449"/><tag k="addr:postcode" v="78653"/></node><node id="-203" lat="30.352994" lon="-97.510713" changeset="false"><tag k="addr:street" v="Wt Gallaway Street"/><tag k="addr:housenumber" v="19421"/><tag k="addr:postcode" v="78653"/></node><node id="-204" lat="30.376531" lon="-97.518948" changeset="false"><tag k="addr:street" v="Johnson Road"/><tag k="addr:housenumber" v="12106"/><tag k="addr:postcode" v="78653"/></node><node id="-205" lat="30.378829" lon="-97.500866" changeset="false"><tag k="addr:street" v="Johnson Road"/><tag k="addr:housenumber" v="13102"/><tag k="addr:postcode" v="78653"/></node><node id="-206" lat="30.352998" lon="-97.513909" changeset="false"><tag k="addr:street" v="Nelson Houser Street"/><tag k="addr:housenumber" v="13304"/><tag k="addr:postcode" v="78653"/></node><node id="-207" lat="30.353144" lon="-97.513878" changeset="false"><tag k="addr:street" v="Nelson Houser Street"/><tag k="addr:housenumber" v="13308"/><tag k="addr:postcode" v="78653"/></node><node id="-208" lat="30.368776" lon="-97.517233" changeset="false"><tag k="addr:street" v="Joy Lee Lane"/><tag k="addr:housenumber" v="14513"/><tag k="addr:postcode" v="78653"/></node><node id="-209" lat="30.369071" lon="-97.51705" changeset="false"><tag k="addr:street" v="Joy Lee Lane"/><tag k="addr:housenumber" v="14605"/><tag k="addr:postcode" v="78653"/></node><node id="-210" lat="30.369572" lon="-97.516751" changeset="false"><tag k="addr:street" v="Joy Lee Lane"/><tag k="addr:housenumber" v="14701"/><tag k="addr:postcode" v="78653"/></node><node id="-211" lat="30.370015" lon="-97.516971" changeset="false"><tag k="addr:street" v="Joy Lee Lane"/><tag k="addr:housenumber" v="14706"/><tag k="addr:postcode" v="78653"/></node><node id="-212" lat="30.370397" lon="-97.51618" changeset="false"><tag k="addr:street" v="Joy Lee Lane"/><tag k="addr:housenumber" v="14719"/><tag k="addr:postcode" v="78653"/></node><node id="-213" lat="30.369276" lon="-97.51896" changeset="false"><tag k="addr:street" v="Timber Arch Ln"/><tag k="addr:housenumber" v="12307"/><tag k="addr:postcode" v="78653"/></node><node id="-214" lat="30.369691" lon="-97.518887" changeset="false"><tag k="addr:street" v="Timber Arch Ln"/><tag k="addr:housenumber" v="12304"/><tag k="addr:postcode" v="78653"/></node><node id="-215" lat="30.369141" lon="-97.517639" changeset="false"><tag k="addr:street" v="Timber Arch Ln"/><tag k="addr:housenumber" v="12412"/><tag k="addr:postcode" v="78653"/></node><node id="-216" lat="30.369078" lon="-97.517506" changeset="false"><tag k="addr:street" v="Timber Arch Ln"/><tag k="addr:housenumber" v="12414"/><tag k="addr:postcode" v="78653"/></node><node id="-217" lat="30.369086" lon="-97.518478" changeset="false"><tag k="addr:street" v="Timber Arch Ln"/><tag k="addr:housenumber" v="12403"/><tag k="addr:postcode" v="78653"/></node><node id="-218" lat="30.3689" lon="-97.518113" changeset="false"><tag k="addr:street" v="Timber Arch Ln"/><tag k="addr:housenumber" v="12409"/><tag k="addr:postcode" v="78653"/></node><node id="-219" lat="30.370189" lon="-97.518007" changeset="false"><tag k="addr:street" v="Walter Vaughn Dr"/><tag k="addr:housenumber" v="12402"/><tag k="addr:postcode" v="78653"/></node><node id="-220" lat="30.370141" lon="-97.517895" changeset="false"><tag k="addr:street" v="Walter Vaughn Dr"/><tag k="addr:housenumber" v="12404"/><tag k="addr:postcode" v="78653"/></node><node id="-221" lat="30.369721" lon="-97.517938" changeset="false"><tag k="addr:street" v="Walter Vaughn Dr"/><tag k="addr:housenumber" v="12407"/><tag k="addr:postcode" v="78653"/></node><node id="-222" lat="30.352397" lon="-97.515121" changeset="false"><tag k="addr:street" v="Cabinet Dr"/><tag k="addr:housenumber" v="13205"/><tag k="addr:postcode" v="78653"/></node><node id="-223" lat="30.370771" lon="-97.519958" changeset="false"><tag k="addr:street" v="Walter Vaughn Dr"/><tag k="addr:housenumber" v="12205"/><tag k="addr:postcode" v="78653"/></node><node id="-224" lat="30.370427" lon="-97.519306" changeset="false"><tag k="addr:street" v="Walter Vaughn Dr"/><tag k="addr:housenumber" v="12217"/><tag k="addr:postcode" v="78653"/></node><node id="-225" lat="30.37092" lon="-97.521259" changeset="false"><tag k="addr:street" v="Timber Arch Ln"/><tag k="addr:housenumber" v="12102"/><tag k="addr:postcode" v="78653"/></node><node id="-226" lat="30.370919" lon="-97.52106" changeset="false"><tag k="addr:street" v="Timber Arch Ln"/><tag k="addr:housenumber" v="12104"/><tag k="addr:postcode" v="78653"/></node><node id="-227" lat="30.37026" lon="-97.520008" changeset="false"><tag k="addr:street" v="Timber Arch Ln"/><tag k="addr:housenumber" v="12206"/><tag k="addr:postcode" v="78653"/></node><node id="-228" lat="30.370212" lon="-97.519899" changeset="false"><tag k="addr:street" v="Timber Arch Ln"/><tag k="addr:housenumber" v="12208"/><tag k="addr:postcode" v="78653"/></node><node id="-229" lat="30.354839" lon="-97.513466" changeset="false"><tag k="addr:street" v="Nelson Houser Street"/><tag k="addr:housenumber" v="13504"/><tag k="addr:postcode" v="78653"/></node><node id="-230" lat="30.354917" lon="-97.513339" changeset="false"><tag k="addr:street" v="Nelson Houser Street"/><tag k="addr:housenumber" v="13508"/><tag k="addr:postcode" v="78653"/></node><node id="-231" lat="30.354987" lon="-97.513201" changeset="false"><tag k="addr:street" v="Nelson Houser Street"/><tag k="addr:housenumber" v="13512"/><tag k="addr:postcode" v="78653"/></node><node id="-232" lat="30.354513" lon="-97.513183" changeset="false"><tag k="addr:street" v="Nelson Houser Street"/><tag k="addr:housenumber" v="13505"/><tag k="addr:postcode" v="78653"/></node><node id="-233" lat="30.354424" lon="-97.513851" changeset="false"><tag k="addr:street" v="Nelson Houser Street"/><tag k="addr:housenumber" v="13416"/><tag k="addr:postcode" v="78653"/></node><node id="-234" lat="30.355324" lon="-97.511759" changeset="false"><tag k="addr:street" v="Nelson Houser Street"/><tag k="addr:housenumber" v="13701"/><tag k="addr:postcode" v="78653"/></node><node id="-235" lat="30.355167" lon="-97.511234" changeset="false"><tag k="addr:street" v="Smith Gin Street"/><tag k="addr:housenumber" v="19508"/><tag k="addr:postcode" v="78653"/></node><node id="-236" lat="30.355742" lon="-97.510161" changeset="false"><tag k="addr:street" v="Smith Gin Street"/><tag k="addr:housenumber" v="19612"/><tag k="addr:postcode" v="78653"/></node><node id="-237" lat="30.355876" lon="-97.509882" changeset="false"><tag k="addr:street" v="Smith Gin Street"/><tag k="addr:housenumber" v="19620"/><tag k="addr:postcode" v="78653"/></node><node id="-238" lat="30.355103" lon="-97.510317" changeset="false"><tag k="addr:street" v="Smith Gin Street"/><tag k="addr:housenumber" v="19601"/><tag k="addr:postcode" v="78653"/></node><node id="-239" lat="30.355254" lon="-97.510058" changeset="false"><tag k="addr:street" v="Smith Gin Street"/><tag k="addr:housenumber" v="19609"/><tag k="addr:postcode" v="78653"/></node><node id="-240" lat="30.353971" lon="-97.510675" changeset="false"><tag k="addr:street" v="James Manor Street"/><tag k="addr:housenumber" v="19501"/><tag k="addr:postcode" v="78653"/></node><node id="-241" lat="30.354299" lon="-97.510122" changeset="false"><tag k="addr:street" v="James Manor Street"/><tag k="addr:housenumber" v="19517"/><tag k="addr:postcode" v="78653"/></node><node id="-242" lat="30.354357" lon="-97.509983" changeset="false"><tag k="addr:street" v="James Manor Street"/><tag k="addr:housenumber" v="19521"/><tag k="addr:postcode" v="78653"/></node><node id="-243" lat="30.354627" lon="-97.509449" changeset="false"><tag k="addr:street" v="James Manor Street"/><tag k="addr:housenumber" v="19613"/><tag k="addr:postcode" v="78653"/></node><node id="-244" lat="30.355003" lon="-97.508686" changeset="false"><tag k="addr:street" v="James Manor Street"/><tag k="addr:housenumber" v="19701"/><tag k="addr:postcode" v="78653"/></node><node id="-245" lat="30.354045" lon="-97.509797" changeset="false"><tag k="addr:street" v="Wt Gallaway Street"/><tag k="addr:housenumber" v="19520"/><tag k="addr:postcode" v="78653"/></node><node id="-246" lat="30.353637" lon="-97.509798" changeset="false"><tag k="addr:street" v="Wt Gallaway Street"/><tag k="addr:housenumber" v="19513"/><tag k="addr:postcode" v="78653"/></node><node id="-247" lat="30.354115" lon="-97.509642" changeset="false"><tag k="addr:street" v="Wt Gallaway Street"/><tag k="addr:housenumber" v="19600"/><tag k="addr:postcode" v="78653"/></node><node id="-248" lat="30.354281" lon="-97.50939" changeset="false"><tag k="addr:street" v="Wt Gallaway Street"/><tag k="addr:housenumber" v="19608"/><tag k="addr:postcode" v="78653"/></node><node id="-249" lat="30.354355" lon="-97.509247" changeset="false"><tag k="addr:street" v="Wt Gallaway Street"/><tag k="addr:housenumber" v="19612"/><tag k="addr:postcode" v="78653"/></node><node id="-250" lat="30.354585" lon="-97.508844" changeset="false"><tag k="addr:street" v="Wt Gallaway Street"/><tag k="addr:housenumber" v="19624"/><tag k="addr:postcode" v="78653"/></node><node id="-251" lat="30.37958" lon="-97.483878" changeset="false"><tag k="addr:street" v="Kimbro West Road"/><tag k="addr:housenumber" v="13910"/><tag k="addr:postcode" v="78653"/></node><node id="-252" lat="30.356913" lon="-97.497017" changeset="false"><tag k="addr:street" v="Old Kimbro Road"/><tag k="addr:housenumber" v="13350"/><tag k="addr:postcode" v="78653"/></node><node id="-253" lat="30.357465" lon="-97.496072" changeset="false"><tag k="addr:street" v="Old Kimbro Road"/><tag k="addr:housenumber" v="13400"/><tag k="addr:postcode" v="78653"/></node><node id="-254" lat="30.365796" lon="-97.521707" changeset="false"><tag k="addr:street" v="Stoneridge Gap Lane"/><tag k="addr:housenumber" v="12307"/><tag k="addr:postcode" v="78653"/></node><node id="-255" lat="30.365162" lon="-97.52211" changeset="false"><tag k="addr:street" v="Waterford Run Way"/><tag k="addr:housenumber" v="12307"/><tag k="addr:postcode" v="78653"/></node><node id="-256" lat="30.392504" lon="-97.517813" changeset="false"><tag k="addr:street" v="Schmidt Lane"/><tag k="addr:housenumber" v="15713"/><tag k="addr:postcode" v="78653"/></node><node id="-257" lat="30.364995" lon="-97.521743" changeset="false"><tag k="addr:street" v="Waterford Run Way"/><tag k="addr:housenumber" v="12313"/><tag k="addr:postcode" v="78653"/></node><node id="-258" lat="30.366212" lon="-97.523437" changeset="false"><tag k="addr:street" v="Waterford Run Way"/><tag k="addr:housenumber" v="12202"/><tag k="addr:postcode" v="78653"/></node><node id="-259" lat="30.365779" lon="-97.523561" changeset="false"><tag k="addr:street" v="Waterford Run Way"/><tag k="addr:housenumber" v="12205"/><tag k="addr:postcode" v="78653"/></node><node id="-260" lat="30.365597" lon="-97.52322" changeset="false"><tag k="addr:street" v="Waterford Run Way"/><tag k="addr:housenumber" v="12211"/><tag k="addr:postcode" v="78653"/></node><node id="-261" lat="30.36539" lon="-97.520838" changeset="false"><tag k="addr:street" v="Stoneridge Gap Lane"/><tag k="addr:housenumber" v="12403"/><tag k="addr:postcode" v="78653"/></node><node id="-262" lat="30.3647" lon="-97.520372" changeset="false"><tag k="addr:street" v="Waterford Run Way"/><tag k="addr:housenumber" v="12416"/><tag k="addr:postcode" v="78653"/></node><node id="-263" lat="30.353801" lon="-97.512599" changeset="false"><tag k="addr:street" v="Smith Gin Street"/><tag k="addr:housenumber" v="19321"/><tag k="addr:postcode" v="78653"/></node><node id="-264" lat="30.35411" lon="-97.512081" changeset="false"><tag k="addr:street" v="Smith Gin Street"/><tag k="addr:housenumber" v="19409"/><tag k="addr:postcode" v="78653"/></node><node id="-265" lat="30.36938" lon="-97.520106" changeset="false"><tag k="addr:street" v="Jamie Drive"/><tag k="addr:housenumber" v="12308"/><tag k="addr:postcode" v="78653"/></node><node id="-266" lat="30.369321" lon="-97.519987" changeset="false"><tag k="addr:street" v="Jamie Drive"/><tag k="addr:housenumber" v="12310"/><tag k="addr:postcode" v="78653"/></node><node id="-267" lat="30.353639" lon="-97.511271" changeset="false"><tag k="addr:street" v="James Manor Street"/><tag k="addr:housenumber" v="19425"/><tag k="addr:postcode" v="78653"/></node><node id="-268" lat="30.351985" lon="-97.512375" changeset="false"><tag k="addr:street" v="Wt Gallaway Street"/><tag k="addr:housenumber" v="19325"/><tag k="addr:postcode" v="78653"/></node><node id="-269" lat="30.364822" lon="-97.520595" changeset="false"><tag k="addr:street" v="Waterford Run Way"/><tag k="addr:housenumber" v="12412"/><tag k="addr:postcode" v="78653"/></node><node id="-270" lat="30.364535" lon="-97.520787" changeset="false"><tag k="addr:street" v="Waterford Run Way"/><tag k="addr:housenumber" v="12413"/><tag k="addr:postcode" v="78653"/></node><node id="-271" lat="30.352195" lon="-97.510161" changeset="false"><tag k="addr:street" v="Tayshas Street"/><tag k="addr:housenumber" v="19425"/><tag k="addr:postcode" v="78653"/></node><node id="-272" lat="30.378717" lon="-97.500583" changeset="false"><tag k="addr:street" v="Johnson Road"/><tag k="addr:housenumber" v="13104"/><tag k="addr:postcode" v="78653"/></node><node id="-273" lat="30.352303" lon="-97.513247" changeset="false"><tag k="addr:street" v="Nelson Houser Street"/><tag k="addr:housenumber" v="13209"/><tag k="addr:postcode" v="78653"/></node><node id="-274" lat="30.368491" lon="-97.517425" changeset="false"><tag k="addr:street" v="Joy Lee Lane"/><tag k="addr:housenumber" v="14507"/><tag k="addr:postcode" v="78653"/></node><node id="-275" lat="30.369173" lon="-97.516974" changeset="false"><tag k="addr:street" v="Joy Lee Lane"/><tag k="addr:housenumber" v="14607"/><tag k="addr:postcode" v="78653"/></node><node id="-276" lat="30.369839" lon="-97.516557" changeset="false"><tag k="addr:street" v="Joy Lee Lane"/><tag k="addr:housenumber" v="14707"/><tag k="addr:postcode" v="78653"/></node><node id="-277" lat="30.370029" lon="-97.516425" changeset="false"><tag k="addr:street" v="Joy Lee Lane"/><tag k="addr:housenumber" v="14711"/><tag k="addr:postcode" v="78653"/></node><node id="-278" lat="30.370345" lon="-97.516872" changeset="false"><tag k="addr:street" v="Joy Lee Lane"/><tag k="addr:housenumber" v="14712"/><tag k="addr:postcode" v="78653"/></node><node id="-279" lat="30.370573" lon="-97.516261" changeset="false"><tag k="addr:street" v="Joy Lee Lane"/><tag k="addr:housenumber" v="14721"/><tag k="addr:postcode" v="78653"/></node><node id="-280" lat="30.369366" lon="-97.518149" changeset="false"><tag k="addr:street" v="Timber Arch Ln"/><tag k="addr:housenumber" v="12404"/><tag k="addr:postcode" v="78653"/></node><node id="-281" lat="30.368785" lon="-97.51786" changeset="false"><tag k="addr:street" v="Timber Arch Ln"/><tag k="addr:housenumber" v="12413"/><tag k="addr:postcode" v="78653"/></node><node id="-282" lat="30.368727" lon="-97.517718" changeset="false"><tag k="addr:street" v="Timber Arch Ln"/><tag k="addr:housenumber" v="12415"/><tag k="addr:postcode" v="78653"/></node><node id="-283" lat="30.369656" lon="-97.517817" changeset="false"><tag k="addr:street" v="Walter Vaughn Dr"/><tag k="addr:housenumber" v="12409"/><tag k="addr:postcode" v="78653"/></node><node id="-284" lat="30.369499" lon="-97.517415" changeset="false"><tag k="addr:street" v="Walter Vaughn Dr"/><tag k="addr:housenumber" v="12415"/><tag k="addr:postcode" v="78653"/></node><node id="-285" lat="30.370665" lon="-97.519029" changeset="false"><tag k="addr:street" v="Walter Vaughn Dr"/><tag k="addr:housenumber" v="12218"/><tag k="addr:postcode" v="78653"/></node><node id="-286" lat="30.370541" lon="-97.518729" changeset="false"><tag k="addr:street" v="Walter Vaughn Dr"/><tag k="addr:housenumber" v="12300"/><tag k="addr:postcode" v="78653"/></node><node id="-287" lat="30.390057" lon="-97.517189" changeset="false"><tag k="addr:street" v="Schmidt Lane"/><tag k="addr:housenumber" v="15605"/><tag k="addr:postcode" v="78653"/></node><node id="-288" lat="30.390131" lon="-97.516716" changeset="false"><tag k="addr:street" v="Schmidt Lane"/><tag k="addr:housenumber" v="15609"/><tag k="addr:postcode" v="78653"/></node><node id="-289" lat="30.353118" lon="-97.513389" changeset="false"><tag k="addr:street" v="Nelson Houser Street"/><tag k="addr:housenumber" v="13305"/><tag k="addr:postcode" v="78653"/></node><node id="-290" lat="30.35299" lon="-97.51242" changeset="false"><tag k="addr:street" v="James Manor Street"/><tag k="addr:housenumber" v="19329"/><tag k="addr:postcode" v="78653"/></node><node id="-291" lat="30.353984" lon="-97.50994" changeset="false"><tag k="addr:street" v="Wt Gallaway Street"/><tag k="addr:housenumber" v="19516"/><tag k="addr:postcode" v="78653"/></node><node id="-292" lat="30.35381" lon="-97.509347" changeset="false"><tag k="addr:street" v="Wt Gallaway Street"/><tag k="addr:housenumber" v="19601"/><tag k="addr:postcode" v="78653"/></node><node id="-293" lat="30.353929" lon="-97.50917" changeset="false"><tag k="addr:street" v="Wt Gallaway Street"/><tag k="addr:housenumber" v="19605"/><tag k="addr:postcode" v="78653"/></node><node id="-294" lat="30.355437" lon="-97.508992" changeset="false"><tag k="addr:street" v="James Manor Street"/><tag k="addr:housenumber" v="19700"/><tag k="addr:postcode" v="78653"/></node><node id="-295" lat="30.353262" lon="-97.511159" changeset="false"><tag k="addr:street" v="Wt Gallaway Street"/><tag k="addr:housenumber" v="19416"/><tag k="addr:postcode" v="78653"/></node><node id="-296" lat="30.352671" lon="-97.511264" changeset="false"><tag k="addr:street" v="Wt Gallaway Street"/><tag k="addr:housenumber" v="19405"/><tag k="addr:postcode" v="78653"/></node><node id="-297" lat="30.353203" lon="-97.515226" changeset="false"><tag k="addr:street" v="Cabinet Dr"/><tag k="addr:housenumber" v="13220"/><tag k="addr:postcode" v="78653"/></node><node id="-298" lat="30.353331" lon="-97.515142" changeset="false"><tag k="addr:street" v="Cabinet Dr"/><tag k="addr:housenumber" v="13224"/><tag k="addr:postcode" v="78653"/></node><node id="-299" lat="30.371661" lon="-97.520871" changeset="false"><tag k="addr:street" v="Walter Vaughn Dr"/><tag k="addr:housenumber" v="12106"/><tag k="addr:postcode" v="78653"/></node><node id="-300" lat="30.371267" lon="-97.520925" changeset="false"><tag k="addr:street" v="Walter Vaughn Dr"/><tag k="addr:housenumber" v="12109"/><tag k="addr:postcode" v="78653"/></node><node id="-301" lat="30.371063" lon="-97.52049" changeset="false"><tag k="addr:street" v="Walter Vaughn Dr"/><tag k="addr:housenumber" v="12117"/><tag k="addr:postcode" v="78653"/></node><node id="-302" lat="30.371134" lon="-97.519894" changeset="false"><tag k="addr:street" v="Walter Vaughn Dr"/><tag k="addr:housenumber" v="12202"/><tag k="addr:postcode" v="78653"/></node><node id="-303" lat="30.370808" lon="-97.519253" changeset="false"><tag k="addr:street" v="Walter Vaughn Dr"/><tag k="addr:housenumber" v="12214"/><tag k="addr:postcode" v="78653"/></node><node id="-304" lat="30.370493" lon="-97.52136" changeset="false"><tag k="addr:street" v="Timber Arch Ln"/><tag k="addr:housenumber" v="12103"/><tag k="addr:postcode" v="78653"/></node><node id="-305" lat="30.370166" lon="-97.520651" changeset="false"><tag k="addr:street" v="Timber Arch Ln"/><tag k="addr:housenumber" v="12115"/><tag k="addr:postcode" v="78653"/></node><node id="-306" lat="30.369713" lon="-97.519793" changeset="false"><tag k="addr:street" v="Timber Arch Ln"/><tag k="addr:housenumber" v="12215"/><tag k="addr:postcode" v="78653"/></node><node id="-307" lat="30.354137" lon="-97.513815" changeset="false"><tag k="addr:street" v="Nelson Houser Street"/><tag k="addr:housenumber" v="13408"/><tag k="addr:postcode" v="78653"/></node><node id="-308" lat="30.354742" lon="-97.513617" changeset="false"><tag k="addr:street" v="Nelson Houser Street"/><tag k="addr:housenumber" v="13500"/><tag k="addr:postcode" v="78653"/></node><node id="-309" lat="30.355521" lon="-97.511323" changeset="false"><tag k="addr:street" v="Nelson Houser Street"/><tag k="addr:housenumber" v="13713"/><tag k="addr:postcode" v="78653"/></node><node id="-310" lat="30.35573" lon="-97.510939" changeset="false"><tag k="addr:street" v="Nelson Houser Street"/><tag k="addr:housenumber" v="13801"/><tag k="addr:postcode" v="78653"/></node><node id="-311" lat="30.355966" lon="-97.510526" changeset="false"><tag k="addr:street" v="Nelson Houser Street"/><tag k="addr:housenumber" v="13813"/><tag k="addr:postcode" v="78653"/></node><node id="-312" lat="30.355246" lon="-97.511118" changeset="false"><tag k="addr:street" v="Smith Gin Street"/><tag k="addr:housenumber" v="19512"/><tag k="addr:postcode" v="78653"/></node><node id="-313" lat="30.355385" lon="-97.510852" changeset="false"><tag k="addr:street" v="Smith Gin Street"/><tag k="addr:housenumber" v="19520"/><tag k="addr:postcode" v="78653"/></node><node id="-314" lat="30.355647" lon="-97.510298" changeset="false"><tag k="addr:street" v="Smith Gin Street"/><tag k="addr:housenumber" v="19608"/><tag k="addr:postcode" v="78653"/></node><node id="-315" lat="30.354932" lon="-97.509832" changeset="false"><tag k="addr:street" v="James Manor Street"/><tag k="addr:housenumber" v="19608"/><tag k="addr:postcode" v="78653"/></node><node id="-316" lat="30.356716" lon="-97.484631" changeset="false"><tag k="addr:street" v="Old Kimbro Road"/><tag k="addr:housenumber" v="13564"/><tag k="addr:postcode" v="78653"/></node><node id="-317" lat="30.37626" lon="-97.514962" changeset="false"><tag k="addr:street" v="Johnson Road"/><tag k="addr:housenumber" v="12349"/><tag k="addr:postcode" v="78653"/></node><node id="-318" lat="30.353192" lon="-97.508434" changeset="false"><tag k="addr:street" v="Gunn Lane"/><tag k="addr:housenumber" v="13303"/><tag k="addr:postcode" v="78653"/></node><node id="-319" lat="30.40437" lon="-97.504591" changeset="false"><tag k="addr:street" v="New Sweden Church Road"/><tag k="addr:housenumber" v="11911"/><tag k="addr:postcode" v="78653"/></node><node id="-320" lat="30.369248" lon="-97.530335" changeset="false"><tag k="addr:street" v="Suncrest Road"/><tag k="addr:housenumber" v="14225"/><tag k="addr:postcode" v="78653"/></node><node id="-321" lat="30.365339" lon="-97.520716" changeset="false"><tag k="addr:street" v="Stoneridge Gap Lane"/><tag k="addr:housenumber" v="12405"/><tag k="addr:postcode" v="78653"/></node><node id="-322" lat="30.36909" lon="-97.520363" changeset="false"><tag k="addr:street" v="Jamie Drive"/><tag k="addr:housenumber" v="12307"/><tag k="addr:postcode" v="78653"/></node><node id="-323" lat="30.35444" lon="-97.512351" changeset="false"><tag k="addr:street" v="Smith Gin Street"/><tag k="addr:housenumber" v="19408"/><tag k="addr:postcode" v="78653"/></node><node id="-324" lat="30.352053" lon="-97.512244" changeset="false"><tag k="addr:street" v="Wt Gallaway Street"/><tag k="addr:housenumber" v="19329"/><tag k="addr:postcode" v="78653"/></node><node id="-325" lat="30.354157" lon="-97.512868" changeset="false"><tag k="addr:street" v="Smith Gin Street"/><tag k="addr:housenumber" v="19316"/><tag k="addr:postcode" v="78653"/></node><node id="-326" lat="30.351912" lon="-97.512512" changeset="false"><tag k="addr:street" v="Wt Gallaway Street"/><tag k="addr:housenumber" v="19321"/><tag k="addr:postcode" v="78653"/></node><node id="-327" lat="30.364966" lon="-97.519622" changeset="false"><tag k="addr:street" v="Stoneridge Gap Lane"/><tag k="addr:housenumber" v="12422"/><tag k="addr:postcode" v="78653"/></node><node id="-328" lat="30.353427" lon="-97.51173" changeset="false"><tag k="addr:street" v="James Manor Street"/><tag k="addr:housenumber" v="19413"/><tag k="addr:postcode" v="78653"/></node><node id="-329" lat="30.364813" lon="-97.521395" changeset="false"><tag k="addr:street" v="Waterford Run Way"/><tag k="addr:housenumber" v="12403"/><tag k="addr:postcode" v="78653"/></node><node id="-330" lat="30.364922" lon="-97.520837" changeset="false"><tag k="addr:street" v="Waterford Run Way"/><tag k="addr:housenumber" v="12408"/><tag k="addr:postcode" v="78653"/></node><node id="-331" lat="30.365275" lon="-97.521569" changeset="false"><tag k="addr:street" v="Waterford Run Way"/><tag k="addr:housenumber" v="12312"/><tag k="addr:postcode" v="78653"/></node><node id="-332" lat="30.365216" lon="-97.52144" changeset="false"><tag k="addr:street" v="Waterford Run Way"/><tag k="addr:housenumber" v="12314"/><tag k="addr:postcode" v="78653"/></node><node id="-333" lat="30.364936" lon="-97.521627" changeset="false"><tag k="addr:street" v="Waterford Run Way"/><tag k="addr:housenumber" v="12315"/><tag k="addr:postcode" v="78653"/></node><node id="-334" lat="30.39688" lon="-97.492726" changeset="false"><tag k="addr:street" v="Jacobson Road"/><tag k="addr:housenumber" v="12719"/><tag k="addr:postcode" v="78653"/></node><node id="-335" lat="30.39145" lon="-97.518261" changeset="false"><tag k="addr:street" v="Schmidt Lane"/><tag k="addr:housenumber" v="15627"/><tag k="addr:postcode" v="78653"/></node><node id="-336" lat="30.353246" lon="-97.512013" changeset="false"><tag k="addr:street" v="James Manor Street"/><tag k="addr:housenumber" v="19405"/><tag k="addr:postcode" v="78653"/></node><node id="-337" lat="30.354294" lon="-97.512611" changeset="false"><tag k="addr:street" v="Smith Gin Street"/><tag k="addr:housenumber" v="19400"/><tag k="addr:postcode" v="78653"/></node><node id="-338" lat="30.351707" lon="-97.512858" changeset="false"><tag k="addr:street" v="Wt Gallaway Street"/><tag k="addr:housenumber" v="19309"/><tag k="addr:postcode" v="78653"/></node><node id="-339" lat="30.368194" lon="-97.519577" changeset="false"><tag k="addr:street" v="Cummins Way"/><tag k="addr:housenumber" v="14418"/><tag k="addr:postcode" v="78653"/></node><node id="-340" lat="30.364755" lon="-97.520484" changeset="false"><tag k="addr:street" v="Waterford Run Way"/><tag k="addr:housenumber" v="12414"/><tag k="addr:postcode" v="78653"/></node><node id="-341" lat="30.352155" lon="-97.512092" changeset="false"><tag k="addr:street" v="Wt Gallaway Street"/><tag k="addr:housenumber" v="19333"/><tag k="addr:postcode" v="78653"/></node><node id="-342" lat="30.351651" lon="-97.511051" changeset="false"><tag k="addr:street" v="Tayshas Street"/><tag k="addr:housenumber" v="19401"/><tag k="addr:postcode" v="78653"/></node><node id="-343" lat="30.352134" lon="-97.510305" changeset="false"><tag k="addr:street" v="Tayshas Street"/><tag k="addr:housenumber" v="19421"/><tag k="addr:postcode" v="78653"/></node><node id="-344" lat="30.353791" lon="-97.511003" changeset="false"><tag k="addr:street" v="James Manor Street"/><tag k="addr:housenumber" v="19433"/><tag k="addr:postcode" v="78653"/></node><node id="-345" lat="30.353364" lon="-97.512604" changeset="false"><tag k="addr:street" v="James Manor Street"/><tag k="addr:housenumber" v="19328"/><tag k="addr:postcode" v="78653"/></node><node id="-346" lat="30.367021" lon="-97.518746" changeset="false"><tag k="addr:street" v="Joy Lee Lane"/><tag k="addr:housenumber" v="14400"/><tag k="addr:postcode" v="78653"/></node><node id="-347" lat="30.378917" lon="-97.504026" changeset="false"><tag k="addr:street" v="Johnson Road"/><tag k="addr:housenumber" v="12906"/><tag k="addr:postcode" v="78653"/></node><node id="-348" lat="30.364424" lon="-97.520563" changeset="false"><tag k="addr:street" v="Waterford Run Way"/><tag k="addr:housenumber" v="12417"/><tag k="addr:postcode" v="78653"/></node><node id="-349" lat="30.353658" lon="-97.512855" changeset="false"><tag k="addr:street" v="Smith Gin Street"/><tag k="addr:housenumber" v="19313"/><tag k="addr:postcode" v="78653"/></node><node id="-350" lat="30.353731" lon="-97.512718" changeset="false"><tag k="addr:street" v="Smith Gin Street"/><tag k="addr:housenumber" v="19317"/><tag k="addr:postcode" v="78653"/></node><node id="-351" lat="30.382203" lon="-97.512131" changeset="false"><tag k="addr:street" v="Johnson Road"/><tag k="addr:housenumber" v="12472"/><tag k="addr:postcode" v="78653"/></node><node id="-352" lat="30.380619" lon="-97.486486" changeset="false"><tag k="addr:street" v="Kimbro West Road"/><tag k="addr:housenumber" v="13710"/><tag k="addr:postcode" v="78653"/></node><node id="-353" lat="30.352266" lon="-97.515191" changeset="false"><tag k="addr:street" v="Cabinet Dr"/><tag k="addr:housenumber" v="13201"/><tag k="addr:postcode" v="78653"/></node><node id="-354" lat="30.352871" lon="-97.514808" changeset="false"><tag k="addr:street" v="Cabinet Dr"/><tag k="addr:housenumber" v="13221"/><tag k="addr:postcode" v="78653"/></node><node id="-355" lat="30.353096" lon="-97.514628" changeset="false"><tag k="addr:street" v="Cabinet Dr"/><tag k="addr:housenumber" v="13229"/><tag k="addr:postcode" v="78653"/></node><node id="-356" lat="30.352534" lon="-97.515692" changeset="false"><tag k="addr:street" v="Cabinet Dr"/><tag k="addr:housenumber" v="13200"/><tag k="addr:postcode" v="78653"/></node><node id="-357" lat="30.3717" lon="-97.52098" changeset="false"><tag k="addr:street" v="Walter Vaughn Dr"/><tag k="addr:housenumber" v="12104"/><tag k="addr:postcode" v="78653"/></node><node id="-358" lat="30.37142" lon="-97.520451" changeset="false"><tag k="addr:street" v="Walter Vaughn Dr"/><tag k="addr:housenumber" v="12114"/><tag k="addr:postcode" v="78653"/></node><node id="-359" lat="30.371243" lon="-97.520118" changeset="false"><tag k="addr:street" v="Walter Vaughn Dr"/><tag k="addr:housenumber" v="12120"/><tag k="addr:postcode" v="78653"/></node><node id="-360" lat="30.370951" lon="-97.520283" changeset="false"><tag k="addr:street" v="Walter Vaughn Dr"/><tag k="addr:housenumber" v="12121"/><tag k="addr:postcode" v="78653"/></node><node id="-361" lat="30.370905" lon="-97.519474" changeset="false"><tag k="addr:street" v="Walter Vaughn Dr"/><tag k="addr:housenumber" v="12210"/><tag k="addr:postcode" v="78653"/></node><node id="-362" lat="30.370524" lon="-97.519542" changeset="false"><tag k="addr:street" v="Walter Vaughn Dr"/><tag k="addr:housenumber" v="12213"/><tag k="addr:postcode" v="78653"/></node><node id="-363" lat="30.370759" lon="-97.519119" changeset="false"><tag k="addr:street" v="Walter Vaughn Dr"/><tag k="addr:housenumber" v="12216"/><tag k="addr:postcode" v="78653"/></node><node id="-364" lat="30.370592" lon="-97.521485" changeset="false"><tag k="addr:street" v="Timber Arch Ln"/><tag k="addr:housenumber" v="12101"/><tag k="addr:postcode" v="78653"/></node><node id="-365" lat="30.37034" lon="-97.520991" changeset="false"><tag k="addr:street" v="Timber Arch Ln"/><tag k="addr:housenumber" v="12109"/><tag k="addr:postcode" v="78653"/></node><node id="-366" lat="30.354601" lon="-97.513056" changeset="false"><tag k="addr:street" v="Nelson Houser Street"/><tag k="addr:housenumber" v="13509"/><tag k="addr:postcode" v="78653"/></node><node id="-367" lat="30.354881" lon="-97.51253" changeset="false"><tag k="addr:street" v="Nelson Houser Street"/><tag k="addr:housenumber" v="13605"/><tag k="addr:postcode" v="78653"/></node><node id="-368" lat="30.381255" lon="-97.520201" changeset="false"><tag k="addr:street" v="Arnhamn Lane"/><tag k="addr:housenumber" v="11911"/><tag k="addr:postcode" v="78653"/></node><node id="-369" lat="30.353183" lon="-97.51129" changeset="false"><tag k="addr:street" v="Wt Gallaway Street"/><tag k="addr:housenumber" v="19412"/><tag k="addr:postcode" v="78653"/></node><node id="-370" lat="30.368576" lon="-97.517366" changeset="false"><tag k="addr:street" v="Joy Lee Lane"/><tag k="addr:housenumber" v="14509"/><tag k="addr:postcode" v="78653"/></node><node id="-371" lat="30.369655" lon="-97.516688" changeset="false"><tag k="addr:street" v="Joy Lee Lane"/><tag k="addr:housenumber" v="14703"/><tag k="addr:postcode" v="78653"/></node><node id="-372" lat="30.36964" lon="-97.518767" changeset="false"><tag k="addr:street" v="Timber Arch Ln"/><tag k="addr:housenumber" v="12306"/><tag k="addr:postcode" v="78653"/></node><node id="-373" lat="30.36921" lon="-97.517767" changeset="false"><tag k="addr:street" v="Timber Arch Ln"/><tag k="addr:housenumber" v="12410"/><tag k="addr:postcode" v="78653"/></node><node id="-374" lat="30.369608" lon="-97.517663" changeset="false"><tag k="addr:street" v="Walter Vaughn Dr"/><tag k="addr:housenumber" v="12411"/><tag k="addr:postcode" v="78653"/></node><node id="-375" lat="30.37005" lon="-97.517664" changeset="false"><tag k="addr:street" v="Walter Vaughn Dr"/><tag k="addr:housenumber" v="12408"/><tag k="addr:postcode" v="78653"/></node><node id="-376" lat="30.355823" lon="-97.511794" changeset="false"><tag k="addr:street" v="Nelson Houser Street"/><tag k="addr:housenumber" v="13708"/><tag k="addr:postcode" v="78653"/></node><node id="-377" lat="30.356319" lon="-97.510867" changeset="false"><tag k="addr:street" v="Nelson Houser Street"/><tag k="addr:housenumber" v="13812"/><tag k="addr:postcode" v="78653"/></node><node id="-378" lat="30.354863" lon="-97.510891" changeset="false"><tag k="addr:street" v="Smith Gin Street"/><tag k="addr:housenumber" v="19513"/><tag k="addr:postcode" v="78653"/></node><node id="-379" lat="30.354984" lon="-97.510602" changeset="false"><tag k="addr:street" v="Smith Gin Street"/><tag k="addr:housenumber" v="19521"/><tag k="addr:postcode" v="78653"/></node><node id="-380" lat="30.35603" lon="-97.509626" changeset="false"><tag k="addr:street" v="Smith Gin Street"/><tag k="addr:housenumber" v="19628"/><tag k="addr:postcode" v="78653"/></node><node id="-381" lat="30.355373" lon="-97.509759" changeset="false"><tag k="addr:street" v="Smith Gin Street"/><tag k="addr:housenumber" v="19617"/><tag k="addr:postcode" v="78653"/></node><node id="-382" lat="30.354613" lon="-97.510532" changeset="false"><tag k="addr:street" v="James Manor Street"/><tag k="addr:housenumber" v="19512"/><tag k="addr:postcode" v="78653"/></node><node id="-383" lat="30.354829" lon="-97.509992" changeset="false"><tag k="addr:street" v="James Manor Street"/><tag k="addr:housenumber" v="19604"/><tag k="addr:postcode" v="78653"/></node><node id="-384" lat="30.355255" lon="-97.509286" changeset="false"><tag k="addr:street" v="James Manor Street"/><tag k="addr:housenumber" v="19624"/><tag k="addr:postcode" v="78653"/></node><node id="-385" lat="30.354235" lon="-97.510265" changeset="false"><tag k="addr:street" v="James Manor Street"/><tag k="addr:housenumber" v="19513"/><tag k="addr:postcode" v="78653"/></node><node id="-386" lat="30.354482" lon="-97.509718" changeset="false"><tag k="addr:street" v="James Manor Street"/><tag k="addr:housenumber" v="19605"/><tag k="addr:postcode" v="78653"/></node><node id="-387" lat="30.353483" lon="-97.510036" changeset="false"><tag k="addr:street" v="Wt Gallaway Street"/><tag k="addr:housenumber" v="19505"/><tag k="addr:postcode" v="78653"/></node><node id="-388" lat="30.35421" lon="-97.509505" changeset="false"><tag k="addr:street" v="Wt Gallaway Street"/><tag k="addr:housenumber" v="19604"/><tag k="addr:postcode" v="78653"/></node><node id="-389" lat="30.354164" lon="-97.508706" changeset="false"><tag k="addr:street" v="Wt Gallaway Street"/><tag k="addr:housenumber" v="19617"/><tag k="addr:postcode" v="78653"/></node><node id="-390" lat="30.365857" lon="-97.521817" changeset="false"><tag k="addr:street" v="Stoneridge Gap Lane"/><tag k="addr:housenumber" v="12305"/><tag k="addr:postcode" v="78653"/></node><node id="-391" lat="30.357031" lon="-97.498337" changeset="false"><tag k="addr:street" v="Old Kimbro Road"/><tag k="addr:housenumber" v="13342"/><tag k="addr:postcode" v="78653"/></node><node id="-392" lat="30.371096" lon="-97.531111" changeset="false"><tag k="addr:street" v="Farm-to-Market Road 973"/><tag k="addr:housenumber" v="14405"/><tag k="addr:postcode" v="78653"/></node><node id="-393" lat="30.353558" lon="-97.513349" changeset="false"><tag k="addr:street" v="Nelson Houser Street"/><tag k="addr:housenumber" v="13317"/><tag k="addr:postcode" v="78653"/></node><node id="-394" lat="30.352657" lon="-97.513054" changeset="false"><tag k="addr:street" v="James Manor Street"/><tag k="addr:housenumber" v="19309"/><tag k="addr:postcode" v="78653"/></node><node id="-395" lat="30.368623" lon="-97.518599" changeset="false"><tag k="addr:street" v="Jamie Drive"/><tag k="addr:housenumber" v="12404"/><tag k="addr:postcode" v="78653"/></node><node id="-396" lat="30.353104" lon="-97.511435" changeset="false"><tag k="addr:street" v="Wt Gallaway Street"/><tag k="addr:housenumber" v="19408"/><tag k="addr:postcode" v="78653"/></node><node id="-397" lat="30.352574" lon="-97.511389" changeset="false"><tag k="addr:street" v="Wt Gallaway Street"/><tag k="addr:housenumber" v="19401"/><tag k="addr:postcode" v="78653"/></node><node id="-398" lat="30.352166" lon="-97.513156" changeset="false"><tag k="addr:street" v="Nelson Houser Street"/><tag k="addr:housenumber" v="13205"/><tag k="addr:postcode" v="78653"/></node><node id="-399" lat="30.353285" lon="-97.513874" changeset="false"><tag k="addr:street" v="Nelson Houser Street"/><tag k="addr:housenumber" v="13312"/><tag k="addr:postcode" v="78653"/></node><node id="-400" lat="30.365839" lon="-97.52366" changeset="false"><tag k="addr:street" v="Waterford Run Way"/><tag k="addr:housenumber" v="12203"/><tag k="addr:postcode" v="78653"/></node><node id="-401" lat="30.366141" lon="-97.523316" changeset="false"><tag k="addr:street" v="Waterford Run Way"/><tag k="addr:housenumber" v="12204"/><tag k="addr:postcode" v="78653"/></node><node id="-402" lat="30.365876" lon="-97.522721" changeset="false"><tag k="addr:street" v="Waterford Run Way"/><tag k="addr:housenumber" v="12214"/><tag k="addr:postcode" v="78653"/></node><node id="-403" lat="30.365485" lon="-97.522978" changeset="false"><tag k="addr:street" v="Waterford Run Way"/><tag k="addr:housenumber" v="12215"/><tag k="addr:postcode" v="78653"/></node><node id="-404" lat="30.365968" lon="-97.522048" changeset="false"><tag k="addr:street" v="Stoneridge Gap Lane"/><tag k="addr:housenumber" v="12301"/><tag k="addr:postcode" v="78653"/></node><node id="-405" lat="30.365511" lon="-97.521068" changeset="false"><tag k="addr:street" v="Stoneridge Gap Lane"/><tag k="addr:housenumber" v="12317"/><tag k="addr:postcode" v="78653"/></node><node id="-406" lat="30.365288" lon="-97.520606" changeset="false"><tag k="addr:street" v="Stoneridge Gap Lane"/><tag k="addr:housenumber" v="12407"/><tag k="addr:postcode" v="78653"/></node><node id="-407" lat="30.365106" lon="-97.520254" changeset="false"><tag k="addr:street" v="Stoneridge Gap Lane"/><tag k="addr:housenumber" v="12413"/><tag k="addr:postcode" v="78653"/></node><node id="-408" lat="30.365045" lon="-97.520133" changeset="false"><tag k="addr:street" v="Stoneridge Gap Lane"/><tag k="addr:housenumber" v="12415"/><tag k="addr:postcode" v="78653"/></node><node id="-409" lat="30.364632" lon="-97.519799" changeset="false"><tag k="addr:street" v="Stoneridge Gap Lane"/><tag k="addr:housenumber" v="12504"/><tag k="addr:postcode" v="78653"/></node><node id="-410" lat="30.35277" lon="-97.510138" changeset="false"><tag k="addr:street" v="Tayshas Street"/><tag k="addr:housenumber" v="19428"/><tag k="addr:postcode" v="78653"/></node><node id="-411" lat="30.36946" lon="-97.516779" changeset="false"><tag k="addr:street" v="Joy Lee Lane"/><tag k="addr:housenumber" v="14613"/><tag k="addr:postcode" v="78653"/></node><node id="-412" lat="30.36993" lon="-97.516492" changeset="false"><tag k="addr:street" v="Joy Lee Lane"/><tag k="addr:housenumber" v="14709"/><tag k="addr:postcode" v="78653"/></node><node id="-413" lat="30.370623" lon="-97.516459" changeset="false"><tag k="addr:street" v="Joy Lee Lane"/><tag k="addr:housenumber" v="14720"/><tag k="addr:postcode" v="78653"/></node><node id="-414" lat="30.369584" lon="-97.518644" changeset="false"><tag k="addr:street" v="Timber Arch Ln"/><tag k="addr:housenumber" v="12308"/><tag k="addr:postcode" v="78653"/></node><node id="-415" lat="30.369896" lon="-97.5183" changeset="false"><tag k="addr:street" v="Walter Vaughn Dr"/><tag k="addr:housenumber" v="12401"/><tag k="addr:postcode" v="78653"/></node><node id="-416" lat="30.369832" lon="-97.518172" changeset="false"><tag k="addr:street" v="Walter Vaughn Dr"/><tag k="addr:housenumber" v="12403"/><tag k="addr:postcode" v="78653"/></node><node id="-417" lat="30.369433" lon="-97.517282" changeset="false"><tag k="addr:street" v="Walter Vaughn Dr"/><tag k="addr:housenumber" v="12417"/><tag k="addr:postcode" v="78653"/></node><node id="-418" lat="30.369911" lon="-97.51732" changeset="false"><tag k="addr:street" v="Walter Vaughn Dr"/><tag k="addr:housenumber" v="12414"/><tag k="addr:postcode" v="78653"/></node><node id="-419" lat="30.369798" lon="-97.517069" changeset="false"><tag k="addr:street" v="Walter Vaughn Dr"/><tag k="addr:housenumber" v="12418"/><tag k="addr:postcode" v="78653"/></node><node id="-420" lat="30.354053" lon="-97.512209" changeset="false"><tag k="addr:street" v="Smith Gin Street"/><tag k="addr:housenumber" v="19405"/><tag k="addr:postcode" v="78653"/></node><node id="-421" lat="30.354361" lon="-97.512495" changeset="false"><tag k="addr:street" v="Smith Gin Street"/><tag k="addr:housenumber" v="19404"/><tag k="addr:postcode" v="78653"/></node><node id="-422" lat="30.353603" lon="-97.51226" changeset="false"><tag k="addr:street" v="James Manor Street"/><tag k="addr:housenumber" v="19404"/><tag k="addr:postcode" v="78653"/></node><node id="-423" lat="30.35414" lon="-97.511309" changeset="false"><tag k="addr:street" v="James Manor Street"/><tag k="addr:housenumber" v="19432"/><tag k="addr:postcode" v="78653"/></node><node id="-424" lat="30.366068" lon="-97.520961" changeset="false"><tag k="addr:street" v="Cummins Way"/><tag k="addr:housenumber" v="14302"/><tag k="addr:postcode" v="78653"/></node><node id="-425" lat="30.380067" lon="-97.507048" changeset="false"><tag k="addr:street" v="Johnson Road"/><tag k="addr:housenumber" v="12708"/><tag k="addr:postcode" v="78653"/></node><node id="-426" lat="30.367265" lon="-97.518755" changeset="false"><tag k="addr:street" v="Joy Lee Lane"/><tag k="addr:housenumber" v="14402"/><tag k="addr:postcode" v="78653"/></node><node id="-427" lat="30.352067" lon="-97.511526" changeset="false"><tag k="addr:street" v="John Rector Street"/><tag k="addr:housenumber" v="13208"/><tag k="addr:postcode" v="78653"/></node><node id="-428" lat="30.352526" lon="-97.510531" changeset="false"><tag k="addr:street" v="Tayshas Street"/><tag k="addr:housenumber" v="19416"/><tag k="addr:postcode" v="78653"/></node><node id="-429" lat="30.364642" lon="-97.521037" changeset="false"><tag k="addr:street" v="Waterford Run Way"/><tag k="addr:housenumber" v="12409"/><tag k="addr:postcode" v="78653"/></node><node id="-430" lat="30.38366" lon="-97.514547" changeset="false"><tag k="addr:street" v="Johnson Road"/><tag k="addr:housenumber" v="12468"/><tag k="addr:postcode" v="78653"/></node><node id="-431" lat="30.353064" lon="-97.515321" changeset="false"><tag k="addr:street" v="Cabinet Dr"/><tag k="addr:housenumber" v="13216"/><tag k="addr:postcode" v="78653"/></node><node id="-432" lat="30.352985" lon="-97.51473" changeset="false"><tag k="addr:street" v="Cabinet Dr"/><tag k="addr:housenumber" v="13225"/><tag k="addr:postcode" v="78653"/></node><node id="-433" lat="30.371359" lon="-97.520339" changeset="false"><tag k="addr:street" v="Walter Vaughn Dr"/><tag k="addr:housenumber" v="12116"/><tag k="addr:postcode" v="78653"/></node><node id="-434" lat="30.371183" lon="-97.520031" changeset="false"><tag k="addr:street" v="Walter Vaughn Dr"/><tag k="addr:housenumber" v="12200"/><tag k="addr:postcode" v="78653"/></node><node id="-435" lat="30.370847" lon="-97.519355" changeset="false"><tag k="addr:street" v="Walter Vaughn Dr"/><tag k="addr:housenumber" v="12212"/><tag k="addr:postcode" v="78653"/></node><node id="-436" lat="30.370392" lon="-97.5211" changeset="false"><tag k="addr:street" v="Timber Arch Ln"/><tag k="addr:housenumber" v="12107"/><tag k="addr:postcode" v="78653"/></node><node id="-437" lat="30.370714" lon="-97.52087" changeset="false"><tag k="addr:street" v="Timber Arch Ln"/><tag k="addr:housenumber" v="12108"/><tag k="addr:postcode" v="78653"/></node><node id="-438" lat="30.370608" lon="-97.520663" changeset="false"><tag k="addr:street" v="Timber Arch Ln"/><tag k="addr:housenumber" v="12112"/><tag k="addr:postcode" v="78653"/></node><node id="-439" lat="30.370224" lon="-97.52076" changeset="false"><tag k="addr:street" v="Timber Arch Ln"/><tag k="addr:housenumber" v="12113"/><tag k="addr:postcode" v="78653"/></node><node id="-440" lat="30.370124" lon="-97.520549" changeset="false"><tag k="addr:street" v="Timber Arch Ln"/><tag k="addr:housenumber" v="12201"/><tag k="addr:postcode" v="78653"/></node><node id="-441" lat="30.370045" lon="-97.520438" changeset="false"><tag k="addr:street" v="Timber Arch Ln"/><tag k="addr:housenumber" v="12203"/><tag k="addr:postcode" v="78653"/></node><node id="-442" lat="30.370318" lon="-97.520113" changeset="false"><tag k="addr:street" v="Timber Arch Ln"/><tag k="addr:housenumber" v="12204"/><tag k="addr:postcode" v="78653"/></node><node id="-443" lat="30.365106" lon="-97.52198" changeset="false"><tag k="addr:street" v="Waterford Run Way"/><tag k="addr:housenumber" v="12309"/><tag k="addr:postcode" v="78653"/></node><node id="-444" lat="30.365047" lon="-97.521873" changeset="false"><tag k="addr:street" v="Waterford Run Way"/><tag k="addr:housenumber" v="12311"/><tag k="addr:postcode" v="78653"/></node><node id="-445" lat="30.379797" lon="-97.502221" changeset="false"><tag k="addr:street" v="Johnson Road"/><tag k="addr:housenumber" v="12912"/><tag k="addr:postcode" v="78653"/></node><node id="-446" lat="30.352215" lon="-97.513804" changeset="false"><tag k="addr:street" v="Nelson Houser Street"/><tag k="addr:housenumber" v="13216"/><tag k="addr:postcode" v="78653"/></node><node id="-447" lat="30.354426" lon="-97.513338" changeset="false"><tag k="addr:street" v="Nelson Houser Street"/><tag k="addr:housenumber" v="13501"/><tag k="addr:postcode" v="78653"/></node><node id="-448" lat="30.366329" lon="-97.521301" changeset="false"><tag k="addr:street" v="Pebble Run Path"/><tag k="addr:housenumber" v="14305"/><tag k="addr:postcode" v="78653"/></node><node id="-449" lat="30.36926" lon="-97.519897" changeset="false"><tag k="addr:street" v="Jamie Drive"/><tag k="addr:housenumber" v="12312"/><tag k="addr:postcode" v="78653"/></node><node id="-450" lat="30.35317" lon="-97.510444" changeset="false"><tag k="addr:street" v="Wt Gallaway Street"/><tag k="addr:housenumber" v="19429"/><tag k="addr:postcode" v="78653"/></node><node id="-451" lat="30.355379" lon="-97.51162" changeset="false"><tag k="addr:street" v="Nelson Houser Street"/><tag k="addr:housenumber" v="13705"/><tag k="addr:postcode" v="78653"/></node><node id="-452" lat="30.355684" lon="-97.511061" changeset="false"><tag k="addr:street" v="Nelson Houser Street"/><tag k="addr:housenumber" v="13721"/><tag k="addr:postcode" v="78653"/></node><node id="-453" lat="30.356164" lon="-97.511123" changeset="false"><tag k="addr:street" v="Nelson Houser Street"/><tag k="addr:housenumber" v="13804"/><tag k="addr:postcode" v="78653"/></node><node id="-454" lat="30.356446" lon="-97.510543" changeset="false"><tag k="addr:street" v="Nelson Houser Street"/><tag k="addr:housenumber" v="13820"/><tag k="addr:postcode" v="78653"/></node><node id="-455" lat="30.3558" lon="-97.510793" changeset="false"><tag k="addr:street" v="Nelson Houser Street"/><tag k="addr:housenumber" v="13805"/><tag k="addr:postcode" v="78653"/></node><node id="-456" lat="30.355312" lon="-97.510978" changeset="false"><tag k="addr:street" v="Smith Gin Street"/><tag k="addr:housenumber" v="19516"/><tag k="addr:postcode" v="78653"/></node><node id="-457" lat="30.355318" lon="-97.509905" changeset="false"><tag k="addr:street" v="Smith Gin Street"/><tag k="addr:housenumber" v="19613"/><tag k="addr:postcode" v="78653"/></node><node id="-458" lat="30.354683" lon="-97.51039" changeset="false"><tag k="addr:street" v="James Manor Street"/><tag k="addr:housenumber" v="19516"/><tag k="addr:postcode" v="78653"/></node><node id="-459" lat="30.354776" lon="-97.510112" changeset="false"><tag k="addr:street" v="James Manor Street"/><tag k="addr:housenumber" v="19600"/><tag k="addr:postcode" v="78653"/></node><node id="-460" lat="30.354557" lon="-97.509582" changeset="false"><tag k="addr:street" v="James Manor Street"/><tag k="addr:housenumber" v="19609"/><tag k="addr:postcode" v="78653"/></node><node id="-461" lat="30.354833" lon="-97.509007" changeset="false"><tag k="addr:street" v="James Manor Street"/><tag k="addr:housenumber" v="19625"/><tag k="addr:postcode" v="78653"/></node><node id="-462" lat="30.354429" lon="-97.509111" changeset="false"><tag k="addr:street" v="Wt Gallaway Street"/><tag k="addr:housenumber" v="19616"/><tag k="addr:postcode" v="78653"/></node><node id="-463" lat="30.364483" lon="-97.520667" changeset="false"><tag k="addr:street" v="Waterford Run Way"/><tag k="addr:housenumber" v="12415"/><tag k="addr:postcode" v="78653"/></node><node id="-464" lat="30.36802" lon="-97.51737" changeset="false"><tag k="addr:street" v="Jamie Drive"/><tag k="addr:housenumber" v="12502 1/2"/><tag k="addr:postcode" v="78653"/></node><node id="-465" lat="30.351957" lon="-97.510547" changeset="false"><tag k="addr:street" v="Tayshas Street"/><tag k="addr:housenumber" v="19413"/><tag k="addr:postcode" v="78653"/></node><node id="-466" lat="30.353421" lon="-97.510897" changeset="false"><tag k="addr:street" v="Wt Gallaway Street"/><tag k="addr:housenumber" v="19424"/><tag k="addr:postcode" v="78653"/></node><node id="-467" lat="30.35373" lon="-97.511154" changeset="false"><tag k="addr:street" v="James Manor Street"/><tag k="addr:housenumber" v="19429"/><tag k="addr:postcode" v="78653"/></node><node id="-468" lat="30.353759" lon="-97.512007" changeset="false"><tag k="addr:street" v="James Manor Street"/><tag k="addr:housenumber" v="19412"/><tag k="addr:postcode" v="78653"/></node><node id="-469" lat="30.353844" lon="-97.511836" changeset="false"><tag k="addr:street" v="James Manor Street"/><tag k="addr:housenumber" v="19416"/><tag k="addr:postcode" v="78653"/></node><node id="-470" lat="30.352417" lon="-97.511692" changeset="false"><tag k="addr:street" v="Wt Gallaway Street"/><tag k="addr:housenumber" v="19345"/><tag k="addr:postcode" v="78653"/></node><node id="-471" lat="30.352469" lon="-97.512448" changeset="false"><tag k="addr:street" v="Wt Gallaway Street"/><tag k="addr:housenumber" v="19320"/><tag k="addr:postcode" v="78653"/></node><node id="-472" lat="30.368681" lon="-97.517298" changeset="false"><tag k="addr:street" v="Joy Lee Lane"/><tag k="addr:housenumber" v="14511"/><tag k="addr:postcode" v="78653"/></node><node id="-473" lat="30.369337" lon="-97.51908" changeset="false"><tag k="addr:street" v="Timber Arch Ln"/><tag k="addr:housenumber" v="12305"/><tag k="addr:postcode" v="78653"/></node><node id="-474" lat="30.369565" lon="-97.51755" changeset="false"><tag k="addr:street" v="Walter Vaughn Dr"/><tag k="addr:housenumber" v="12413"/><tag k="addr:postcode" v="78653"/></node><node id="-475" lat="30.370481" lon="-97.518608" changeset="false"><tag k="addr:street" v="Walter Vaughn Dr"/><tag k="addr:housenumber" v="12302"/><tag k="addr:postcode" v="78653"/></node><node id="-476" lat="30.370101" lon="-97.517792" changeset="false"><tag k="addr:street" v="Walter Vaughn Dr"/><tag k="addr:housenumber" v="12406"/><tag k="addr:postcode" v="78653"/></node><node id="-477" lat="30.369962" lon="-97.517435" changeset="false"><tag k="addr:street" v="Walter Vaughn Dr"/><tag k="addr:housenumber" v="12412"/><tag k="addr:postcode" v="78653"/></node><node id="-478" lat="30.369852" lon="-97.517192" changeset="false"><tag k="addr:street" v="Walter Vaughn Dr"/><tag k="addr:housenumber" v="12416"/><tag k="addr:postcode" v="78653"/></node><node id="-479" lat="30.35123" lon="-97.509232" changeset="false"><tag k="addr:street" v="Paseo De Presidente Boulevard"/><tag k="addr:housenumber" v="13121"/><tag k="addr:postcode" v="78653"/></node><node id="-480" lat="30.352753" lon="-97.514886" changeset="false"><tag k="addr:street" v="Cabinet Dr"/><tag k="addr:housenumber" v="13217"/><tag k="addr:postcode" v="78653"/></node><node id="-481" lat="30.352933" lon="-97.515411" changeset="false"><tag k="addr:street" v="Cabinet Dr"/><tag k="addr:housenumber" v="13212"/><tag k="addr:postcode" v="78653"/></node><node id="-482" lat="30.378485" lon="-97.50288" changeset="false"><tag k="addr:street" v="Johnson Road"/><tag k="addr:housenumber" v="13000"/><tag k="addr:postcode" v="78653"/></node><node id="-483" lat="30.351832" lon="-97.513477" changeset="false"><tag k="addr:street" v="Nelson Houser Street"/><tag k="addr:housenumber" v="13204"/><tag k="addr:postcode" v="78653"/></node><node id="-484" lat="30.379639" lon="-97.513792" changeset="false"><tag k="addr:street" v="Johnson Road"/><tag k="addr:housenumber" v="12418"/><tag k="addr:postcode" v="78653"/></node><node id="-485" lat="30.354622" lon="-97.513841" changeset="false"><tag k="addr:street" v="Nelson Houser Street"/><tag k="addr:housenumber" v="13420"/><tag k="addr:postcode" v="78653"/></node><node id="-486" lat="30.354752" lon="-97.512799" changeset="false"><tag k="addr:street" v="Nelson Houser Street"/><tag k="addr:housenumber" v="13517"/><tag k="addr:postcode" v="78653"/></node><node id="-487" lat="30.355179" lon="-97.512778" changeset="false"><tag k="addr:street" v="Nelson Houser Street"/><tag k="addr:housenumber" v="13604"/><tag k="addr:postcode" v="78653"/></node><node id="-488" lat="30.371764" lon="-97.521085" changeset="false"><tag k="addr:street" v="Walter Vaughn Dr"/><tag k="addr:housenumber" v="12102"/><tag k="addr:postcode" v="78653"/></node><node id="-489" lat="30.371533" lon="-97.520661" changeset="false"><tag k="addr:street" v="Walter Vaughn Dr"/><tag k="addr:housenumber" v="12110"/><tag k="addr:postcode" v="78653"/></node><node id="-490" lat="30.371155" lon="-97.520718" changeset="false"><tag k="addr:street" v="Walter Vaughn Dr"/><tag k="addr:housenumber" v="12113"/><tag k="addr:postcode" v="78653"/></node><node id="-491" lat="30.371012" lon="-97.520385" changeset="false"><tag k="addr:street" v="Walter Vaughn Dr"/><tag k="addr:housenumber" v="12119"/><tag k="addr:postcode" v="78653"/></node><node id="-492" lat="30.370829" lon="-97.520066" changeset="false"><tag k="addr:street" v="Walter Vaughn Dr"/><tag k="addr:housenumber" v="12203"/><tag k="addr:postcode" v="78653"/></node><node id="-493" lat="30.370646" lon="-97.519748" changeset="false"><tag k="addr:street" v="Walter Vaughn Dr"/><tag k="addr:housenumber" v="12209"/><tag k="addr:postcode" v="78653"/></node><node id="-494" lat="30.370489" lon="-97.520453" changeset="false"><tag k="addr:street" v="Timber Arch Ln"/><tag k="addr:housenumber" v="12116"/><tag k="addr:postcode" v="78653"/></node><node id="-495" lat="30.370428" lon="-97.520327" changeset="false"><tag k="addr:street" v="Timber Arch Ln"/><tag k="addr:housenumber" v="12200"/><tag k="addr:postcode" v="78653"/></node><node id="-496" lat="30.369798" lon="-97.520032" changeset="false"><tag k="addr:street" v="Timber Arch Ln"/><tag k="addr:housenumber" v="12211"/><tag k="addr:postcode" v="78653"/></node><node id="-497" lat="30.355252" lon="-97.512632" changeset="false"><tag k="addr:street" v="Nelson Houser Street"/><tag k="addr:housenumber" v="13608"/><tag k="addr:postcode" v="78653"/></node><node id="-498" lat="30.355102" lon="-97.512123" changeset="false"><tag k="addr:street" v="Nelson Houser Street"/><tag k="addr:housenumber" v="13617"/><tag k="addr:postcode" v="78653"/></node><node id="-499" lat="30.366377" lon="-97.525285" changeset="false"><tag k="addr:street" v="Tower Road"/><tag k="addr:housenumber" v="12202"/><tag k="addr:postcode" v="78653"/></node><node id="-500" lat="30.352241" lon="-97.511981" changeset="false"><tag k="addr:street" v="Wt Gallaway Street"/><tag k="addr:housenumber" v="19337"/><tag k="addr:postcode" v="78653"/></node><node id="-501" lat="30.352296" lon="-97.511824" changeset="false"><tag k="addr:street" v="Wt Gallaway Street"/><tag k="addr:housenumber" v="19341"/><tag k="addr:postcode" v="78653"/></node><node id="-502" lat="30.355648" lon="-97.512045" changeset="false"><tag k="addr:street" v="Nelson Houser Street"/><tag k="addr:housenumber" v="13700"/><tag k="addr:postcode" v="78653"/></node><node id="-503" lat="30.355954" lon="-97.511517" changeset="false"><tag k="addr:street" v="Nelson Houser Street"/><tag k="addr:housenumber" v="13716"/><tag k="addr:postcode" v="78653"/></node><node id="-504" lat="30.356017" lon="-97.511324" changeset="false"><tag k="addr:street" v="Nelson Houser Street"/><tag k="addr:housenumber" v="13720"/><tag k="addr:postcode" v="78653"/></node><node id="-505" lat="30.355878" lon="-97.51066" changeset="false"><tag k="addr:street" v="Nelson Houser Street"/><tag k="addr:housenumber" v="13809"/><tag k="addr:postcode" v="78653"/></node><node id="-506" lat="30.354998" lon="-97.511487" changeset="false"><tag k="addr:street" v="Smith Gin Street"/><tag k="addr:housenumber" v="19500"/><tag k="addr:postcode" v="78653"/></node><node id="-507" lat="30.355083" lon="-97.511394" changeset="false"><tag k="addr:street" v="Smith Gin Street"/><tag k="addr:housenumber" v="19504"/><tag k="addr:postcode" v="78653"/></node><node id="-508" lat="30.35551" lon="-97.51056" changeset="false"><tag k="addr:street" v="Smith Gin Street"/><tag k="addr:housenumber" v="19600"/><tag k="addr:postcode" v="78653"/></node><node id="-509" lat="30.354535" lon="-97.510669" changeset="false"><tag k="addr:street" v="James Manor Street"/><tag k="addr:housenumber" v="19508"/><tag k="addr:postcode" v="78653"/></node><node id="-510" lat="30.35406" lon="-97.510522" changeset="false"><tag k="addr:street" v="James Manor Street"/><tag k="addr:housenumber" v="19505"/><tag k="addr:postcode" v="78653"/></node><node id="-511" lat="30.354696" lon="-97.509289" changeset="false"><tag k="addr:street" v="James Manor Street"/><tag k="addr:housenumber" v="19617"/><tag k="addr:postcode" v="78653"/></node><node id="-512" lat="30.3537" lon="-97.510408" changeset="false"><tag k="addr:street" v="Wt Gallaway Street"/><tag k="addr:housenumber" v="19500"/><tag k="addr:postcode" v="78653"/></node><node id="-513" lat="30.353849" lon="-97.510193" changeset="false"><tag k="addr:street" v="Wt Gallaway Street"/><tag k="addr:housenumber" v="19508"/><tag k="addr:postcode" v="78653"/></node><node id="-514" lat="30.353419" lon="-97.510179" changeset="false"><tag k="addr:street" v="Wt Gallaway Street"/><tag k="addr:housenumber" v="19501"/><tag k="addr:postcode" v="78653"/></node><node id="-515" lat="30.353549" lon="-97.5099" changeset="false"><tag k="addr:street" v="Wt Gallaway Street"/><tag k="addr:housenumber" v="19509"/><tag k="addr:postcode" v="78653"/></node><node id="-516" lat="30.353782" lon="-97.50948" changeset="false"><tag k="addr:street" v="Wt Gallaway Street"/><tag k="addr:housenumber" v="19521"/><tag k="addr:postcode" v="78653"/></node><node id="-517" lat="30.354084" lon="-97.508866" changeset="false"><tag k="addr:street" v="Wt Gallaway Street"/><tag k="addr:housenumber" v="19613"/><tag k="addr:postcode" v="78653"/></node><node id="-518" lat="30.354228" lon="-97.508575" changeset="false"><tag k="addr:street" v="Wt Gallaway Street"/><tag k="addr:housenumber" v="19621"/><tag k="addr:postcode" v="78653"/></node><node id="-519" lat="30.354728" lon="-97.50852" changeset="false"><tag k="addr:street" v="Wt Gallaway Street"/><tag k="addr:housenumber" v="19700"/><tag k="addr:postcode" v="78653"/></node><node id="-520" lat="30.353241" lon="-97.513372" changeset="false"><tag k="addr:street" v="Nelson Houser Street"/><tag k="addr:housenumber" v="13309"/><tag k="addr:postcode" v="78653"/></node><node id="-521" lat="30.353081" lon="-97.512288" changeset="false"><tag k="addr:street" v="James Manor Street"/><tag k="addr:housenumber" v="19333"/><tag k="addr:postcode" v="78653"/></node><node id="-522" lat="30.352993" lon="-97.513396" changeset="false"><tag k="addr:street" v="Nelson Houser Street"/><tag k="addr:housenumber" v="13301"/><tag k="addr:postcode" v="78653"/></node><node id="-523" lat="30.369904" lon="-97.519365" changeset="false"><tag k="addr:street" v="Timber Arch Ln"/><tag k="addr:housenumber" v="12216 1/2"/><tag k="addr:postcode" v="78653"/></node><node id="-524" lat="30.353079" lon="-97.510576" changeset="false"><tag k="addr:street" v="Wt Gallaway Street"/><tag k="addr:housenumber" v="19425"/><tag k="addr:postcode" v="78653"/></node><node id="-525" lat="30.376242" lon="-97.518359" changeset="false"><tag k="addr:street" v="Johnson Road"/><tag k="addr:housenumber" v="12200"/><tag k="addr:postcode" v="78653"/></node><node id="-526" lat="30.355095" lon="-97.512917" changeset="false"><tag k="addr:street" v="Nelson Houser Street"/><tag k="addr:housenumber" v="13600"/><tag k="addr:postcode" v="78653"/></node><node id="-527" lat="30.355389" lon="-97.512367" changeset="false"><tag k="addr:street" v="Nelson Houser Street"/><tag k="addr:housenumber" v="13616"/><tag k="addr:postcode" v="78653"/></node><node id="-528" lat="30.355032" lon="-97.512257" changeset="false"><tag k="addr:street" v="Nelson Houser Street"/><tag k="addr:housenumber" v="13613"/><tag k="addr:postcode" v="78653"/></node><node id="-529" lat="30.369434" lon="-97.520217" changeset="false"><tag k="addr:street" v="Jamie Drive"/><tag k="addr:housenumber" v="12306"/><tag k="addr:postcode" v="78653"/></node><node id="-530" lat="30.35546" lon="-97.511484" changeset="false"><tag k="addr:street" v="Nelson Houser Street"/><tag k="addr:housenumber" v="13709"/><tag k="addr:postcode" v="78653"/></node><node id="-531" lat="30.35624" lon="-97.510983" changeset="false"><tag k="addr:street" v="Nelson Houser Street"/><tag k="addr:housenumber" v="13808"/><tag k="addr:postcode" v="78653"/></node><node id="-532" lat="30.356097" lon="-97.510261" changeset="false"><tag k="addr:street" v="Nelson Houser Street"/><tag k="addr:housenumber" v="13821"/><tag k="addr:postcode" v="78653"/></node><node id="-533" lat="30.35594" lon="-97.509742" changeset="false"><tag k="addr:street" v="Smith Gin Street"/><tag k="addr:housenumber" v="19624"/><tag k="addr:postcode" v="78653"/></node><node id="-534" lat="30.355028" lon="-97.509692" changeset="false"><tag k="addr:street" v="James Manor Street"/><tag k="addr:housenumber" v="19612"/><tag k="addr:postcode" v="78653"/></node><node id="-535" lat="30.355104" lon="-97.509559" changeset="false"><tag k="addr:street" v="James Manor Street"/><tag k="addr:housenumber" v="19616"/><tag k="addr:postcode" v="78653"/></node><node id="-536" lat="30.35517" lon="-97.509419" changeset="false"><tag k="addr:street" v="James Manor Street"/><tag k="addr:housenumber" v="19620"/><tag k="addr:postcode" v="78653"/></node><node id="-537" lat="30.354133" lon="-97.510392" changeset="false"><tag k="addr:street" v="James Manor Street"/><tag k="addr:housenumber" v="19509"/><tag k="addr:postcode" v="78653"/></node><node id="-538" lat="30.353914" lon="-97.510063" changeset="false"><tag k="addr:street" v="Wt Gallaway Street"/><tag k="addr:housenumber" v="19512"/><tag k="addr:postcode" v="78653"/></node><node id="-539" lat="30.3545" lon="-97.508971" changeset="false"><tag k="addr:street" v="Wt Gallaway Street"/><tag k="addr:housenumber" v="19620"/><tag k="addr:postcode" v="78653"/></node><node id="-540" lat="30.354387" lon="-97.508304" changeset="false"><tag k="addr:street" v="Wt Gallaway Street"/><tag k="addr:housenumber" v="19701"/><tag k="addr:postcode" v="78653"/></node><node id="-541" lat="30.37503" lon="-97.515754" changeset="false"><tag k="addr:street" v="Johnson Road"/><tag k="addr:housenumber" v="12311"/><tag k="addr:postcode" v="78653"/></node><node id="-542" lat="30.352705" lon="-97.513925" changeset="false"><tag k="addr:street" v="Nelson Houser Street"/><tag k="addr:housenumber" v="13228"/><tag k="addr:postcode" v="78653"/></node><node id="-543" lat="30.352459" lon="-97.513384" changeset="false"><tag k="addr:street" v="Nelson Houser Street"/><tag k="addr:housenumber" v="13217"/><tag k="addr:postcode" v="78653"/></node><node id="-544" lat="30.365917" lon="-97.521938" changeset="false"><tag k="addr:street" v="Stoneridge Gap Lane"/><tag k="addr:housenumber" v="12303"/><tag k="addr:postcode" v="78653"/></node><node id="-545" lat="30.366476" lon="-97.523139" changeset="false"><tag k="addr:street" v="Stoneridge Gap Lane"/><tag k="addr:housenumber" v="12207"/><tag k="addr:postcode" v="78653"/></node><node id="-546" lat="30.367681" lon="-97.519911" changeset="false"><tag k="addr:street" v="Cummins Way"/><tag k="addr:housenumber" v="14408"/><tag k="addr:postcode" v="78653"/></node><node id="-547" lat="30.353518" lon="-97.511599" changeset="false"><tag k="addr:street" v="James Manor Street"/><tag k="addr:housenumber" v="19417"/><tag k="addr:postcode" v="78653"/></node><node id="-548" lat="30.353591" lon="-97.511434" changeset="false"><tag k="addr:street" v="James Manor Street"/><tag k="addr:housenumber" v="19421"/><tag k="addr:postcode" v="78653"/></node><node id="-549" lat="30.366202" lon="-97.522544" changeset="false"><tag k="addr:street" v="Stoneridge Gap Lane"/><tag k="addr:housenumber" v="12217"/><tag k="addr:postcode" v="78653"/></node><node id="-550" lat="30.366273" lon="-97.523569" changeset="false"><tag k="addr:street" v="Waterford Run Way"/><tag k="addr:housenumber" v="12200"/><tag k="addr:postcode" v="78653"/></node><node id="-551" lat="30.365718" lon="-97.523451" changeset="false"><tag k="addr:street" v="Waterford Run Way"/><tag k="addr:housenumber" v="12207"/><tag k="addr:postcode" v="78653"/></node><node id="-552" lat="30.36603" lon="-97.523096" changeset="false"><tag k="addr:street" v="Waterford Run Way"/><tag k="addr:housenumber" v="12208"/><tag k="addr:postcode" v="78653"/></node><node id="-553" lat="30.354041" lon="-97.511473" changeset="false"><tag k="addr:street" v="James Manor Street"/><tag k="addr:housenumber" v="19428"/><tag k="addr:postcode" v="78653"/></node><node id="-554" lat="30.352779" lon="-97.512745" changeset="false"><tag k="addr:street" v="James Manor Street"/><tag k="addr:housenumber" v="19317"/><tag k="addr:postcode" v="78653"/></node><node id="-555" lat="30.365454" lon="-97.519798" changeset="false"><tag k="addr:street" v="Stoneridge Gap Lane"/><tag k="addr:housenumber" v="12412"/><tag k="addr:postcode" v="78653"/></node><node id="-556" lat="30.364146" lon="-97.520159" changeset="false"><tag k="addr:street" v="Stoneridge Gap Lane"/><tag k="addr:housenumber" v="12514"/><tag k="addr:postcode" v="78653"/></node><node id="-557" lat="30.364579" lon="-97.520908" changeset="false"><tag k="addr:street" v="Waterford Run Way"/><tag k="addr:housenumber" v="12411"/><tag k="addr:postcode" v="78653"/></node><node id="-558" lat="30.365413" lon="-97.519665" changeset="false"><tag k="addr:street" v="Stoneridge Gap Lane"/><tag k="addr:housenumber" v="12414"/><tag k="addr:postcode" v="78653"/></node><node id="-559" lat="30.352368" lon="-97.510799" changeset="false"><tag k="addr:street" v="Tayshas Street"/><tag k="addr:housenumber" v="19408"/><tag k="addr:postcode" v="78653"/></node><node id="-560" lat="30.35228" lon="-97.510023" changeset="false"><tag k="addr:street" v="Tayshas Street"/><tag k="addr:housenumber" v="19429"/><tag k="addr:postcode" v="78653"/></node><node id="-561" lat="30.352696" lon="-97.51211" changeset="false"><tag k="addr:street" v="Wt Gallaway Street"/><tag k="addr:housenumber" v="19332"/><tag k="addr:postcode" v="78653"/></node><node id="-562" lat="30.37533" lon="-97.515475" changeset="false"><tag k="addr:street" v="Johnson Road"/><tag k="addr:housenumber" v="12321"/><tag k="addr:postcode" v="78653"/></node><node id="-563" lat="30.378335" lon="-97.513803" changeset="false"><tag k="addr:street" v="Johnson Road"/><tag k="addr:housenumber" v="12401"/><tag k="addr:postcode" v="78653"/></node><node id="-564" lat="30.354005" lon="-97.513136" changeset="false"><tag k="addr:street" v="Smith Gin Street"/><tag k="addr:housenumber" v="19308"/><tag k="addr:postcode" v="78653"/></node><node id="-565" lat="30.353542" lon="-97.512404" changeset="false"><tag k="addr:street" v="James Manor Street"/><tag k="addr:housenumber" v="19400"/><tag k="addr:postcode" v="78653"/></node><node id="-566" lat="30.35223" lon="-97.512843" changeset="false"><tag k="addr:street" v="Wt Gallaway Street"/><tag k="addr:housenumber" v="19308"/><tag k="addr:postcode" v="78653"/></node><node id="-567" lat="30.352537" lon="-97.512365" changeset="false"><tag k="addr:street" v="Wt Gallaway Street"/><tag k="addr:housenumber" v="19324"/><tag k="addr:postcode" v="78653"/></node><node id="-568" lat="30.352376" lon="-97.509845" changeset="false"><tag k="addr:street" v="Tayshas Street"/><tag k="addr:housenumber" v="19433"/><tag k="addr:postcode" v="78653"/></node><node id="-569" lat="30.368974" lon="-97.517123" changeset="false"><tag k="addr:street" v="Joy Lee Lane"/><tag k="addr:housenumber" v="14603"/><tag k="addr:postcode" v="78653"/></node><node id="-570" lat="30.369364" lon="-97.516864" changeset="false"><tag k="addr:street" v="Joy Lee Lane"/><tag k="addr:housenumber" v="14611"/><tag k="addr:postcode" v="78653"/></node><node id="-571" lat="30.370485" lon="-97.516795" changeset="false"><tag k="addr:street" v="Joy Lee Lane"/><tag k="addr:housenumber" v="14714"/><tag k="addr:postcode" v="78653"/></node><node id="-572" lat="30.369397" lon="-97.519204" changeset="false"><tag k="addr:street" v="Timber Arch Ln"/><tag k="addr:housenumber" v="12303"/><tag k="addr:postcode" v="78653"/></node><node id="-573" lat="30.369181" lon="-97.518712" changeset="false"><tag k="addr:street" v="Timber Arch Ln"/><tag k="addr:housenumber" v="12311"/><tag k="addr:postcode" v="78653"/></node><node id="-574" lat="30.369478" lon="-97.518398" changeset="false"><tag k="addr:street" v="Timber Arch Ln"/><tag k="addr:housenumber" v="12400"/><tag k="addr:postcode" v="78653"/></node><node id="-575" lat="30.369157" lon="-97.518595" changeset="false"><tag k="addr:street" v="Timber Arch Ln"/><tag k="addr:housenumber" v="12401"/><tag k="addr:postcode" v="78653"/></node><node id="-576" lat="30.388776" lon="-97.52013" changeset="false"><tag k="addr:street" v="Schmidt Lane"/><tag k="addr:housenumber" v="15509"/><tag k="addr:postcode" v="78653"/></node><node id="-577" lat="30.36521" lon="-97.522217" changeset="false"><tag k="addr:street" v="Waterford Run Way"/><tag k="addr:housenumber" v="12305"/><tag k="addr:postcode" v="78653"/></node><node id="-578" lat="30.36488" lon="-97.52152" changeset="false"><tag k="addr:street" v="Waterford Run Way"/><tag k="addr:housenumber" v="12401"/><tag k="addr:postcode" v="78653"/></node><node id="-579" lat="30.392353" lon="-97.517902" changeset="false"><tag k="addr:street" v="Schmidt Lane"/><tag k="addr:housenumber" v="15637"/><tag k="addr:postcode" v="78653"/></node><node id="-580" lat="30.351593" lon="-97.51301" changeset="false"><tag k="addr:street" v="Wt Gallaway Street"/><tag k="addr:housenumber" v="19305"/><tag k="addr:postcode" v="78653"/></node><node id="-581" lat="30.351972" lon="-97.512615" changeset="false"><tag k="addr:street" v="Wt Gallaway Street"/><tag k="addr:housenumber" v="19317"/><tag k="addr:postcode" v="78653"/></node><node id="-582" lat="30.371319" lon="-97.521037" changeset="false"><tag k="addr:street" v="Walter Vaughn Dr"/><tag k="addr:housenumber" v="12107"/><tag k="addr:postcode" v="78653"/></node><node id="-583" lat="30.371591" lon="-97.52077" changeset="false"><tag k="addr:street" v="Walter Vaughn Dr"/><tag k="addr:housenumber" v="12108"/><tag k="addr:postcode" v="78653"/></node><node id="-584" lat="30.371475" lon="-97.520556" changeset="false"><tag k="addr:street" v="Walter Vaughn Dr"/><tag k="addr:housenumber" v="12112"/><tag k="addr:postcode" v="78653"/></node><node id="-585" lat="30.371295" lon="-97.520234" changeset="false"><tag k="addr:street" v="Walter Vaughn Dr"/><tag k="addr:housenumber" v="12118"/><tag k="addr:postcode" v="78653"/></node><node id="-586" lat="30.370896" lon="-97.520171" changeset="false"><tag k="addr:street" v="Walter Vaughn Dr"/><tag k="addr:housenumber" v="12201"/><tag k="addr:postcode" v="78653"/></node><node id="-587" lat="30.371033" lon="-97.51969" changeset="false"><tag k="addr:street" v="Walter Vaughn Dr"/><tag k="addr:housenumber" v="12206"/><tag k="addr:postcode" v="78653"/></node><node id="-588" lat="30.370735" lon="-97.519841" changeset="false"><tag k="addr:street" v="Walter Vaughn Dr"/><tag k="addr:housenumber" v="12207"/><tag k="addr:postcode" v="78653"/></node><node id="-589" lat="30.370677" lon="-97.520736" changeset="false"><tag k="addr:street" v="Timber Arch Ln"/><tag k="addr:housenumber" v="12110"/><tag k="addr:postcode" v="78653"/></node><node id="-590" lat="30.370286" lon="-97.520882" changeset="false"><tag k="addr:street" v="Timber Arch Ln"/><tag k="addr:housenumber" v="12111"/><tag k="addr:postcode" v="78653"/></node><node id="-591" lat="30.370556" lon="-97.520562" changeset="false"><tag k="addr:street" v="Timber Arch Ln"/><tag k="addr:housenumber" v="12114"/><tag k="addr:postcode" v="78653"/></node><node id="-592" lat="30.370157" lon="-97.519787" changeset="false"><tag k="addr:street" v="Timber Arch Ln"/><tag k="addr:housenumber" v="12210"/><tag k="addr:postcode" v="78653"/></node><node id="-593" lat="30.364275" lon="-97.492453" changeset="false"><tag k="addr:street" v="Old Kimbro Road"/><tag k="addr:housenumber" v="13356"/><tag k="addr:postcode" v="78653"/></node><node id="-594" lat="30.367081" lon="-97.475541" changeset="false"><tag k="addr:street" v="Farm-to-Market Road 1100"/><tag k="addr:housenumber" v="14014"/><tag k="addr:postcode" v="78653"/></node><node id="-595" lat="30.35264" lon="-97.514965" changeset="false"><tag k="addr:street" v="Cabinet Dr"/><tag k="addr:housenumber" v="13213"/><tag k="addr:postcode" v="78653"/></node><node id="-596" lat="30.404125" lon="-97.503947" changeset="false"><tag k="addr:street" v="New Sweden Church Road"/><tag k="addr:housenumber" v="11917"/><tag k="addr:postcode" v="78653"/></node><node id="-597" lat="30.368318" lon="-97.520641" changeset="false"><tag k="addr:street" v="Pebble Run Path"/><tag k="addr:housenumber" v="14416"/><tag k="addr:postcode" v="78653"/></node><node id="-598" lat="30.366926" lon="-97.525324" changeset="false"><tag k="addr:street" v="Tower Road"/><tag k="addr:housenumber" v="12200"/><tag k="addr:postcode" v="78653"/></node><node id="-599" lat="30.386477" lon="-97.521404" changeset="false"><tag k="addr:street" v="Schmidt Lane"/><tag k="addr:housenumber" v="15315"/><tag k="addr:postcode" v="78653"/></node><node id="-600" lat="30.361116" lon="-97.513475" changeset="false"><tag k="addr:street" v="Tower Road"/><tag k="addr:housenumber" v="13014"/><tag k="addr:postcode" v="78653"/></node><node id="-601" lat="30.356651" lon="-97.48417" changeset="false"><tag k="addr:street" v="Old Kimbro Road"/><tag k="addr:housenumber" v="13566"/><tag k="addr:postcode" v="78653"/></node><node id="-602" lat="30.371768" lon="-97.473537" changeset="false"><tag k="addr:street" v="Farm-to-Market Road 1100"/><tag k="addr:housenumber" v="14230"/><tag k="addr:postcode" v="78653"/></node><node id="-603" lat="30.365938" lon="-97.522875" changeset="false"><tag k="addr:street" v="Waterford Run Way"/><tag k="addr:housenumber" v="12212"/><tag k="addr:postcode" v="78653"/></node><node id="-604" lat="30.365614" lon="-97.521333" changeset="false"><tag k="addr:street" v="Stoneridge Gap Lane"/><tag k="addr:housenumber" v="12313"/><tag k="addr:postcode" v="78653"/></node><node id="-605" lat="30.353985" lon="-97.513353" changeset="false"><tag k="addr:street" v="Smith Gin Street"/><tag k="addr:housenumber" v="19300"/><tag k="addr:postcode" v="78653"/></node><node id="-606" lat="30.35191" lon="-97.511368" changeset="false"><tag k="addr:street" v="John Rector Street"/><tag k="addr:housenumber" v="13204"/><tag k="addr:postcode" v="78653"/></node><node id="-607" lat="30.352483" lon="-97.510688" changeset="false"><tag k="addr:street" v="Tayshas Street"/><tag k="addr:housenumber" v="19412"/><tag k="addr:postcode" v="78653"/></node><node id="-608" lat="30.366251" lon="-97.520823" changeset="false"><tag k="addr:street" v="Cummins Way"/><tag k="addr:housenumber" v="14306"/><tag k="addr:postcode" v="78653"/></node><node id="-609" lat="30.376126" lon="-97.527791" changeset="false"><tag k="addr:street" v="Farm-to-Market Road 973"/><tag k="addr:housenumber" v="14709"/><tag k="addr:postcode" v="78653"/></node><node id="-610" lat="30.374157" lon="-97.529188" changeset="false"><tag k="addr:street" v="Farm-to-Market Road 973"/><tag k="addr:housenumber" v="14605"/><tag k="addr:postcode" v="78653"/></node><node id="-611" lat="30.365327" lon="-97.521686" changeset="false"><tag k="addr:street" v="Waterford Run Way"/><tag k="addr:housenumber" v="12310"/><tag k="addr:postcode" v="78653"/></node><node id="-612" lat="30.354195" lon="-97.511957" changeset="false"><tag k="addr:street" v="Smith Gin Street"/><tag k="addr:housenumber" v="19413"/><tag k="addr:postcode" v="78653"/></node><node id="-613" lat="30.354519" lon="-97.512199" changeset="false"><tag k="addr:street" v="Smith Gin Street"/><tag k="addr:housenumber" v="19412"/><tag k="addr:postcode" v="78653"/></node><node id="-614" lat="30.35461" lon="-97.512068" changeset="false"><tag k="addr:street" v="Smith Gin Street"/><tag k="addr:housenumber" v="19416"/><tag k="addr:postcode" v="78653"/></node><node id="-615" lat="30.368718" lon="-97.52953" changeset="false"><tag k="addr:street" v="Suncrest Road"/><tag k="addr:housenumber" v="14211"/><tag k="addr:postcode" v="78653"/></node><node id="-616" lat="30.370021" lon="-97.518524" changeset="false"><tag k="addr:street" v="Walter Vaughn Dr"/><tag k="addr:housenumber" v="12307"/><tag k="addr:postcode" v="78653"/></node></osm>