<?xml version="1.0" encoding="UTF-8"?><osm version="0.6" generator="github.com/aaronlidman/osm-and-geojson"><node id="-1" lat="30.503486" lon="-97.740891" changeset="false"><tag k="addr:street" v="Paralee Cove"/><tag k="addr:housenumber" v="16410"/></node><node id="-2" lat="30.505682" lon="-97.739584" changeset="false"><tag k="addr:street" v="Lounsbury Place"/><tag k="addr:housenumber" v="16504"/></node><node id="-3" lat="30.496526" lon="-97.74388" changeset="false"><tag k="addr:street" v="Dorman Drive"/><tag k="addr:housenumber" v="15908"/></node><node id="-4" lat="30.505837" lon="-97.738713" changeset="false"><tag k="addr:street" v="Lounsbury Place"/><tag k="addr:housenumber" v="16501"/></node><node id="-5" lat="30.505348" lon="-97.739735" changeset="false"><tag k="addr:street" v="Lounsbury Place"/><tag k="addr:housenumber" v="16508"/></node><node id="-6" lat="30.505647" lon="-97.738766" changeset="false"><tag k="addr:street" v="Lounsbury Place"/><tag k="addr:housenumber" v="16503"/></node><node id="-7" lat="30.495785" lon="-97.743634" changeset="false"><tag k="addr:street" v="Dorman Drive"/><tag k="addr:housenumber" v="15903"/></node><node id="-8" lat="30.500153" lon="-97.742475" changeset="false"><tag k="addr:street" v="Grape Cove"/><tag k="addr:housenumber" v="8815"/></node><node id="-9" lat="30.496336" lon="-97.744664" changeset="false"><tag k="addr:street" v="Ruel Cove"/><tag k="addr:housenumber" v="15907"/></node><node id="-10" lat="30.497921" lon="-97.740742" changeset="false"><tag k="addr:street" v="Pepper Rock Drive"/><tag k="addr:housenumber" v="8609"/></node><node id="-11" lat="30.498354" lon="-97.742848" changeset="false"><tag k="addr:street" v="Fritsch Cove"/><tag k="addr:housenumber" v="16101"/></node><node id="-12" lat="30.496043" lon="-97.74363" changeset="false"><tag k="addr:street" v="Dorman Drive"/><tag k="addr:housenumber" v="15905"/></node><node id="-13" lat="30.50448" lon="-97.740102" changeset="false"><tag k="addr:street" v="Paralee Cove"/><tag k="addr:housenumber" v="16427"/></node><node id="-14" lat="30.505141" lon="-97.738986" changeset="false"><tag k="addr:street" v="Lounsbury Place"/><tag k="addr:housenumber" v="16509"/></node><node id="-15" lat="30.499391" lon="-97.744234" changeset="false"><tag k="addr:street" v="Rustic Lane"/><tag k="addr:housenumber" v="16109"/></node><node id="-16" lat="30.496507" lon="-97.740319" changeset="false"><tag k="addr:street" v="Chatham Wood Drive"/><tag k="addr:housenumber" v="15804"/></node><node id="-17" lat="30.505491" lon="-97.739641" changeset="false"><tag k="addr:street" v="Lounsbury Place"/><tag k="addr:housenumber" v="16506"/></node><node id="-18" lat="30.496624" lon="-97.740548" changeset="false"><tag k="addr:street" v="Chatham Wood Drive"/><tag k="addr:housenumber" v="15806"/></node><node id="-19" lat="30.494955" lon="-97.744589" changeset="false"><tag k="addr:street" v="Dorman Drive"/><tag k="addr:housenumber" v="15822"/></node><node id="-20" lat="30.496263" lon="-97.743989" changeset="false"><tag k="addr:street" v="Dorman Drive"/><tag k="addr:housenumber" v="15906"/></node><node id="-21" lat="30.495995" lon="-97.744172" changeset="false"><tag k="addr:street" v="Dorman Drive"/><tag k="addr:housenumber" v="15902"/></node><node id="-22" lat="30.498782" lon="-97.746906" changeset="false"><tag k="addr:street" v="Braesgate Cove"/><tag k="addr:housenumber" v="9000"/></node><node id="-23" lat="30.496726" lon="-97.741659" changeset="false"><tag k="addr:street" v="Chatham Wood Drive"/><tag k="addr:housenumber" v="15814"/></node><node id="-24" lat="30.503532" lon="-97.74001" changeset="false"><tag k="addr:street" v="Paralee Cove"/><tag k="addr:housenumber" v="16415"/></node><node id="-25" lat="30.498766" lon="-97.742544" changeset="false"><tag k="addr:street" v="Fritsch Cove"/><tag k="addr:housenumber" v="16107"/></node></osm>