<?xml version="1.0" encoding="UTF-8"?><osm version="0.6" generator="github.com/aaronlidman/osm-and-geojson"><node id="-1" lat="30.260805" lon="-97.770344" changeset="false"><tag k="addr:street" v="Robert E Lee Road"/><tag k="addr:housenumber" v="1007"/><tag k="addr:postcode" v="78704"/></node><node id="-2" lat="30.25833" lon="-97.770613" changeset="false"><tag k="addr:street" v="Bluebonnet Lane"/><tag k="addr:housenumber" v="1112"/><tag k="addr:postcode" v="78704"/></node><node id="-3" lat="30.257451" lon="-97.765568" changeset="false"><tag k="addr:street" v="Dexter Street"/><tag k="addr:housenumber" v="1604"/><tag k="addr:postcode" v="78704"/></node><node id="-4" lat="30.258144" lon="-97.768938" changeset="false"><tag k="addr:street" v="Margaret Street"/><tag k="addr:housenumber" v="1818"/><tag k="addr:postcode" v="78704"/></node><node id="-5" lat="30.255671" lon="-97.771056" changeset="false"><tag k="addr:street" v="Collier Street"/><tag k="addr:housenumber" v="1910"/><tag k="addr:postcode" v="78704"/></node><node id="-6" lat="30.256417" lon="-97.766273" changeset="false"><tag k="addr:street" v="Margaret Street"/><tag k="addr:housenumber" v="1607"/><tag k="addr:postcode" v="78704"/></node><node id="-7" lat="30.255969" lon="-97.769864" changeset="false"><tag k="addr:street" v="Ashby Avenue"/><tag k="addr:housenumber" v="1814"/><tag k="addr:postcode" v="78704"/></node><node id="-8" lat="30.254537" lon="-97.768171" changeset="false"><tag k="addr:street" v="Oxford Avenue"/><tag k="addr:housenumber" v="1502"/><tag k="addr:postcode" v="78704"/></node><node id="-9" lat="30.259463" lon="-97.771497" changeset="false"><tag k="addr:street" v="Robert E Lee Road"/><tag k="addr:housenumber" v="1121"/><tag k="addr:postcode" v="78704"/></node><node id="-10" lat="30.258209" lon="-97.771552" changeset="false"><tag k="addr:street" v="Melridge Place"/><tag k="addr:housenumber" v="2100"/><tag k="addr:postcode" v="78704"/></node><node id="-11" lat="30.253908" lon="-97.76857" changeset="false"><tag k="addr:street" v="Oxford Avenue"/><tag k="addr:housenumber" v="1512"/><tag k="addr:postcode" v="78704"/></node><node id="-12" lat="30.254053" lon="-97.768514" changeset="false"><tag k="addr:street" v="Oxford Avenue"/><tag k="addr:housenumber" v="1510"/><tag k="addr:postcode" v="78704"/></node><node id="-13" lat="30.254634" lon="-97.769268" changeset="false"><tag k="addr:street" v="Garner Avenue"/><tag k="addr:housenumber" v="1508"/><tag k="addr:postcode" v="78704"/></node><node id="-14" lat="30.254729" lon="-97.76921" changeset="false"><tag k="addr:street" v="Garner Avenue"/><tag k="addr:housenumber" v="1506"/><tag k="addr:postcode" v="78704"/></node></osm>