<?xml version="1.0" encoding="UTF-8"?><osm version="0.6" generator="github.com/aaronlidman/osm-and-geojson"><node id="-1" lat="30.240985" lon="-97.784404" changeset="false"><tag k="addr:street" v="South Lamar Boulevard"/><tag k="addr:housenumber" v="3107"/><tag k="coa:place_id" v="120308"/></node><node id="-2" lat="30.235721" lon="-97.785725" changeset="false"><tag k="addr:street" v="Byron Drive"/><tag k="addr:housenumber" v="3803"/><tag k="coa:place_id" v="3074063"/></node><node id="-3" lat="30.240573" lon="-97.785253" changeset="false"><tag k="addr:street" v="South Lamar Boulevard"/><tag k="addr:housenumber" v="3203"/><tag k="coa:place_id" v="247103"/></node><node id="-4" lat="30.236342" lon="-97.784361" changeset="false"><tag k="addr:street" v="Manchaca Road"/><tag k="addr:housenumber" v="3724"/><tag k="coa:place_id" v="244521"/></node><node id="-5" lat="30.240276" lon="-97.782669" changeset="false"><tag k="addr:street" v="Manchaca Road"/><tag k="addr:housenumber" v="3204"/><tag k="coa:place_id" v="641997"/></node><node id="-6" lat="30.235452" lon="-97.785128" changeset="false"><tag k="addr:street" v="Manchaca Road"/><tag k="addr:housenumber" v="3806"/><tag k="coa:place_id" v="868454"/></node><node id="-7" lat="30.237911" lon="-97.784069" changeset="false"><tag k="addr:street" v="Manchaca Road"/><tag k="addr:housenumber" v="3622"/><tag k="coa:place_id" v="137949"/></node><node id="-8" lat="30.243333" lon="-97.782546" changeset="false"><tag k="addr:street" v="South Lamar Boulevard"/><tag k="addr:housenumber" v="2917"/><tag k="coa:place_id" v="142112"/></node><node id="-9" lat="30.235758" lon="-97.784997" changeset="false"><tag k="addr:street" v="Manchaca Road"/><tag k="addr:housenumber" v="3802"/><tag k="coa:place_id" v="868442"/></node><node id="-10" lat="30.241613" lon="-97.78471" changeset="false"><tag k="addr:street" v="South Lamar Boulevard"/><tag k="addr:housenumber" v="3103"/><tag k="coa:place_id" v="120320"/></node><node id="-11" lat="30.239616" lon="-97.786588" changeset="false"><tag k="addr:street" v="South Lamar Boulevard"/><tag k="addr:housenumber" v="3503"/><tag k="coa:place_id" v="99585"/></node><node id="-12" lat="30.239441" lon="-97.787691" changeset="false"><tag k="addr:street" v="South Lamar Boulevard"/><tag k="addr:housenumber" v="3505"/><tag k="coa:place_id" v="708920"/></node><node id="-13" lat="30.240917" lon="-97.784495" changeset="false"><tag k="addr:street" v="South Lamar Boulevard"/><tag k="addr:housenumber" v="3109"/><tag k="coa:place_id" v="96309"/></node><node id="-14" lat="30.235594" lon="-97.786212" changeset="false"><tag k="addr:street" v="Byron Drive"/><tag k="addr:housenumber" v="3806"/><tag k="coa:place_id" v="868646"/></node><node id="-15" lat="30.240539" lon="-97.785309" changeset="false"><tag k="addr:street" v="South Lamar Boulevard"/><tag k="addr:housenumber" v="3205"/><tag k="coa:place_id" v="247104"/></node><node id="-16" lat="30.236469" lon="-97.784287" changeset="false"><tag k="addr:street" v="Manchaca Road"/><tag k="addr:housenumber" v="3710"/><tag k="coa:place_id" v="748119"/></node><node id="-17" lat="30.236409" lon="-97.791545" changeset="false"><tag k="addr:street" v="South Lamar Boulevard"/><tag k="addr:housenumber" v="3949"/><tag k="coa:place_id" v="406905"/></node><node id="-18" lat="30.235963" lon="-97.786281" changeset="false"><tag k="addr:street" v="Byron Drive"/><tag k="addr:housenumber" v="3802"/><tag k="coa:place_id" v="3074062"/></node><node id="-19" lat="30.240336" lon="-97.785507" changeset="false"><tag k="addr:street" v="South Lamar Boulevard"/><tag k="addr:housenumber" v="3323"/><tag k="coa:place_id" v="115763"/></node><node id="-20" lat="30.235029" lon="-97.790453" changeset="false"><tag k="addr:street" v="Victory Drive"/><tag k="addr:housenumber" v="4004"/><tag k="coa:place_id" v="671649"/></node><node id="-21" lat="30.239692" lon="-97.786519" changeset="false"><tag k="addr:street" v="South Lamar Boulevard"/><tag k="addr:housenumber" v="3501"/><tag k="coa:place_id" v="1025954"/></node><node id="-22" lat="30.233073" lon="-97.793582" changeset="false"><tag k="addr:street" v="West Ben White Boulevard"/><tag k="addr:housenumber" v="2414"/><tag k="coa:place_id" v="630453"/></node><node id="-23" lat="30.237282" lon="-97.784273" changeset="false"><tag k="addr:street" v="Manchaca Road"/><tag k="addr:housenumber" v="3628"/><tag k="coa:place_id" v="133203"/></node><node id="-24" lat="30.239916" lon="-97.782427" changeset="false"><tag k="addr:street" v="Manchaca Road"/><tag k="addr:housenumber" v="3300"/><tag k="coa:place_id" v="155033"/></node><node id="-25" lat="30.240876" lon="-97.785644" changeset="false"><tag k="addr:street" v="South Lamar Boulevard"/><tag k="addr:housenumber" v="3401"/><tag k="coa:place_id" v="120296"/></node><node id="-26" lat="30.240374" lon="-97.786399" changeset="false"><tag k="addr:street" v="South Lamar Boulevard"/><tag k="addr:housenumber" v="3425"/><tag k="coa:place_id" v="5072300"/></node><node id="-27" lat="30.241408" lon="-97.784953" changeset="false"><tag k="addr:street" v="South Lamar Boulevard"/><tag k="addr:housenumber" v="3121"/><tag k="coa:place_id" v="5063155"/></node><node id="-28" lat="30.235045" lon="-97.78778" changeset="false"><tag k="addr:street" v="Prather Lane"/><tag k="addr:housenumber" v="2108"/><tag k="coa:place_id" v="206886"/></node><node id="-29" lat="30.232821" lon="-97.792421" changeset="false"><tag k="addr:street" v="West Ben White Boulevard"/><tag k="addr:housenumber" v="2300"/><tag k="coa:place_id" v="329301"/></node><node id="-30" lat="30.235849" lon="-97.785684" changeset="false"><tag k="addr:street" v="Byron Drive"/><tag k="addr:housenumber" v="3801"/><tag k="coa:place_id" v="3074061"/></node><node id="-31" lat="30.238429" lon="-97.783439" changeset="false"><tag k="addr:street" v="Manchaca Road"/><tag k="addr:housenumber" v="3506"/><tag k="coa:place_id" v="623025"/></node><node id="-32" lat="30.235999" lon="-97.78753" changeset="false"><tag k="addr:street" v="Keats Drive"/><tag k="addr:housenumber" v="3808"/><tag k="coa:place_id" v="3225250"/></node><node id="-33" lat="30.243589" lon="-97.7818" changeset="false"><tag k="addr:street" v="South Lamar Boulevard"/><tag k="addr:housenumber" v="2801"/><tag k="coa:place_id" v="708944"/></node><node id="-34" lat="30.243509" lon="-97.781888" changeset="false"><tag k="addr:street" v="South Lamar Boulevard"/><tag k="addr:housenumber" v="2803"/><tag k="coa:place_id" v="142124"/></node><node id="-35" lat="30.24349" lon="-97.781975" changeset="false"><tag k="addr:street" v="South Lamar Boulevard"/><tag k="addr:housenumber" v="2805"/><tag k="coa:place_id" v="708938"/></node><node id="-36" lat="30.241492" lon="-97.784855" changeset="false"><tag k="addr:street" v="South Lamar Boulevard"/><tag k="addr:housenumber" v="3115"/><tag k="coa:place_id" v="5091188"/></node><node id="-37" lat="30.241545" lon="-97.784784" changeset="false"><tag k="addr:street" v="South Lamar Boulevard"/><tag k="addr:housenumber" v="3111"/><tag k="coa:place_id" v="5079282"/></node><node id="-38" lat="30.236235" lon="-97.784839" changeset="false"><tag k="addr:street" v="Manchaca Road"/><tag k="addr:housenumber" v="3714"/><tag k="coa:place_id" v="868430"/></node><node id="-39" lat="30.236233" lon="-97.78473" changeset="false"><tag k="addr:street" v="Manchaca Road"/><tag k="addr:housenumber" v="3712"/><tag k="coa:place_id" v="246285"/></node><node id="-40" lat="30.240475" lon="-97.786254" changeset="false"><tag k="addr:street" v="South Lamar Boulevard"/><tag k="addr:housenumber" v="3423"/><tag k="coa:place_id" v="5091186"/></node><node id="-41" lat="30.24055" lon="-97.786164" changeset="false"><tag k="addr:street" v="South Lamar Boulevard"/><tag k="addr:housenumber" v="3419"/><tag k="coa:place_id" v="5081592"/></node><node id="-42" lat="30.240512" lon="-97.786203" changeset="false"><tag k="addr:street" v="South Lamar Boulevard"/><tag k="addr:housenumber" v="3421"/><tag k="coa:place_id" v="5099730"/></node><node id="-43" lat="30.2407" lon="-97.785977" changeset="false"><tag k="addr:street" v="South Lamar Boulevard"/><tag k="addr:housenumber" v="3403"/><tag k="coa:place_id" v="5066454"/></node><node id="-44" lat="30.240639" lon="-97.786044" changeset="false"><tag k="addr:street" v="South Lamar Boulevard"/><tag k="addr:housenumber" v="3411"/><tag k="coa:place_id" v="120284"/></node><node id="-45" lat="30.236001" lon="-97.787057" changeset="false"><tag k="addr:street" v="Keats Drive"/><tag k="addr:housenumber" v="3807"/><tag k="coa:place_id" v="868688"/></node><node id="-46" lat="30.235835" lon="-97.78714" changeset="false"><tag k="addr:street" v="Wordsworth Drive"/><tag k="addr:housenumber" v="2108"/><tag k="coa:place_id" v="868694"/></node></osm>