<?xml version="1.0" encoding="UTF-8"?><osm version="0.6" generator="github.com/aaronlidman/osm-and-geojson"><node id="-1" lat="30.130066" lon="-97.622801" changeset="false"><tag k="addr:street" v="Larkdale Lane"/><tag k="addr:housenumber" v="14203"/></node><node id="-2" lat="30.129401" lon="-97.616515" changeset="false"><tag k="addr:street" v="Swiss Drive"/><tag k="addr:housenumber" v="14969"/></node><node id="-3" lat="30.126423" lon="-97.596176" changeset="false"><tag k="addr:street" v="Linden Road"/><tag k="addr:housenumber" v="8749"/></node><node id="-4" lat="30.123519" lon="-97.599173" changeset="false"><tag k="addr:street" v="Jacobson Road"/><tag k="addr:housenumber" v="16021"/></node><node id="-5" lat="30.120315" lon="-97.593543" changeset="false"><tag k="addr:street" v="Jacobson Road"/><tag k="addr:housenumber" v="16512"/></node><node id="-6" lat="30.131247" lon="-97.617148" changeset="false"><tag k="addr:street" v="Rhone Drive"/><tag k="addr:housenumber" v="14604"/></node><node id="-7" lat="30.129557" lon="-97.617341" changeset="false"><tag k="addr:street" v="Swiss Drive"/><tag k="addr:housenumber" v="14976"/></node><node id="-8" lat="30.130684" lon="-97.61694" changeset="false"><tag k="addr:street" v="Rhone Drive"/><tag k="addr:housenumber" v="14609"/></node><node id="-9" lat="30.130635" lon="-97.616074" changeset="false"><tag k="addr:street" v="Rhone Drive"/><tag k="addr:housenumber" v="14702"/></node><node id="-10" lat="30.13042" lon="-97.613163" changeset="false"><tag k="addr:street" v="Zurick Drive"/><tag k="addr:housenumber" v="14901"/></node><node id="-11" lat="30.111159" lon="-97.623338" changeset="false"><tag k="addr:street" v="Farm-to-Market Road 812"/><tag k="addr:housenumber" v="15010"/></node><node id="-12" lat="30.144431" lon="-97.613236" changeset="false"><tag k="addr:street" v="Fagerquist Road"/><tag k="addr:housenumber" v="14406"/></node><node id="-13" lat="30.135894" lon="-97.585533" changeset="false"><tag k="addr:street" v="Linden Road"/><tag k="addr:housenumber" v="8235"/></node><node id="-14" lat="30.130014" lon="-97.617886" changeset="false"><tag k="addr:street" v="Swiss Drive"/><tag k="addr:housenumber" v="14982"/></node><node id="-15" lat="30.123824" lon="-97.626212" changeset="false"><tag k="addr:street" v="Elroy Road"/><tag k="addr:housenumber" v="8827"/></node><node id="-16" lat="30.127293" lon="-97.62519" changeset="false"><tag k="addr:street" v="Elroy Road"/><tag k="addr:housenumber" v="8715"/></node><node id="-17" lat="30.139506" lon="-97.595063" changeset="false"><tag k="addr:street" v="Fagerquist Road"/><tag k="addr:housenumber" v="15623"/></node><node id="-18" lat="30.128212" lon="-97.617476" changeset="false"><tag k="addr:street" v="Plover Place"/><tag k="addr:housenumber" v="14422"/></node><node id="-19" lat="30.121364" lon="-97.634292" changeset="false"><tag k="addr:street" v="Elroy Road"/><tag k="addr:housenumber" v="9035"/></node><node id="-20" lat="30.129796" lon="-97.616721" changeset="false"><tag k="addr:street" v="Geneva Drive"/><tag k="addr:housenumber" v="14703"/></node><node id="-21" lat="30.129371" lon="-97.612571" changeset="false"><tag k="addr:street" v="Vevey Drive"/><tag k="addr:housenumber" v="14915 1/2"/></node><node id="-22" lat="30.129101" lon="-97.613809" changeset="false"><tag k="addr:street" v="Dobush Drive"/><tag k="addr:housenumber" v="14904"/></node><node id="-23" lat="30.134383" lon="-97.592611" changeset="false"><tag k="addr:street" v="Linden Loop"/><tag k="addr:housenumber" v="8313"/></node><node id="-24" lat="30.133959" lon="-97.622348" changeset="false"><tag k="addr:street" v="Elroy Road"/><tag k="addr:housenumber" v="8408"/></node><node id="-25" lat="30.130745" lon="-97.612976" changeset="false"><tag k="addr:street" v="Zurick Drive"/><tag k="addr:housenumber" v="14806"/></node><node id="-26" lat="30.130375" lon="-97.605551" changeset="false"><tag k="addr:street" v="Jacobson Road"/><tag k="addr:housenumber" v="15209"/></node><node id="-27" lat="30.127055" lon="-97.600592" changeset="false"><tag k="addr:street" v="Jacobson Road"/><tag k="addr:housenumber" v="15806"/></node><node id="-28" lat="30.133364" lon="-97.611772" changeset="false"><tag k="addr:street" v="Swiss Drive"/><tag k="addr:housenumber" v="14804"/></node><node id="-29" lat="30.13326" lon="-97.614204" changeset="false"><tag k="addr:street" v="Chalet Drive"/><tag k="addr:housenumber" v="14703"/></node><node id="-30" lat="30.13222" lon="-97.610279" changeset="false"><tag k="addr:street" v="Swiss Drive"/><tag k="addr:housenumber" v="14908"/></node><node id="-31" lat="30.131866" lon="-97.616842" changeset="false"><tag k="addr:street" v="Vevey Drive"/><tag k="addr:housenumber" v="14602"/></node><node id="-32" lat="30.131723" lon="-97.614912" changeset="false"><tag k="addr:street" v="Zurick Drive"/><tag k="addr:housenumber" v="14704"/></node><node id="-33" lat="30.132643" lon="-97.60963" changeset="false"><tag k="addr:street" v="Jacobson Road"/><tag k="addr:housenumber" v="15005"/></node><node id="-34" lat="30.137105" lon="-97.61897" changeset="false"><tag k="addr:street" v="Jacobson Road"/><tag k="addr:housenumber" v="14205"/></node><node id="-35" lat="30.134587" lon="-97.614411" changeset="false"><tag k="addr:street" v="Swiss Drive"/><tag k="addr:housenumber" v="15048"/></node><node id="-36" lat="30.134504" lon="-97.614206" changeset="false"><tag k="addr:street" v="Swiss Drive"/><tag k="addr:housenumber" v="15050"/></node><node id="-37" lat="30.129152" lon="-97.621601" changeset="false"><tag k="addr:street" v="Larkdale Lane"/><tag k="addr:housenumber" v="14307"/></node><node id="-38" lat="30.128328" lon="-97.612846" changeset="false"><tag k="addr:street" v="Dobush Drive"/><tag k="addr:housenumber" v="14916"/></node><node id="-39" lat="30.131038" lon="-97.616759" changeset="false"><tag k="addr:street" v="Rhone Drive"/><tag k="addr:housenumber" v="14608"/></node><node id="-40" lat="30.154648" lon="-97.593687" changeset="false"><tag k="addr:street" v="Pearce Lane"/><tag k="addr:housenumber" v="15107"/></node><node id="-41" lat="30.127554" lon="-97.614709" changeset="false"><tag k="addr:street" v="Swiss Drive"/><tag k="addr:housenumber" v="14957"/></node><node id="-42" lat="30.123796" lon="-97.631546" changeset="false"><tag k="addr:street" v="Elroy Road"/><tag k="addr:housenumber" v="8919"/></node><node id="-43" lat="30.126485" lon="-97.61868" changeset="false"><tag k="addr:street" v="Plover Place"/><tag k="addr:housenumber" v="14525"/></node><node id="-44" lat="30.124183" lon="-97.6391" changeset="false"><tag k="addr:street" v="Farm-to-Market Road 812"/><tag k="addr:housenumber" v="13506"/></node><node id="-45" lat="30.122243" lon="-97.633315" changeset="false"><tag k="addr:street" v="Elroy Road"/><tag k="addr:housenumber" v="9019"/></node><node id="-46" lat="30.12199" lon="-97.627911" changeset="false"><tag k="addr:street" v="Elroy Road"/><tag k="addr:housenumber" v="8933"/></node><node id="-47" lat="30.132947" lon="-97.611201" changeset="false"><tag k="addr:street" v="Swiss Drive"/><tag k="addr:housenumber" v="14900"/></node><node id="-48" lat="30.133586" lon="-97.611642" changeset="false"><tag k="addr:street" v="Jacobson Road"/><tag k="addr:housenumber" v="14805"/></node><node id="-49" lat="30.13356" lon="-97.612186" changeset="false"><tag k="addr:street" v="Swiss Drive"/><tag k="addr:housenumber" v="14802"/></node><node id="-50" lat="30.133586" lon="-97.615586" changeset="false"><tag k="addr:street" v="Swiss Drive"/><tag k="addr:housenumber" v="15032"/></node><node id="-51" lat="30.133323" lon="-97.614966" changeset="false"><tag k="addr:street" v="Alps Drive"/><tag k="addr:housenumber" v="14602"/></node><node id="-52" lat="30.133209" lon="-97.612441" changeset="false"><tag k="addr:street" v="Swiss Drive"/><tag k="addr:housenumber" v="14803"/></node><node id="-53" lat="30.134486" lon="-97.612223" changeset="false"><tag k="addr:street" v="Jacobson Road"/><tag k="addr:housenumber" v="14800"/></node><node id="-54" lat="30.128587" lon="-97.612989" changeset="false"><tag k="addr:street" v="Dobush Drive"/><tag k="addr:housenumber" v="14914"/></node><node id="-55" lat="30.120986" lon="-97.594873" changeset="false"><tag k="addr:street" v="Jacobson Road"/><tag k="addr:housenumber" v="16400"/></node><node id="-56" lat="30.134113" lon="-97.615241" changeset="false"><tag k="addr:street" v="Swiss Drive"/><tag k="addr:housenumber" v="15038"/></node><node id="-57" lat="30.120899" lon="-97.594226" changeset="false"><tag k="addr:street" v="Jacobson Road"/><tag k="addr:housenumber" v="16436"/></node><node id="-58" lat="30.119422" lon="-97.6319" changeset="false"><tag k="addr:street" v="Farm-to-Market Road 812"/><tag k="addr:housenumber" v="14108"/></node><node id="-59" lat="30.159082" lon="-97.622552" changeset="false"><tag k="addr:street" v="Kellam Road"/><tag k="addr:housenumber" v="6914"/></node><node id="-60" lat="30.158841" lon="-97.622183" changeset="false"><tag k="addr:street" v="Kellam Road"/><tag k="addr:housenumber" v="7000"/></node><node id="-61" lat="30.154892" lon="-97.620017" changeset="false"><tag k="addr:street" v="Kellam Road"/><tag k="addr:housenumber" v="7300"/></node><node id="-62" lat="30.129148" lon="-97.616887" changeset="false"><tag k="addr:street" v="Swiss Drive"/><tag k="addr:housenumber" v="14970"/></node><node id="-63" lat="30.13024" lon="-97.621302" changeset="false"><tag k="addr:street" v="Plover Place"/><tag k="addr:housenumber" v="14305"/></node><node id="-64" lat="30.13004" lon="-97.595021" changeset="false"><tag k="addr:street" v="Linden Road"/><tag k="addr:housenumber" v="8616"/></node><node id="-65" lat="30.147063" lon="-97.584641" changeset="false"><tag k="addr:street" v="Timber Hills Drive"/><tag k="addr:housenumber" v="7703"/></node><node id="-66" lat="30.125125" lon="-97.59749" changeset="false"><tag k="addr:street" v="Linden Road"/><tag k="addr:housenumber" v="8815"/></node><node id="-67" lat="30.123783" lon="-97.59846" changeset="false"><tag k="addr:street" v="Jacobson Road"/><tag k="addr:housenumber" v="16032"/></node><node id="-68" lat="30.123722" lon="-97.597874" changeset="false"><tag k="addr:street" v="Jacobson Road"/><tag k="addr:housenumber" v="16112"/></node><node id="-69" lat="30.130158" lon="-97.611105" changeset="false"><tag k="addr:street" v="Swiss Drive"/><tag k="addr:housenumber" v="14926"/></node><node id="-70" lat="30.141935" lon="-97.586779" changeset="false"><tag k="addr:street" v="Timber Hills Drive"/><tag k="addr:housenumber" v="7905"/></node><node id="-71" lat="30.136042" lon="-97.585279" changeset="false"><tag k="addr:street" v="Linden Road"/><tag k="addr:housenumber" v="8229"/></node><node id="-72" lat="30.13274" lon="-97.647938" changeset="false"><tag k="addr:street" v="Farm-to-Market Road 812"/><tag k="addr:housenumber" v="12600 1/2"/></node><node id="-73" lat="30.136525" lon="-97.579254" changeset="false"><tag k="addr:street" v="Fagerquist Road"/><tag k="addr:housenumber" v="16604"/></node><node id="-74" lat="30.135522" lon="-97.586298" changeset="false"><tag k="addr:street" v="Linden Road"/><tag k="addr:housenumber" v="8301"/></node><node id="-75" lat="30.126983" lon="-97.59375" changeset="false"><tag k="addr:street" v="Linden Road"/><tag k="addr:housenumber" v="8713"/></node><node id="-76" lat="30.14128" lon="-97.625828" changeset="false"><tag k="addr:street" v="Circuit of the Americas Boulevard"/><tag k="addr:housenumber" v="8111"/></node><node id="-77" lat="30.14709" lon="-97.583193" changeset="false"><tag k="addr:street" v="Timber Hills Drive"/><tag k="addr:housenumber" v="7605"/></node><node id="-78" lat="30.141057" lon="-97.625979" changeset="false"><tag k="addr:street" v="Circuit of the Americas Boulevard"/><tag k="addr:housenumber" v="8123"/></node><node id="-79" lat="30.132065" lon="-97.612073" changeset="false"><tag k="addr:street" v="Chalet Drive"/><tag k="addr:housenumber" v="14809"/></node><node id="-80" lat="30.12718" lon="-97.595497" changeset="false"><tag k="addr:street" v="Linden Road"/><tag k="addr:housenumber" v="8733"/></node><node id="-81" lat="30.122697" lon="-97.596553" changeset="false"><tag k="addr:street" v="Jacobson Road"/><tag k="addr:housenumber" v="16214"/></node><node id="-82" lat="30.139547" lon="-97.61871" changeset="false"><tag k="addr:street" v="Elroy Road"/><tag k="addr:housenumber" v="8032"/></node><node id="-83" lat="30.132665" lon="-97.611416" changeset="false"><tag k="addr:street" v="Swiss Drive"/><tag k="addr:housenumber" v="14901"/></node><node id="-84" lat="30.150827" lon="-97.587405" changeset="false"><tag k="addr:street" v="Pearce Lane"/><tag k="addr:housenumber" v="15701"/></node><node id="-85" lat="30.147887" lon="-97.585628" changeset="false"><tag k="addr:street" v="Timber Hills Drive"/><tag k="addr:housenumber" v="7608"/></node><node id="-86" lat="30.147451" lon="-97.587194" changeset="false"><tag k="addr:street" v="Forest Glenn Cove"/><tag k="addr:housenumber" v="15804"/></node><node id="-87" lat="30.13115" lon="-97.612217" changeset="false"><tag k="addr:street" v="Bern Drive"/><tag k="addr:housenumber" v="14902"/></node><node id="-88" lat="30.131062" lon="-97.617585" changeset="false"><tag k="addr:street" v="Rhone Drive"/><tag k="addr:housenumber" v="14603"/></node><node id="-89" lat="30.13014" lon="-97.613334" changeset="false"><tag k="addr:street" v="Vevey Drive"/><tag k="addr:housenumber" v="14900"/></node><node id="-90" lat="30.130457" lon="-97.618452" changeset="false"><tag k="addr:street" v="Swiss Drive"/><tag k="addr:housenumber" v="14988"/></node><node id="-91" lat="30.117105" lon="-97.630578" changeset="false"><tag k="addr:street" v="Farm-to-Market Road 812"/><tag k="addr:housenumber" v="14308"/></node><node id="-92" lat="30.134193" lon="-97.576412" changeset="false"><tag k="addr:street" v="Fagerquist Road"/><tag k="addr:housenumber" v="16900"/></node><node id="-93" lat="30.158625" lon="-97.624814" changeset="false"><tag k="addr:street" v="Kellam Road"/><tag k="addr:housenumber" v="6901"/></node><node id="-94" lat="30.121202" lon="-97.628889" changeset="false"><tag k="addr:street" v="Elroy Road"/><tag k="addr:housenumber" v="8957"/></node><node id="-95" lat="30.132469" lon="-97.614135" changeset="false"><tag k="addr:street" v="Alps Drive"/><tag k="addr:housenumber" v="14707"/></node><node id="-96" lat="30.139677" lon="-97.61742" changeset="false"><tag k="addr:street" v="Elroy Road"/><tag k="addr:housenumber" v="8027"/></node><node id="-97" lat="30.137888" lon="-97.618426" changeset="false"><tag k="addr:street" v="Elroy Road"/><tag k="addr:housenumber" v="8205"/></node><node id="-98" lat="30.134942" lon="-97.614359" changeset="false"><tag k="addr:street" v="Jacobson Road"/><tag k="addr:housenumber" v="14603"/></node><node id="-99" lat="30.129416" lon="-97.617155" changeset="false"><tag k="addr:street" v="Swiss Drive"/><tag k="addr:housenumber" v="14974"/></node><node id="-100" lat="30.129333" lon="-97.618986" changeset="false"><tag k="addr:street" v="Plover Place"/><tag k="addr:housenumber" v="14408"/></node><node id="-101" lat="30.10868" lon="-97.620505" changeset="false"><tag k="addr:street" v="Farm-to-Market Road 812"/><tag k="addr:housenumber" v="15300"/></node><node id="-102" lat="30.123895" lon="-97.638769" changeset="false"><tag k="addr:street" v="Farm-to-Market Road 812"/><tag k="addr:housenumber" v="13512"/></node><node id="-103" lat="30.128513" lon="-97.601901" changeset="false"><tag k="addr:street" v="Jacobson Road"/><tag k="addr:housenumber" v="15704"/></node><node id="-104" lat="30.127487" lon="-97.599702" changeset="false"><tag k="addr:street" v="Jacobson Road"/><tag k="addr:housenumber" v="15804"/></node><node id="-105" lat="30.131772" lon="-97.593417" changeset="false"><tag k="addr:street" v="Linden Loop"/><tag k="addr:housenumber" v="8504"/></node><node id="-106" lat="30.127485" lon="-97.613802" changeset="false"><tag k="addr:street" v="Lucerne Drive"/><tag k="addr:housenumber" v="14907"/></node><node id="-107" lat="30.127357" lon="-97.6144" changeset="false"><tag k="addr:street" v="Swiss Drive"/><tag k="addr:housenumber" v="14955"/></node><node id="-108" lat="30.134396" lon="-97.594664" changeset="false"><tag k="addr:street" v="Linden Loop"/><tag k="addr:housenumber" v="8404"/></node><node id="-109" lat="30.130192" lon="-97.615951" changeset="false"><tag k="addr:street" v="Rhone Drive"/><tag k="addr:housenumber" v="14707"/></node><node id="-110" lat="30.131639" lon="-97.618031" changeset="false"><tag k="addr:street" v="Swiss Drive"/><tag k="addr:housenumber" v="15000"/></node><node id="-111" lat="30.140468" lon="-97.584231" changeset="false"><tag k="addr:street" v="Linden Road"/><tag k="addr:housenumber" v="8008"/></node><node id="-112" lat="30.127165" lon="-97.614152" changeset="false"><tag k="addr:street" v="Swiss Drive"/><tag k="addr:housenumber" v="14953"/></node><node id="-113" lat="30.124094" lon="-97.614852" changeset="false"><tag k="addr:street" v="Plover Place"/><tag k="addr:housenumber" v="14632"/></node><node id="-114" lat="30.125139" lon="-97.640255" changeset="false"><tag k="addr:street" v="Farm-to-Market Road 812"/><tag k="addr:housenumber" v="13402"/></node><node id="-115" lat="30.131495" lon="-97.612158" changeset="false"><tag k="addr:street" v="Alps Drive"/><tag k="addr:housenumber" v="14903"/></node><node id="-116" lat="30.136162" lon="-97.616639" changeset="false"><tag k="addr:street" v="Jacobson Road"/><tag k="addr:housenumber" v="14415"/></node><node id="-117" lat="30.135203" lon="-97.617837" changeset="false"><tag k="addr:street" v="Jacobson Road"/><tag k="addr:housenumber" v="14401"/></node><node id="-118" lat="30.128654" lon="-97.614402" changeset="false"><tag k="addr:street" v="Dobush Drive"/><tag k="addr:housenumber" v="14901"/></node><node id="-119" lat="30.128186" lon="-97.613538" changeset="false"><tag k="addr:street" v="Dobush Drive"/><tag k="addr:housenumber" v="14905"/></node><node id="-120" lat="30.142521" lon="-97.569948" changeset="false"><tag k="addr:street" v="Pearce Lane"/><tag k="addr:housenumber" v="17203"/></node><node id="-121" lat="30.131313" lon="-97.611853" changeset="false"><tag k="addr:street" v="Alps Drive"/><tag k="addr:housenumber" v="14905"/></node><node id="-122" lat="30.130866" lon="-97.615786" changeset="false"><tag k="addr:street" v="Vevey Drive"/><tag k="addr:housenumber" v="14703"/></node><node id="-123" lat="30.131006" lon="-97.623443" changeset="false"><tag k="addr:street" v="Elroy Road"/><tag k="addr:housenumber" v="8504"/></node><node id="-124" lat="30.130772" lon="-97.616313" changeset="false"><tag k="addr:street" v="Rhone Drive"/><tag k="addr:housenumber" v="14700"/></node><node id="-125" lat="30.14249" lon="-97.619256" changeset="false"><tag k="addr:street" v="Elroy Road"/><tag k="addr:housenumber" v="7900"/></node><node id="-126" lat="30.129678" lon="-97.59266" changeset="false"><tag k="addr:street" v="Linden Road"/><tag k="addr:housenumber" v="8601"/></node><node id="-127" lat="30.130324" lon="-97.618257" changeset="false"><tag k="addr:street" v="Swiss Drive"/><tag k="addr:housenumber" v="14986"/></node><node id="-128" lat="30.130222" lon="-97.614474" changeset="false"><tag k="addr:street" v="Vevey Drive"/><tag k="addr:housenumber" v="14805"/></node><node id="-129" lat="30.129854" lon="-97.611995" changeset="false"><tag k="addr:street" v="Zurick Drive"/><tag k="addr:housenumber" v="14907"/></node><node id="-130" lat="30.148178" lon="-97.624585" changeset="false"><tag k="addr:street" v="Kellam Road"/><tag k="addr:housenumber" v="7720 1/2"/></node><node id="-131" lat="30.153965" lon="-97.596778" changeset="false"><tag k="addr:street" v="Pearce Lane"/><tag k="addr:housenumber" v="14937"/></node><node id="-132" lat="30.123597" lon="-97.632502" changeset="false"><tag k="addr:street" v="Elroy Road"/><tag k="addr:housenumber" v="8996"/></node><node id="-133" lat="30.126272" lon="-97.596385" changeset="false"><tag k="addr:street" v="Linden Road"/><tag k="addr:housenumber" v="8751"/></node><node id="-134" lat="30.125543" lon="-97.599858" changeset="false"><tag k="addr:street" v="Jacobson Road"/><tag k="addr:housenumber" v="15900"/></node><node id="-135" lat="30.123445" lon="-97.600433" changeset="false"><tag k="addr:street" v="Jacobson Road"/><tag k="addr:housenumber" v="16005"/></node><node id="-136" lat="30.144168" lon="-97.585467" changeset="false"><tag k="addr:street" v="Timber Hills Drive"/><tag k="addr:housenumber" v="7801"/></node><node id="-137" lat="30.143308" lon="-97.585767" changeset="false"><tag k="addr:street" v="Timber Hills Drive"/><tag k="addr:housenumber" v="7805"/></node><node id="-138" lat="30.138401" lon="-97.596387" changeset="false"><tag k="addr:street" v="Fagerquist Road"/><tag k="addr:housenumber" v="15515"/></node><node id="-139" lat="30.131378" lon="-97.622487" changeset="false"><tag k="addr:street" v="Plover Place"/><tag k="addr:housenumber" v="14201"/></node><node id="-140" lat="30.127117" lon="-97.625634" changeset="false"><tag k="addr:street" v="Elroy Road"/><tag k="addr:housenumber" v="8721"/></node><node id="-141" lat="30.146492" lon="-97.58866" changeset="false"><tag k="addr:street" v="Forest Glenn Cove"/><tag k="addr:housenumber" v="15701"/></node><node id="-142" lat="30.14163" lon="-97.590346" changeset="false"><tag k="addr:street" v="Fagerquist Road"/><tag k="addr:housenumber" v="15900"/></node><node id="-143" lat="30.131864" lon="-97.622389" changeset="false"><tag k="addr:street" v="Elroy Road"/><tag k="addr:housenumber" v="8423"/></node><node id="-144" lat="30.146308" lon="-97.587028" changeset="false"><tag k="addr:street" v="Timber Hills Drive"/><tag k="addr:housenumber" v="7702"/></node><node id="-145" lat="30.136542" lon="-97.590983" changeset="false"><tag k="addr:street" v="Linden Loop"/><tag k="addr:housenumber" v="8209"/></node><node id="-146" lat="30.13167" lon="-97.610539" changeset="false"><tag k="addr:street" v="Swiss Drive"/><tag k="addr:housenumber" v="14914"/></node><node id="-147" lat="30.120537" lon="-97.634664" changeset="false"><tag k="addr:street" v="Farm-to-Market Road 812"/><tag k="addr:housenumber" v="14004"/></node><node id="-148" lat="30.111152" lon="-97.623859" changeset="false"><tag k="addr:street" v="Farm-to-Market Road 812"/><tag k="addr:housenumber" v="15008"/></node><node id="-149" lat="30.124825" lon="-97.616246" changeset="false"><tag k="addr:street" v="Plover Place"/><tag k="addr:housenumber" v="14610"/></node><node id="-150" lat="30.129633" lon="-97.623787" changeset="false"><tag k="addr:street" v="Elroy Road"/><tag k="addr:housenumber" v="8601"/></node><node id="-151" lat="30.137639" lon="-97.638138" changeset="false"><tag k="addr:street" v="Circuit of the Americas Boulevard"/><tag k="addr:housenumber" v="9021 1/2"/></node><node id="-152" lat="30.120969" lon="-97.625622" changeset="false"><tag k="addr:street" v="Elroy Road"/><tag k="addr:housenumber" v="8931"/></node><node id="-153" lat="30.162639" lon="-97.61046" changeset="false"><tag k="addr:street" v="Pearce Lane"/><tag k="addr:housenumber" v="14101"/></node><node id="-154" lat="30.143391" lon="-97.579674" changeset="false"><tag k="addr:street" v="Linden Road"/><tag k="addr:housenumber" v="7903"/></node><node id="-155" lat="30.131374" lon="-97.617341" changeset="false"><tag k="addr:street" v="Rhone Drive"/><tag k="addr:housenumber" v="14602"/></node><node id="-156" lat="30.127098" lon="-97.625341" changeset="false"><tag k="addr:street" v="Elroy Road"/><tag k="addr:housenumber" v="8719"/></node><node id="-157" lat="30.135074" lon="-97.581695" changeset="false"><tag k="addr:street" v="Fagerquist Road"/><tag k="addr:housenumber" v="16607"/></node><node id="-158" lat="30.126394" lon="-97.613979" changeset="false"><tag k="addr:street" v="Swiss Drive"/><tag k="addr:housenumber" v="14948"/></node><node id="-159" lat="30.139001" lon="-97.573252" changeset="false"><tag k="addr:street" v="Hayride Circle"/><tag k="addr:housenumber" v="17007"/></node><node id="-160" lat="30.132481" lon="-97.611055" changeset="false"><tag k="addr:street" v="Swiss Drive"/><tag k="addr:housenumber" v="14903"/></node><node id="-161" lat="30.120942" lon="-97.626665" changeset="false"><tag k="addr:street" v="Elroy Road"/><tag k="addr:housenumber" v="8945"/></node><node id="-162" lat="30.1321" lon="-97.616652" changeset="false"><tag k="addr:street" v="Swiss Drive"/><tag k="addr:housenumber" v="15017"/></node><node id="-163" lat="30.124734" lon="-97.598127" changeset="false"><tag k="addr:street" v="Linden Road"/><tag k="addr:housenumber" v="8827"/></node><node id="-164" lat="30.122399" lon="-97.596206" changeset="false"><tag k="addr:street" v="Jacobson Road"/><tag k="addr:housenumber" v="16222"/></node><node id="-165" lat="30.134321" lon="-97.613769" changeset="false"><tag k="addr:street" v="Swiss Drive"/><tag k="addr:housenumber" v="15054"/></node><node id="-166" lat="30.14004" lon="-97.604511" changeset="false"><tag k="addr:street" v="Fagerquist Road"/><tag k="addr:housenumber" v="15038"/></node><node id="-167" lat="30.139424" lon="-97.595161" changeset="false"><tag k="addr:street" v="Fagerquist Road"/><tag k="addr:housenumber" v="15615"/></node><node id="-168" lat="30.130735" lon="-97.624048" changeset="false"><tag k="addr:street" v="Elroy Road"/><tag k="addr:housenumber" v="8510"/></node><node id="-169" lat="30.128509" lon="-97.614913" changeset="false"><tag k="addr:street" v="Lucerne Drive"/><tag k="addr:housenumber" v="14802"/></node><node id="-170" lat="30.132776" lon="-97.609973" changeset="false"><tag k="addr:street" v="Jacobson Road"/><tag k="addr:housenumber" v="15003"/></node><node id="-171" lat="30.141837" lon="-97.59208" changeset="false"><tag k="addr:street" v="Fagerquist Road"/><tag k="addr:housenumber" v="15722"/></node><node id="-172" lat="30.130047" lon="-97.612362" changeset="false"><tag k="addr:street" v="Zurick Drive"/><tag k="addr:housenumber" v="14905"/></node><node id="-173" lat="30.133073" lon="-97.614328" changeset="false"><tag k="addr:street" v="Alps Drive"/><tag k="addr:housenumber" v="14702"/></node><node id="-174" lat="30.13166" lon="-97.61249" changeset="false"><tag k="addr:street" v="Alps Drive"/><tag k="addr:housenumber" v="14901"/></node><node id="-175" lat="30.129238" lon="-97.615619" changeset="false"><tag k="addr:street" v="Dobush Drive"/><tag k="addr:housenumber" v="14801"/></node><node id="-176" lat="30.127424" lon="-97.612901" changeset="false"><tag k="addr:street" v="Swiss Drive"/><tag k="addr:housenumber" v="14940"/></node><node id="-177" lat="30.124826" lon="-97.631366" changeset="false"><tag k="addr:street" v="Elroy Road"/><tag k="addr:housenumber" v="8980"/></node><node id="-178" lat="30.122393" lon="-97.633454" changeset="false"><tag k="addr:street" v="Elroy Road"/><tag k="addr:housenumber" v="9018"/></node><node id="-179" lat="30.141133" lon="-97.575585" changeset="false"><tag k="addr:street" v="Hayride Circle"/><tag k="addr:housenumber" v="16903"/></node><node id="-180" lat="30.132499" lon="-97.615904" changeset="false"><tag k="addr:street" v="Bern Drive"/><tag k="addr:housenumber" v="14601"/></node><node id="-181" lat="30.13149" lon="-97.613689" changeset="false"><tag k="addr:street" v="Bern Drive"/><tag k="addr:housenumber" v="14803"/></node><node id="-182" lat="30.137624" lon="-97.617965" changeset="false"><tag k="addr:street" v="Jacobson Road"/><tag k="addr:housenumber" v="14208"/></node><node id="-183" lat="30.129809" lon="-97.613843" changeset="false"><tag k="addr:street" v="Vevey Drive"/><tag k="addr:housenumber" v="14813"/></node><node id="-184" lat="30.13295" lon="-97.610268" changeset="false"><tag k="addr:street" v="Jacobson Road"/><tag k="addr:housenumber" v="15001"/></node><node id="-185" lat="30.123967" lon="-97.632022" changeset="false"><tag k="addr:street" v="Elroy Road"/><tag k="addr:housenumber" v="8988"/></node><node id="-186" lat="30.130938" lon="-97.617384" changeset="false"><tag k="addr:street" v="Rhone Drive"/><tag k="addr:housenumber" v="14605"/></node><node id="-187" lat="30.15046" lon="-97.586697" changeset="false"><tag k="addr:street" v="Pearce Lane"/><tag k="addr:housenumber" v="15705"/></node><node id="-188" lat="30.117693" lon="-97.631521" changeset="false"><tag k="addr:street" v="Farm-to-Market Road 812"/><tag k="addr:housenumber" v="14306"/></node><node id="-189" lat="30.130146" lon="-97.618102" changeset="false"><tag k="addr:street" v="Swiss Drive"/><tag k="addr:housenumber" v="14984"/></node><node id="-190" lat="30.134368" lon="-97.61325" changeset="false"><tag k="addr:street" v="Jacobson Road"/><tag k="addr:housenumber" v="14705"/></node><node id="-191" lat="30.131728" lon="-97.617293" changeset="false"><tag k="addr:street" v="Vevey Drive"/><tag k="addr:housenumber" v="14601"/></node><node id="-192" lat="30.120559" lon="-97.595475" changeset="false"><tag k="addr:street" v="Jacobson Road"/><tag k="addr:housenumber" v="16401"/></node><node id="-193" lat="30.121508" lon="-97.634151" changeset="false"><tag k="addr:street" v="Elroy Road"/><tag k="addr:housenumber" v="9031"/></node><node id="-194" lat="30.134453" lon="-97.615012" changeset="false"><tag k="addr:street" v="Swiss Drive"/><tag k="addr:housenumber" v="15042"/></node><node id="-195" lat="30.133383" lon="-97.613533" changeset="false"><tag k="addr:street" v="Chalet Drive"/><tag k="addr:housenumber" v="14706"/></node><node id="-196" lat="30.149583" lon="-97.631677" changeset="false"><tag k="addr:street" v="Elroy Road"/><tag k="addr:housenumber" v="7526"/></node><node id="-197" lat="30.129281" lon="-97.612385" changeset="false"><tag k="addr:street" v="Vevey Drive"/><tag k="addr:housenumber" v="14917"/></node><node id="-198" lat="30.129217" lon="-97.616272" changeset="false"><tag k="addr:street" v="Swiss Drive"/><tag k="addr:housenumber" v="14967"/></node><node id="-199" lat="30.124584" lon="-97.600099" changeset="false"><tag k="addr:street" v="Jacobson Road"/><tag k="addr:housenumber" v="15915"/></node><node id="-200" lat="30.12834" lon="-97.594019" changeset="false"><tag k="addr:street" v="Linden Road"/><tag k="addr:housenumber" v="8629"/></node><node id="-201" lat="30.124983" lon="-97.597661" changeset="false"><tag k="addr:street" v="Linden Road"/><tag k="addr:housenumber" v="8819"/></node><node id="-202" lat="30.124852" lon="-97.597838" changeset="false"><tag k="addr:street" v="Linden Road"/><tag k="addr:housenumber" v="8823"/></node><node id="-203" lat="30.133471" lon="-97.622968" changeset="false"><tag k="addr:street" v="Elroy Road"/><tag k="addr:housenumber" v="8420"/></node><node id="-204" lat="30.130228" lon="-97.612756" changeset="false"><tag k="addr:street" v="Zurick Drive"/><tag k="addr:housenumber" v="14903"/></node><node id="-205" lat="30.137263" lon="-97.592454" changeset="false"><tag k="addr:street" v="Linden Loop"/><tag k="addr:housenumber" v="8210"/></node><node id="-206" lat="30.149531" lon="-97.585839" changeset="false"><tag k="addr:street" v="Timber Hills Drive"/><tag k="addr:housenumber" v="7600"/></node><node id="-207" lat="30.125121" lon="-97.626755" changeset="false"><tag k="addr:street" v="Elroy Road"/><tag k="addr:housenumber" v="8815"/></node><node id="-208" lat="30.128756" lon="-97.62429" changeset="false"><tag k="addr:street" v="Elroy Road"/><tag k="addr:housenumber" v="8605"/></node><node id="-209" lat="30.133625" lon="-97.61408" changeset="false"><tag k="addr:street" v="Chalet Drive"/><tag k="addr:housenumber" v="14917"/></node><node id="-210" lat="30.153536" lon="-97.591643" changeset="false"><tag k="addr:street" v="Pearce Lane"/><tag k="addr:housenumber" v="15201"/></node><node id="-211" lat="30.129924" lon="-97.613974" changeset="false"><tag k="addr:street" v="Vevey Drive"/><tag k="addr:housenumber" v="14811"/></node><node id="-212" lat="30.129456" lon="-97.613038" changeset="false"><tag k="addr:street" v="Vevey Drive"/><tag k="addr:housenumber" v="14909"/></node><node id="-213" lat="30.117906" lon="-97.63149" changeset="false"><tag k="addr:street" v="Farm-to-Market Road 812"/><tag k="addr:housenumber" v="14216"/></node><node id="-214" lat="30.147912" lon="-97.589065" changeset="false"><tag k="addr:street" v="Forest Glenn Cove"/><tag k="addr:housenumber" v="15700"/></node><node id="-215" lat="30.155807" lon="-97.619212" changeset="false"><tag k="addr:street" v="Kellam Road"/><tag k="addr:housenumber" v="7200"/></node><node id="-216" lat="30.153796" lon="-97.621593" changeset="false"><tag k="addr:street" v="Kellam Road"/><tag k="addr:housenumber" v="7400"/></node><node id="-217" lat="30.131279" lon="-97.613231" changeset="false"><tag k="addr:street" v="Bern Drive"/><tag k="addr:housenumber" v="14805"/></node><node id="-218" lat="30.129603" lon="-97.612107" changeset="false"><tag k="addr:street" v="Vevey Drive"/><tag k="addr:housenumber" v="14906"/></node><node id="-219" lat="30.115568" lon="-97.628639" changeset="false"><tag k="addr:street" v="Farm-to-Market Road 812"/><tag k="addr:housenumber" v="14512"/></node><node id="-220" lat="30.130075" lon="-97.592196" changeset="false"><tag k="addr:street" v="Linden Road"/><tag k="addr:housenumber" v="8527"/></node><node id="-221" lat="30.123501" lon="-97.597649" changeset="false"><tag k="addr:street" v="Jacobson Road"/><tag k="addr:housenumber" v="16116"/></node><node id="-222" lat="30.132985" lon="-97.612017" changeset="false"><tag k="addr:street" v="Swiss Drive"/><tag k="addr:housenumber" v="14805"/></node><node id="-223" lat="30.133352" lon="-97.614414" changeset="false"><tag k="addr:street" v="Chalet Drive"/><tag k="addr:housenumber" v="14701"/></node><node id="-224" lat="30.131726" lon="-97.613411" changeset="false"><tag k="addr:street" v="Bern Drive"/><tag k="addr:housenumber" v="14802"/></node><node id="-225" lat="30.121441" lon="-97.634668" changeset="false"><tag k="addr:street" v="Elroy Road"/><tag k="addr:housenumber" v="9040"/></node><node id="-226" lat="30.140967" lon="-97.57336" changeset="false"><tag k="addr:street" v="Hayride Circle"/><tag k="addr:housenumber" v="17004"/></node><node id="-227" lat="30.120355" lon="-97.626765" changeset="false"><tag k="addr:street" v="Elroy Road"/><tag k="addr:housenumber" v="8949"/></node><node id="-228" lat="30.146278" lon="-97.620325" changeset="false"><tag k="addr:street" v="Kellam Road"/><tag k="addr:housenumber" v="7721 1/2"/></node><node id="-229" lat="30.131896" lon="-97.610582" changeset="false"><tag k="addr:street" v="Swiss Drive"/><tag k="addr:housenumber" v="14912"/></node><node id="-230" lat="30.133462" lon="-97.589451" changeset="false"><tag k="addr:street" v="Linden Road"/><tag k="addr:housenumber" v="8410"/></node><node id="-231" lat="30.144985" lon="-97.624546" changeset="false"><tag k="addr:street" v="Elroy Road"/><tag k="addr:housenumber" v="7712"/></node><node id="-232" lat="30.132011" lon="-97.615579" changeset="false"><tag k="addr:street" v="Zurick Drive"/><tag k="addr:housenumber" v="14604"/></node><node id="-233" lat="30.131458" lon="-97.61058" changeset="false"><tag k="addr:street" v="Swiss Drive"/><tag k="addr:housenumber" v="14916"/></node><node id="-234" lat="30.14318" lon="-97.571097" changeset="false"><tag k="addr:street" v="Pearce Lane"/><tag k="addr:housenumber" v="17097"/></node><node id="-235" lat="30.141904" lon="-97.570881" changeset="false"><tag k="addr:street" v="Pearce Lane"/><tag k="addr:housenumber" v="17201"/></node><node id="-236" lat="30.123138" lon="-97.596998" changeset="false"><tag k="addr:street" v="Jacobson Road"/><tag k="addr:housenumber" v="16204"/></node><node id="-237" lat="30.130917" lon="-97.61847" changeset="false"><tag k="addr:street" v="Swiss Drive"/><tag k="addr:housenumber" v="14992"/></node><node id="-238" lat="30.132703" lon="-97.617071" changeset="false"><tag k="addr:street" v="Swiss Drive"/><tag k="addr:housenumber" v="15012"/></node><node id="-239" lat="30.132443" lon="-97.621631" changeset="false"><tag k="addr:street" v="Elroy Road"/><tag k="addr:housenumber" v="8421"/></node><node id="-240" lat="30.119174" lon="-97.593652" changeset="false"><tag k="addr:street" v="Jacobson Road"/><tag k="addr:housenumber" v="16409"/></node><node id="-241" lat="30.131653" lon="-97.614149" changeset="false"><tag k="addr:street" v="Bern Drive"/><tag k="addr:housenumber" v="14801"/></node><node id="-242" lat="30.131675" lon="-97.608457" changeset="false"><tag k="addr:street" v="Jacobson Road"/><tag k="addr:housenumber" v="15107"/></node><node id="-243" lat="30.128819" lon="-97.625443" changeset="false"><tag k="addr:street" v="Elroy Road"/><tag k="addr:housenumber" v="8700"/></node><node id="-244" lat="30.140452" lon="-97.573566" changeset="false"><tag k="addr:street" v="Hayride Circle"/><tag k="addr:housenumber" v="17002"/></node><node id="-245" lat="30.130645" lon="-97.591546" changeset="false"><tag k="addr:street" v="Linden Road"/><tag k="addr:housenumber" v="8515"/></node><node id="-246" lat="30.13046" lon="-97.591759" changeset="false"><tag k="addr:street" v="Linden Road"/><tag k="addr:housenumber" v="8519"/></node><node id="-247" lat="30.129465" lon="-97.592868" changeset="false"><tag k="addr:street" v="Linden Road"/><tag k="addr:housenumber" v="8605"/></node><node id="-248" lat="30.129413" lon="-97.594937" changeset="false"><tag k="addr:street" v="Linden Road"/><tag k="addr:housenumber" v="8624"/></node><node id="-249" lat="30.133791" lon="-97.612004" changeset="false"><tag k="addr:street" v="Jacobson Road"/><tag k="addr:housenumber" v="14803"/></node><node id="-250" lat="30.131197" lon="-97.618298" changeset="false"><tag k="addr:street" v="Swiss Drive"/><tag k="addr:housenumber" v="14996"/></node><node id="-251" lat="30.130723" lon="-97.614571" changeset="false"><tag k="addr:street" v="Vevey Drive"/><tag k="addr:housenumber" v="14800"/></node><node id="-252" lat="30.135378" lon="-97.616655" changeset="false"><tag k="addr:street" v="Jacobson Road"/><tag k="addr:housenumber" v="14411"/></node><node id="-253" lat="30.135054" lon="-97.614601" changeset="false"><tag k="addr:street" v="Jacobson Road"/><tag k="addr:housenumber" v="14601"/></node><node id="-254" lat="30.128582" lon="-97.612618" changeset="false"><tag k="addr:street" v="Swiss Drive"/><tag k="addr:housenumber" v="14937"/></node><node id="-255" lat="30.128361" lon="-97.619188" changeset="false"><tag k="addr:street" v="Plover Place"/><tag k="addr:housenumber" v="14415"/></node><node id="-256" lat="30.134689" lon="-97.622427" changeset="false"><tag k="addr:street" v="Elroy Road"/><tag k="addr:housenumber" v="8400"/></node><node id="-257" lat="30.12331" lon="-97.638134" changeset="false"><tag k="addr:street" v="Farm-to-Market Road 812"/><tag k="addr:housenumber" v="13606"/></node><node id="-258" lat="30.159281" lon="-97.622941" changeset="false"><tag k="addr:street" v="Kellam Road"/><tag k="addr:housenumber" v="6910"/></node><node id="-259" lat="30.129743" lon="-97.613671" changeset="false"><tag k="addr:street" v="Vevey Drive"/><tag k="addr:housenumber" v="14901"/></node><node id="-260" lat="30.129947" lon="-97.625467" changeset="false"><tag k="addr:street" v="Elroy Road"/><tag k="addr:housenumber" v="8604"/></node><node id="-261" lat="30.119752" lon="-97.626434" changeset="false"><tag k="addr:street" v="Elroy Road"/><tag k="addr:housenumber" v="8947"/></node><node id="-262" lat="30.135476" lon="-97.583336" changeset="false"><tag k="addr:street" v="Fagerquist Road"/><tag k="addr:housenumber" v="16521"/></node><node id="-263" lat="30.12687" lon="-97.613901" changeset="false"><tag k="addr:street" v="Swiss Drive"/><tag k="addr:housenumber" v="14951"/></node><node id="-264" lat="30.130356" lon="-97.616268" changeset="false"><tag k="addr:street" v="Rhone Drive"/><tag k="addr:housenumber" v="14703"/></node><node id="-265" lat="30.133827" lon="-97.595263" changeset="false"><tag k="addr:street" v="Linden Loop"/><tag k="addr:housenumber" v="8408"/></node><node id="-266" lat="30.132706" lon="-97.593342" changeset="false"><tag k="addr:street" v="Linden Loop"/><tag k="addr:housenumber" v="8405"/></node><node id="-267" lat="30.126678" lon="-97.618042" changeset="false"><tag k="addr:street" v="Plover Place"/><tag k="addr:housenumber" v="14430"/></node><node id="-268" lat="30.12438" lon="-97.598557" changeset="false"><tag k="addr:street" v="Linden Road"/><tag k="addr:housenumber" v="8905"/></node><node id="-269" lat="30.123308" lon="-97.597366" changeset="false"><tag k="addr:street" v="Jacobson Road"/><tag k="addr:housenumber" v="16120"/></node><node id="-270" lat="30.12224" lon="-97.595657" changeset="false"><tag k="addr:street" v="Jacobson Road"/><tag k="addr:housenumber" v="16306"/></node><node id="-271" lat="30.130615" lon="-97.616745" changeset="false"><tag k="addr:street" v="Rhone Drive"/><tag k="addr:housenumber" v="14611"/></node><node id="-272" lat="30.130443" lon="-97.611657" changeset="false"><tag k="addr:street" v="Bern Drive"/><tag k="addr:housenumber" v="14907"/></node><node id="-273" lat="30.130297" lon="-97.616134" changeset="false"><tag k="addr:street" v="Rhone Drive"/><tag k="addr:housenumber" v="14705"/></node><node id="-274" lat="30.142694" lon="-97.591752" changeset="false"><tag k="addr:street" v="Fagerquist Road"/><tag k="addr:housenumber" v="15802"/></node><node id="-275" lat="30.145025" lon="-97.574951" changeset="false"><tag k="addr:street" v="Pearce Lane"/><tag k="addr:housenumber" v="16735"/></node><node id="-276" lat="30.128432" lon="-97.595455" changeset="false"><tag k="addr:street" v="Linden Road"/><tag k="addr:housenumber" v="8714"/></node><node id="-277" lat="30.130649" lon="-97.620857" changeset="false"><tag k="addr:street" v="Plover Place"/><tag k="addr:housenumber" v="14302"/></node><node id="-278" lat="30.146483" lon="-97.584792" changeset="false"><tag k="addr:street" v="Timber Hills Drive"/><tag k="addr:housenumber" v="7705"/></node><node id="-279" lat="30.131162" lon="-97.622978" changeset="false"><tag k="addr:street" v="Elroy Road"/><tag k="addr:housenumber" v="8503"/></node><node id="-280" lat="30.119796" lon="-97.633679" changeset="false"><tag k="addr:street" v="Farm-to-Market Road 812"/><tag k="addr:housenumber" v="14020"/></node><node id="-281" lat="30.128011" lon="-97.627988" changeset="false"><tag k="addr:street" v="Elroy Road"/><tag k="addr:housenumber" v="8714"/></node><node id="-282" lat="30.139769" lon="-97.634254" changeset="false"><tag k="addr:street" v="Circuit of the Americas Boulevard"/><tag k="addr:housenumber" v="8800"/></node><node id="-283" lat="30.104121" lon="-97.609884" changeset="false"><tag k="addr:street" v="Farm-to-Market Road 812"/><tag k="addr:housenumber" v="16118"/></node><node id="-284" lat="30.122478" lon="-97.62816" changeset="false"><tag k="addr:street" v="Elroy Road"/><tag k="addr:housenumber" v="8929"/></node><node id="-285" lat="30.142586" lon="-97.580193" changeset="false"><tag k="addr:street" v="Linden Road"/><tag k="addr:housenumber" v="7907"/></node><node id="-286" lat="30.134155" lon="-97.614426" changeset="false"><tag k="addr:street" v="Swiss Drive"/><tag k="addr:housenumber" v="15051"/></node><node id="-287" lat="30.13698" lon="-97.583964" changeset="false"><tag k="addr:street" v="Fagerquist Road"/><tag k="addr:housenumber" v="16411"/></node><node id="-288" lat="30.120736" lon="-97.593943" changeset="false"><tag k="addr:street" v="Jacobson Road"/><tag k="addr:housenumber" v="16500"/></node><node id="-289" lat="30.120548" lon="-97.593683" changeset="false"><tag k="addr:street" v="Jacobson Road"/><tag k="addr:housenumber" v="16508"/></node><node id="-290" lat="30.129879" lon="-97.621511" changeset="false"><tag k="addr:street" v="Larkdale Lane"/><tag k="addr:housenumber" v="14300"/></node><node id="-291" lat="30.12976" lon="-97.617565" changeset="false"><tag k="addr:street" v="Swiss Drive"/><tag k="addr:housenumber" v="14978"/></node><node id="-292" lat="30.129537" lon="-97.613175" changeset="false"><tag k="addr:street" v="Vevey Drive"/><tag k="addr:housenumber" v="14907"/></node><node id="-293" lat="30.129429" lon="-97.611622" changeset="false"><tag k="addr:street" v="Swiss Drive"/><tag k="addr:housenumber" v="14930"/></node><node id="-294" lat="30.132001" lon="-97.614755" changeset="false"><tag k="addr:street" v="Bern Drive"/><tag k="addr:housenumber" v="14705"/></node><node id="-295" lat="30.132026" lon="-97.616391" changeset="false"><tag k="addr:street" v="Swiss Drive"/><tag k="addr:housenumber" v="15019"/></node><node id="-296" lat="30.138632" lon="-97.60737" changeset="false"><tag k="addr:street" v="Fagerquist Road"/><tag k="addr:housenumber" v="14908"/></node><node id="-297" lat="30.134689" lon="-97.614621" changeset="false"><tag k="addr:street" v="Swiss Drive"/><tag k="addr:housenumber" v="15046"/></node><node id="-298" lat="30.134656" lon="-97.614913" changeset="false"><tag k="addr:street" v="Swiss Drive"/><tag k="addr:housenumber" v="15044"/></node><node id="-299" lat="30.122737" lon="-97.637452" changeset="false"><tag k="addr:street" v="Farm-to-Market Road 812"/><tag k="addr:housenumber" v="13708"/></node><node id="-300" lat="30.121901" lon="-97.628461" changeset="false"><tag k="addr:street" v="Elroy Road"/><tag k="addr:housenumber" v="8937"/></node><node id="-301" lat="30.127617" lon="-97.62493" changeset="false"><tag k="addr:street" v="Elroy Road"/><tag k="addr:housenumber" v="8707"/></node><node id="-302" lat="30.131257" lon="-97.610715" changeset="false"><tag k="addr:street" v="Swiss Drive"/><tag k="addr:housenumber" v="14918"/></node><node id="-303" lat="30.146285" lon="-97.581852" changeset="false"><tag k="addr:street" v="Linden Road"/><tag k="addr:housenumber" v="7802"/></node><node id="-304" lat="30.131145" lon="-97.615328" changeset="false"><tag k="addr:street" v="Vevey Drive"/><tag k="addr:housenumber" v="14704"/></node><node id="-305" lat="30.130928" lon="-97.613398" changeset="false"><tag k="addr:street" v="Zurick Drive"/><tag k="addr:housenumber" v="14804"/></node><node id="-306" lat="30.129516" lon="-97.616798" changeset="false"><tag k="addr:street" v="Swiss Drive"/><tag k="addr:housenumber" v="14971"/></node><node id="-307" lat="30.150221" lon="-97.631265" changeset="false"><tag k="addr:street" v="Elroy Road"/><tag k="addr:housenumber" v="7527"/></node><node id="-308" lat="30.127751" lon="-97.614431" changeset="false"><tag k="addr:street" v="Lucerne Drive"/><tag k="addr:housenumber" v="14903"/></node><node id="-309" lat="30.129501" lon="-97.612845" changeset="false"><tag k="addr:street" v="Vevey Drive"/><tag k="addr:housenumber" v="14913"/></node><node id="-310" lat="30.129327" lon="-97.614282" changeset="false"><tag k="addr:street" v="Dobush Drive"/><tag k="addr:housenumber" v="14810"/></node><node id="-311" lat="30.128857" lon="-97.61368" changeset="false"><tag k="addr:street" v="Dobush Drive"/><tag k="addr:housenumber" v="14906"/></node><node id="-312" lat="30.127473" lon="-97.595061" changeset="false"><tag k="addr:street" v="Linden Road"/><tag k="addr:housenumber" v="8721"/></node><node id="-313" lat="30.134612" lon="-97.613846" changeset="false"><tag k="addr:street" v="Jacobson Road"/><tag k="addr:housenumber" v="14607"/></node><node id="-314" lat="30.128835" lon="-97.59349" changeset="false"><tag k="addr:street" v="Linden Road"/><tag k="addr:housenumber" v="8617"/></node><node id="-315" lat="30.128471" lon="-97.593841" changeset="false"><tag k="addr:street" v="Linden Road"/><tag k="addr:housenumber" v="8625"/></node><node id="-316" lat="30.132575" lon="-97.614435" changeset="false"><tag k="addr:street" v="Alps Drive"/><tag k="addr:housenumber" v="14705"/></node><node id="-317" lat="30.12838" lon="-97.614452" changeset="false"><tag k="addr:street" v="Lucerne Drive"/><tag k="addr:housenumber" v="14900"/></node><node id="-318" lat="30.127544" lon="-97.615263" changeset="false"><tag k="addr:street" v="Swiss Drive"/><tag k="addr:housenumber" v="14956"/></node><node id="-319" lat="30.133886" lon="-97.614607" changeset="false"><tag k="addr:street" v="Chalet Drive"/><tag k="addr:housenumber" v="14602"/></node><node id="-320" lat="30.134451" lon="-97.613418" changeset="false"><tag k="addr:street" v="Jacobson Road"/><tag k="addr:housenumber" v="14703"/></node><node id="-321" lat="30.131552" lon="-97.615612" changeset="false"><tag k="addr:street" v="Zurick Drive"/><tag k="addr:housenumber" v="14701"/></node><node id="-322" lat="30.131523" lon="-97.616157" changeset="false"><tag k="addr:street" v="Vevey Drive"/><tag k="addr:housenumber" v="14608"/></node><node id="-323" lat="30.131811" lon="-97.612836" changeset="false"><tag k="addr:street" v="Alps Drive"/><tag k="addr:housenumber" v="14805"/></node><node id="-324" lat="30.131458" lon="-97.61534" changeset="false"><tag k="addr:street" v="Zurick Drive"/><tag k="addr:housenumber" v="14703"/></node><node id="-325" lat="30.128517" lon="-97.616115" changeset="false"><tag k="addr:street" v="Swiss Drive"/><tag k="addr:housenumber" v="14962"/></node><node id="-326" lat="30.128155" lon="-97.624599" changeset="false"><tag k="addr:street" v="Elroy Road"/><tag k="addr:housenumber" v="8701"/></node><node id="-327" lat="30.12904" lon="-97.624006" changeset="false"><tag k="addr:street" v="Elroy Road"/><tag k="addr:housenumber" v="8603"/></node><node id="-328" lat="30.135708" lon="-97.619886" changeset="false"><tag k="addr:street" v="Elroy Road"/><tag k="addr:housenumber" v="8305"/></node><node id="-329" lat="30.128907" lon="-97.61937" changeset="false"><tag k="addr:street" v="Plover Place"/><tag k="addr:housenumber" v="14405"/></node><node id="-330" lat="30.128705" lon="-97.613355" changeset="false"><tag k="addr:street" v="Dobush Drive"/><tag k="addr:housenumber" v="14910"/></node><node id="-331" lat="30.132416" lon="-97.61018" changeset="false"><tag k="addr:street" v="Swiss Drive"/><tag k="addr:housenumber" v="14906"/></node><node id="-332" lat="30.132173" lon="-97.612624" changeset="false"><tag k="addr:street" v="Alps Drive"/><tag k="addr:housenumber" v="14804"/></node><node id="-333" lat="30.131959" lon="-97.617651" changeset="false"><tag k="addr:street" v="Swiss Drive"/><tag k="addr:housenumber" v="15004"/></node><node id="-334" lat="30.131716" lon="-97.611203" changeset="false"><tag k="addr:street" v="Chalet Drive"/><tag k="addr:housenumber" v="14907"/></node><node id="-335" lat="30.133972" lon="-97.61311" changeset="false"><tag k="addr:street" v="Swiss Drive"/><tag k="addr:housenumber" v="15060"/></node><node id="-336" lat="30.133939" lon="-97.614017" changeset="false"><tag k="addr:street" v="Swiss Drive"/><tag k="addr:housenumber" v="15055"/></node><node id="-337" lat="30.121519" lon="-97.595005" changeset="false"><tag k="addr:street" v="Jacobson Road"/><tag k="addr:housenumber" v="16404"/></node><node id="-338" lat="30.121402" lon="-97.594811" changeset="false"><tag k="addr:street" v="Jacobson Road"/><tag k="addr:housenumber" v="16408"/></node><node id="-339" lat="30.12737" lon="-97.613456" changeset="false"><tag k="addr:street" v="Lucerne Drive"/><tag k="addr:housenumber" v="14909"/></node><node id="-340" lat="30.121773" lon="-97.633849" changeset="false"><tag k="addr:street" v="Elroy Road"/><tag k="addr:housenumber" v="9029"/></node><node id="-341" lat="30.128069" lon="-97.612468" changeset="false"><tag k="addr:street" v="Swiss Drive"/><tag k="addr:housenumber" v="14938"/></node><node id="-342" lat="30.129455" lon="-97.612678" changeset="false"><tag k="addr:street" v="Vevey Drive"/><tag k="addr:housenumber" v="14915"/></node><node id="-343" lat="30.135675" lon="-97.586096" changeset="false"><tag k="addr:street" v="Linden Road"/><tag k="addr:housenumber" v="8245"/></node><node id="-344" lat="30.14574" lon="-97.583718" changeset="false"><tag k="addr:street" v="Timber Hills Drive"/><tag k="addr:housenumber" v="7707"/></node><node id="-345" lat="30.133415" lon="-97.611195" changeset="false"><tag k="addr:street" v="Jacobson Road"/><tag k="addr:housenumber" v="14901"/></node><node id="-346" lat="30.130953" lon="-97.611759" changeset="false"><tag k="addr:street" v="Bern Drive"/><tag k="addr:housenumber" v="14904"/></node><node id="-347" lat="30.123445" lon="-97.614509" changeset="false"><tag k="addr:street" v="Plover Place"/><tag k="addr:housenumber" v="14640"/></node><node id="-348" lat="30.132481" lon="-97.59557" changeset="false"><tag k="addr:street" v="Linden Loop"/><tag k="addr:housenumber" v="8412"/></node><node id="-349" lat="30.141974" lon="-97.617172" changeset="false"><tag k="addr:street" v="Elroy Road"/><tag k="addr:housenumber" v="8000"/></node><node id="-350" lat="30.133501" lon="-97.613763" changeset="false"><tag k="addr:street" v="Chalet Drive"/><tag k="addr:housenumber" v="14704"/></node><node id="-351" lat="30.144715" lon="-97.580692" changeset="false"><tag k="addr:street" v="Linden Road"/><tag k="addr:housenumber" v="7900"/></node><node id="-352" lat="30.130503" lon="-97.610904" changeset="false"><tag k="addr:street" v="Swiss Drive"/><tag k="addr:housenumber" v="14924"/></node><node id="-353" lat="30.148745" lon="-97.582794" changeset="false"><tag k="addr:street" v="Pearce Lane"/><tag k="addr:housenumber" v="16001"/></node><node id="-354" lat="30.148807" lon="-97.587987" changeset="false"><tag k="addr:street" v="Forest Glenn Cove"/><tag k="addr:housenumber" v="15702"/></node><node id="-355" lat="30.118827" lon="-97.593277" changeset="false"><tag k="addr:street" v="Jacobson Road"/><tag k="addr:housenumber" v="16601"/></node><node id="-356" lat="30.120986" lon="-97.634634" changeset="false"><tag k="addr:street" v="Elroy Road"/><tag k="addr:housenumber" v="9043"/></node><node id="-357" lat="30.143786" lon="-97.619276" changeset="false"><tag k="addr:street" v="Elroy Road"/><tag k="addr:housenumber" v="7814"/></node><node id="-358" lat="30.121573" lon="-97.635966" changeset="false"><tag k="addr:street" v="Farm-to-Market Road 812"/><tag k="addr:housenumber" v="13820"/></node><node id="-359" lat="30.141351" lon="-97.577599" changeset="false"><tag k="addr:street" v="Hayride Road"/><tag k="addr:housenumber" v="8000"/></node><node id="-360" lat="30.14115" lon="-97.576734" changeset="false"><tag k="addr:street" v="Hayride Road"/><tag k="addr:housenumber" v="7925"/></node><node id="-361" lat="30.125651" lon="-97.596848" changeset="false"><tag k="addr:street" v="Linden Road"/><tag k="addr:housenumber" v="8805"/></node><node id="-362" lat="30.1352" lon="-97.599146" changeset="false"><tag k="addr:street" v="Fagerquist Road"/><tag k="addr:housenumber" v="15513"/></node><node id="-363" lat="30.139899" lon="-97.574206" changeset="false"><tag k="addr:street" v="Hayride Circle"/><tag k="addr:housenumber" v="17005"/></node><node id="-364" lat="30.135635" lon="-97.644044" changeset="false"><tag k="addr:street" v="Circuit of the Americas Boulevard"/><tag k="addr:housenumber" v="9201"/></node><node id="-365" lat="30.129568" lon="-97.613351" changeset="false"><tag k="addr:street" v="Vevey Drive"/><tag k="addr:housenumber" v="14905"/></node><node id="-366" lat="30.138519" lon="-97.608634" changeset="false"><tag k="addr:street" v="Fagerquist Road"/><tag k="addr:housenumber" v="14808"/></node><node id="-367" lat="30.138577" lon="-97.571257" changeset="false"><tag k="addr:street" v="Wolf Lane"/><tag k="addr:housenumber" v="8200"/></node><node id="-368" lat="30.128691" lon="-97.595167" changeset="false"><tag k="addr:street" v="Linden Road"/><tag k="addr:housenumber" v="8704"/></node><node id="-369" lat="30.155222" lon="-97.594292" changeset="false"><tag k="addr:street" v="Pearce Lane"/><tag k="addr:housenumber" v="15103"/></node><node id="-370" lat="30.154153" lon="-97.6209" changeset="false"><tag k="addr:street" v="Kellam Road"/><tag k="addr:housenumber" v="7320"/></node><node id="-371" lat="30.119682" lon="-97.592905" changeset="false"><tag k="addr:street" v="Jacobson Road"/><tag k="addr:housenumber" v="16604"/></node><node id="-372" lat="30.121656" lon="-97.634426" changeset="false"><tag k="addr:street" v="Elroy Road"/><tag k="addr:housenumber" v="9034"/></node><node id="-373" lat="30.130237" lon="-97.591962" changeset="false"><tag k="addr:street" v="Linden Road"/><tag k="addr:housenumber" v="8523"/></node><node id="-374" lat="30.137958" lon="-97.607207" changeset="false"><tag k="addr:street" v="Fagerquist Road"/><tag k="addr:housenumber" v="14912"/></node><node id="-375" lat="30.131326" lon="-97.615742" changeset="false"><tag k="addr:street" v="Vevey Drive"/><tag k="addr:housenumber" v="14700"/></node><node id="-376" lat="30.130668" lon="-97.617597" changeset="false"><tag k="addr:street" v="Geneva Drive"/><tag k="addr:housenumber" v="14604"/></node><node id="-377" lat="30.122928" lon="-97.614112" changeset="false"><tag k="addr:street" v="Plover Place"/><tag k="addr:housenumber" v="14650"/></node><node id="-378" lat="30.130231" lon="-97.62322" changeset="false"><tag k="addr:street" v="Elroy Road"/><tag k="addr:housenumber" v="8509"/></node><node id="-379" lat="30.153342" lon="-97.623286" changeset="false"><tag k="addr:street" v="Kellam Road"/><tag k="addr:housenumber" v="7600"/></node><node id="-380" lat="30.133866" lon="-97.613797" changeset="false"><tag k="addr:street" v="Swiss Drive"/><tag k="addr:housenumber" v="15057"/></node><node id="-381" lat="30.137631" lon="-97.590416" changeset="false"><tag k="addr:street" v="Linden Loop"/><tag k="addr:housenumber" v="8201"/></node><node id="-382" lat="30.121695" lon="-97.595192" changeset="false"><tag k="addr:street" v="Jacobson Road"/><tag k="addr:housenumber" v="16318"/></node><node id="-383" lat="30.122914" lon="-97.633094" changeset="false"><tag k="addr:street" v="Elroy Road"/><tag k="addr:housenumber" v="9010 1/2"/></node><node id="-384" lat="30.140287" lon="-97.586986" changeset="false"><tag k="addr:street" v="Fagerquist Road"/><tag k="addr:housenumber" v="16102"/></node><node id="-385" lat="30.136985" lon="-97.596196" changeset="false"><tag k="addr:street" v="Fagerquist Road"/><tag k="addr:housenumber" v="15605"/></node><node id="-386" lat="30.131878" lon="-97.612182" changeset="false"><tag k="addr:street" v="Alps Drive"/><tag k="addr:housenumber" v="14810"/></node><node id="-387" lat="30.129083" lon="-97.593313" changeset="false"><tag k="addr:street" v="Linden Road"/><tag k="addr:housenumber" v="8613"/></node><node id="-388" lat="30.132137" lon="-97.615786" changeset="false"><tag k="addr:street" v="Zurick Drive"/><tag k="addr:housenumber" v="14600"/></node><node id="-389" lat="30.130637" lon="-97.612002" changeset="false"><tag k="addr:street" v="Bern Drive"/><tag k="addr:housenumber" v="14905"/></node><node id="-390" lat="30.130285" lon="-97.614681" changeset="false"><tag k="addr:street" v="Vevey Drive"/><tag k="addr:housenumber" v="14803"/></node><node id="-391" lat="30.144972" lon="-97.58513" changeset="false"><tag k="addr:street" v="Timber Hills Drive"/><tag k="addr:housenumber" v="7709"/></node><node id="-392" lat="30.105013" lon="-97.60836" changeset="false"><tag k="addr:street" v="Farm-to-Market Road 812"/><tag k="addr:housenumber" v="16122"/></node><node id="-393" lat="30.144639" lon="-97.621183" changeset="false"><tag k="addr:street" v="Elroy Road"/><tag k="addr:housenumber" v="7766"/></node><node id="-394" lat="30.133331" lon="-97.594996" changeset="false"><tag k="addr:street" v="Linden Loop"/><tag k="addr:housenumber" v="8420"/></node><node id="-395" lat="30.129524" lon="-97.614958" changeset="false"><tag k="addr:street" v="Dobush Drive"/><tag k="addr:housenumber" v="14802"/></node><node id="-396" lat="30.127504" lon="-97.626465" changeset="false"><tag k="addr:street" v="Elroy Road"/><tag k="addr:housenumber" v="8710"/></node><node id="-397" lat="30.145367" lon="-97.622895" changeset="false"><tag k="addr:street" v="Elroy Road"/><tag k="addr:housenumber" v="7748"/></node><node id="-398" lat="30.132278" lon="-97.611492" changeset="false"><tag k="addr:street" v="Chalet Drive"/><tag k="addr:housenumber" v="14916"/></node><node id="-399" lat="30.159996" lon="-97.624904" changeset="false"><tag k="addr:street" v="Kellam Road"/><tag k="addr:housenumber" v="6909"/></node><node id="-400" lat="30.135096" lon="-97.592312" changeset="false"><tag k="addr:street" v="Linden Loop"/><tag k="addr:housenumber" v="8305"/></node><node id="-401" lat="30.145091" lon="-97.575475" changeset="false"><tag k="addr:street" v="Pearce Lane"/><tag k="addr:housenumber" v="16701"/></node><node id="-402" lat="30.131688" lon="-97.612443" changeset="false"><tag k="addr:street" v="Alps Drive"/><tag k="addr:housenumber" v="14901 1/2"/></node><node id="-403" lat="30.131068" lon="-97.611317" changeset="false"><tag k="addr:street" v="Alps Drive"/><tag k="addr:housenumber" v="14909"/></node><node id="-404" lat="30.138605" lon="-97.605655" changeset="false"><tag k="addr:street" v="Fagerquist Road"/><tag k="addr:housenumber" v="15030"/></node><node id="-405" lat="30.13359" lon="-97.576869" changeset="false"><tag k="addr:street" v="Fagerquist Road"/><tag k="addr:housenumber" v="16901"/></node><node id="-406" lat="30.149323" lon="-97.631086" changeset="false"><tag k="addr:street" v="Elroy Road"/><tag k="addr:housenumber" v="7534"/></node><node id="-407" lat="30.133165" lon="-97.615441" changeset="false"><tag k="addr:street" v="Alps Drive"/><tag k="addr:housenumber" v="14605"/></node><node id="-408" lat="30.149918" lon="-97.621722" changeset="false"><tag k="addr:street" v="Kellam Road"/><tag k="addr:housenumber" v="7651 1/2"/></node><node id="-409" lat="30.141254" lon="-97.599721" changeset="false"><tag k="addr:street" v="Fagerquist Road"/><tag k="addr:housenumber" v="15112"/></node><node id="-410" lat="30.127862" lon="-97.615442" changeset="false"><tag k="addr:street" v="Swiss Drive"/><tag k="addr:housenumber" v="14958"/></node><node id="-411" lat="30.133668" lon="-97.615026" changeset="false"><tag k="addr:street" v="Chalet Drive"/><tag k="addr:housenumber" v="14601"/></node><node id="-412" lat="30.133186" lon="-97.610803" changeset="false"><tag k="addr:street" v="Jacobson Road"/><tag k="addr:housenumber" v="14903"/></node><node id="-413" lat="30.148241" lon="-97.632874" changeset="false"><tag k="addr:street" v="Elroy Road"/><tag k="addr:housenumber" v="7524"/></node><node id="-414" lat="30.140959" lon="-97.574113" changeset="false"><tag k="addr:street" v="Hayride Circle"/><tag k="addr:housenumber" v="16902"/></node><node id="-415" lat="30.132944" lon="-97.612641" changeset="false"><tag k="addr:street" v="Chalet Drive"/><tag k="addr:housenumber" v="14802"/></node><node id="-416" lat="30.128997" lon="-97.616676" changeset="false"><tag k="addr:street" v="Swiss Drive"/><tag k="addr:housenumber" v="14968"/></node><node id="-417" lat="30.123071" lon="-97.615819" changeset="false"><tag k="addr:street" v="Plover Place"/><tag k="addr:housenumber" v="14641"/></node><node id="-418" lat="30.126727" lon="-97.625907" changeset="false"><tag k="addr:street" v="Elroy Road"/><tag k="addr:housenumber" v="8725"/></node><node id="-419" lat="30.145776" lon="-97.582552" changeset="false"><tag k="addr:street" v="Linden Road"/><tag k="addr:housenumber" v="7808"/></node><node id="-420" lat="30.131332" lon="-97.61419" changeset="false"><tag k="addr:street" v="Zurick Drive"/><tag k="addr:housenumber" v="14800"/></node><node id="-421" lat="30.131506" lon="-97.622882" changeset="false"><tag k="addr:street" v="Elroy Road"/><tag k="addr:housenumber" v="8501"/></node><node id="-422" lat="30.130717" lon="-97.615631" changeset="false"><tag k="addr:street" v="Vevey Drive"/><tag k="addr:housenumber" v="14705"/></node><node id="-423" lat="30.149987" lon="-97.585026" changeset="false"><tag k="addr:street" v="Timber Hills Drive"/><tag k="addr:housenumber" v="7516"/></node><node id="-424" lat="30.129608" lon="-97.616295" changeset="false"><tag k="addr:street" v="Geneva Drive"/><tag k="addr:housenumber" v="14707"/></node><node id="-425" lat="30.124987" lon="-97.617494" changeset="false"><tag k="addr:street" v="Plover Place"/><tag k="addr:housenumber" v="14601"/></node><node id="-426" lat="30.126388" lon="-97.641013" changeset="false"><tag k="addr:street" v="Farm-to-Market Road 812"/><tag k="addr:housenumber" v="13300"/></node><node id="-427" lat="30.128451" lon="-97.613975" changeset="false"><tag k="addr:street" v="Dobush Drive"/><tag k="addr:housenumber" v="14903"/></node><node id="-428" lat="30.12552" lon="-97.597026" changeset="false"><tag k="addr:street" v="Linden Road"/><tag k="addr:housenumber" v="8807"/></node><node id="-429" lat="30.124491" lon="-97.598347" changeset="false"><tag k="addr:street" v="Linden Road"/><tag k="addr:housenumber" v="8901"/></node><node id="-430" lat="30.126265" lon="-97.613638" changeset="false"><tag k="addr:street" v="Swiss Drive"/><tag k="addr:housenumber" v="14946"/></node><node id="-431" lat="30.121845" lon="-97.595323" changeset="false"><tag k="addr:street" v="Jacobson Road"/><tag k="addr:housenumber" v="16314"/></node><node id="-432" lat="30.131842" lon="-97.614549" changeset="false"><tag k="addr:street" v="Bern Drive"/><tag k="addr:housenumber" v="14707"/></node><node id="-433" lat="30.158069" lon="-97.623383" changeset="false"><tag k="addr:street" v="Kellam Road"/><tag k="addr:housenumber" v="6900"/></node><node id="-434" lat="30.130509" lon="-97.616591" changeset="false"><tag k="addr:street" v="Rhone Drive"/><tag k="addr:housenumber" v="14701"/></node><node id="-435" lat="30.130492" lon="-97.62032" changeset="false"><tag k="addr:street" v="Plover Place"/><tag k="addr:housenumber" v="14400"/></node><node id="-436" lat="30.130408" lon="-97.617165" changeset="false"><tag k="addr:street" v="Geneva Drive"/><tag k="addr:housenumber" v="14608"/></node><node id="-437" lat="30.131243" lon="-97.590916" changeset="false"><tag k="addr:street" v="Linden Road"/><tag k="addr:housenumber" v="8501"/></node><node id="-438" lat="30.126665" lon="-97.613422" changeset="false"><tag k="addr:street" v="Swiss Drive"/><tag k="addr:housenumber" v="14944"/></node><node id="-439" lat="30.12434" lon="-97.61679" changeset="false"><tag k="addr:street" v="Plover Place"/><tag k="addr:housenumber" v="14609"/></node><node id="-440" lat="30.129514" lon="-97.642955" changeset="false"><tag k="addr:street" v="Farm-to-Market Road 812"/><tag k="addr:housenumber" v="13010"/></node><node id="-441" lat="30.130503" lon="-97.622285" changeset="false"><tag k="addr:street" v="Larkdale Lane"/><tag k="addr:housenumber" v="14202"/></node><node id="-442" lat="30.128992" lon="-97.594936" changeset="false"><tag k="addr:street" v="Linden Road"/><tag k="addr:housenumber" v="8626"/></node><node id="-443" lat="30.133577" lon="-97.614801" changeset="false"><tag k="addr:street" v="Chalet Drive"/><tag k="addr:housenumber" v="14603"/></node><node id="-444" lat="30.131354" lon="-97.612614" changeset="false"><tag k="addr:street" v="Bern Drive"/><tag k="addr:housenumber" v="14900"/></node><node id="-445" lat="30.130955" lon="-97.616515" changeset="false"><tag k="addr:street" v="Rhone Drive"/><tag k="addr:housenumber" v="14610"/></node><node id="-446" lat="30.131592" lon="-97.612976" changeset="false"><tag k="addr:street" v="Bern Drive"/><tag k="addr:housenumber" v="14804"/></node><node id="-447" lat="30.131402" lon="-97.615961" changeset="false"><tag k="addr:street" v="Vevey Drive"/><tag k="addr:housenumber" v="14610"/></node><node id="-448" lat="30.134439" lon="-97.62151" changeset="false"><tag k="addr:street" v="Elroy Road"/><tag k="addr:housenumber" v="8330"/></node><node id="-449" lat="30.129123" lon="-97.619655" changeset="false"><tag k="addr:street" v="Plover Place"/><tag k="addr:housenumber" v="14403"/></node><node id="-450" lat="30.128716" lon="-97.61534" changeset="false"><tag k="addr:street" v="Lucerne Drive"/><tag k="addr:housenumber" v="14800"/></node><node id="-451" lat="30.133051" lon="-97.610438" changeset="false"><tag k="addr:street" v="Jacobson Road"/><tag k="addr:housenumber" v="14905"/></node><node id="-452" lat="30.121982" lon="-97.634105" changeset="false"><tag k="addr:street" v="Elroy Road"/><tag k="addr:housenumber" v="9028"/></node><node id="-453" lat="30.129807" lon="-97.612523" changeset="false"><tag k="addr:street" v="Vevey Drive"/><tag k="addr:housenumber" v="14904"/></node><node id="-454" lat="30.13399" lon="-97.61252" changeset="false"><tag k="addr:street" v="Alpine Drive"/><tag k="addr:housenumber" v="8401"/></node><node id="-455" lat="30.132492" lon="-97.614933" changeset="false"><tag k="addr:street" v="Bern Drive"/><tag k="addr:housenumber" v="14700"/></node><node id="-456" lat="30.135916" lon="-97.582485" changeset="false"><tag k="addr:street" v="Fagerquist Road"/><tag k="addr:housenumber" v="16517"/></node><node id="-457" lat="30.132319" lon="-97.612976" changeset="false"><tag k="addr:street" v="Alps Drive"/><tag k="addr:housenumber" v="14802"/></node><node id="-458" lat="30.132304" lon="-97.61734" changeset="false"><tag k="addr:street" v="Swiss Drive"/><tag k="addr:housenumber" v="15008"/></node><node id="-459" lat="30.131942" lon="-97.616236" changeset="false"><tag k="addr:street" v="Zurick Drive"/><tag k="addr:housenumber" v="14601"/></node><node id="-460" lat="30.136733" lon="-97.618391" changeset="false"><tag k="addr:street" v="Jacobson Road"/><tag k="addr:housenumber" v="14303"/></node><node id="-461" lat="30.132705" lon="-97.614544" changeset="false"><tag k="addr:street" v="Alps Drive"/><tag k="addr:housenumber" v="14703"/></node><node id="-462" lat="30.132567" lon="-97.613396" changeset="false"><tag k="addr:street" v="Alps Drive"/><tag k="addr:housenumber" v="14800"/></node><node id="-463" lat="30.132569" lon="-97.616578" changeset="false"><tag k="addr:street" v="Swiss Drive"/><tag k="addr:housenumber" v="15016"/></node><node id="-464" lat="30.131842" lon="-97.61512" changeset="false"><tag k="addr:street" v="Zurick Drive"/><tag k="addr:housenumber" v="14702"/></node><node id="-465" lat="30.131818" lon="-97.61659" changeset="false"><tag k="addr:street" v="Vevey Drive"/><tag k="addr:housenumber" v="14604"/></node><node id="-466" lat="30.122799" lon="-97.596977" changeset="false"><tag k="addr:street" v="Jacobson Road"/><tag k="addr:housenumber" v="16200"/></node><node id="-467" lat="30.134365" lon="-97.614015" changeset="false"><tag k="addr:street" v="Swiss Drive"/><tag k="addr:housenumber" v="15052"/></node><node id="-468" lat="30.134047" lon="-97.614852" changeset="false"><tag k="addr:street" v="Swiss Drive"/><tag k="addr:housenumber" v="15033"/></node><node id="-469" lat="30.132859" lon="-97.616086" changeset="false"><tag k="addr:street" v="Swiss Drive"/><tag k="addr:housenumber" v="15024"/></node><node id="-470" lat="30.12947" lon="-97.614803" changeset="false"><tag k="addr:street" v="Dobush Drive"/><tag k="addr:housenumber" v="14804"/></node><node id="-471" lat="30.129201" lon="-97.614742" changeset="false"><tag k="addr:street" v="Dobush Drive"/><tag k="addr:housenumber" v="14806"/></node><node id="-472" lat="30.129138" lon="-97.611821" changeset="false"><tag k="addr:street" v="Swiss Drive"/><tag k="addr:housenumber" v="14932"/></node><node id="-473" lat="30.128949" lon="-97.615165" changeset="false"><tag k="addr:street" v="Dobush Drive"/><tag k="addr:housenumber" v="14803"/></node><node id="-474" lat="30.124438" lon="-97.631494" changeset="false"><tag k="addr:street" v="Elroy Road"/><tag k="addr:housenumber" v="8982"/></node><node id="-475" lat="30.123678" lon="-97.628328" changeset="false"><tag k="addr:street" v="Elroy Road"/><tag k="addr:housenumber" v="8920"/></node><node id="-476" lat="30.146399" lon="-97.624808" changeset="false"><tag k="addr:street" v="Elroy Road"/><tag k="addr:housenumber" v="7710"/></node><node id="-477" lat="30.131213" lon="-97.611618" changeset="false"><tag k="addr:street" v="Alps Drive"/><tag k="addr:housenumber" v="14907"/></node><node id="-478" lat="30.129666" lon="-97.615367" changeset="false"><tag k="addr:street" v="Alpine Drive"/><tag k="addr:housenumber" v="8609"/></node><node id="-479" lat="30.132216" lon="-97.614284" changeset="false"><tag k="addr:street" v="Bern Drive"/><tag k="addr:housenumber" v="14706"/></node><node id="-480" lat="30.139105" lon="-97.609504" changeset="false"><tag k="addr:street" v="Fagerquist Road"/><tag k="addr:housenumber" v="14712"/></node><node id="-481" lat="30.126944" lon="-97.595535" changeset="false"><tag k="addr:street" v="Linden Road"/><tag k="addr:housenumber" v="8737"/></node><node id="-482" lat="30.133936" lon="-97.615363" changeset="false"><tag k="addr:street" v="Swiss Drive"/><tag k="addr:housenumber" v="15036"/></node><node id="-483" lat="30.133736" lon="-97.612654" changeset="false"><tag k="addr:street" v="Swiss Drive"/><tag k="addr:housenumber" v="14800"/></node><node id="-484" lat="30.133611" lon="-97.613935" changeset="false"><tag k="addr:street" v="Chalet Drive"/><tag k="addr:housenumber" v="14702"/></node><node id="-485" lat="30.120963" lon="-97.594456" changeset="false"><tag k="addr:street" v="Jacobson Road"/><tag k="addr:housenumber" v="16416"/></node><node id="-486" lat="30.12353" lon="-97.638401" changeset="false"><tag k="addr:street" v="Farm-to-Market Road 812"/><tag k="addr:housenumber" v="13602"/></node><node id="-487" lat="30.129251" lon="-97.614171" changeset="false"><tag k="addr:street" v="Dobush Drive"/><tag k="addr:housenumber" v="14900"/></node><node id="-488" lat="30.129081" lon="-97.612299" changeset="false"><tag k="addr:street" v="Swiss Drive"/><tag k="addr:housenumber" v="14935"/></node><node id="-489" lat="30.136474" lon="-97.621298" changeset="false"><tag k="addr:street" v="Elroy Road"/><tag k="addr:housenumber" v="8218"/></node><node id="-490" lat="30.157041" lon="-97.617717" changeset="false"><tag k="addr:street" v="Kellam Road"/><tag k="addr:housenumber" v="7125"/></node><node id="-491" lat="30.130768" lon="-97.614047" changeset="false"><tag k="addr:street" v="Zurick Drive"/><tag k="addr:housenumber" v="14803"/></node><node id="-492" lat="30.130782" lon="-97.617797" changeset="false"><tag k="addr:street" v="Geneva Drive"/><tag k="addr:housenumber" v="14602"/></node><node id="-493" lat="30.146625" lon="-97.631753" changeset="false"><tag k="addr:street" v="Elroy Road"/><tag k="addr:housenumber" v="7600"/></node><node id="-494" lat="30.131735" lon="-97.591461" changeset="false"><tag k="addr:street" v="Linden Road"/><tag k="addr:housenumber" v="8500"/></node><node id="-495" lat="30.129858" lon="-97.59242" changeset="false"><tag k="addr:street" v="Linden Road"/><tag k="addr:housenumber" v="8531"/></node><node id="-496" lat="30.128646" lon="-97.593688" changeset="false"><tag k="addr:street" v="Linden Road"/><tag k="addr:housenumber" v="8621"/></node><node id="-497" lat="30.128021" lon="-97.613148" changeset="false"><tag k="addr:street" v="Dobush Drive"/><tag k="addr:housenumber" v="14907"/></node><node id="-498" lat="30.12663" lon="-97.614339" changeset="false"><tag k="addr:street" v="Swiss Drive"/><tag k="addr:housenumber" v="14950"/></node><node id="-499" lat="30.143595" lon="-97.573284" changeset="false"><tag k="addr:street" v="Hayride Road"/><tag k="addr:housenumber" v="7851"/></node><node id="-500" lat="30.133065" lon="-97.615206" changeset="false"><tag k="addr:street" v="Alps Drive"/><tag k="addr:housenumber" v="14603"/></node><node id="-501" lat="30.128764" lon="-97.613518" changeset="false"><tag k="addr:street" v="Dobush Drive"/><tag k="addr:housenumber" v="14908"/></node><node id="-502" lat="30.126353" lon="-97.618937" changeset="false"><tag k="addr:street" v="Plover Place"/><tag k="addr:housenumber" v="14541"/></node><node id="-503" lat="30.12373" lon="-97.5982" changeset="false"><tag k="addr:street" v="Jacobson Road"/><tag k="addr:housenumber" v="16100"/></node><node id="-504" lat="30.147469" lon="-97.626896" changeset="false"><tag k="addr:street" v="Elroy Road"/><tag k="addr:housenumber" v="7700"/></node><node id="-505" lat="30.131386" lon="-97.61663" changeset="false"><tag k="addr:street" v="Vevey Drive"/><tag k="addr:housenumber" v="14605"/></node><node id="-506" lat="30.131213" lon="-97.61629" changeset="false"><tag k="addr:street" v="Vevey Drive"/><tag k="addr:housenumber" v="14607"/></node><node id="-507" lat="30.131629" lon="-97.616455" changeset="false"><tag k="addr:street" v="Vevey Drive"/><tag k="addr:housenumber" v="14606"/></node><node id="-508" lat="30.134279" lon="-97.615126" changeset="false"><tag k="addr:street" v="Swiss Drive"/><tag k="addr:housenumber" v="15040"/></node><node id="-509" lat="30.12882" lon="-97.614782" changeset="false"><tag k="addr:street" v="Dobush Drive"/><tag k="addr:housenumber" v="14805"/></node><node id="-510" lat="30.128183" lon="-97.614135" changeset="false"><tag k="addr:street" v="Lucerne Drive"/><tag k="addr:housenumber" v="14902"/></node><node id="-511" lat="30.129644" lon="-97.619635" changeset="false"><tag k="addr:street" v="Plover Place"/><tag k="addr:housenumber" v="14404"/></node><node id="-512" lat="30.149557" lon="-97.58371" changeset="false"><tag k="addr:street" v="Timber Hills Drive"/><tag k="addr:housenumber" v="7505"/></node><node id="-513" lat="30.135046" lon="-97.580925" changeset="false"><tag k="addr:street" v="Fagerquist Road"/><tag k="addr:housenumber" v="16615"/></node><node id="-514" lat="30.133056" lon="-97.614547" changeset="false"><tag k="addr:street" v="Alps Drive"/><tag k="addr:housenumber" v="14700"/></node><node id="-515" lat="30.132817" lon="-97.61489" changeset="false"><tag k="addr:street" v="Alps Drive"/><tag k="addr:housenumber" v="14701"/></node><node id="-516" lat="30.132367" lon="-97.612414" changeset="false"><tag k="addr:street" v="Chalet Drive"/><tag k="addr:housenumber" v="14805"/></node><node id="-517" lat="30.132069" lon="-97.610421" changeset="false"><tag k="addr:street" v="Swiss Drive"/><tag k="addr:housenumber" v="14910"/></node><node id="-518" lat="30.124503" lon="-97.599071" changeset="false"><tag k="addr:street" v="Jacobson Road"/><tag k="addr:housenumber" v="16000"/></node><node id="-519" lat="30.132996" lon="-97.615459" changeset="false"><tag k="addr:street" v="Alps Drive"/><tag k="addr:housenumber" v="14601"/></node><node id="-520" lat="30.132979" lon="-97.615944" changeset="false"><tag k="addr:street" v="Swiss Drive"/><tag k="addr:housenumber" v="15026"/></node><node id="-521" lat="30.134248" lon="-97.613004" changeset="false"><tag k="addr:street" v="Alpine Drive"/><tag k="addr:housenumber" v="8400"/></node><node id="-522" lat="30.134045" lon="-97.61421" changeset="false"><tag k="addr:street" v="Swiss Drive"/><tag k="addr:housenumber" v="15053"/></node><node id="-523" lat="30.132811" lon="-97.610896" changeset="false"><tag k="addr:street" v="Swiss Drive"/><tag k="addr:housenumber" v="14902"/></node><node id="-524" lat="30.120224" lon="-97.593454" changeset="false"><tag k="addr:street" v="Jacobson Road"/><tag k="addr:housenumber" v="16516"/></node><node id="-525" lat="30.127981" lon="-97.614708" changeset="false"><tag k="addr:street" v="Lucerne Drive"/><tag k="addr:housenumber" v="14901"/></node><node id="-526" lat="30.122627" lon="-97.633378" changeset="false"><tag k="addr:street" v="Elroy Road"/><tag k="addr:housenumber" v="9016"/></node><node id="-527" lat="30.119515" lon="-97.592656" changeset="false"><tag k="addr:street" v="Jacobson Road"/><tag k="addr:housenumber" v="16608"/></node><node id="-528" lat="30.119378" lon="-97.592473" changeset="false"><tag k="addr:street" v="Jacobson Road"/><tag k="addr:housenumber" v="16612"/></node><node id="-529" lat="30.128838" lon="-97.616489" changeset="false"><tag k="addr:street" v="Swiss Drive"/><tag k="addr:housenumber" v="14966"/></node><node id="-530" lat="30.12119" lon="-97.59454" changeset="false"><tag k="addr:street" v="Jacobson Road"/><tag k="addr:housenumber" v="16412"/></node><node id="-531" lat="30.130008" lon="-97.612922" changeset="false"><tag k="addr:street" v="Vevey Drive"/><tag k="addr:housenumber" v="14902"/></node><node id="-532" lat="30.129958" lon="-97.614189" changeset="false"><tag k="addr:street" v="Vevey Drive"/><tag k="addr:housenumber" v="14809"/></node><node id="-533" lat="30.142423" lon="-97.586581" changeset="false"><tag k="addr:street" v="Timber Hills Drive"/><tag k="addr:housenumber" v="7903"/></node><node id="-534" lat="30.130834" lon="-97.591322" changeset="false"><tag k="addr:street" v="Linden Road"/><tag k="addr:housenumber" v="8509"/></node><node id="-535" lat="30.129695" lon="-97.603309" changeset="false"><tag k="addr:street" v="Jacobson Road"/><tag k="addr:housenumber" v="15620"/></node><node id="-536" lat="30.129357" lon="-97.602552" changeset="false"><tag k="addr:street" v="Jacobson Road"/><tag k="addr:housenumber" v="15630"/></node><node id="-537" lat="30.127987" lon="-97.605403" changeset="false"><tag k="addr:street" v="Jacobson Road"/><tag k="addr:housenumber" v="15501"/></node><node id="-538" lat="30.159647" lon="-97.622094" changeset="false"><tag k="addr:street" v="Kellam Road"/><tag k="addr:housenumber" v="6915"/></node><node id="-539" lat="30.148345" lon="-97.579668" changeset="false"><tag k="addr:street" v="Pearce Lane"/><tag k="addr:housenumber" v="16203"/></node><node id="-540" lat="30.148249" lon="-97.581968" changeset="false"><tag k="addr:street" v="Pearce Lane"/><tag k="addr:housenumber" v="16007"/></node><node id="-541" lat="30.131223" lon="-97.615517" changeset="false"><tag k="addr:street" v="Vevey Drive"/><tag k="addr:housenumber" v="14702"/></node><node id="-542" lat="30.131058" lon="-97.616025" changeset="false"><tag k="addr:street" v="Vevey Drive"/><tag k="addr:housenumber" v="14701"/></node><node id="-543" lat="30.13116" lon="-97.62109" changeset="false"><tag k="addr:street" v="Plover Place"/><tag k="addr:housenumber" v="14300"/></node><node id="-544" lat="30.141079" lon="-97.589311" changeset="false"><tag k="addr:street" v="Timber Hills Drive"/><tag k="addr:housenumber" v="8006"/></node><node id="-545" lat="30.14391" lon="-97.619625" changeset="false"><tag k="addr:street" v="Elroy Road"/><tag k="addr:housenumber" v="7810"/></node><node id="-546" lat="30.140681" lon="-97.597055" changeset="false"><tag k="addr:street" v="Fagerquist Road"/><tag k="addr:housenumber" v="15700"/></node><node id="-547" lat="30.137719" lon="-97.61824" changeset="false"><tag k="addr:street" v="Jacobson Road"/><tag k="addr:housenumber" v="14204"/></node><node id="-548" lat="30.135598" lon="-97.616105" changeset="false"><tag k="addr:street" v="Jacobson Road"/><tag k="addr:housenumber" v="14417"/></node><node id="-549" lat="30.133135" lon="-97.613065" changeset="false"><tag k="addr:street" v="Alpine Drive"/><tag k="addr:housenumber" v="8407"/></node><node id="-550" lat="30.133191" lon="-97.615824" changeset="false"><tag k="addr:street" v="Swiss Drive"/><tag k="addr:housenumber" v="15028"/></node><node id="-551" lat="30.145986" lon="-97.631443" changeset="false"><tag k="addr:street" v="Elroy Road"/><tag k="addr:housenumber" v="7610"/></node><node id="-552" lat="30.128711" lon="-97.616339" changeset="false"><tag k="addr:street" v="Swiss Drive"/><tag k="addr:housenumber" v="14964"/></node><node id="-553" lat="30.137628" lon="-97.619414" changeset="false"><tag k="addr:street" v="Elroy Road"/><tag k="addr:housenumber" v="8126"/></node><node id="-554" lat="30.121193" lon="-97.634391" changeset="false"><tag k="addr:street" v="Elroy Road"/><tag k="addr:housenumber" v="9039"/></node><node id="-555" lat="30.130917" lon="-97.622872" changeset="false"><tag k="addr:street" v="Larkdale Lane"/><tag k="addr:housenumber" v="14200"/></node><node id="-556" lat="30.148091" lon="-97.58704" changeset="false"><tag k="addr:street" v="Forest Glenn Cove"/><tag k="addr:housenumber" v="15800"/></node><node id="-557" lat="30.129925" lon="-97.617223" changeset="false"><tag k="addr:street" v="Swiss Drive"/><tag k="addr:housenumber" v="14975"/></node><node id="-558" lat="30.12651" lon="-97.59595" changeset="false"><tag k="addr:street" v="Linden Road"/><tag k="addr:housenumber" v="8745"/></node><node id="-559" lat="30.123971" lon="-97.616375" changeset="false"><tag k="addr:street" v="Plover Place"/><tag k="addr:housenumber" v="14617"/></node><node id="-560" lat="30.123352" lon="-97.616097" changeset="false"><tag k="addr:street" v="Plover Place"/><tag k="addr:housenumber" v="14629"/></node><node id="-561" lat="30.132522" lon="-97.61722" changeset="false"><tag k="addr:street" v="Swiss Drive"/><tag k="addr:housenumber" v="15010"/></node><node id="-562" lat="30.131978" lon="-97.613834" changeset="false"><tag k="addr:street" v="Bern Drive"/><tag k="addr:housenumber" v="14800"/></node><node id="-563" lat="30.131789" lon="-97.616022" changeset="false"><tag k="addr:street" v="Zurick Drive"/><tag k="addr:housenumber" v="14603"/></node><node id="-564" lat="30.124511" lon="-97.615814" changeset="false"><tag k="addr:street" v="Plover Place"/><tag k="addr:housenumber" v="14620"/></node><node id="-565" lat="30.122323" lon="-97.633808" changeset="false"><tag k="addr:street" v="Elroy Road"/><tag k="addr:housenumber" v="9022"/></node><node id="-566" lat="30.144884" lon="-97.621784" changeset="false"><tag k="addr:street" v="Elroy Road"/><tag k="addr:housenumber" v="7760"/></node><node id="-567" lat="30.131048" lon="-97.591119" changeset="false"><tag k="addr:street" v="Linden Road"/><tag k="addr:housenumber" v="8505"/></node><node id="-568" lat="30.130152" lon="-97.603784" changeset="false"><tag k="addr:street" v="Jacobson Road"/><tag k="addr:housenumber" v="15610"/></node><node id="-569" lat="30.129894" lon="-97.593979" changeset="false"><tag k="addr:street" v="Linden Road"/><tag k="addr:housenumber" v="8612"/></node><node id="-570" lat="30.134226" lon="-97.613566" changeset="false"><tag k="addr:street" v="Swiss Drive"/><tag k="addr:housenumber" v="15056"/></node><node id="-571" lat="30.133789" lon="-97.619182" changeset="false"><tag k="addr:street" v="Elroy Road"/><tag k="addr:housenumber" v="8315"/></node><node id="-572" lat="30.140965" lon="-97.592622" changeset="false"><tag k="addr:street" v="Fagerquist Road"/><tag k="addr:housenumber" v="15805"/></node><node id="-573" lat="30.136592" lon="-97.583852" changeset="false"><tag k="addr:street" v="Fagerquist Road"/><tag k="addr:housenumber" v="16417"/></node><node id="-574" lat="30.133208" lon="-97.614042" changeset="false"><tag k="addr:street" v="Alpine Drive"/><tag k="addr:housenumber" v="8408"/></node><node id="-575" lat="30.133165" lon="-97.613985" changeset="false"><tag k="addr:street" v="Chalet Drive"/><tag k="addr:housenumber" v="14705"/></node><node id="-576" lat="30.130315" lon="-97.617715" changeset="false"><tag k="addr:street" v="Geneva Drive"/><tag k="addr:housenumber" v="14603"/></node><node id="-577" lat="30.130223" lon="-97.617646" changeset="false"><tag k="addr:street" v="Swiss Drive"/><tag k="addr:housenumber" v="14979"/></node><node id="-578" lat="30.129796" lon="-97.615932" changeset="false"><tag k="addr:street" v="Geneva Drive"/><tag k="addr:housenumber" v="14709"/></node><node id="-579" lat="30.129792" lon="-97.615886" changeset="false"><tag k="addr:street" v="Geneva Drive"/><tag k="addr:housenumber" v="14708"/></node></osm>