<?xml version="1.0" encoding="UTF-8"?><osm version="0.6" generator="github.com/aaronlidman/osm-and-geojson"><node id="-1" lat="30.432792" lon="-97.772246" changeset="false"><tag k="addr:street" v="Parliament Place"/><tag k="addr:housenumber" v="8001"/><tag k="coa:place_id" v="283221"/></node><node id="-2" lat="30.445815" lon="-97.792159" changeset="false"><tag k="addr:street" v="Mossbrook Cove"/><tag k="addr:housenumber" v="12006"/><tag k="coa:place_id" v="384992"/></node><node id="-3" lat="30.45196" lon="-97.793481" changeset="false"><tag k="addr:street" v="Caldwell Drive"/><tag k="addr:housenumber" v="13600"/><tag k="coa:place_id" v="506828"/></node><node id="-4" lat="30.447626" lon="-97.803849" changeset="false"><tag k="addr:street" v="Millwright Parkway"/><tag k="addr:housenumber" v="11807"/><tag k="coa:place_id" v="1047218"/></node><node id="-5" lat="30.447389" lon="-97.800988" changeset="false"><tag k="addr:street" v="Swan Drive"/><tag k="addr:housenumber" v="11901"/><tag k="coa:place_id" v="95055"/></node><node id="-6" lat="30.431613" lon="-97.771483" changeset="false"><tag k="addr:street" v="Parliament Place"/><tag k="addr:housenumber" v="7809"/><tag k="coa:place_id" v="317685"/></node><node id="-7" lat="30.435475" lon="-97.778462" changeset="false"><tag k="addr:street" v="Fathom Circle"/><tag k="addr:housenumber" v="8408"/><tag k="coa:place_id" v="497019"/></node><node id="-8" lat="30.450424" lon="-97.793279" changeset="false"><tag k="addr:street" v="Caldwell Drive"/><tag k="addr:housenumber" v="13506"/><tag k="coa:place_id" v="506786"/></node><node id="-9" lat="30.429898" lon="-97.775502" changeset="false"><tag k="addr:street" v="Queens Way"/><tag k="addr:housenumber" v="11504"/><tag k="coa:place_id" v="1047602"/></node><node id="-10" lat="30.432366" lon="-97.775318" changeset="false"><tag k="addr:street" v="Spicewood Springs Road"/><tag k="addr:housenumber" v="8600"/><tag k="coa:place_id" v="507236"/></node><node id="-11" lat="30.450645" lon="-97.792526" changeset="false"><tag k="addr:street" v="Caldwell Drive"/><tag k="addr:housenumber" v="13509"/><tag k="coa:place_id" v="3255877"/></node><node id="-12" lat="30.452704" lon="-97.792297" changeset="false"><tag k="addr:street" v="Caldwell Drive"/><tag k="addr:housenumber" v="13617"/><tag k="coa:place_id" v="3379435"/></node><node id="-13" lat="30.451815" lon="-97.792652" changeset="false"><tag k="addr:street" v="Caldwell Drive"/><tag k="addr:housenumber" v="13517"/><tag k="coa:place_id" v="506846"/></node><node id="-14" lat="30.45172" lon="-97.793896" changeset="false"><tag k="addr:street" v="Lois Lane"/><tag k="addr:housenumber" v="13512"/><tag k="coa:place_id" v="5093254"/></node><node id="-15" lat="30.452235" lon="-97.793624" changeset="false"><tag k="addr:street" v="Caldwell Drive"/><tag k="addr:housenumber" v="13602"/><tag k="coa:place_id" v="506834"/></node><node id="-16" lat="30.449456" lon="-97.801058" changeset="false"><tag k="addr:street" v="Nene Drive"/><tag k="addr:housenumber" v="11920"/><tag k="coa:place_id" v="169269"/></node><node id="-17" lat="30.433312" lon="-97.773036" changeset="false"><tag k="addr:street" v="Spicewood Springs Road"/><tag k="addr:housenumber" v="8631"/><tag k="coa:place_id" v="200631"/></node><node id="-18" lat="30.43156" lon="-97.771441" changeset="false"><tag k="addr:street" v="Parliament Place"/><tag k="addr:housenumber" v="7807"/><tag k="coa:place_id" v="317673"/></node><node id="-19" lat="30.454705" lon="-97.793236" changeset="false"><tag k="addr:street" v="Woodland Village Drive"/><tag k="addr:housenumber" v="10007"/><tag k="coa:place_id" v="982166"/></node><node id="-20" lat="30.452695" lon="-97.792649" changeset="false"><tag k="addr:street" v="Caldwell Drive"/><tag k="addr:housenumber" v="13611"/><tag k="coa:place_id" v="506816"/></node><node id="-21" lat="30.43264" lon="-97.776898" changeset="false"><tag k="addr:street" v="Spicewood Springs Road"/><tag k="addr:housenumber" v="8585"/><tag k="coa:place_id" v="168059"/></node><node id="-22" lat="30.447068" lon="-97.795188" changeset="false"><tag k="addr:street" v="Anderson Mill Road"/><tag k="addr:housenumber" v="9801"/><tag k="coa:place_id" v="216304"/></node><node id="-23" lat="30.447195" lon="-97.794663" changeset="false"><tag k="addr:street" v="Anderson Mill Road"/><tag k="addr:housenumber" v="9725"/><tag k="coa:place_id" v="3187052"/></node><node id="-24" lat="30.434236" lon="-97.770577" changeset="false"><tag k="addr:street" v="Spicewood Springs Road"/><tag k="addr:housenumber" v="8661"/><tag k="coa:place_id" v="433948"/></node><node id="-25" lat="30.433782" lon="-97.770164" changeset="false"><tag k="addr:street" v="Spicewood Springs Road"/><tag k="addr:housenumber" v="8666"/><tag k="coa:place_id" v="308552"/></node><node id="-26" lat="30.447034" lon="-97.791796" changeset="false"><tag k="addr:street" v="Anderson Mill Road"/><tag k="addr:housenumber" v="9617"/><tag k="coa:place_id" v="377931"/></node><node id="-27" lat="30.44649" lon="-97.796875" changeset="false"><tag k="addr:street" v="Anderson Mill Road"/><tag k="addr:housenumber" v="9815"/><tag k="coa:place_id" v="384566"/></node><node id="-28" lat="30.444799" lon="-97.793513" changeset="false"><tag k="addr:street" v="Clearock Drive"/><tag k="addr:housenumber" v="9201"/><tag k="coa:place_id" v="379778"/></node><node id="-29" lat="30.448285" lon="-97.793504" changeset="false"><tag k="addr:street" v="Anderson Mill Road"/><tag k="addr:housenumber" v="9706"/><tag k="coa:place_id" v="3315352"/></node><node id="-30" lat="30.446179" lon="-97.793743" changeset="false"><tag k="addr:street" v="Anderson Mill Road"/><tag k="addr:housenumber" v="9719"/><tag k="coa:place_id" v="90768"/></node><node id="-31" lat="30.453117" lon="-97.794497" changeset="false"><tag k="addr:street" v="Egret Circle"/><tag k="addr:housenumber" v="12301"/><tag k="coa:place_id" v="514598"/></node><node id="-32" lat="30.433835" lon="-97.770055" changeset="false"><tag k="addr:street" v="Spicewood Springs Road"/><tag k="addr:housenumber" v="8668"/><tag k="coa:place_id" v="1011986"/></node><node id="-33" lat="30.448588" lon="-97.793106" changeset="false"><tag k="addr:street" v="Anderson Mill Road"/><tag k="addr:housenumber" v="9700"/><tag k="coa:place_id" v="153406"/></node><node id="-34" lat="30.444577" lon="-97.791756" changeset="false"><tag k="addr:street" v="Balcones Club Drive"/><tag k="addr:housenumber" v="9116"/><tag k="coa:place_id" v="379448"/></node><node id="-35" lat="30.447255" lon="-97.797949" changeset="false"><tag k="addr:street" v="Anderson Mill Road"/><tag k="addr:housenumber" v="9908"/><tag k="coa:place_id" v="173031"/></node><node id="-36" lat="30.446789" lon="-97.795929" changeset="false"><tag k="addr:street" v="Anderson Mill Road"/><tag k="addr:housenumber" v="9807"/><tag k="coa:place_id" v="332332"/></node><node id="-37" lat="30.445427" lon="-97.792722" changeset="false"><tag k="addr:street" v="Clearock Drive"/><tag k="addr:housenumber" v="9104"/><tag k="coa:place_id" v="379460"/></node><node id="-38" lat="30.451473" lon="-97.794097" changeset="false"><tag k="addr:street" v="Lois Lane"/><tag k="addr:housenumber" v="13510"/><tag k="coa:place_id" v="5093253"/></node><node id="-39" lat="30.447648" lon="-97.793392" changeset="false"><tag k="addr:street" v="Anderson Mill Road"/><tag k="addr:housenumber" v="9707"/><tag k="coa:place_id" v="592042"/></node><node id="-40" lat="30.445098" lon="-97.79431" changeset="false"><tag k="addr:street" v="Clearock Drive"/><tag k="addr:housenumber" v="9204"/><tag k="coa:place_id" v="379490"/></node><node id="-41" lat="30.451544" lon="-97.792601" changeset="false"><tag k="addr:street" v="Caldwell Drive"/><tag k="addr:housenumber" v="13515"/><tag k="coa:place_id" v="506840"/></node><node id="-42" lat="30.436483" lon="-97.775964" changeset="false"><tag k="addr:street" v="Fathom Circle"/><tag k="addr:housenumber" v="8300"/><tag k="coa:place_id" v="245268"/></node><node id="-43" lat="30.447753" lon="-97.802975" changeset="false"><tag k="addr:street" v="Missel Thrush Drive"/><tag k="addr:housenumber" v="10257"/><tag k="coa:place_id" v="1046978"/></node><node id="-44" lat="30.455253" lon="-97.792644" changeset="false"><tag k="addr:street" v="Woodland Village Drive"/><tag k="addr:housenumber" v="9901"/><tag k="coa:place_id" v="514142"/></node><node id="-45" lat="30.435379" lon="-97.777293" changeset="false"><tag k="addr:street" v="Fathom Circle"/><tag k="addr:housenumber" v="8330"/><tag k="coa:place_id" v="165417"/></node><node id="-46" lat="30.449391" lon="-97.797513" changeset="false"><tag k="addr:street" v="Swallow Drive"/><tag k="addr:housenumber" v="12100"/><tag k="coa:place_id" v="120021"/></node><node id="-47" lat="30.44778" lon="-97.794985" changeset="false"><tag k="addr:street" v="Anderson Mill Road"/><tag k="addr:housenumber" v="9718"/><tag k="coa:place_id" v="121260"/></node><node id="-48" lat="30.433896" lon="-97.771676" changeset="false"><tag k="addr:street" v="Spicewood Springs Road"/><tag k="addr:housenumber" v="8653"/><tag k="coa:place_id" v="1021917"/></node><node id="-49" lat="30.432482" lon="-97.76958" changeset="false"><tag k="addr:street" v="Barrington Way"/><tag k="addr:housenumber" v="12018 1/2"/><tag k="coa:place_id" v="3301800"/></node><node id="-50" lat="30.435477" lon="-97.77709" changeset="false"><tag k="addr:street" v="Fathom Circle"/><tag k="addr:housenumber" v="8328"/><tag k="coa:place_id" v="121429"/></node><node id="-51" lat="30.433882" lon="-97.770091" changeset="false"><tag k="addr:street" v="Spicewood Springs Road"/><tag k="addr:housenumber" v="8668 1/2"/><tag k="coa:place_id" v="3185301"/></node><node id="-52" lat="30.431916" lon="-97.77671" changeset="false"><tag k="addr:street" v="Spicewood Springs Road"/><tag k="addr:housenumber" v="8586"/><tag k="coa:place_id" v="934334"/></node><node id="-53" lat="30.447864" lon="-97.792902" changeset="false"><tag k="addr:street" v="Anderson Mill Road"/><tag k="addr:housenumber" v="9701"/><tag k="coa:place_id" v="308660"/></node><node id="-54" lat="30.433548" lon="-97.772271" changeset="false"><tag k="addr:street" v="Spicewood Springs Road"/><tag k="addr:housenumber" v="8643"/><tag k="coa:place_id" v="507248"/></node><node id="-55" lat="30.449816" lon="-97.796084" changeset="false"><tag k="addr:street" v="Lois Lane"/><tag k="addr:housenumber" v="13405 1/2"/><tag k="coa:place_id" v="3199424"/></node><node id="-56" lat="30.434166" lon="-97.770546" changeset="false"><tag k="addr:street" v="Spicewood Springs Road"/><tag k="addr:housenumber" v="8661 1/2"/><tag k="coa:place_id" v="3194708"/></node><node id="-57" lat="30.451019" lon="-97.794536" changeset="false"><tag k="addr:street" v="Lois Lane"/><tag k="addr:housenumber" v="13506"/><tag k="coa:place_id" v="5103171"/></node><node id="-58" lat="30.450892" lon="-97.793835" changeset="false"><tag k="addr:street" v="Lois Lane"/><tag k="addr:housenumber" v="13507"/><tag k="coa:place_id" v="3339063"/></node><node id="-59" lat="30.444512" lon="-97.790132" changeset="false"><tag k="addr:street" v="Balcones Club Drive"/><tag k="addr:housenumber" v="9122"/><tag k="coa:place_id" v="1109170"/></node><node id="-60" lat="30.4527" lon="-97.794092" changeset="false"><tag k="addr:street" v="Caldwell Drive"/><tag k="addr:housenumber" v="13604"/><tag k="coa:place_id" v="3180062"/></node><node id="-61" lat="30.446812" lon="-97.795652" changeset="false"><tag k="addr:street" v="Anderson Mill Road"/><tag k="addr:housenumber" v="9805"/><tag k="coa:place_id" v="384542"/></node><node id="-62" lat="30.45266" lon="-97.793011" changeset="false"><tag k="addr:street" v="Caldwell Drive"/><tag k="addr:housenumber" v="13609"/><tag k="coa:place_id" v="506810"/></node><node id="-63" lat="30.435798" lon="-97.778187" changeset="false"><tag k="addr:street" v="Fathom Circle"/><tag k="addr:housenumber" v="8340"/><tag k="coa:place_id" v="150711"/></node><node id="-64" lat="30.453099" lon="-97.79493" changeset="false"><tag k="addr:street" v="Egret Circle"/><tag k="addr:housenumber" v="12304"/><tag k="coa:place_id" v="514580"/></node><node id="-65" lat="30.434662" lon="-97.778181" changeset="false"><tag k="addr:street" v="Fathom Circle"/><tag k="addr:housenumber" v="8403"/><tag k="coa:place_id" v="245280"/></node><node id="-66" lat="30.448473" lon="-97.799187" changeset="false"><tag k="addr:street" v="Swallow Drive"/><tag k="addr:housenumber" v="12001"/><tag k="coa:place_id" v="156867"/></node><node id="-67" lat="30.431688" lon="-97.771513" changeset="false"><tag k="addr:street" v="Parliament Place"/><tag k="addr:housenumber" v="7811"/><tag k="coa:place_id" v="460209"/></node><node id="-68" lat="30.432847" lon="-97.77227" changeset="false"><tag k="addr:street" v="Parliament Place"/><tag k="addr:housenumber" v="8003"/><tag k="coa:place_id" v="283227"/></node><node id="-69" lat="30.448054" lon="-97.793732" changeset="false"><tag k="addr:street" v="Anderson Mill Road"/><tag k="addr:housenumber" v="9708"/><tag k="coa:place_id" v="709390"/></node><node id="-70" lat="30.443137" lon="-97.787503" changeset="false"><tag k="addr:street" v="Balcones Club Drive"/><tag k="addr:housenumber" v="9218"/><tag k="coa:place_id" v="745893"/></node><node id="-71" lat="30.432622" lon="-97.772153" changeset="false"><tag k="addr:street" v="Parliament Place"/><tag k="addr:housenumber" v="7923"/><tag k="coa:place_id" v="301059"/></node><node id="-72" lat="30.432678" lon="-97.772208" changeset="false"><tag k="addr:street" v="Parliament Place"/><tag k="addr:housenumber" v="7925"/><tag k="coa:place_id" v="301065"/></node><node id="-73" lat="30.43295" lon="-97.772302" changeset="false"><tag k="addr:street" v="Parliament Place"/><tag k="addr:housenumber" v="8007"/><tag k="coa:place_id" v="283251"/></node><node id="-74" lat="30.432903" lon="-97.772299" changeset="false"><tag k="addr:street" v="Parliament Place"/><tag k="addr:housenumber" v="8005"/><tag k="coa:place_id" v="283239"/></node><node id="-75" lat="30.433011" lon="-97.772333" changeset="false"><tag k="addr:street" v="Parliament Place"/><tag k="addr:housenumber" v="8009"/><tag k="coa:place_id" v="283263"/></node><node id="-76" lat="30.433072" lon="-97.772352" changeset="false"><tag k="addr:street" v="Parliament Place"/><tag k="addr:housenumber" v="8011"/><tag k="coa:place_id" v="283269"/></node><node id="-77" lat="30.433122" lon="-97.772389" changeset="false"><tag k="addr:street" v="Parliament Place"/><tag k="addr:housenumber" v="8013"/><tag k="coa:place_id" v="283281"/></node><node id="-78" lat="30.433191" lon="-97.772412" changeset="false"><tag k="addr:street" v="Parliament Place"/><tag k="addr:housenumber" v="8015"/><tag k="coa:place_id" v="283293"/></node><node id="-79" lat="30.432519" lon="-97.772081" changeset="false"><tag k="addr:street" v="Parliament Place"/><tag k="addr:housenumber" v="7919"/><tag k="coa:place_id" v="301047"/></node><node id="-80" lat="30.432569" lon="-97.772117" changeset="false"><tag k="addr:street" v="Parliament Place"/><tag k="addr:housenumber" v="7921"/><tag k="coa:place_id" v="301053"/></node><node id="-81" lat="30.432408" lon="-97.772013" changeset="false"><tag k="addr:street" v="Parliament Place"/><tag k="addr:housenumber" v="7915"/><tag k="coa:place_id" v="301035"/></node><node id="-82" lat="30.43245" lon="-97.772044" changeset="false"><tag k="addr:street" v="Parliament Place"/><tag k="addr:housenumber" v="7917"/><tag k="coa:place_id" v="301041"/></node><node id="-83" lat="30.432276" lon="-97.771907" changeset="false"><tag k="addr:street" v="Parliament Place"/><tag k="addr:housenumber" v="7911"/><tag k="coa:place_id" v="301017"/></node><node id="-84" lat="30.432357" lon="-97.771971" changeset="false"><tag k="addr:street" v="Parliament Place"/><tag k="addr:housenumber" v="7913"/><tag k="coa:place_id" v="470361"/></node><node id="-85" lat="30.432076" lon="-97.771788" changeset="false"><tag k="addr:street" v="Parliament Place"/><tag k="addr:housenumber" v="7905"/><tag k="coa:place_id" v="322803"/></node><node id="-86" lat="30.432182" lon="-97.771869" changeset="false"><tag k="addr:street" v="Parliament Place"/><tag k="addr:housenumber" v="7909"/><tag k="coa:place_id" v="322761"/></node><node id="-87" lat="30.431867" lon="-97.771631" changeset="false"><tag k="addr:street" v="Parliament Place"/><tag k="addr:housenumber" v="7901"/><tag k="coa:place_id" v="322815"/></node><node id="-88" lat="30.431994" lon="-97.771671" changeset="false"><tag k="addr:street" v="Parliament Place"/><tag k="addr:housenumber" v="7903"/><tag k="coa:place_id" v="322809"/></node><node id="-89" lat="30.432121" lon="-97.771818" changeset="false"><tag k="addr:street" v="Parliament Place"/><tag k="addr:housenumber" v="7907"/><tag k="coa:place_id" v="322797"/></node><node id="-90" lat="30.447231" lon="-97.79385" changeset="false"><tag k="addr:street" v="Anderson Mill Road"/><tag k="addr:housenumber" v="9713"/><tag k="coa:place_id" v="90763"/></node><node id="-91" lat="30.447163" lon="-97.794121" changeset="false"><tag k="addr:street" v="Anderson Mill Road"/><tag k="addr:housenumber" v="9717"/><tag k="coa:place_id" v="90767"/></node></osm>