<?xml version="1.0" encoding="UTF-8"?><osm version="0.6" generator="github.com/aaronlidman/osm-and-geojson"><node id="-1" lat="30.240328" lon="-97.733817" changeset="false"><tag k="addr:street" v="Taylor Gaines Street"/><tag k="addr:housenumber" v="1701"/><tag k="addr:postcode" v="78741"/></node><node id="-2" lat="30.243263" lon="-97.731495" changeset="false"><tag k="addr:street" v="Lupine Lane"/><tag k="addr:housenumber" v="1617"/><tag k="addr:postcode" v="78741"/></node><node id="-3" lat="30.245987" lon="-97.733906" changeset="false"><tag k="addr:street" v="Manlove Street"/><tag k="addr:housenumber" v="1106"/><tag k="addr:postcode" v="78741"/></node><node id="-4" lat="30.244392" lon="-97.733585" changeset="false"><tag k="addr:street" v="Lupine Lane"/><tag k="addr:housenumber" v="1509"/><tag k="addr:postcode" v="78741"/></node><node id="-5" lat="30.243546" lon="-97.730023" changeset="false"><tag k="addr:street" v="East Riverside Drive"/><tag k="addr:housenumber" v="1725"/><tag k="addr:postcode" v="78741"/></node><node id="-6" lat="30.240905" lon="-97.736117" changeset="false"><tag k="addr:street" v="I 35 Frontage Road"/><tag k="addr:housenumber" v="1625"/><tag k="addr:postcode" v="78741"/></node><node id="-7" lat="30.24528" lon="-97.733184" changeset="false"><tag k="addr:street" v="Inglewood Street"/><tag k="addr:housenumber" v="1507"/><tag k="addr:postcode" v="78741"/></node><node id="-8" lat="30.245129" lon="-97.733991" changeset="false"><tag k="addr:street" v="Lupine Lane"/><tag k="addr:housenumber" v="1500"/><tag k="addr:postcode" v="78741"/></node><node id="-9" lat="30.245082" lon="-97.733853" changeset="false"><tag k="addr:street" v="Lupine Lane"/><tag k="addr:housenumber" v="1502"/><tag k="addr:postcode" v="78741"/></node><node id="-10" lat="30.242696" lon="-97.73408" changeset="false"><tag k="addr:street" v="Elmhurst Drive"/><tag k="addr:housenumber" v="1603"/><tag k="addr:postcode" v="78741"/></node><node id="-11" lat="30.242689" lon="-97.734755" changeset="false"><tag k="addr:street" v="Summit Street"/><tag k="addr:housenumber" v="1506"/><tag k="addr:postcode" v="78741"/></node><node id="-12" lat="30.243226" lon="-97.730377" changeset="false"><tag k="addr:street" v="East Riverside Drive"/><tag k="addr:housenumber" v="1729"/><tag k="addr:postcode" v="78741"/></node><node id="-13" lat="30.242147" lon="-97.734141" changeset="false"><tag k="addr:street" v="Bellaire Drive"/><tag k="addr:housenumber" v="1504"/><tag k="addr:postcode" v="78741"/></node><node id="-14" lat="30.245169" lon="-97.7329" changeset="false"><tag k="addr:street" v="Inglewood Street"/><tag k="addr:housenumber" v="1511"/><tag k="addr:postcode" v="78741"/></node><node id="-15" lat="30.244732" lon="-97.731178" changeset="false"><tag k="addr:street" v="Old East Riverside Drive"/><tag k="addr:housenumber" v="1613"/><tag k="addr:postcode" v="78741"/></node><node id="-16" lat="30.245168" lon="-97.732437" changeset="false"><tag k="addr:street" v="Summit Street"/><tag k="addr:housenumber" v="1107"/><tag k="addr:postcode" v="78741"/></node><node id="-17" lat="30.246033" lon="-97.732918" changeset="false"><tag k="addr:street" v="Inglewood Street"/><tag k="addr:housenumber" v="1502"/><tag k="addr:postcode" v="78741"/></node><node id="-18" lat="30.2463" lon="-97.73237" changeset="false"><tag k="addr:street" v="East Riverside Drive"/><tag k="addr:housenumber" v="1511"/><tag k="addr:postcode" v="78741"/></node><node id="-19" lat="30.247732" lon="-97.734932" changeset="false"><tag k="addr:street" v="I 35 Frontage Road"/><tag k="addr:housenumber" v="1101 1/2"/><tag k="addr:postcode" v="78741"/></node><node id="-20" lat="30.246332" lon="-97.732411" changeset="false"><tag k="addr:street" v="East Riverside Drive"/><tag k="addr:housenumber" v="1507"/><tag k="addr:postcode" v="78741"/></node><node id="-21" lat="30.245229" lon="-97.733047" changeset="false"><tag k="addr:street" v="Inglewood Street"/><tag k="addr:housenumber" v="1509"/><tag k="addr:postcode" v="78741"/></node><node id="-22" lat="30.244021" lon="-97.734645" changeset="false"><tag k="addr:street" v="Sunny Vale Street"/><tag k="addr:housenumber" v="1501"/><tag k="addr:postcode" v="78741"/></node><node id="-23" lat="30.242506" lon="-97.731256" changeset="false"><tag k="addr:street" v="Loma Drive"/><tag k="addr:housenumber" v="1307"/><tag k="addr:postcode" v="78741"/></node><node id="-24" lat="30.24009" lon="-97.733364" changeset="false"><tag k="addr:street" v="Taylor Gaines Street"/><tag k="addr:housenumber" v="1705"/><tag k="addr:postcode" v="78741"/></node><node id="-25" lat="30.240794" lon="-97.731799" changeset="false"><tag k="addr:street" v="Parker Lane"/><tag k="addr:housenumber" v="1514"/><tag k="addr:postcode" v="78741"/></node><node id="-26" lat="30.241677" lon="-97.731174" changeset="false"><tag k="addr:street" v="Parker Lane"/><tag k="addr:housenumber" v="1402"/><tag k="addr:postcode" v="78741"/></node><node id="-27" lat="30.247359" lon="-97.73443" changeset="false"><tag k="addr:street" v="I 35 Frontage Road"/><tag k="addr:housenumber" v="1111 1/2"/><tag k="addr:postcode" v="78741"/></node><node id="-28" lat="30.246161" lon="-97.733924" changeset="false"><tag k="addr:street" v="Manlove Street"/><tag k="addr:housenumber" v="1104"/><tag k="addr:postcode" v="78741"/></node><node id="-29" lat="30.243853" lon="-97.730414" changeset="false"><tag k="addr:street" v="East Riverside Drive"/><tag k="addr:housenumber" v="1723"/><tag k="addr:postcode" v="78741"/></node><node id="-30" lat="30.242685" lon="-97.735198" changeset="false"><tag k="addr:street" v="I 35 Frontage Road"/><tag k="addr:housenumber" v="1507"/><tag k="addr:postcode" v="78741"/></node><node id="-31" lat="30.243465" lon="-97.733966" changeset="false"><tag k="addr:street" v="Summit Street"/><tag k="addr:housenumber" v="1402"/><tag k="addr:postcode" v="78741"/></node><node id="-32" lat="30.24142" lon="-97.734848" changeset="false"><tag k="addr:street" v="Taylor Gaines Street"/><tag k="addr:housenumber" v="1605"/><tag k="addr:postcode" v="78741"/></node><node id="-33" lat="30.24335" lon="-97.735005" changeset="false"><tag k="addr:street" v="I 35 Frontage Road"/><tag k="addr:housenumber" v="1425 1/2"/><tag k="addr:postcode" v="78741"/></node><node id="-34" lat="30.245755" lon="-97.732951" changeset="false"><tag k="addr:street" v="Inglewood Street"/><tag k="addr:housenumber" v="1504"/><tag k="addr:postcode" v="78741"/></node></osm>