<?xml version="1.0" encoding="UTF-8"?><osm version="0.6" generator="github.com/aaronlidman/osm-and-geojson"><node id="-1" lat="30.450016" lon="-97.682368" changeset="false"><tag k="addr:street" v="Doria Drive"/><tag k="addr:housenumber" v="15025"/><tag k="addr:postcode" v="78728"/></node><node id="-2" lat="30.453458" lon="-97.680129" changeset="false"><tag k="addr:street" v="Emmett Parkway"/><tag k="addr:housenumber" v="2520"/><tag k="addr:postcode" v="78728"/></node><node id="-3" lat="30.44194" lon="-97.682657" changeset="false"><tag k="addr:street" v="Klattenhoff Drive"/><tag k="addr:housenumber" v="2212"/><tag k="addr:postcode" v="78728"/></node><node id="-4" lat="30.4463" lon="-97.685155" changeset="false"><tag k="addr:street" v="Water Well Lane"/><tag k="addr:housenumber" v="2605"/><tag k="addr:postcode" v="78728"/></node><node id="-5" lat="30.449743" lon="-97.678452" changeset="false"><tag k="addr:street" v="Wells Port Drive"/><tag k="addr:housenumber" v="15108"/><tag k="addr:postcode" v="78728"/></node><node id="-6" lat="30.454422" lon="-97.678058" changeset="false"><tag k="addr:street" v="Long Vista Drive"/><tag k="addr:housenumber" v="15405"/><tag k="addr:postcode" v="78728"/></node><node id="-7" lat="30.446047" lon="-97.681955" changeset="false"><tag k="addr:street" v="Great Willow Drive"/><tag k="addr:housenumber" v="14806"/><tag k="addr:postcode" v="78728"/></node><node id="-8" lat="30.452435" lon="-97.679882" changeset="false"><tag k="addr:street" v="Rick Whinery Drive"/><tag k="addr:housenumber" v="2441"/><tag k="addr:postcode" v="78728"/></node><node id="-9" lat="30.442336" lon="-97.679638" changeset="false"><tag k="addr:street" v="Klattenhoff Drive"/><tag k="addr:housenumber" v="2106"/><tag k="addr:postcode" v="78728"/></node><node id="-10" lat="30.450863" lon="-97.679129" changeset="false"><tag k="addr:street" v="Rick Whinery Drive"/><tag k="addr:housenumber" v="2417"/><tag k="addr:postcode" v="78728"/></node><node id="-11" lat="30.442022" lon="-97.68103" changeset="false"><tag k="addr:street" v="Alpha Collier Drive"/><tag k="addr:housenumber" v="14600"/><tag k="addr:postcode" v="78728"/></node><node id="-12" lat="30.44892" lon="-97.680844" changeset="false"><tag k="addr:street" v="Doria Drive"/><tag k="addr:housenumber" v="14967"/><tag k="addr:postcode" v="78728"/></node><node id="-13" lat="30.447526" lon="-97.684195" changeset="false"><tag k="addr:street" v="Wood Chase Trail"/><tag k="addr:housenumber" v="2504"/><tag k="addr:postcode" v="78728"/></node><node id="-14" lat="30.452807" lon="-97.681449" changeset="false"><tag k="addr:street" v="Mallard Green Lane"/><tag k="addr:housenumber" v="15216"/><tag k="addr:postcode" v="78728"/></node><node id="-15" lat="30.446241" lon="-97.685764" changeset="false"><tag k="addr:street" v="Bratton Lane"/><tag k="addr:housenumber" v="14735"/><tag k="addr:postcode" v="78728"/></node><node id="-16" lat="30.449505" lon="-97.68104" changeset="false"><tag k="addr:street" v="Doria Drive"/><tag k="addr:housenumber" v="15001"/><tag k="addr:postcode" v="78728"/></node><node id="-17" lat="30.444557" lon="-97.680395" changeset="false"><tag k="addr:street" v="Alpha Collier Drive"/><tag k="addr:housenumber" v="14710"/><tag k="addr:postcode" v="78728"/></node><node id="-18" lat="30.44703" lon="-97.676256" changeset="false"><tag k="addr:street" v="Waterway Bend"/><tag k="addr:housenumber" v="2103"/><tag k="addr:postcode" v="78728"/></node><node id="-19" lat="30.447883" lon="-97.684807" changeset="false"><tag k="addr:street" v="Haley Hollow"/><tag k="addr:housenumber" v="14800"/><tag k="addr:postcode" v="78728"/></node><node id="-20" lat="30.44957" lon="-97.682618" changeset="false"><tag k="addr:street" v="Doria Drive"/><tag k="addr:housenumber" v="15020"/><tag k="addr:postcode" v="78728"/></node><node id="-21" lat="30.441314" lon="-97.675656" changeset="false"><tag k="addr:street" v="Wells Port Drive"/><tag k="addr:housenumber" v="14710"/><tag k="addr:postcode" v="78728"/></node><node id="-22" lat="30.442002" lon="-97.682805" changeset="false"><tag k="addr:street" v="Gold Fish Pond Avenue"/><tag k="addr:housenumber" v="14500"/><tag k="addr:postcode" v="78728"/></node><node id="-23" lat="30.444142" lon="-97.676293" changeset="false"><tag k="addr:street" v="Castle View Drive"/><tag k="addr:housenumber" v="2009"/><tag k="addr:postcode" v="78728"/></node><node id="-24" lat="30.444145" lon="-97.676293" changeset="false"><tag k="addr:street" v="Castle View Drive"/><tag k="addr:housenumber" v="2109"/><tag k="addr:postcode" v="78728"/></node><node id="-25" lat="30.444674" lon="-97.680321" changeset="false"><tag k="addr:street" v="Alpha Collier Drive"/><tag k="addr:housenumber" v="14800"/><tag k="addr:postcode" v="78728"/></node><node id="-26" lat="30.44471" lon="-97.68032" changeset="false"><tag k="addr:street" v="Great Willow Drive"/><tag k="addr:housenumber" v="14701"/><tag k="addr:postcode" v="78728"/></node></osm>