<?xml version="1.0" encoding="UTF-8"?><osm version="0.6" generator="github.com/aaronlidman/osm-and-geojson"><node id="-1" lat="30.233629" lon="-97.853838" changeset="false"><tag k="addr:street" v="Porsche Lane"/><tag k="addr:housenumber" v="5616"/><tag k="coa:place_id" v="690231"/></node><node id="-2" lat="30.233854" lon="-97.863652" changeset="false"><tag k="addr:street" v="W US Highway 290,1100"/><tag k="addr:housenumber" v="6519"/><tag k="coa:place_id" v="1140895"/></node><node id="-3" lat="30.227704" lon="-97.859347" changeset="false"><tag k="addr:street" v="Reynolds Road"/><tag k="addr:housenumber" v="5703"/><tag k="coa:place_id" v="919958"/></node><node id="-4" lat="30.23482" lon="-97.857314" changeset="false"><tag k="addr:street" v="W US Highway 290,1100"/><tag k="addr:housenumber" v="6223"/><tag k="coa:place_id" v="867609"/></node><node id="-5" lat="30.229165" lon="-97.861855" changeset="false"><tag k="addr:street" v="West William Cannon Drive"/><tag k="addr:housenumber" v="5920"/><tag k="coa:place_id" v="3165544"/></node><node id="-6" lat="30.234875" lon="-97.855539" changeset="false"><tag k="addr:street" v="W US Highway 290,1100"/><tag k="addr:housenumber" v="6157"/><tag k="coa:place_id" v="838905"/></node><node id="-7" lat="30.233817" lon="-97.864288" changeset="false"><tag k="addr:street" v="W US Highway 290,1100"/><tag k="addr:housenumber" v="6539"/><tag k="coa:place_id" v="669135"/></node><node id="-8" lat="30.234903" lon="-97.852767" changeset="false"><tag k="addr:street" v="W US Highway 290,1100"/><tag k="addr:housenumber" v="6051"/><tag k="coa:place_id" v="166378"/></node><node id="-9" lat="30.226885" lon="-97.856839" changeset="false"><tag k="addr:street" v="Reynolds Road"/><tag k="addr:housenumber" v="5511"/><tag k="coa:place_id" v="1140899"/></node><node id="-10" lat="30.234929" lon="-97.852203" changeset="false"><tag k="addr:street" v="Old Fredericksburg Road"/><tag k="addr:housenumber" v="6135"/><tag k="coa:place_id" v="406354"/></node><node id="-11" lat="30.234657" lon="-97.851676" changeset="false"><tag k="addr:street" v="Old Fredericksburg Road"/><tag k="addr:housenumber" v="6110"/><tag k="coa:place_id" v="1142096"/></node><node id="-12" lat="30.234147" lon="-97.851153" changeset="false"><tag k="addr:street" v="Old Fredericksburg Road"/><tag k="addr:housenumber" v="6101"/><tag k="coa:place_id" v="3133903"/></node><node id="-13" lat="30.225354" lon="-97.849244" changeset="false"><tag k="addr:street" v="West William Cannon Drive"/><tag k="addr:housenumber" v="5110"/><tag k="coa:place_id" v="3034381"/></node><node id="-14" lat="30.23384" lon="-97.853683" changeset="false"><tag k="addr:street" v="Porsche Lane"/><tag k="addr:housenumber" v="5614"/><tag k="coa:place_id" v="690237"/></node><node id="-15" lat="30.233984" lon="-97.861382" changeset="false"><tag k="addr:street" v="W US Highway 290,1100"/><tag k="addr:housenumber" v="6403"/><tag k="coa:place_id" v="5080853"/></node><node id="-16" lat="30.230236" lon="-97.863732" changeset="false"><tag k="addr:street" v="West William Cannon Drive"/><tag k="addr:housenumber" v="6114"/><tag k="coa:place_id" v="202543"/></node><node id="-17" lat="30.231271" lon="-97.864199" changeset="false"><tag k="addr:street" v="West William Cannon Drive"/><tag k="addr:housenumber" v="6210"/><tag k="coa:place_id" v="206891"/></node><node id="-18" lat="30.231647" lon="-97.852087" changeset="false"><tag k="addr:street" v="Wolf Run"/><tag k="addr:housenumber" v="5416"/><tag k="coa:place_id" v="910959"/></node><node id="-19" lat="30.234904" lon="-97.85272" changeset="false"><tag k="addr:street" v="W US Highway 290,1100"/><tag k="addr:housenumber" v="6049"/><tag k="coa:place_id" v="282015"/></node><node id="-20" lat="30.234174" lon="-97.851395" changeset="false"><tag k="addr:street" v="Old Fredericksburg Road"/><tag k="addr:housenumber" v="6103"/><tag k="coa:place_id" v="3133902"/></node><node id="-21" lat="30.234872" lon="-97.855393" changeset="false"><tag k="addr:street" v="W US Highway 290,1100"/><tag k="addr:housenumber" v="6155"/><tag k="coa:place_id" v="708158"/></node><node id="-22" lat="30.223659" lon="-97.841901" changeset="false"><tag k="addr:street" v="West William Cannon Drive"/><tag k="addr:housenumber" v="4606"/><tag k="coa:place_id" v="147972"/></node><node id="-23" lat="30.2288" lon="-97.861485" changeset="false"><tag k="addr:street" v="West William Cannon Drive"/><tag k="addr:housenumber" v="5908"/><tag k="coa:place_id" v="3040764"/></node><node id="-24" lat="30.235537" lon="-97.847725" changeset="false"><tag k="addr:street" v="W US Highway 290,1100"/><tag k="addr:housenumber" v="5801"/><tag k="coa:place_id" v="506722"/></node><node id="-25" lat="30.224796" lon="-97.846831" changeset="false"><tag k="addr:street" v="West William Cannon Drive"/><tag k="addr:housenumber" v="4900"/><tag k="coa:place_id" v="184740"/></node><node id="-26" lat="30.23491" lon="-97.8522" changeset="false"><tag k="addr:street" v="Old Fredericksburg Road"/><tag k="addr:housenumber" v="6133"/><tag k="coa:place_id" v="920198"/></node><node id="-27" lat="30.234306" lon="-97.862125" changeset="false"><tag k="addr:street" v="W US Highway 290,1100"/><tag k="addr:housenumber" v="6411"/><tag k="coa:place_id" v="660592"/></node><node id="-28" lat="30.23368" lon="-97.857514" changeset="false"><tag k="addr:street" v="Joe Tanner Lane"/><tag k="addr:housenumber" v="6301"/><tag k="coa:place_id" v="243741"/></node><node id="-29" lat="30.235134" lon="-97.859067" changeset="false"><tag k="addr:street" v="W US Highway 290,1100"/><tag k="addr:housenumber" v="6281"/><tag k="coa:place_id" v="1034799"/></node><node id="-30" lat="30.232374" lon="-97.857211" changeset="false"><tag k="addr:street" v="Ridge Oak Road"/><tag k="addr:housenumber" v="6405"/><tag k="coa:place_id" v="110549"/></node><node id="-31" lat="30.225058" lon="-97.847458" changeset="false"><tag k="addr:street" v="West William Cannon Drive"/><tag k="addr:housenumber" v="5000"/><tag k="coa:place_id" v="207545"/></node><node id="-32" lat="30.224993" lon="-97.852995" changeset="false"><tag k="addr:street" v="West William Cannon Drive"/><tag k="addr:housenumber" v="5226"/><tag k="coa:place_id" v="602175"/></node><node id="-33" lat="30.234267" lon="-97.848807" changeset="false"><tag k="addr:street" v="Old Fredericksburg Road"/><tag k="addr:housenumber" v="6020"/><tag k="coa:place_id" v="1159253"/></node><node id="-34" lat="30.228852" lon="-97.861883" changeset="false"><tag k="addr:street" v="West William Cannon Drive"/><tag k="addr:housenumber" v="5914"/><tag k="coa:place_id" v="205471"/></node><node id="-35" lat="30.233787" lon="-97.862895" changeset="false"><tag k="addr:street" v="W US Highway 290,1100"/><tag k="addr:housenumber" v="6509"/><tag k="coa:place_id" v="914324"/></node><node id="-36" lat="30.235182" lon="-97.859492" changeset="false"><tag k="addr:street" v="W US Highway 290,1100"/><tag k="addr:housenumber" v="6301"/><tag k="coa:place_id" v="919766"/></node><node id="-37" lat="30.234877" lon="-97.854594" changeset="false"><tag k="addr:street" v="W US Highway 290,1100"/><tag k="addr:housenumber" v="6133"/><tag k="coa:place_id" v="920138"/></node><node id="-38" lat="30.234261" lon="-97.851813" changeset="false"><tag k="addr:street" v="Old Fredericksburg Road"/><tag k="addr:housenumber" v="6107"/><tag k="coa:place_id" v="1142097"/></node><node id="-39" lat="30.235104" lon="-97.860826" changeset="false"><tag k="addr:street" v="W US Highway 290,1100"/><tag k="addr:housenumber" v="6325"/><tag k="coa:place_id" v="201859"/></node><node id="-40" lat="30.234703" lon="-97.858564" changeset="false"><tag k="addr:street" v="W US Highway 290,1100"/><tag k="addr:housenumber" v="6241"/><tag k="coa:place_id" v="790863"/></node><node id="-41" lat="30.230968" lon="-97.858297" changeset="false"><tag k="addr:street" v="Ridge Oak Road"/><tag k="addr:housenumber" v="6605"/><tag k="coa:place_id" v="3053826"/></node><node id="-42" lat="30.226948" lon="-97.857816" changeset="false"><tag k="addr:street" v="Reynolds Road"/><tag k="addr:housenumber" v="5605"/><tag k="coa:place_id" v="1140898"/></node><node id="-43" lat="30.22392" lon="-97.842512" changeset="false"><tag k="addr:street" v="West William Cannon Drive"/><tag k="addr:housenumber" v="4616"/><tag k="coa:place_id" v="3501302"/></node><node id="-44" lat="30.233772" lon="-97.85342" changeset="false"><tag k="addr:street" v="Porsche Lane"/><tag k="addr:housenumber" v="5612"/><tag k="coa:place_id" v="690183"/></node><node id="-45" lat="30.234195" lon="-97.863377" changeset="false"><tag k="addr:street" v="W US Highway 290,1100"/><tag k="addr:housenumber" v="6517"/><tag k="coa:place_id" v="708140"/></node><node id="-46" lat="30.228667" lon="-97.859234" changeset="false"><tag k="addr:street" v="Reynolds Road"/><tag k="addr:housenumber" v="5711"/><tag k="coa:place_id" v="919946"/></node><node id="-47" lat="30.228606" lon="-97.860606" changeset="false"><tag k="addr:street" v="Ridge Oak Road"/><tag k="addr:housenumber" v="6805"/><tag k="coa:place_id" v="919934"/></node><node id="-48" lat="30.229991" lon="-97.853309" changeset="false"><tag k="addr:street" v="Steer Trail"/><tag k="addr:housenumber" v="6408"/><tag k="coa:place_id" v="617817"/></node><node id="-49" lat="30.225765" lon="-97.854185" changeset="false"><tag k="addr:street" v="Beckett Road"/><tag k="addr:housenumber" v="6801"/><tag k="coa:place_id" v="3086886"/></node><node id="-50" lat="30.234901" lon="-97.852814" changeset="false"><tag k="addr:street" v="W US Highway 290,1100"/><tag k="addr:housenumber" v="6053"/><tag k="coa:place_id" v="920192"/></node><node id="-51" lat="30.234072" lon="-97.847943" changeset="false"><tag k="addr:street" v="Old Fredericksburg Road"/><tag k="addr:housenumber" v="5900"/><tag k="coa:place_id" v="920696"/></node><node id="-52" lat="30.229047" lon="-97.862278" changeset="false"><tag k="addr:street" v="West William Cannon Drive"/><tag k="addr:housenumber" v="6000"/><tag k="coa:place_id" v="3118126"/></node><node id="-53" lat="30.233279" lon="-97.853991" changeset="false"><tag k="addr:street" v="Porsche Lane"/><tag k="addr:housenumber" v="5620"/><tag k="coa:place_id" v="690219"/></node><node id="-54" lat="30.226984" lon="-97.85579" changeset="false"><tag k="addr:street" v="Reynolds Road"/><tag k="addr:housenumber" v="5500"/><tag k="coa:place_id" v="5055932"/></node><node id="-55" lat="30.234102" lon="-97.850677" changeset="false"><tag k="addr:street" v="Old Fredericksburg Road"/><tag k="addr:housenumber" v="6041"/><tag k="coa:place_id" v="1142102"/></node><node id="-56" lat="30.234073" lon="-97.861074" changeset="false"><tag k="addr:street" v="W US Highway 290,1100"/><tag k="addr:housenumber" v="6401"/><tag k="coa:place_id" v="3426807"/></node><node id="-57" lat="30.22606" lon="-97.841877" changeset="false"><tag k="addr:street" v="Brush Country Road"/><tag k="addr:housenumber" v="6310"/><tag k="coa:place_id" v="3285915"/></node><node id="-58" lat="30.231239" lon="-97.852419" changeset="false"><tag k="addr:street" v="Badger Bend"/><tag k="addr:housenumber" v="5417"/><tag k="coa:place_id" v="617979"/></node><node id="-59" lat="30.234935" lon="-97.851905" changeset="false"><tag k="addr:street" v="W US Highway 290,1100"/><tag k="addr:housenumber" v="6015"/><tag k="coa:place_id" v="920774"/></node><node id="-60" lat="30.225669" lon="-97.855084" changeset="false"><tag k="addr:street" v="Beckett Road"/><tag k="addr:housenumber" v="6810"/><tag k="coa:place_id" v="920006"/></node><node id="-61" lat="30.231204" lon="-97.857894" changeset="false"><tag k="addr:street" v="Ridge Oak Road"/><tag k="addr:housenumber" v="6509"/><tag k="coa:place_id" v="3040747"/></node><node id="-62" lat="30.234864" lon="-97.855191" changeset="false"><tag k="addr:street" v="W US Highway 290,1100"/><tag k="addr:housenumber" v="6151"/><tag k="coa:place_id" v="920132"/></node><node id="-63" lat="30.223728" lon="-97.841963" changeset="false"><tag k="addr:street" v="West William Cannon Drive"/><tag k="addr:housenumber" v="4600"/><tag k="coa:place_id" v="762238"/></node><node id="-64" lat="30.234824" lon="-97.856689" changeset="false"><tag k="addr:street" v="W US Highway 290,1100"/><tag k="addr:housenumber" v="6201"/><tag k="coa:place_id" v="187035"/></node><node id="-65" lat="30.234676" lon="-97.857891" changeset="false"><tag k="addr:street" v="Joe Tanner Lane"/><tag k="addr:housenumber" v="6308 1/2"/><tag k="coa:place_id" v="3098242"/></node><node id="-66" lat="30.229516" lon="-97.859909" changeset="false"><tag k="addr:street" v="Ridge Oak Road"/><tag k="addr:housenumber" v="6719"/><tag k="coa:place_id" v="919928"/></node><node id="-67" lat="30.233448" lon="-97.853908" changeset="false"><tag k="addr:street" v="Porsche Lane"/><tag k="addr:housenumber" v="5618"/><tag k="coa:place_id" v="690225"/></node><node id="-68" lat="30.232453" lon="-97.853654" changeset="false"><tag k="addr:street" v="Honey Dew Terrace"/><tag k="addr:housenumber" v="5607"/><tag k="coa:place_id" v="714525"/></node><node id="-69" lat="30.235818" lon="-97.846184" changeset="false"><tag k="addr:street" v="W US Highway 290,1100"/><tag k="addr:housenumber" v="5701"/><tag k="coa:place_id" v="406191"/></node><node id="-70" lat="30.226825" lon="-97.856438" changeset="false"><tag k="addr:street" v="Reynolds Road"/><tag k="addr:housenumber" v="5505"/><tag k="coa:place_id" v="919994"/></node><node id="-71" lat="30.23484" lon="-97.856894" changeset="false"><tag k="addr:street" v="W US Highway 290,1100"/><tag k="addr:housenumber" v="6203 1/2"/><tag k="coa:place_id" v="3185159"/></node><node id="-72" lat="30.234963" lon="-97.851747" changeset="false"><tag k="addr:street" v="W US Highway 290,1100"/><tag k="addr:housenumber" v="6019"/><tag k="coa:place_id" v="920768"/></node><node id="-73" lat="30.234121" lon="-97.847102" changeset="false"><tag k="addr:street" v="Old Fredericksburg Road"/><tag k="addr:housenumber" v="5906"/><tag k="coa:place_id" v="267357"/></node><node id="-74" lat="30.23542" lon="-97.848666" changeset="false"><tag k="addr:street" v="W US Highway 290,1100"/><tag k="addr:housenumber" v="5817 1/2"/><tag k="coa:place_id" v="3185158"/></node><node id="-75" lat="30.234429" lon="-97.8631" changeset="false"><tag k="addr:street" v="W US Highway 290,1100"/><tag k="addr:housenumber" v="6501"/><tag k="coa:place_id" v="330958"/></node><node id="-76" lat="30.234746" lon="-97.858254" changeset="false"><tag k="addr:street" v="W US Highway 290,1100"/><tag k="addr:housenumber" v="6239"/><tag k="coa:place_id" v="152271"/></node><node id="-77" lat="30.234828" lon="-97.857499" changeset="false"><tag k="addr:street" v="W US Highway 290,1100"/><tag k="addr:housenumber" v="6225"/><tag k="coa:place_id" v="95848"/></node><node id="-78" lat="30.229263" lon="-97.859034" changeset="false"><tag k="addr:street" v="Reynolds Road"/><tag k="addr:housenumber" v="5718"/><tag k="coa:place_id" v="3114973"/></node><node id="-79" lat="30.229618" lon="-97.859371" changeset="false"><tag k="addr:street" v="Reynolds Road"/><tag k="addr:housenumber" v="5804"/><tag k="coa:place_id" v="3039533"/></node><node id="-80" lat="30.23404" lon="-97.851414" changeset="false"><tag k="addr:street" v="Valiant Circle"/><tag k="addr:housenumber" v="6104"/><tag k="coa:place_id" v="798147"/></node><node id="-81" lat="30.23482" lon="-97.856222" changeset="false"><tag k="addr:street" v="W US Highway 290,1100"/><tag k="addr:housenumber" v="6155 1/2"/><tag k="coa:place_id" v="3185260"/></node><node id="-82" lat="30.234217" lon="-97.851614" changeset="false"><tag k="addr:street" v="Old Fredericksburg Road"/><tag k="addr:housenumber" v="6105"/><tag k="coa:place_id" v="1142098"/></node><node id="-83" lat="30.23413" lon="-97.85094" changeset="false"><tag k="addr:street" v="Old Fredericksburg Road"/><tag k="addr:housenumber" v="6043"/><tag k="coa:place_id" v="3133904"/></node><node id="-84" lat="30.233802" lon="-97.849009" changeset="false"><tag k="addr:street" v="Old Fredericksburg Road"/><tag k="addr:housenumber" v="6025"/><tag k="coa:place_id" v="248592"/></node><node id="-85" lat="30.233724" lon="-97.848822" changeset="false"><tag k="addr:street" v="Old Fredericksburg Road"/><tag k="addr:housenumber" v="6023"/><tag k="coa:place_id" v="248591"/></node><node id="-86" lat="30.233043" lon="-97.850706" changeset="false"><tag k="addr:street" v="Porsche Lane"/><tag k="addr:housenumber" v="5416"/><tag k="coa:place_id" v="559599"/></node><node id="-87" lat="30.232995" lon="-97.850499" changeset="false"><tag k="addr:street" v="Porsche Lane"/><tag k="addr:housenumber" v="5414"/><tag k="coa:place_id" v="518427"/></node></osm>