<?xml version="1.0" encoding="UTF-8"?><osm version="0.6" generator="github.com/aaronlidman/osm-and-geojson"><node id="-1" lat="30.257053" lon="-97.836983" changeset="false"><tag k="addr:street" v="Moon Shadow Drive"/><tag k="addr:housenumber" v="5340"/><tag k="addr:postcode" v="78735"/></node><node id="-2" lat="30.255339" lon="-97.837265" changeset="false"><tag k="addr:street" v="Kachina Drive"/><tag k="addr:housenumber" v="4112"/><tag k="addr:postcode" v="78735"/></node><node id="-3" lat="30.265894" lon="-97.841773" changeset="false"><tag k="addr:street" v="Soter Pkwy"/><tag k="addr:housenumber" v="6425"/><tag k="addr:postcode" v="78735"/></node><node id="-4" lat="30.261959" lon="-97.8393" changeset="false"><tag k="addr:street" v="Eleos Circle"/><tag k="addr:housenumber" v="6001"/><tag k="addr:postcode" v="78735"/></node><node id="-5" lat="30.255386" lon="-97.830493" changeset="false"><tag k="addr:street" v="Sendero Drive"/><tag k="addr:housenumber" v="3936"/><tag k="addr:postcode" v="78735"/></node><node id="-6" lat="30.251116" lon="-97.843995" changeset="false"><tag k="addr:street" v="Hero Court"/><tag k="addr:housenumber" v="4609"/><tag k="addr:postcode" v="78735"/></node><node id="-7" lat="30.25792" lon="-97.844331" changeset="false"><tag k="addr:street" v="Travis Country Circle"/><tag k="addr:housenumber" v="3505"/><tag k="addr:postcode" v="78735"/></node><node id="-8" lat="30.273367" lon="-97.8462" changeset="false"><tag k="addr:street" v="Lost Creek Boulevard"/><tag k="addr:housenumber" v="2704"/><tag k="addr:postcode" v="78746"/></node><node id="-9" lat="30.25993" lon="-97.844968" changeset="false"><tag k="addr:street" v="Pirun Court"/><tag k="addr:housenumber" v="6017"/><tag k="addr:postcode" v="78735"/></node><node id="-10" lat="30.254845" lon="-97.835327" changeset="false"><tag k="addr:street" v="Great Plains Drive"/><tag k="addr:housenumber" v="4006"/><tag k="addr:postcode" v="78735"/></node><node id="-11" lat="30.255196" lon="-97.837245" changeset="false"><tag k="addr:street" v="Kachina Drive"/><tag k="addr:housenumber" v="4116"/><tag k="addr:postcode" v="78735"/></node><node id="-12" lat="30.254701" lon="-97.835446" changeset="false"><tag k="addr:street" v="Great Plains Drive"/><tag k="addr:housenumber" v="4010"/><tag k="addr:postcode" v="78735"/></node><node id="-13" lat="30.254539" lon="-97.828979" changeset="false"><tag k="addr:street" v="Sendero Drive"/><tag k="addr:housenumber" v="3973"/><tag k="addr:postcode" v="78735"/></node><node id="-14" lat="30.254365" lon="-97.836533" changeset="false"><tag k="addr:street" v="Kachina Drive"/><tag k="addr:housenumber" v="4213"/><tag k="addr:postcode" v="78735"/></node><node id="-15" lat="30.253761" lon="-97.829558" changeset="false"><tag k="addr:street" v="Sendero Drive"/><tag k="addr:housenumber" v="4006"/><tag k="addr:postcode" v="78735"/></node><node id="-16" lat="30.255111" lon="-97.835848" changeset="false"><tag k="addr:street" v="Painted Shield Drive"/><tag k="addr:housenumber" v="5310"/><tag k="addr:postcode" v="78735"/></node><node id="-17" lat="30.263164" lon="-97.844229" changeset="false"><tag k="addr:street" v="Soter Pkwy"/><tag k="addr:housenumber" v="6217"/><tag k="addr:postcode" v="78746"/></node><node id="-18" lat="30.261107" lon="-97.845086" changeset="false"><tag k="addr:street" v="Pirun Court"/><tag k="addr:housenumber" v="6028"/><tag k="addr:postcode" v="78735"/></node><node id="-19" lat="30.264133" lon="-97.842528" changeset="false"><tag k="addr:street" v="Soter Pkwy"/><tag k="addr:housenumber" v="6412"/><tag k="addr:postcode" v="78735"/></node><node id="-20" lat="30.252841" lon="-97.829445" changeset="false"><tag k="addr:street" v="Sendero Drive"/><tag k="addr:housenumber" v="4103"/><tag k="addr:postcode" v="78735"/></node><node id="-21" lat="30.255697" lon="-97.836176" changeset="false"><tag k="addr:street" v="Painted Shield Drive"/><tag k="addr:housenumber" v="5326"/><tag k="addr:postcode" v="78735"/></node><node id="-22" lat="30.256638" lon="-97.83491" changeset="false"><tag k="addr:street" v="Sendero Drive"/><tag k="addr:housenumber" v="3801"/><tag k="addr:postcode" v="78735"/></node><node id="-23" lat="30.256172" lon="-97.833379" changeset="false"><tag k="addr:street" v="Republic of Texas Boulevard"/><tag k="addr:housenumber" v="5929"/><tag k="addr:postcode" v="78735"/></node><node id="-24" lat="30.253883" lon="-97.837359" changeset="false"><tag k="addr:street" v="Travis Country Circle"/><tag k="addr:housenumber" v="4014"/><tag k="addr:postcode" v="78735"/></node><node id="-25" lat="30.260769" lon="-97.844762" changeset="false"><tag k="addr:street" v="Pirun Court"/><tag k="addr:housenumber" v="6020"/><tag k="addr:postcode" v="78735"/></node><node id="-26" lat="30.25692" lon="-97.837386" changeset="false"><tag k="addr:street" v="Moon Shadow Drive"/><tag k="addr:housenumber" v="5404"/><tag k="addr:postcode" v="78735"/></node><node id="-27" lat="30.253076" lon="-97.836005" changeset="false"><tag k="addr:street" v="Travis Country Circle"/><tag k="addr:housenumber" v="4030"/><tag k="addr:postcode" v="78735"/></node><node id="-28" lat="30.250111" lon="-97.853114" changeset="false"><tag k="addr:street" v="5900 Southwest Parkway"/><tag k="addr:housenumber" v="6210 1/2"/><tag k="addr:postcode" v="78735"/></node><node id="-29" lat="30.274939" lon="-97.849642" changeset="false"><tag k="addr:street" v="Lost Creek Boulevard"/><tag k="addr:housenumber" v="2612"/><tag k="addr:postcode" v="78746"/></node><node id="-30" lat="30.254603" lon="-97.838019" changeset="false"><tag k="addr:street" v="Travis Country Circle"/><tag k="addr:housenumber" v="4004"/><tag k="addr:postcode" v="78735"/></node><node id="-31" lat="30.248333" lon="-97.848618" changeset="false"><tag k="addr:street" v="5900 Southwest Parkway"/><tag k="addr:housenumber" v="5912"/><tag k="addr:postcode" v="78735"/></node><node id="-32" lat="30.261626" lon="-97.841606" changeset="false"><tag k="addr:street" v="Agape Lane"/><tag k="addr:housenumber" v="3813"/><tag k="addr:postcode" v="78735"/></node><node id="-33" lat="30.253652" lon="-97.837042" changeset="false"><tag k="addr:street" v="Travis Country Circle"/><tag k="addr:housenumber" v="4018"/><tag k="addr:postcode" v="78735"/></node><node id="-34" lat="30.263889" lon="-97.839927" changeset="false"><tag k="addr:street" v="Soter Pkwy"/><tag k="addr:housenumber" v="6609"/><tag k="addr:postcode" v="78735"/></node><node id="-35" lat="30.253526" lon="-97.828627" changeset="false"><tag k="addr:street" v="Sendero Drive"/><tag k="addr:housenumber" v="4003"/><tag k="addr:postcode" v="78735"/></node><node id="-36" lat="30.248396" lon="-97.847717" changeset="false"><tag k="addr:street" v="5900 Southwest Parkway"/><tag k="addr:housenumber" v="5900"/><tag k="addr:postcode" v="78735"/></node><node id="-37" lat="30.255707" lon="-97.834835" changeset="false"><tag k="addr:street" v="Moon Shadow Cove"/><tag k="addr:housenumber" v="4004"/><tag k="addr:postcode" v="78735"/></node><node id="-38" lat="30.256383" lon="-97.839968" changeset="false"><tag k="addr:street" v="Travis Country Circle"/><tag k="addr:housenumber" v="3901"/><tag k="addr:postcode" v="78735"/></node><node id="-39" lat="30.25201" lon="-97.838318" changeset="false"><tag k="addr:street" v="Republic of Texas Boulevard"/><tag k="addr:housenumber" v="5757"/><tag k="addr:postcode" v="78735"/></node><node id="-40" lat="30.263315" lon="-97.842804" changeset="false"><tag k="addr:street" v="Charis Court"/><tag k="addr:housenumber" v="6117"/><tag k="addr:postcode" v="78735"/></node><node id="-41" lat="30.264144" lon="-97.840273" changeset="false"><tag k="addr:street" v="Soter Pkwy"/><tag k="addr:housenumber" v="6601"/><tag k="addr:postcode" v="78735"/></node><node id="-42" lat="30.250749" lon="-97.854724" changeset="false"><tag k="addr:street" v="5900 Southwest Parkway"/><tag k="addr:housenumber" v="6308"/><tag k="addr:postcode" v="78735"/></node><node id="-43" lat="30.255089" lon="-97.845392" changeset="false"><tag k="addr:street" v="Travis Country Circle"/><tag k="addr:housenumber" v="3231"/><tag k="addr:postcode" v="78735"/></node><node id="-44" lat="30.269296" lon="-97.851055" changeset="false"><tag k="addr:street" v="Lost Creek Boulevard"/><tag k="addr:housenumber" v="3101"/><tag k="addr:postcode" v="78746"/></node><node id="-45" lat="30.259798" lon="-97.842849" changeset="false"><tag k="addr:street" v="Travis Country Circle"/><tag k="addr:housenumber" v="3609"/><tag k="addr:postcode" v="78735"/></node><node id="-46" lat="30.261834" lon="-97.840457" changeset="false"><tag k="addr:street" v="Agape Lane"/><tag k="addr:housenumber" v="3801"/><tag k="addr:postcode" v="78735"/></node><node id="-47" lat="30.254444" lon="-97.837898" changeset="false"><tag k="addr:street" v="Travis Country Circle"/><tag k="addr:housenumber" v="4006"/><tag k="addr:postcode" v="78735"/></node><node id="-48" lat="30.255285" lon="-97.835902" changeset="false"><tag k="addr:street" v="Painted Shield Drive"/><tag k="addr:housenumber" v="5314"/><tag k="addr:postcode" v="78735"/></node><node id="-49" lat="30.25238" lon="-97.852982" changeset="false"><tag k="addr:street" v="5900 Southwest Parkway"/><tag k="addr:housenumber" v="6210"/><tag k="addr:postcode" v="78746"/></node><node id="-50" lat="30.264243" lon="-97.838984" changeset="false"><tag k="addr:street" v="Agape Lane"/><tag k="addr:housenumber" v="3602"/><tag k="addr:postcode" v="78735"/></node><node id="-51" lat="30.250764" lon="-97.841545" changeset="false"><tag k="addr:street" v="Republic of Texas Boulevard"/><tag k="addr:housenumber" v="5633"/><tag k="addr:postcode" v="78735"/></node><node id="-52" lat="30.254077" lon="-97.831053" changeset="false"><tag k="addr:street" v="Crystal Water Drive"/><tag k="addr:housenumber" v="5108"/><tag k="addr:postcode" v="78735"/></node><node id="-53" lat="30.251435" lon="-97.844945" changeset="false"><tag k="addr:street" v="Hero Drive"/><tag k="addr:housenumber" v="5704"/><tag k="addr:postcode" v="78735"/></node><node id="-54" lat="30.252502" lon="-97.827983" changeset="false"><tag k="addr:street" v="Travis Country Circle"/><tag k="addr:housenumber" v="4157"/><tag k="addr:postcode" v="78735"/></node><node id="-55" lat="30.254765" lon="-97.838147" changeset="false"><tag k="addr:street" v="Travis Country Circle"/><tag k="addr:housenumber" v="4002"/><tag k="addr:postcode" v="78735"/></node><node id="-56" lat="30.253756" lon="-97.837197" changeset="false"><tag k="addr:street" v="Travis Country Circle"/><tag k="addr:housenumber" v="4016"/><tag k="addr:postcode" v="78735"/></node><node id="-57" lat="30.256215" lon="-97.837167" changeset="false"><tag k="addr:street" v="Painted Shield Drive"/><tag k="addr:housenumber" v="5408"/><tag k="addr:postcode" v="78735"/></node><node id="-58" lat="30.255799" lon="-97.838009" changeset="false"><tag k="addr:street" v="Moon Shadow Drive"/><tag k="addr:housenumber" v="5432"/><tag k="addr:postcode" v="78735"/></node><node id="-59" lat="30.253377" lon="-97.836505" changeset="false"><tag k="addr:street" v="Travis Country Circle"/><tag k="addr:housenumber" v="4024"/><tag k="addr:postcode" v="78735"/></node><node id="-60" lat="30.260469" lon="-97.845424" changeset="false"><tag k="addr:street" v="Pirun Court"/><tag k="addr:housenumber" v="6021"/><tag k="addr:postcode" v="78735"/></node><node id="-61" lat="30.247909" lon="-97.845215" changeset="false"><tag k="addr:street" v="5900 Southwest Parkway"/><tag k="addr:housenumber" v="5604"/><tag k="addr:postcode" v="78735"/></node><node id="-62" lat="30.253962" lon="-97.836039" changeset="false"><tag k="addr:street" v="Great Plains Drive"/><tag k="addr:housenumber" v="4200"/><tag k="addr:postcode" v="78735"/></node><node id="-63" lat="30.254912" lon="-97.832714" changeset="false"><tag k="addr:street" v="Crystal Water Drive"/><tag k="addr:housenumber" v="5212"/><tag k="addr:postcode" v="78735"/></node><node id="-64" lat="30.252434" lon="-97.845144" changeset="false"><tag k="addr:street" v="Travis Green Lane"/><tag k="addr:housenumber" v="5709"/><tag k="addr:postcode" v="78735"/></node><node id="-65" lat="30.255035" lon="-97.837199" changeset="false"><tag k="addr:street" v="Kachina Drive"/><tag k="addr:housenumber" v="4120"/><tag k="addr:postcode" v="78735"/></node><node id="-66" lat="30.255409" lon="-97.845132" changeset="false"><tag k="addr:street" v="Travis Country Circle"/><tag k="addr:housenumber" v="3301"/><tag k="addr:postcode" v="78735"/></node><node id="-67" lat="30.25473" lon="-97.828998" changeset="false"><tag k="addr:street" v="Sendero Drive"/><tag k="addr:housenumber" v="3969"/><tag k="addr:postcode" v="78735"/></node><node id="-68" lat="30.253474" lon="-97.836671" changeset="false"><tag k="addr:street" v="Travis Country Circle"/><tag k="addr:housenumber" v="4022"/><tag k="addr:postcode" v="78735"/></node><node id="-69" lat="30.255476" lon="-97.837205" changeset="false"><tag k="addr:street" v="Kachina Drive"/><tag k="addr:housenumber" v="4108"/><tag k="addr:postcode" v="78735"/></node><node id="-70" lat="30.257235" lon="-97.840998" changeset="false"><tag k="addr:street" v="Travis Country Circle"/><tag k="addr:housenumber" v="3816"/><tag k="addr:postcode" v="78735"/></node><node id="-71" lat="30.252691" lon="-97.8294" changeset="false"><tag k="addr:street" v="Quick Water Cove"/><tag k="addr:housenumber" v="4913"/><tag k="addr:postcode" v="78735"/></node><node id="-72" lat="30.254544" lon="-97.832734" changeset="false"><tag k="addr:street" v="Crystal Water Drive"/><tag k="addr:housenumber" v="5205"/><tag k="addr:postcode" v="78735"/></node><node id="-73" lat="30.254616" lon="-97.832781" changeset="false"><tag k="addr:street" v="Trading Bend Drive"/><tag k="addr:housenumber" v="5220"/><tag k="addr:postcode" v="78735"/></node></osm>