<?xml version="1.0" encoding="UTF-8"?><osm version="0.6" generator="github.com/aaronlidman/osm-and-geojson"><node id="-1" lat="30.392695" lon="-97.76786" changeset="false"><tag k="addr:street" v="Spurflower Drive"/><tag k="addr:housenumber" v="5616"/><tag k="coa:place_id" v="59261"/></node><node id="-2" lat="30.392659" lon="-97.768127" changeset="false"><tag k="addr:street" v="Spurflower Drive"/><tag k="addr:housenumber" v="5618"/><tag k="coa:place_id" v="59262"/></node><node id="-3" lat="30.396701" lon="-97.767242" changeset="false"><tag k="addr:street" v="Bluegrass Drive"/><tag k="addr:housenumber" v="9209"/><tag k="coa:place_id" v="127313"/></node><node id="-4" lat="30.391433" lon="-97.767602" changeset="false"><tag k="addr:street" v="Spurflower Cove"/><tag k="addr:housenumber" v="8902"/><tag k="coa:place_id" v="615862"/></node><node id="-5" lat="30.395305" lon="-97.766191" changeset="false"><tag k="addr:street" v="Simmons Road"/><tag k="addr:housenumber" v="9224"/><tag k="coa:place_id" v="126562"/></node><node id="-6" lat="30.393029" lon="-97.763083" changeset="false"><tag k="addr:street" v="Echo Point Cove"/><tag k="addr:housenumber" v="9104"/><tag k="coa:place_id" v="123175"/></node><node id="-7" lat="30.388032" lon="-97.766399" changeset="false"><tag k="addr:street" v="Bluffstone Cove"/><tag k="addr:housenumber" v="8605 1/2"/><tag k="coa:place_id" v="3100119"/></node><node id="-8" lat="30.395019" lon="-97.765666" changeset="false"><tag k="addr:street" v="Simmons Road"/><tag k="addr:housenumber" v="9216"/><tag k="coa:place_id" v="126527"/></node><node id="-9" lat="30.392445" lon="-97.768987" changeset="false"><tag k="addr:street" v="Spurflower Drive"/><tag k="addr:housenumber" v="5702"/><tag k="coa:place_id" v="59257"/></node><node id="-10" lat="30.392737" lon="-97.761278" changeset="false"><tag k="addr:street" v="Breeze Point Cove"/><tag k="addr:housenumber" v="9104"/><tag k="coa:place_id" v="150543"/></node><node id="-11" lat="30.391326" lon="-97.761021" changeset="false"><tag k="addr:street" v="Saddleridge Cove"/><tag k="addr:housenumber" v="5118"/><tag k="coa:place_id" v="128768"/></node><node id="-12" lat="30.392574" lon="-97.768541" changeset="false"><tag k="addr:street" v="Spurflower Drive"/><tag k="addr:housenumber" v="5622"/><tag k="coa:place_id" v="59259"/></node><node id="-13" lat="30.393462" lon="-97.761813" changeset="false"><tag k="addr:street" v="Knoll Crest Loop"/><tag k="addr:housenumber" v="9220"/><tag k="coa:place_id" v="3087107"/></node><node id="-14" lat="30.395001" lon="-97.767922" changeset="false"><tag k="addr:street" v="Puccoon Cove"/><tag k="addr:housenumber" v="5704"/><tag k="coa:place_id" v="53855"/></node><node id="-15" lat="30.394955" lon="-97.76756" changeset="false"><tag k="addr:street" v="Puccoon Cove"/><tag k="addr:housenumber" v="5702"/><tag k="coa:place_id" v="762748"/></node><node id="-16" lat="30.393881" lon="-97.760719" changeset="false"><tag k="addr:street" v="Knoll Crest Loop"/><tag k="addr:housenumber" v="9215"/><tag k="coa:place_id" v="230247"/></node><node id="-17" lat="30.391534" lon="-97.766762" changeset="false"><tag k="addr:street" v="Spurflower Cove"/><tag k="addr:housenumber" v="8901"/><tag k="coa:place_id" v="733936"/></node><node id="-18" lat="30.394921" lon="-97.765453" changeset="false"><tag k="addr:street" v="Simmons Road"/><tag k="addr:housenumber" v="9212"/><tag k="coa:place_id" v="126558"/></node><node id="-19" lat="30.395957" lon="-97.766489" changeset="false"><tag k="addr:street" v="Simmons Road"/><tag k="addr:housenumber" v="9304"/><tag k="coa:place_id" v="126528"/></node><node id="-20" lat="30.395531" lon="-97.766384" changeset="false"><tag k="addr:street" v="Simmons Road"/><tag k="addr:housenumber" v="9228"/><tag k="coa:place_id" v="126563"/></node><node id="-21" lat="30.394196" lon="-97.76207" changeset="false"><tag k="addr:street" v="Knoll Crest Loop"/><tag k="addr:housenumber" v="9228"/><tag k="coa:place_id" v="127403"/></node><node id="-22" lat="30.392754" lon="-97.767625" changeset="false"><tag k="addr:street" v="Spurflower Drive"/><tag k="addr:housenumber" v="5614"/><tag k="coa:place_id" v="59263"/></node><node id="-23" lat="30.397697" lon="-97.760129" changeset="false"><tag k="addr:street" v="Rain Creek Parkway"/><tag k="addr:housenumber" v="5403"/><tag k="coa:place_id" v="584379"/></node><node id="-24" lat="30.394005" lon="-97.761581" changeset="false"><tag k="addr:street" v="Knoll Crest Loop"/><tag k="addr:housenumber" v="9229"/><tag k="coa:place_id" v="153367"/></node><node id="-25" lat="30.391661" lon="-97.769091" changeset="false"><tag k="addr:street" v="Bluegrass Drive"/><tag k="addr:housenumber" v="8711"/><tag k="coa:place_id" v="726232"/></node><node id="-26" lat="30.395268" lon="-97.764643" changeset="false"><tag k="addr:street" v="Simmons Road"/><tag k="addr:housenumber" v="9209"/><tag k="coa:place_id" v="121374"/></node><node id="-27" lat="30.393024" lon="-97.767124" changeset="false"><tag k="addr:street" v="Spurflower Drive"/><tag k="addr:housenumber" v="5606"/><tag k="coa:place_id" v="539146"/></node><node id="-28" lat="30.392842" lon="-97.767345" changeset="false"><tag k="addr:street" v="Spurflower Drive"/><tag k="addr:housenumber" v="5610"/><tag k="coa:place_id" v="644074"/></node><node id="-29" lat="30.394357" lon="-97.759918" changeset="false"><tag k="addr:street" v="Knoll Crest Loop"/><tag k="addr:housenumber" v="9320"/><tag k="coa:place_id" v="130146"/></node><node id="-30" lat="30.389949" lon="-97.760506" changeset="false"><tag k="addr:street" v="Mc Kittrick Canyon Drive"/><tag k="addr:housenumber" v="5105"/><tag k="coa:place_id" v="1002843"/></node><node id="-31" lat="30.394247" lon="-97.765579" changeset="false"><tag k="addr:street" v="Hudson Hollow"/><tag k="addr:housenumber" v="5512"/><tag k="coa:place_id" v="131995"/></node><node id="-32" lat="30.391484" lon="-97.767952" changeset="false"><tag k="addr:street" v="Spurflower Drive"/><tag k="addr:housenumber" v="5623"/><tag k="coa:place_id" v="625408"/></node><node id="-33" lat="30.392045" lon="-97.761085" changeset="false"><tag k="addr:street" v="Doe Valley Lane"/><tag k="addr:housenumber" v="5211"/><tag k="coa:place_id" v="261513"/></node><node id="-34" lat="30.393843" lon="-97.768443" changeset="false"><tag k="addr:street" v="Bluegrass Drive"/><tag k="addr:housenumber" v="9003"/><tag k="coa:place_id" v="659752"/></node><node id="-35" lat="30.393311" lon="-97.766059" changeset="false"><tag k="addr:street" v="Spurflower Drive"/><tag k="addr:housenumber" v="5601"/><tag k="coa:place_id" v="59269"/></node><node id="-36" lat="30.39439" lon="-97.76132" changeset="false"><tag k="addr:street" v="Knoll Crest Loop"/><tag k="addr:housenumber" v="9305"/><tag k="coa:place_id" v="503859"/></node><node id="-37" lat="30.391735" lon="-97.758032" changeset="false"><tag k="addr:street" v="Great Hills Trail"/><tag k="addr:housenumber" v="9216"/><tag k="coa:place_id" v="515649"/></node><node id="-38" lat="30.39207" lon="-97.760667" changeset="false"><tag k="addr:street" v="Doe Valley Lane"/><tag k="addr:housenumber" v="5207"/><tag k="coa:place_id" v="201723"/></node><node id="-39" lat="30.39698" lon="-97.766486" changeset="false"><tag k="addr:street" v="Simmons Road"/><tag k="addr:housenumber" v="9314"/><tag k="coa:place_id" v="126565"/></node><node id="-40" lat="30.396051" lon="-97.767335" changeset="false"><tag k="addr:street" v="Bluegrass Drive"/><tag k="addr:housenumber" v="9203"/><tag k="coa:place_id" v="716764"/></node><node id="-41" lat="30.39241" lon="-97.766101" changeset="false"><tag k="addr:street" v="Spurflower Drive"/><tag k="addr:housenumber" v="5607"/><tag k="coa:place_id" v="59272"/></node><node id="-42" lat="30.389831" lon="-97.767917" changeset="false"><tag k="addr:street" v="Bluegrass Drive"/><tag k="addr:housenumber" v="8601"/><tag k="coa:place_id" v="5188243"/></node><node id="-43" lat="30.389351" lon="-97.762644" changeset="false"><tag k="addr:street" v="Mount Bartlett Drive"/><tag k="addr:housenumber" v="8903"/><tag k="coa:place_id" v="81747"/></node><node id="-44" lat="30.392614" lon="-97.768352" changeset="false"><tag k="addr:street" v="Spurflower Drive"/><tag k="addr:housenumber" v="5620"/><tag k="coa:place_id" v="59260"/></node><node id="-45" lat="30.395432" lon="-97.764864" changeset="false"><tag k="addr:street" v="Simmons Road"/><tag k="addr:housenumber" v="9215"/><tag k="coa:place_id" v="1152112"/></node><node id="-46" lat="30.39399" lon="-97.765361" changeset="false"><tag k="addr:street" v="Hudson Hollow"/><tag k="addr:housenumber" v="5508"/><tag k="coa:place_id" v="128466"/></node><node id="-47" lat="30.393384" lon="-97.761619" changeset="false"><tag k="addr:street" v="Knoll Crest Loop"/><tag k="addr:housenumber" v="9218"/><tag k="coa:place_id" v="3087106"/></node><node id="-48" lat="30.391794" lon="-97.762271" changeset="false"><tag k="addr:street" v="Country Canyon Cove"/><tag k="addr:housenumber" v="9100"/><tag k="coa:place_id" v="220647"/></node><node id="-49" lat="30.394244" lon="-97.765014" changeset="false"><tag k="addr:street" v="Simmons Road"/><tag k="addr:housenumber" v="9112"/><tag k="coa:place_id" v="126551"/></node><node id="-50" lat="30.394346" lon="-97.760898" changeset="false"><tag k="addr:street" v="Knoll Crest Loop"/><tag k="addr:housenumber" v="9309"/><tag k="coa:place_id" v="509001"/></node><node id="-51" lat="30.392013" lon="-97.766478" changeset="false"><tag k="addr:street" v="Spurflower Drive"/><tag k="addr:housenumber" v="5611"/><tag k="coa:place_id" v="676960"/></node><node id="-52" lat="30.391493" lon="-97.768521" changeset="false"><tag k="addr:street" v="Spurflower Drive"/><tag k="addr:housenumber" v="5701"/><tag k="coa:place_id" v="59278"/></node><node id="-53" lat="30.388401" lon="-97.760028" changeset="false"><tag k="addr:street" v="Great Hills Trail"/><tag k="addr:housenumber" v="8904"/><tag k="coa:place_id" v="515637"/></node><node id="-54" lat="30.392071" lon="-97.760447" changeset="false"><tag k="addr:street" v="Doe Valley Lane"/><tag k="addr:housenumber" v="5205"/><tag k="coa:place_id" v="198897"/></node><node id="-55" lat="30.392064" lon="-97.76149" changeset="false"><tag k="addr:street" v="Doe Valley Lane"/><tag k="addr:housenumber" v="5215"/><tag k="coa:place_id" v="493611"/></node><node id="-56" lat="30.394048" lon="-97.768246" changeset="false"><tag k="addr:street" v="Bluegrass Drive"/><tag k="addr:housenumber" v="9007"/><tag k="coa:place_id" v="53844"/></node><node id="-57" lat="30.392852" lon="-97.762216" changeset="false"><tag k="addr:street" v="Doe Valley Lane"/><tag k="addr:housenumber" v="5302"/><tag k="coa:place_id" v="527973"/></node><node id="-58" lat="30.387809" lon="-97.767611" changeset="false"><tag k="addr:street" v="Bluffstone Cove"/><tag k="addr:housenumber" v="8500"/><tag k="coa:place_id" v="3035321"/></node><node id="-59" lat="30.3918" lon="-97.762997" changeset="false"><tag k="addr:street" v="Doe Valley Lane"/><tag k="addr:housenumber" v="5313"/><tag k="coa:place_id" v="410523"/></node><node id="-60" lat="30.398536" lon="-97.766737" changeset="false"><tag k="addr:street" v="Simmons Road"/><tag k="addr:housenumber" v="9343"/><tag k="coa:place_id" v="134517"/></node><node id="-61" lat="30.397723" lon="-97.767181" changeset="false"><tag k="addr:street" v="Bluegrass Drive"/><tag k="addr:housenumber" v="9313"/><tag k="coa:place_id" v="127283"/></node><node id="-62" lat="30.394992" lon="-97.760745" changeset="false"><tag k="addr:street" v="Knoll Crest Loop"/><tag k="addr:housenumber" v="9312"/><tag k="coa:place_id" v="123981"/></node><node id="-63" lat="30.39177" lon="-97.761902" changeset="false"><tag k="addr:street" v="Country Canyon Cove"/><tag k="addr:housenumber" v="9103"/><tag k="coa:place_id" v="446505"/></node><node id="-64" lat="30.395847" lon="-97.756042" changeset="false"><tag k="addr:street" v="Rain Creek Parkway"/><tag k="addr:housenumber" v="5105"/><tag k="coa:place_id" v="252717"/></node><node id="-65" lat="30.394796" lon="-97.764279" changeset="false"><tag k="addr:street" v="Simmons Road"/><tag k="addr:housenumber" v="9201"/><tag k="coa:place_id" v="300226"/></node><node id="-66" lat="30.393635" lon="-97.76867" changeset="false"><tag k="addr:street" v="Bluegrass Drive"/><tag k="addr:housenumber" v="9001"/><tag k="coa:place_id" v="53846"/></node><node id="-67" lat="30.38939" lon="-97.766235" changeset="false"><tag k="addr:street" v="Bluffstone Cove"/><tag k="addr:housenumber" v="8701"/><tag k="coa:place_id" v="53906"/></node><node id="-68" lat="30.391033" lon="-97.760541" changeset="false"><tag k="addr:street" v="Saddleridge Cove"/><tag k="addr:housenumber" v="5109"/><tag k="coa:place_id" v="528081"/></node><node id="-69" lat="30.394423" lon="-97.765017" changeset="false"><tag k="addr:street" v="Simmons Road"/><tag k="addr:housenumber" v="9200"/><tag k="coa:place_id" v="126552"/></node><node id="-70" lat="30.393012" lon="-97.759355" changeset="false"><tag k="addr:street" v="Summerhill Cove"/><tag k="addr:housenumber" v="9208"/><tag k="coa:place_id" v="5217175"/></node><node id="-71" lat="30.395729" lon="-97.766479" changeset="false"><tag k="addr:street" v="Simmons Road"/><tag k="addr:housenumber" v="9300"/><tag k="coa:place_id" v="126564"/></node><node id="-72" lat="30.392804" lon="-97.763151" changeset="false"><tag k="addr:street" v="Echo Point Cove"/><tag k="addr:housenumber" v="9102"/><tag k="coa:place_id" v="142126"/></node><node id="-73" lat="30.392726" lon="-97.76199" changeset="false"><tag k="addr:street" v="Doe Valley Lane"/><tag k="addr:housenumber" v="5300"/><tag k="coa:place_id" v="843441"/></node><node id="-74" lat="30.391878" lon="-97.762787" changeset="false"><tag k="addr:street" v="Doe Valley Lane"/><tag k="addr:housenumber" v="5311"/><tag k="coa:place_id" v="248007"/></node><node id="-75" lat="30.391719" lon="-97.762081" changeset="false"><tag k="addr:street" v="Country Canyon Cove"/><tag k="addr:housenumber" v="9101"/><tag k="coa:place_id" v="122723"/></node><node id="-76" lat="30.392049" lon="-97.760861" changeset="false"><tag k="addr:street" v="Doe Valley Lane"/><tag k="addr:housenumber" v="5209"/><tag k="coa:place_id" v="380451"/></node><node id="-77" lat="30.398148" lon="-97.767278" changeset="false"><tag k="addr:street" v="Bluegrass Drive"/><tag k="addr:housenumber" v="9321"/><tag k="coa:place_id" v="239705"/></node><node id="-78" lat="30.395163" lon="-97.765953" changeset="false"><tag k="addr:street" v="Simmons Road"/><tag k="addr:housenumber" v="9220"/><tag k="coa:place_id" v="126559"/></node><node id="-79" lat="30.390961" lon="-97.76903" changeset="false"><tag k="addr:street" v="Bluegrass Drive"/><tag k="addr:housenumber" v="8705"/><tag k="coa:place_id" v="59286"/></node><node id="-80" lat="30.393056" lon="-97.762816" changeset="false"><tag k="addr:street" v="Echo Point Cove"/><tag k="addr:housenumber" v="9105"/><tag k="coa:place_id" v="142123"/></node><node id="-81" lat="30.392938" lon="-97.762523" changeset="false"><tag k="addr:street" v="Echo Point Cove"/><tag k="addr:housenumber" v="9103"/><tag k="coa:place_id" v="673156"/></node><node id="-82" lat="30.395076" lon="-97.760948" changeset="false"><tag k="addr:street" v="Knoll Crest Loop"/><tag k="addr:housenumber" v="9310"/><tag k="coa:place_id" v="3087108"/></node><node id="-83" lat="30.394315" lon="-97.767976" changeset="false"><tag k="addr:street" v="Puccoon Cove"/><tag k="addr:housenumber" v="5703"/><tag k="coa:place_id" v="53859"/></node><node id="-84" lat="30.391043" lon="-97.760879" changeset="false"><tag k="addr:street" v="Saddleridge Cove"/><tag k="addr:housenumber" v="5113"/><tag k="coa:place_id" v="128771"/></node><node id="-85" lat="30.390114" lon="-97.762693" changeset="false"><tag k="addr:street" v="Mariscal Canyon Drive"/><tag k="addr:housenumber" v="8908"/><tag k="coa:place_id" v="1007643"/></node><node id="-86" lat="30.394578" lon="-97.760092" changeset="false"><tag k="addr:street" v="Knoll Crest Loop"/><tag k="addr:housenumber" v="9318"/><tag k="coa:place_id" v="137131"/></node><node id="-87" lat="30.398401" lon="-97.766549" changeset="false"><tag k="addr:street" v="Simmons Road"/><tag k="addr:housenumber" v="9339"/><tag k="coa:place_id" v="133356"/></node><node id="-88" lat="30.398056" lon="-97.762953" changeset="false"><tag k="addr:street" v="Rain Creek Parkway"/><tag k="addr:housenumber" v="5511"/><tag k="coa:place_id" v="285418"/></node><node id="-89" lat="30.392419" lon="-97.759849" changeset="false"><tag k="addr:street" v="Doe Valley Lane"/><tag k="addr:housenumber" v="5200"/><tag k="coa:place_id" v="264021"/></node><node id="-90" lat="30.392226" lon="-97.766281" changeset="false"><tag k="addr:street" v="Spurflower Drive"/><tag k="addr:housenumber" v="5609"/><tag k="coa:place_id" v="59273"/></node><node id="-91" lat="30.391521" lon="-97.760744" changeset="false"><tag k="addr:street" v="Saddleridge Cove"/><tag k="addr:housenumber" v="5114"/><tag k="coa:place_id" v="128767"/></node><node id="-92" lat="30.391066" lon="-97.767132" changeset="false"><tag k="addr:street" v="Spurflower Cove"/><tag k="addr:housenumber" v="8900"/><tag k="coa:place_id" v="59281"/></node><node id="-93" lat="30.39621" lon="-97.767162" changeset="false"><tag k="addr:street" v="Bluegrass Drive"/><tag k="addr:housenumber" v="9205"/><tag k="coa:place_id" v="53837"/></node><node id="-94" lat="30.392802" lon="-97.761089" changeset="false"><tag k="addr:street" v="Breeze Point Cove"/><tag k="addr:housenumber" v="9106"/><tag k="coa:place_id" v="133542"/></node><node id="-95" lat="30.392531" lon="-97.768752" changeset="false"><tag k="addr:street" v="Spurflower Drive"/><tag k="addr:housenumber" v="5700"/><tag k="coa:place_id" v="59258"/></node><node id="-96" lat="30.391163" lon="-97.761" changeset="false"><tag k="addr:street" v="Saddleridge Cove"/><tag k="addr:housenumber" v="5115"/><tag k="coa:place_id" v="128763"/></node><node id="-97" lat="30.394898" lon="-97.768347" changeset="false"><tag k="addr:street" v="Puccoon Cove"/><tag k="addr:housenumber" v="5706"/><tag k="coa:place_id" v="53854"/></node><node id="-98" lat="30.398591" lon="-97.765739" changeset="false"><tag k="addr:street" v="Ketona Cove"/><tag k="addr:housenumber" v="9517"/><tag k="coa:place_id" v="136627"/></node><node id="-99" lat="30.394286" lon="-97.761582" changeset="false"><tag k="addr:street" v="Knoll Crest Loop"/><tag k="addr:housenumber" v="9233"/><tag k="coa:place_id" v="153370"/></node><node id="-100" lat="30.395668" lon="-97.765364" changeset="false"><tag k="addr:street" v="Simmons Road"/><tag k="addr:housenumber" v="9221"/><tag k="coa:place_id" v="121379"/></node><node id="-101" lat="30.393987" lon="-97.76111" changeset="false"><tag k="addr:street" v="Knoll Crest Loop"/><tag k="addr:housenumber" v="9219"/><tag k="coa:place_id" v="230259"/></node><node id="-102" lat="30.392603" lon="-97.769424" changeset="false"><tag k="addr:street" v="Bluegrass Drive"/><tag k="addr:housenumber" v="8805"/><tag k="coa:place_id" v="74273"/></node><node id="-103" lat="30.392222" lon="-97.75905" changeset="false"><tag k="addr:street" v="Amberwood Cove"/><tag k="addr:housenumber" v="9204"/><tag k="coa:place_id" v="204982"/></node><node id="-104" lat="30.392109" lon="-97.757118" changeset="false"><tag k="addr:street" v="Great Hills Trail"/><tag k="addr:housenumber" v="9306"/><tag k="coa:place_id" v="191587"/></node><node id="-105" lat="30.391043" lon="-97.760372" changeset="false"><tag k="addr:street" v="Saddleridge Cove"/><tag k="addr:housenumber" v="5107"/><tag k="coa:place_id" v="363087"/></node><node id="-106" lat="30.391484" lon="-97.760945" changeset="false"><tag k="addr:street" v="Saddleridge Cove"/><tag k="addr:housenumber" v="5116"/><tag k="coa:place_id" v="528045"/></node><node id="-107" lat="30.392759" lon="-97.760893" changeset="false"><tag k="addr:street" v="Breeze Point Cove"/><tag k="addr:housenumber" v="9105"/><tag k="coa:place_id" v="582694"/></node><node id="-108" lat="30.393744" lon="-97.765983" changeset="false"><tag k="addr:street" v="Hudson Hollow"/><tag k="addr:housenumber" v="5515"/><tag k="coa:place_id" v="234576"/></node><node id="-109" lat="30.396501" lon="-97.767297" changeset="false"><tag k="addr:street" v="Bluegrass Drive"/><tag k="addr:housenumber" v="9207"/><tag k="coa:place_id" v="127312"/></node><node id="-110" lat="30.396323" lon="-97.765961" changeset="false"><tag k="addr:street" v="Simmons Road"/><tag k="addr:housenumber" v="9309"/><tag k="coa:place_id" v="121384"/></node><node id="-111" lat="30.389118" lon="-97.762959" changeset="false"><tag k="addr:street" v="Mariscal Canyon Drive"/><tag k="addr:housenumber" v="8815"/><tag k="coa:place_id" v="265864"/></node><node id="-112" lat="30.39266" lon="-97.76596" changeset="false"><tag k="addr:street" v="Spurflower Drive"/><tag k="addr:housenumber" v="5605"/><tag k="coa:place_id" v="59271"/></node><node id="-113" lat="30.391504" lon="-97.768276" changeset="false"><tag k="addr:street" v="Spurflower Drive"/><tag k="addr:housenumber" v="5625"/><tag k="coa:place_id" v="562930"/></node><node id="-114" lat="30.393294" lon="-97.761362" changeset="false"><tag k="addr:street" v="Knoll Crest Loop"/><tag k="addr:housenumber" v="9216"/><tag k="coa:place_id" v="527949"/></node><node id="-115" lat="30.392029" lon="-97.766855" changeset="false"><tag k="addr:street" v="Spurflower Drive"/><tag k="addr:housenumber" v="5613"/><tag k="coa:place_id" v="59275"/></node><node id="-116" lat="30.39143" lon="-97.768803" changeset="false"><tag k="addr:street" v="Spurflower Drive"/><tag k="addr:housenumber" v="5703"/><tag k="coa:place_id" v="760462"/></node><node id="-117" lat="30.391171" lon="-97.7691" changeset="false"><tag k="addr:street" v="Bluegrass Drive"/><tag k="addr:housenumber" v="8707"/><tag k="coa:place_id" v="717124"/></node><node id="-118" lat="30.394803" lon="-97.755859" changeset="false"><tag k="addr:street" v="Great Hills Trail"/><tag k="addr:housenumber" v="9512"/><tag k="coa:place_id" v="515661"/></node><node id="-119" lat="30.394502" lon="-97.755932" changeset="false"><tag k="addr:street" v="Great Hills Trail"/><tag k="addr:housenumber" v="9508"/><tag k="coa:place_id" v="349143"/></node><node id="-120" lat="30.389827" lon="-97.761025" changeset="false"><tag k="addr:street" v="Mc Kittrick Canyon Drive"/><tag k="addr:housenumber" v="5111"/><tag k="coa:place_id" v="991977"/></node><node id="-121" lat="30.389857" lon="-97.760866" changeset="false"><tag k="addr:street" v="Mc Kittrick Canyon Drive"/><tag k="addr:housenumber" v="5109"/><tag k="coa:place_id" v="991983"/></node><node id="-122" lat="30.389803" lon="-97.761353" changeset="false"><tag k="addr:street" v="Mc Kittrick Canyon Drive"/><tag k="addr:housenumber" v="5115"/><tag k="coa:place_id" v="991953"/></node><node id="-123" lat="30.389811" lon="-97.761204" changeset="false"><tag k="addr:street" v="Mc Kittrick Canyon Drive"/><tag k="addr:housenumber" v="5113"/><tag k="coa:place_id" v="991971"/></node><node id="-124" lat="30.389697" lon="-97.761947" changeset="false"><tag k="addr:street" v="Mount Bartlett Drive"/><tag k="addr:housenumber" v="8917"/><tag k="coa:place_id" v="949635"/></node><node id="-125" lat="30.389761" lon="-97.761864" changeset="false"><tag k="addr:street" v="Mount Bartlett Drive"/><tag k="addr:housenumber" v="8919"/><tag k="coa:place_id" v="131032"/></node><node id="-126" lat="30.389837" lon="-97.761806" changeset="false"><tag k="addr:street" v="Mount Bartlett Drive"/><tag k="addr:housenumber" v="8921"/><tag k="coa:place_id" v="949647"/></node><node id="-127" lat="30.389896" lon="-97.761708" changeset="false"><tag k="addr:street" v="Mount Bartlett Drive"/><tag k="addr:housenumber" v="8923"/><tag k="coa:place_id" v="949653"/></node><node id="-128" lat="30.389622" lon="-97.762434" changeset="false"><tag k="addr:street" v="Mount Bartlett Drive"/><tag k="addr:housenumber" v="8902"/><tag k="coa:place_id" v="81748"/></node><node id="-129" lat="30.389562" lon="-97.762501" changeset="false"><tag k="addr:street" v="Mount Bartlett Drive"/><tag k="addr:housenumber" v="8900"/><tag k="coa:place_id" v="196618"/></node><node id="-130" lat="30.389689" lon="-97.762391" changeset="false"><tag k="addr:street" v="Mount Bartlett Drive"/><tag k="addr:housenumber" v="8904"/><tag k="coa:place_id" v="81749"/></node><node id="-131" lat="30.389704" lon="-97.762956" changeset="false"><tag k="addr:street" v="Mariscal Canyon Drive"/><tag k="addr:housenumber" v="8900"/><tag k="coa:place_id" v="547288"/></node><node id="-132" lat="30.38979" lon="-97.762901" changeset="false"><tag k="addr:street" v="Mariscal Canyon Drive"/><tag k="addr:housenumber" v="8902"/><tag k="coa:place_id" v="547270"/></node><node id="-133" lat="30.389962" lon="-97.762827" changeset="false"><tag k="addr:street" v="Mariscal Canyon Drive"/><tag k="addr:housenumber" v="8906"/><tag k="coa:place_id" v="547498"/></node><node id="-134" lat="30.38987" lon="-97.762866" changeset="false"><tag k="addr:street" v="Mariscal Canyon Drive"/><tag k="addr:housenumber" v="8904"/><tag k="coa:place_id" v="547264"/></node><node id="-135" lat="30.389874" lon="-97.762272" changeset="false"><tag k="addr:street" v="Mount Bartlett Drive"/><tag k="addr:housenumber" v="8908"/><tag k="coa:place_id" v="81751"/></node><node id="-136" lat="30.390023" lon="-97.762146" changeset="false"><tag k="addr:street" v="Mount Bartlett Drive"/><tag k="addr:housenumber" v="8912"/><tag k="coa:place_id" v="81753"/></node><node id="-137" lat="30.38995" lon="-97.762223" changeset="false"><tag k="addr:street" v="Mount Bartlett Drive"/><tag k="addr:housenumber" v="8910"/><tag k="coa:place_id" v="81752"/></node><node id="-138" lat="30.389815" lon="-97.762334" changeset="false"><tag k="addr:street" v="Mount Bartlett Drive"/><tag k="addr:housenumber" v="8906"/><tag k="coa:place_id" v="81750"/></node><node id="-139" lat="30.39026" lon="-97.762573" changeset="false"><tag k="addr:street" v="Mariscal Canyon Drive"/><tag k="addr:housenumber" v="8912"/><tag k="coa:place_id" v="1007661"/></node><node id="-140" lat="30.390184" lon="-97.762639" changeset="false"><tag k="addr:street" v="Mariscal Canyon Drive"/><tag k="addr:housenumber" v="8910"/><tag k="coa:place_id" v="1007649"/></node><node id="-141" lat="30.389083" lon="-97.763305" changeset="false"><tag k="addr:street" v="Mariscal Canyon Drive"/><tag k="addr:housenumber" v="8806"/><tag k="coa:place_id" v="430984"/></node><node id="-142" lat="30.389108" lon="-97.763414" changeset="false"><tag k="addr:street" v="Mariscal Canyon Drive"/><tag k="addr:housenumber" v="8804"/><tag k="coa:place_id" v="430978"/></node><node id="-143" lat="30.389428" lon="-97.762241" changeset="false"><tag k="addr:street" v="Mount Bartlett Drive"/><tag k="addr:housenumber" v="8909"/><tag k="coa:place_id" v="131098"/></node><node id="-144" lat="30.389479" lon="-97.762169" changeset="false"><tag k="addr:street" v="Mount Bartlett Drive"/><tag k="addr:housenumber" v="8911"/><tag k="coa:place_id" v="252142"/></node><node id="-145" lat="30.389565" lon="-97.762082" changeset="false"><tag k="addr:street" v="Mount Bartlett Drive"/><tag k="addr:housenumber" v="8913"/><tag k="coa:place_id" v="966129"/></node><node id="-146" lat="30.389361" lon="-97.76231" changeset="false"><tag k="addr:street" v="Mount Bartlett Drive"/><tag k="addr:housenumber" v="8907"/><tag k="coa:place_id" v="966111"/></node><node id="-147" lat="30.389057" lon="-97.762516" changeset="false"><tag k="addr:street" v="Mount Emory Cove"/><tag k="addr:housenumber" v="5200"/><tag k="coa:place_id" v="1017891"/></node><node id="-148" lat="30.389256" lon="-97.762462" changeset="false"><tag k="addr:street" v="Mount Bartlett Drive"/><tag k="addr:housenumber" v="8905"/><tag k="coa:place_id" v="1017945"/></node><node id="-149" lat="30.388989" lon="-97.762556" changeset="false"><tag k="addr:street" v="Mount Emory Cove"/><tag k="addr:housenumber" v="5201"/><tag k="coa:place_id" v="1017885"/></node><node id="-150" lat="30.388924" lon="-97.762614" changeset="false"><tag k="addr:street" v="Mount Emory Cove"/><tag k="addr:housenumber" v="5203"/><tag k="coa:place_id" v="1017879"/></node><node id="-151" lat="30.389122" lon="-97.762464" changeset="false"><tag k="addr:street" v="Mount Emory Cove"/><tag k="addr:housenumber" v="5202"/><tag k="coa:place_id" v="1017939"/></node><node id="-152" lat="30.388581" lon="-97.763771" changeset="false"><tag k="addr:street" v="Mariscal Canyon Drive"/><tag k="addr:housenumber" v="8704"/><tag k="coa:place_id" v="422026"/></node><node id="-153" lat="30.388787" lon="-97.763583" changeset="false"><tag k="addr:street" v="Mariscal Canyon Drive"/><tag k="addr:housenumber" v="8800"/><tag k="coa:place_id" v="422044"/></node><node id="-154" lat="30.388651" lon="-97.763671" changeset="false"><tag k="addr:street" v="Mariscal Canyon Drive"/><tag k="addr:housenumber" v="8706"/><tag k="coa:place_id" v="422032"/></node><node id="-155" lat="30.388865" lon="-97.763543" changeset="false"><tag k="addr:street" v="Mariscal Canyon Drive"/><tag k="addr:housenumber" v="8802"/><tag k="coa:place_id" v="1034883"/></node><node id="-156" lat="30.388718" lon="-97.763614" changeset="false"><tag k="addr:street" v="Mariscal Canyon Drive"/><tag k="addr:housenumber" v="8708"/><tag k="coa:place_id" v="422038"/></node><node id="-157" lat="30.388825" lon="-97.763019" changeset="false"><tag k="addr:street" v="Mariscal Canyon Drive"/><tag k="addr:housenumber" v="8807"/><tag k="coa:place_id" v="1033335"/></node><node id="-158" lat="30.388724" lon="-97.763192" changeset="false"><tag k="addr:street" v="Mariscal Canyon Drive"/><tag k="addr:housenumber" v="8803"/><tag k="coa:place_id" v="1033341"/></node><node id="-159" lat="30.388635" lon="-97.763274" changeset="false"><tag k="addr:street" v="Mariscal Canyon Drive"/><tag k="addr:housenumber" v="8801"/><tag k="coa:place_id" v="1046601"/></node><node id="-160" lat="30.388889" lon="-97.762942" changeset="false"><tag k="addr:street" v="Mariscal Canyon Drive"/><tag k="addr:housenumber" v="8809"/><tag k="coa:place_id" v="1033323"/></node><node id="-161" lat="30.388791" lon="-97.763119" changeset="false"><tag k="addr:street" v="Mariscal Canyon Drive"/><tag k="addr:housenumber" v="8805"/><tag k="coa:place_id" v="1033305"/></node><node id="-162" lat="30.388932" lon="-97.762868" changeset="false"><tag k="addr:street" v="Mariscal Canyon Drive"/><tag k="addr:housenumber" v="8811"/><tag k="coa:place_id" v="265270"/></node><node id="-163" lat="30.389551" lon="-97.763046" changeset="false"><tag k="addr:street" v="Mariscal Canyon Drive"/><tag k="addr:housenumber" v="8816"/><tag k="coa:place_id" v="491368"/></node><node id="-164" lat="30.389476" lon="-97.763116" changeset="false"><tag k="addr:street" v="Mariscal Canyon Drive"/><tag k="addr:housenumber" v="8814"/><tag k="coa:place_id" v="491374"/></node><node id="-165" lat="30.3894" lon="-97.763174" changeset="false"><tag k="addr:street" v="Mariscal Canyon Drive"/><tag k="addr:housenumber" v="8812"/><tag k="coa:place_id" v="530914"/></node><node id="-166" lat="30.389321" lon="-97.763211" changeset="false"><tag k="addr:street" v="Mariscal Canyon Drive"/><tag k="addr:housenumber" v="8810"/><tag k="coa:place_id" v="491314"/></node><node id="-167" lat="30.388307" lon="-97.763971" changeset="false"><tag k="addr:street" v="Mariscal Canyon Drive"/><tag k="addr:housenumber" v="8700"/><tag k="coa:place_id" v="1034787"/></node><node id="-168" lat="30.388431" lon="-97.763971" changeset="false"><tag k="addr:street" v="Mariscal Canyon Drive"/><tag k="addr:housenumber" v="8702"/><tag k="coa:place_id" v="1034811"/></node><node id="-169" lat="30.393263" lon="-97.769166" changeset="false"><tag k="addr:street" v="Bluegrass Drive"/><tag k="addr:housenumber" v="8909"/><tag k="coa:place_id" v="502270"/></node><node id="-170" lat="30.393117" lon="-97.769315" changeset="false"><tag k="addr:street" v="Bluegrass Drive"/><tag k="addr:housenumber" v="8905"/><tag k="coa:place_id" v="74275"/></node></osm>