<?xml version="1.0" encoding="UTF-8"?><osm version="0.6" generator="github.com/aaronlidman/osm-and-geojson"><node id="-1" lat="30.142384" lon="-97.833952" changeset="false"><tag k="addr:street" v="Manchaca Road"/><tag k="addr:housenumber" v="12110"/><tag k="addr:postcode" v="78748"/></node><node id="-2" lat="30.132346" lon="-97.835005" changeset="false"><tag k="addr:street" v="Lowden Lane"/><tag k="addr:housenumber" v="12809"/><tag k="addr:postcode" v="78652"/></node><node id="-3" lat="30.135264" lon="-97.850668" changeset="false"><tag k="addr:street" v="Farm-to-Market Road 1626"/><tag k="addr:housenumber" v="2111"/><tag k="addr:postcode" v="78652"/></node><node id="-4" lat="30.141947" lon="-97.846533" changeset="false"><tag k="addr:street" v="Hewitt Lane"/><tag k="addr:housenumber" v="12501"/><tag k="addr:postcode" v="78748"/></node><node id="-5" lat="30.142419" lon="-97.838988" changeset="false"><tag k="addr:street" v="Edgebrook Drive"/><tag k="addr:housenumber" v="12303"/><tag k="addr:postcode" v="78748"/></node><node id="-6" lat="30.138463" lon="-97.846079" changeset="false"><tag k="addr:street" v="Bob Johnson Lane"/><tag k="addr:housenumber" v="12733"/><tag k="addr:postcode" v="78652"/></node><node id="-7" lat="30.128947" lon="-97.833785" changeset="false"><tag k="addr:street" v="Lowden Lane"/><tag k="addr:housenumber" v="12927"/><tag k="addr:postcode" v="78652"/></node><node id="-8" lat="30.138387" lon="-97.831919" changeset="false"><tag k="addr:street" v="Deane Road"/><tag k="addr:housenumber" v="12318"/><tag k="addr:postcode" v="78652"/></node><node id="-9" lat="30.143058" lon="-97.839238" changeset="false"><tag k="addr:street" v="Edgebrook Drive"/><tag k="addr:housenumber" v="12300"/><tag k="addr:postcode" v="78748"/></node><node id="-10" lat="30.146325" lon="-97.841367" changeset="false"><tag k="addr:street" v="Eruzione Drive"/><tag k="addr:housenumber" v="12028"/><tag k="addr:postcode" v="78748"/></node><node id="-11" lat="30.146033" lon="-97.841392" changeset="false"><tag k="addr:street" v="Eruzione Drive"/><tag k="addr:housenumber" v="12100"/><tag k="addr:postcode" v="78748"/></node><node id="-12" lat="30.144926" lon="-97.842828" changeset="false"><tag k="addr:street" v="Christoff Loop"/><tag k="addr:housenumber" v="2417"/><tag k="addr:postcode" v="78748"/></node><node id="-13" lat="30.144426" lon="-97.843323" changeset="false"><tag k="addr:street" v="Christoff Loop"/><tag k="addr:housenumber" v="2404"/><tag k="addr:postcode" v="78748"/></node><node id="-14" lat="30.130549" lon="-97.835104" changeset="false"><tag k="addr:street" v="Lowden Lane"/><tag k="addr:housenumber" v="12905"/><tag k="addr:postcode" v="78652"/></node><node id="-15" lat="30.144451" lon="-97.844449" changeset="false"><tag k="addr:street" v="Christoff Loop"/><tag k="addr:housenumber" v="2300"/><tag k="addr:postcode" v="78748"/></node><node id="-16" lat="30.128538" lon="-97.834968" changeset="false"><tag k="addr:street" v="Lowden Lane"/><tag k="addr:housenumber" v="13001"/><tag k="addr:postcode" v="78652"/></node><node id="-17" lat="30.144933" lon="-97.843482" changeset="false"><tag k="addr:street" v="Christoff Loop"/><tag k="addr:housenumber" v="2401"/><tag k="addr:postcode" v="78748"/></node><node id="-18" lat="30.144942" lon="-97.843314" changeset="false"><tag k="addr:street" v="Christoff Loop"/><tag k="addr:housenumber" v="2405"/><tag k="addr:postcode" v="78748"/></node><node id="-19" lat="30.144438" lon="-97.843802" changeset="false"><tag k="addr:street" v="Christoff Loop"/><tag k="addr:housenumber" v="2316"/><tag k="addr:postcode" v="78748"/></node><node id="-20" lat="30.135298" lon="-97.834965" changeset="false"><tag k="addr:street" v="Lowden Lane"/><tag k="addr:housenumber" v="12607"/><tag k="addr:postcode" v="78652"/></node><node id="-21" lat="30.138051" lon="-97.83133" changeset="false"><tag k="addr:street" v="Wirth Road"/><tag k="addr:housenumber" v="12306"/><tag k="addr:postcode" v="78652"/></node><node id="-22" lat="30.147036" lon="-97.841292" changeset="false"><tag k="addr:street" v="Eruzione Drive"/><tag k="addr:housenumber" v="12008"/><tag k="addr:postcode" v="78748"/></node><node id="-23" lat="30.141382" lon="-97.842922" changeset="false"><tag k="addr:street" v="Burson Drive"/><tag k="addr:housenumber" v="12727"/><tag k="addr:postcode" v="78652"/></node><node id="-24" lat="30.142465" lon="-97.84129" changeset="false"><tag k="addr:street" v="Farm-to-Market Road 1626"/><tag k="addr:housenumber" v="1604"/><tag k="addr:postcode" v="78748"/></node><node id="-25" lat="30.130527" lon="-97.852014" changeset="false"><tag k="addr:street" v="Big Valley Drive"/><tag k="addr:housenumber" v="2000"/><tag k="addr:postcode" v="78652"/></node><node id="-26" lat="30.138635" lon="-97.831103" changeset="false"><tag k="addr:street" v="Wirth Road"/><tag k="addr:housenumber" v="12300"/><tag k="addr:postcode" v="78652"/></node><node id="-27" lat="30.145845" lon="-97.844425" changeset="false"><tag k="addr:street" v="Christoff Loop"/><tag k="addr:housenumber" v="2112"/><tag k="addr:postcode" v="78748"/></node><node id="-28" lat="30.144435" lon="-97.843971" changeset="false"><tag k="addr:street" v="Christoff Loop"/><tag k="addr:housenumber" v="2312"/><tag k="addr:postcode" v="78748"/></node><node id="-29" lat="30.144444" lon="-97.84363" changeset="false"><tag k="addr:street" v="Christoff Loop"/><tag k="addr:housenumber" v="2320"/><tag k="addr:postcode" v="78748"/></node><node id="-30" lat="30.142939" lon="-97.842194" changeset="false"><tag k="addr:street" v="Farm-to-Market Road 1626"/><tag k="addr:housenumber" v="1704"/><tag k="addr:postcode" v="78748"/></node><node id="-31" lat="30.148168" lon="-97.844129" changeset="false"><tag k="addr:street" v="Frate Barker Road"/><tag k="addr:housenumber" v="2213"/><tag k="addr:postcode" v="78748"/></node><node id="-32" lat="30.144997" lon="-97.846622" changeset="false"><tag k="addr:street" v="Hewitt Lane"/><tag k="addr:housenumber" v="12401"/><tag k="addr:postcode" v="78748"/></node><node id="-33" lat="30.13286" lon="-97.834322" changeset="false"><tag k="addr:street" v="Lowden Lane"/><tag k="addr:housenumber" v="12715"/><tag k="addr:postcode" v="78652"/></node><node id="-34" lat="30.128329" lon="-97.852847" changeset="false"><tag k="addr:street" v="Big Valley Drive"/><tag k="addr:housenumber" v="2001"/><tag k="addr:postcode" v="78652"/></node><node id="-35" lat="30.146591" lon="-97.833236" changeset="false"><tag k="addr:street" v="Manchaca Road"/><tag k="addr:housenumber" v="11832"/><tag k="addr:postcode" v="78748"/></node><node id="-36" lat="30.149301" lon="-97.838235" changeset="false"><tag k="addr:street" v="Ralph Cox Road"/><tag k="addr:housenumber" v="1808"/><tag k="addr:postcode" v="78748"/></node><node id="-37" lat="30.142204" lon="-97.840852" changeset="false"><tag k="addr:street" v="Farm-to-Market Road 1626"/><tag k="addr:housenumber" v="1600"/><tag k="addr:postcode" v="78748"/></node><node id="-38" lat="30.136941" lon="-97.836324" changeset="false"><tag k="addr:street" v="Lowden Lane"/><tag k="addr:housenumber" v="12510"/><tag k="addr:postcode" v="78652"/></node><node id="-39" lat="30.136966" lon="-97.84571" changeset="false"><tag k="addr:street" v="Bob Johnson Lane"/><tag k="addr:housenumber" v="12765"/><tag k="addr:postcode" v="78652"/></node><node id="-40" lat="30.131854" lon="-97.83519" changeset="false"><tag k="addr:street" v="Lowden Lane"/><tag k="addr:housenumber" v="12811"/><tag k="addr:postcode" v="78652"/></node><node id="-41" lat="30.145687" lon="-97.84086" changeset="false"><tag k="addr:street" v="Eruzione Drive"/><tag k="addr:housenumber" v="12109"/><tag k="addr:postcode" v="78748"/></node><node id="-42" lat="30.147043" lon="-97.846799" changeset="false"><tag k="addr:street" v="Hewitt Lane"/><tag k="addr:housenumber" v="12211"/><tag k="addr:postcode" v="78748"/></node><node id="-43" lat="30.13884" lon="-97.834665" changeset="false"><tag k="addr:street" v="Lowden Lane"/><tag k="addr:housenumber" v="12403"/><tag k="addr:postcode" v="78652"/></node><node id="-44" lat="30.144681" lon="-97.840912" changeset="false"><tag k="addr:street" v="Eruzione Drive"/><tag k="addr:housenumber" v="12209"/><tag k="addr:postcode" v="78748"/></node><node id="-45" lat="30.134522" lon="-97.83521" changeset="false"><tag k="addr:street" v="Lowden Lane"/><tag k="addr:housenumber" v="12701"/><tag k="addr:postcode" v="78652"/></node><node id="-46" lat="30.144435" lon="-97.843473" changeset="false"><tag k="addr:street" v="Christoff Loop"/><tag k="addr:housenumber" v="2400"/><tag k="addr:postcode" v="78748"/></node><node id="-47" lat="30.144423" lon="-97.84317" changeset="false"><tag k="addr:street" v="Christoff Loop"/><tag k="addr:housenumber" v="2408"/><tag k="addr:postcode" v="78748"/></node><node id="-48" lat="30.144445" lon="-97.844281" changeset="false"><tag k="addr:street" v="Christoff Loop"/><tag k="addr:housenumber" v="2304"/><tag k="addr:postcode" v="78748"/></node><node id="-49" lat="30.145887" lon="-97.841409" changeset="false"><tag k="addr:street" v="Eruzione Drive"/><tag k="addr:housenumber" v="12104"/><tag k="addr:postcode" v="78748"/></node><node id="-50" lat="30.145696" lon="-97.845004" changeset="false"><tag k="addr:street" v="Christoff Loop"/><tag k="addr:housenumber" v="2124"/><tag k="addr:postcode" v="78748"/></node><node id="-51" lat="30.144945" lon="-97.8441" changeset="false"><tag k="addr:street" v="Christoff Loop"/><tag k="addr:housenumber" v="2309"/><tag k="addr:postcode" v="78748"/></node><node id="-52" lat="30.144405" lon="-97.844637" changeset="false"><tag k="addr:street" v="Christoff Loop"/><tag k="addr:housenumber" v="2228"/><tag k="addr:postcode" v="78748"/></node><node id="-53" lat="30.136577" lon="-97.831621" changeset="false"><tag k="addr:street" v="Wirth Road"/><tag k="addr:housenumber" v="12406"/><tag k="addr:postcode" v="78652"/></node><node id="-54" lat="30.139199" lon="-97.832093" changeset="false"><tag k="addr:street" v="Deane Road"/><tag k="addr:housenumber" v="12302"/><tag k="addr:postcode" v="78652"/></node><node id="-55" lat="30.141581" lon="-97.840146" changeset="false"><tag k="addr:street" v="Farm-to-Market Road 1626"/><tag k="addr:housenumber" v="1504"/><tag k="addr:postcode" v="78748"/></node><node id="-56" lat="30.148221" lon="-97.834964" changeset="false"><tag k="addr:street" v="Manchaca Road"/><tag k="addr:housenumber" v="11740"/><tag k="addr:postcode" v="78748"/></node><node id="-57" lat="30.136152" lon="-97.848924" changeset="false"><tag k="addr:street" v="Farm-to-Market Road 1626"/><tag k="addr:housenumber" v="2101"/><tag k="addr:postcode" v="78652"/></node><node id="-58" lat="30.132887" lon="-97.854135" changeset="false"><tag k="addr:street" v="Farm-to-Market Road 1626"/><tag k="addr:housenumber" v="2145"/><tag k="addr:postcode" v="78652"/></node><node id="-59" lat="30.136337" lon="-97.846302" changeset="false"><tag k="addr:street" v="Bob Johnson Lane"/><tag k="addr:housenumber" v="12750"/><tag k="addr:postcode" v="78652"/></node><node id="-60" lat="30.140125" lon="-97.832975" changeset="false"><tag k="addr:street" v="Farm-to-Market Road 1626"/><tag k="addr:housenumber" v="1105"/><tag k="addr:postcode" v="78652"/></node><node id="-61" lat="30.14066" lon="-97.837328" changeset="false"><tag k="addr:street" v="Farm-to-Market Road 1626"/><tag k="addr:housenumber" v="1220"/><tag k="addr:postcode" v="78748"/></node><node id="-62" lat="30.144535" lon="-97.840903" changeset="false"><tag k="addr:street" v="Eruzione Drive"/><tag k="addr:housenumber" v="12213"/><tag k="addr:postcode" v="78748"/></node><node id="-63" lat="30.14431" lon="-97.841428" changeset="false"><tag k="addr:street" v="Eruzione Drive"/><tag k="addr:housenumber" v="12220"/><tag k="addr:postcode" v="78748"/></node><node id="-64" lat="30.131966" lon="-97.85576" changeset="false"><tag k="addr:street" v="Farm-to-Market Road 1626"/><tag k="addr:housenumber" v="2201"/><tag k="addr:postcode" v="78652"/></node><node id="-65" lat="30.138282" lon="-97.834665" changeset="false"><tag k="addr:street" v="Lowden Lane"/><tag k="addr:housenumber" v="12407"/><tag k="addr:postcode" v="78652"/></node><node id="-66" lat="30.145852" lon="-97.843955" changeset="false"><tag k="addr:street" v="Christoff Loop"/><tag k="addr:housenumber" v="2100"/><tag k="addr:postcode" v="78748"/></node><node id="-67" lat="30.146472" lon="-97.841354" changeset="false"><tag k="addr:street" v="Eruzione Drive"/><tag k="addr:housenumber" v="12024"/><tag k="addr:postcode" v="78748"/></node><node id="-68" lat="30.143339" lon="-97.842485" changeset="false"><tag k="addr:street" v="Rancho Alto Road"/><tag k="addr:housenumber" v="12323"/><tag k="addr:postcode" v="78748"/></node><node id="-69" lat="30.145853" lon="-97.843161" changeset="false"><tag k="addr:street" v="Christoff Loop"/><tag k="addr:housenumber" v="2008"/><tag k="addr:postcode" v="78748"/></node><node id="-70" lat="30.139344" lon="-97.847112" changeset="false"><tag k="addr:street" v="Farm-to-Market Road 1626"/><tag k="addr:housenumber" v="2051"/><tag k="addr:postcode" v="78652"/></node><node id="-71" lat="30.138637" lon="-97.832224" changeset="false"><tag k="addr:street" v="Deane Road"/><tag k="addr:housenumber" v="12312"/><tag k="addr:postcode" v="78652"/></node><node id="-72" lat="30.131185" lon="-97.836477" changeset="false"><tag k="addr:street" v="Lowden Lane"/><tag k="addr:housenumber" v="12920"/><tag k="addr:postcode" v="78652"/></node><node id="-73" lat="30.143575" lon="-97.843038" changeset="false"><tag k="addr:street" v="Rancho Alto Road"/><tag k="addr:housenumber" v="12316"/><tag k="addr:postcode" v="78748"/></node><node id="-74" lat="30.140889" lon="-97.838702" changeset="false"><tag k="addr:street" v="Farm-to-Market Road 1626"/><tag k="addr:housenumber" v="1400"/><tag k="addr:postcode" v="78748"/></node><node id="-75" lat="30.143231" lon="-97.839858" changeset="false"><tag k="addr:street" v="Edgebrook Drive"/><tag k="addr:housenumber" v="12302"/><tag k="addr:postcode" v="78748"/></node><node id="-76" lat="30.138974" lon="-97.831368" changeset="false"><tag k="addr:street" v="Deane Road"/><tag k="addr:housenumber" v="12307"/><tag k="addr:postcode" v="78652"/></node><node id="-77" lat="30.14929" lon="-97.83993" changeset="false"><tag k="addr:street" v="Ralph Cox Road"/><tag k="addr:housenumber" v="1916"/><tag k="addr:postcode" v="78748"/></node><node id="-78" lat="30.149085" lon="-97.839982" changeset="false"><tag k="addr:street" v="Ralph Cox Road"/><tag k="addr:housenumber" v="1920"/><tag k="addr:postcode" v="78748"/></node><node id="-79" lat="30.144213" lon="-97.833675" changeset="false"><tag k="addr:street" v="Manchaca Road"/><tag k="addr:housenumber" v="12000"/><tag k="addr:postcode" v="78748"/></node><node id="-80" lat="30.13291" lon="-97.836292" changeset="false"><tag k="addr:street" v="Lowden Lane"/><tag k="addr:housenumber" v="12710"/><tag k="addr:postcode" v="78652"/></node><node id="-81" lat="30.138524" lon="-97.843549" changeset="false"><tag k="addr:street" v="Brown Bear Lane"/><tag k="addr:housenumber" v="1603"/><tag k="addr:postcode" v="78652"/></node><node id="-82" lat="30.136105" lon="-97.844141" changeset="false"><tag k="addr:street" v="Panda Lane"/><tag k="addr:housenumber" v="12806"/><tag k="addr:postcode" v="78652"/></node><node id="-83" lat="30.144985" lon="-97.840151" changeset="false"><tag k="addr:street" v="Pavelich Pass"/><tag k="addr:housenumber" v="1641"/><tag k="addr:postcode" v="78748"/></node><node id="-84" lat="30.145394" lon="-97.840872" changeset="false"><tag k="addr:street" v="Eruzione Drive"/><tag k="addr:housenumber" v="12117"/><tag k="addr:postcode" v="78748"/></node><node id="-85" lat="30.132072" lon="-97.855584" changeset="false"><tag k="addr:street" v="Farm-to-Market Road 1626"/><tag k="addr:housenumber" v="2203"/><tag k="addr:postcode" v="78652"/></node><node id="-86" lat="30.14585" lon="-97.843011" changeset="false"><tag k="addr:street" v="Christoff Loop"/><tag k="addr:housenumber" v="2004"/><tag k="addr:postcode" v="78748"/></node><node id="-87" lat="30.144447" lon="-97.844872" changeset="false"><tag k="addr:street" v="Christoff Loop"/><tag k="addr:housenumber" v="2224"/><tag k="addr:postcode" v="78748"/></node><node id="-88" lat="30.148939" lon="-97.842248" changeset="false"><tag k="addr:street" v="Rancho Alto Road"/><tag k="addr:housenumber" v="11913"/><tag k="addr:postcode" v="78748"/></node><node id="-89" lat="30.14585" lon="-97.843319" changeset="false"><tag k="addr:street" v="Christoff Loop"/><tag k="addr:housenumber" v="2012"/><tag k="addr:postcode" v="78748"/></node><node id="-90" lat="30.145852" lon="-97.843804" changeset="false"><tag k="addr:street" v="Christoff Loop"/><tag k="addr:housenumber" v="2024"/><tag k="addr:postcode" v="78748"/></node><node id="-91" lat="30.144939" lon="-97.843639" changeset="false"><tag k="addr:street" v="Christoff Loop"/><tag k="addr:housenumber" v="2321"/><tag k="addr:postcode" v="78748"/></node><node id="-92" lat="30.144936" lon="-97.843153" changeset="false"><tag k="addr:street" v="Christoff Loop"/><tag k="addr:housenumber" v="2409"/><tag k="addr:postcode" v="78748"/></node><node id="-93" lat="30.144423" lon="-97.842833" changeset="false"><tag k="addr:street" v="Christoff Loop"/><tag k="addr:housenumber" v="2416"/><tag k="addr:postcode" v="78748"/></node><node id="-94" lat="30.138912" lon="-97.832048" changeset="false"><tag k="addr:street" v="Deane Road"/><tag k="addr:housenumber" v="12308"/><tag k="addr:postcode" v="78652"/></node><node id="-95" lat="30.132385" lon="-97.833715" changeset="false"><tag k="addr:street" v="Lowden Lane"/><tag k="addr:housenumber" v="12807"/><tag k="addr:postcode" v="78652"/></node><node id="-96" lat="30.142379" lon="-97.844759" changeset="false"><tag k="addr:street" v="Farm-to-Market Road 1626"/><tag k="addr:housenumber" v="1904"/><tag k="addr:postcode" v="78748"/></node><node id="-97" lat="30.146566" lon="-97.840846" changeset="false"><tag k="addr:street" v="Eruzione Drive"/><tag k="addr:housenumber" v="12021"/><tag k="addr:postcode" v="78748"/></node><node id="-98" lat="30.145852" lon="-97.84347" changeset="false"><tag k="addr:street" v="Christoff Loop"/><tag k="addr:housenumber" v="2016"/><tag k="addr:postcode" v="78748"/></node><node id="-99" lat="30.145852" lon="-97.843631" changeset="false"><tag k="addr:street" v="Christoff Loop"/><tag k="addr:housenumber" v="2020"/><tag k="addr:postcode" v="78748"/></node><node id="-100" lat="30.144942" lon="-97.8438" changeset="false"><tag k="addr:street" v="Christoff Loop"/><tag k="addr:housenumber" v="2317"/><tag k="addr:postcode" v="78748"/></node><node id="-101" lat="30.13757" lon="-97.845692" changeset="false"><tag k="addr:street" v="Bob Johnson Lane"/><tag k="addr:housenumber" v="12749"/><tag k="addr:postcode" v="78652"/></node><node id="-102" lat="30.144448" lon="-97.844113" changeset="false"><tag k="addr:street" v="Christoff Loop"/><tag k="addr:housenumber" v="2308"/><tag k="addr:postcode" v="78748"/></node><node id="-103" lat="30.144939" lon="-97.843961" changeset="false"><tag k="addr:street" v="Christoff Loop"/><tag k="addr:housenumber" v="2313"/><tag k="addr:postcode" v="78748"/></node><node id="-104" lat="30.144926" lon="-97.842985" changeset="false"><tag k="addr:street" v="Christoff Loop"/><tag k="addr:housenumber" v="2413"/><tag k="addr:postcode" v="78748"/></node><node id="-105" lat="30.14442" lon="-97.843009" changeset="false"><tag k="addr:street" v="Christoff Loop"/><tag k="addr:housenumber" v="2412"/><tag k="addr:postcode" v="78748"/></node><node id="-106" lat="30.147337" lon="-97.841272" changeset="false"><tag k="addr:street" v="Eruzione Drive"/><tag k="addr:housenumber" v="12000"/><tag k="addr:postcode" v="78748"/></node><node id="-107" lat="30.139567" lon="-97.831316" changeset="false"><tag k="addr:street" v="Briggs Drive"/><tag k="addr:housenumber" v="807"/><tag k="addr:postcode" v="78652"/></node><node id="-108" lat="30.149305" lon="-97.838418" changeset="false"><tag k="addr:street" v="Ralph Cox Road"/><tag k="addr:housenumber" v="1812"/><tag k="addr:postcode" v="78748"/></node><node id="-109" lat="30.140346" lon="-97.830832" changeset="false"><tag k="addr:street" v="Farm-to-Market Road 1626"/><tag k="addr:housenumber" v="911"/><tag k="addr:postcode" v="78652"/></node><node id="-110" lat="30.145177" lon="-97.841405" changeset="false"><tag k="addr:street" v="Eruzione Drive"/><tag k="addr:housenumber" v="12124"/><tag k="addr:postcode" v="78748"/></node><node id="-111" lat="30.145846" lon="-97.842819" changeset="false"><tag k="addr:street" v="Christoff Loop"/><tag k="addr:housenumber" v="2000"/><tag k="addr:postcode" v="78748"/></node><node id="-112" lat="30.145842" lon="-97.84412" changeset="false"><tag k="addr:street" v="Christoff Loop"/><tag k="addr:housenumber" v="2104"/><tag k="addr:postcode" v="78748"/></node><node id="-113" lat="30.148102" lon="-97.83722" changeset="false"><tag k="addr:street" v="Manchaca Road"/><tag k="addr:housenumber" v="11744"/><tag k="addr:postcode" v="78748"/></node><node id="-114" lat="30.146652" lon="-97.83324" changeset="false"><tag k="addr:street" v="Manchaca Road"/><tag k="addr:housenumber" v="11828"/><tag k="addr:postcode" v="78748"/></node><node id="-115" lat="30.145842" lon="-97.844267" changeset="false"><tag k="addr:street" v="Christoff Loop"/><tag k="addr:housenumber" v="2108"/><tag k="addr:postcode" v="78748"/></node><node id="-116" lat="30.142017" lon="-97.839044" changeset="false"><tag k="addr:street" v="Edgebrook Drive"/><tag k="addr:housenumber" v="12305"/><tag k="addr:postcode" v="78748"/></node><node id="-117" lat="30.14548" lon="-97.839678" changeset="false"><tag k="addr:street" v="Pavelich Pass"/><tag k="addr:housenumber" v="1628"/><tag k="addr:postcode" v="78748"/></node><node id="-118" lat="30.145029" lon="-97.839181" changeset="false"><tag k="addr:street" v="Pavelich Pass"/><tag k="addr:housenumber" v="1617"/><tag k="addr:postcode" v="78748"/></node><node id="-119" lat="30.144452" lon="-97.841429" changeset="false"><tag k="addr:street" v="Eruzione Drive"/><tag k="addr:housenumber" v="12216"/><tag k="addr:postcode" v="78748"/></node><node id="-120" lat="30.141115" lon="-97.838398" changeset="false"><tag k="addr:street" v="Farm-to-Market Road 1626"/><tag k="addr:housenumber" v="1310"/><tag k="addr:postcode" v="78748"/></node><node id="-121" lat="30.146364" lon="-97.846127" changeset="false"><tag k="addr:street" v="Hewitt Lane"/><tag k="addr:housenumber" v="12333"/><tag k="addr:postcode" v="78748"/></node><node id="-122" lat="30.131886" lon="-97.836378" changeset="false"><tag k="addr:street" v="Lowden Lane"/><tag k="addr:housenumber" v="12900"/><tag k="addr:postcode" v="78652"/></node><node id="-123" lat="30.140989" lon="-97.833378" changeset="false"><tag k="addr:street" v="Manchaca Road"/><tag k="addr:housenumber" v="12222"/><tag k="addr:postcode" v="78748"/></node><node id="-124" lat="30.140032" lon="-97.836477" changeset="false"><tag k="addr:street" v="Farm-to-Market Road 1626"/><tag k="addr:housenumber" v="1215"/><tag k="addr:postcode" v="78652"/></node><node id="-125" lat="30.130567" lon="-97.854908" changeset="false"><tag k="addr:street" v="Big Valley Drive"/><tag k="addr:housenumber" v="2102"/><tag k="addr:postcode" v="78652"/></node><node id="-126" lat="30.146831" lon="-97.833495" changeset="false"><tag k="addr:street" v="Manchaca Road"/><tag k="addr:housenumber" v="11810"/><tag k="addr:postcode" v="78748"/></node><node id="-127" lat="30.137138" lon="-97.831474" changeset="false"><tag k="addr:street" v="Wirth Road"/><tag k="addr:housenumber" v="12400"/><tag k="addr:postcode" v="78652"/></node><node id="-128" lat="30.148956" lon="-97.843137" changeset="false"><tag k="addr:street" v="Frate Barker Road"/><tag k="addr:housenumber" v="2119"/><tag k="addr:postcode" v="78748"/></node><node id="-129" lat="30.120767" lon="-97.832559" changeset="false"><tag k="addr:street" v="Horsethief Trail"/><tag k="addr:housenumber" v="506"/><tag k="addr:postcode" v="78652"/></node><node id="-130" lat="30.14277" lon="-97.838932" changeset="false"><tag k="addr:street" v="Edgebrook Drive"/><tag k="addr:housenumber" v="12301"/><tag k="addr:postcode" v="78748"/></node><node id="-131" lat="30.141801" lon="-97.840474" changeset="false"><tag k="addr:street" v="Farm-to-Market Road 1626"/><tag k="addr:housenumber" v="1510"/><tag k="addr:postcode" v="78748"/></node><node id="-132" lat="30.135811" lon="-97.835499" changeset="false"><tag k="addr:street" v="Lowden Lane"/><tag k="addr:housenumber" v="12421"/><tag k="addr:postcode" v="78652"/></node><node id="-133" lat="30.145822" lon="-97.840878" changeset="false"><tag k="addr:street" v="Eruzione Drive"/><tag k="addr:housenumber" v="12105"/><tag k="addr:postcode" v="78748"/></node><node id="-134" lat="30.142735" lon="-97.841768" changeset="false"><tag k="addr:street" v="Farm-to-Market Road 1626"/><tag k="addr:housenumber" v="1700"/><tag k="addr:postcode" v="78748"/></node><node id="-135" lat="30.146897" lon="-97.841303" changeset="false"><tag k="addr:street" v="Eruzione Drive"/><tag k="addr:housenumber" v="12012"/><tag k="addr:postcode" v="78748"/></node><node id="-136" lat="30.145477" lon="-97.839362" changeset="false"><tag k="addr:street" v="Pavelich Pass"/><tag k="addr:housenumber" v="1620"/><tag k="addr:postcode" v="78748"/></node><node id="-137" lat="30.138066" lon="-97.84169" changeset="false"><tag k="addr:street" v="Burson Drive"/><tag k="addr:housenumber" v="12704"/><tag k="addr:postcode" v="78652"/></node><node id="-138" lat="30.145752" lon="-97.841404" changeset="false"><tag k="addr:street" v="Eruzione Drive"/><tag k="addr:housenumber" v="12108"/><tag k="addr:postcode" v="78748"/></node><node id="-139" lat="30.145617" lon="-97.841416" changeset="false"><tag k="addr:street" v="Eruzione Drive"/><tag k="addr:housenumber" v="12112"/><tag k="addr:postcode" v="78748"/></node><node id="-140" lat="30.145267" lon="-97.840897" changeset="false"><tag k="addr:street" v="Eruzione Drive"/><tag k="addr:housenumber" v="12121"/><tag k="addr:postcode" v="78748"/></node><node id="-141" lat="30.14505" lon="-97.841413" changeset="false"><tag k="addr:street" v="Eruzione Drive"/><tag k="addr:housenumber" v="12200"/><tag k="addr:postcode" v="78748"/></node><node id="-142" lat="30.140936" lon="-97.837968" changeset="false"><tag k="addr:street" v="Farm-to-Market Road 1626"/><tag k="addr:housenumber" v="1304"/><tag k="addr:postcode" v="78748"/></node><node id="-143" lat="30.140963" lon="-97.838052" changeset="false"><tag k="addr:street" v="Farm-to-Market Road 1626"/><tag k="addr:housenumber" v="1308"/><tag k="addr:postcode" v="78748"/></node><node id="-144" lat="30.145018" lon="-97.839808" changeset="false"><tag k="addr:street" v="Pavelich Pass"/><tag k="addr:housenumber" v="1633 1/2"/><tag k="addr:postcode" v="78748"/></node><node id="-145" lat="30.14503" lon="-97.839822" changeset="false"><tag k="addr:street" v="Pavelich Pass"/><tag k="addr:housenumber" v="1633"/><tag k="addr:postcode" v="78748"/></node></osm>